{"type": "FeatureCollection", "features": [{"type": "Feature", "properties": {"shapefile": "al092021-014_5day_pgn", "STORMNAME": "Ida", "STORMTYPE": "HU", "ADVDATE": "1000 AM CDT Sun Aug 29 2021", "ADVISNUM": "14", "STORMNUM": 9, "FCSTPRD": 120, "BASIN": "AL"}, "geometry": {"type": "Polygon", "coordinates": [[[-90.07977, 28.54774], [-90.04814, 28.54336], [-90.01424, 28.54196], [-89.97859, 28.54336], [-89.94276, 28.54774], [-89.90782, 28.55509], [-89.87462, 28.56524], [-89.84404, 28.57837], [-89.80331, 28.60323], [-89.77991, 28.62354], [-89.75964, 28.64699], [-89.735, 28.6876], [-89.72259, 28.71754], [-89.71403, 28.74957], [-89.70948, 28.78283], [-89.70948, 28.81644], [-89.71385, 28.84987], [-89.72171, 28.88261], [-89.73254, 28.91412], [-89.74548, 28.94457], [-89.75928, 28.97451], [-89.77361, 29.00391], [-89.7883, 29.03297], [-89.8028, 29.06221], [-89.8173, 29.09144], [-89.83215, 29.12032], [-89.84718, 29.14903], [-89.86256, 29.17739], [-89.87863, 29.20505], [-89.89523, 29.23218], [-89.91202, 29.25914], [-89.92879, 29.28609], [-89.94539, 29.31323], [-89.96146, 29.34089], [-89.97684, 29.36924], [-89.99187, 29.39795], [-90.0069, 29.42666], [-90.02193, 29.45537], [-90.03731, 29.48372], [-90.05339, 29.51138], [-90.06999, 29.53851], [-90.08677, 29.56547], [-90.10337, 29.59261], [-90.11945, 29.62026], [-90.13465, 29.6488], [-90.14862, 29.67855], [-90.16156, 29.70936], [-90.17415, 29.74052], [-90.18655, 29.77185], [-90.19878, 29.80336], [-90.21136, 29.83452], [-90.22429, 29.86533], [-90.23688, 29.89649], [-90.24893, 29.92817], [-90.26064, 29.9602], [-90.27148, 29.99311], [-90.28091, 30.02742], [-90.28895, 30.06313], [-90.29541, 30.10042], [-90.30013, 30.13945], [-90.30363, 30.17971], [-90.30677, 30.22033], [-90.31026, 30.26059], [-90.3148, 30.2998], [-90.32058, 30.33778], [-90.32703, 30.37507], [-90.33351, 30.41236], [-90.33927, 30.45034], [-90.34364, 30.48973], [-90.34644, 30.53069], [-90.34801, 30.57287], [-90.34871, 30.61593], [-90.34888, 30.65952], [-90.34888, 30.70328], [-90.34888, 30.74705], [-90.34871, 30.79063], [-90.34801, 30.83369], [-90.34644, 30.87588], [-90.34364, 30.91684], [-90.33928, 30.95623], [-90.33351, 30.99422], [-90.32704, 31.0315], [-90.3204, 31.06861], [-90.31393, 31.1059], [-90.30799, 31.14371], [-90.3024, 31.18187], [-90.29629, 31.2195], [-90.28912, 31.25609], [-90.28091, 31.29162], [-90.27165, 31.32611], [-90.26134, 31.35954], [-90.2505, 31.39245], [-90.23967, 31.42536], [-90.22866, 31.45809], [-90.21713, 31.4903], [-90.20525, 31.52216], [-90.19301, 31.55367], [-90.17991, 31.5843], [-90.1661, 31.61423], [-90.15211, 31.64399], [-90.13779, 31.6734], [-90.13046, 31.68793], [-90.10861, 31.73169], [-90.09411, 31.76093], [-90.07943, 31.78999], [-90.06493, 31.81922], [-90.05042, 31.84845], [-90.03557, 31.87733], [-90.02053, 31.90604], [-90.00516, 31.9344], [-89.98908, 31.96206], [-89.97247, 31.98919], [-89.95552, 32.01597], [-89.93822, 32.0424], [-89.92058, 32.06849], [-89.90258, 32.09422], [-89.88423, 32.1196], [-89.86553, 32.14463], [-89.84648, 32.16932], [-89.82744, 32.194], [-89.80874, 32.21903], [-89.79021, 32.24424], [-89.77169, 32.26944], [-89.75299, 32.29448], [-89.73376, 32.31898], [-89.72398, 32.33106], [-89.69288, 32.36554], [-89.68239, 32.37692], [-89.64989, 32.41], [-89.62805, 32.43188], [-89.61703, 32.44274], [-89.59538, 32.46479], [-89.57335, 32.4865], [-89.55168, 32.50856], [-89.51883, 32.54129], [-89.508, 32.55232], [-89.48598, 32.57402], [-89.46431, 32.59608], [-89.44228, 32.61779], [-89.42062, 32.63984], [-89.39859, 32.66155], [-89.37693, 32.68361], [-89.3549, 32.70531], [-89.33324, 32.72737], [-89.31122, 32.74907], [-89.28955, 32.77113], [-89.26753, 32.79284], [-89.24587, 32.81489], [-89.22385, 32.8366], [-89.20219, 32.85865], [-89.18016, 32.88036], [-89.15849, 32.90242], [-89.12547, 32.93497], [-89.11446, 32.94583], [-89.09174, 32.96684], [-89.06868, 32.98749], [-89.04456, 33.0071], [-89.01974, 33.026], [-88.99458, 33.04456], [-88.957, 33.07256], [-88.9446, 33.08201], [-88.92049, 33.10162], [-88.89706, 33.12193], [-88.87365, 33.14223], [-88.85023, 33.16254], [-88.82612, 33.18214], [-88.80132, 33.20105], [-88.77615, 33.2196], [-88.75098, 33.23816], [-88.72617, 33.25706], [-88.70206, 33.27667], [-88.67863, 33.29697], [-88.65521, 33.31728], [-88.63181, 33.33759], [-88.60768, 33.35719], [-88.58287, 33.3761], [-88.55736, 33.39431], [-88.53149, 33.41216], [-88.50528, 33.42966], [-88.47906, 33.44717], [-88.45286, 33.46467], [-88.42699, 33.48252], [-88.40148, 33.50073], [-88.37631, 33.51929], [-88.3515, 33.5382], [-88.32704, 33.55745], [-88.30222, 33.57635], [-88.27707, 33.59491], [-88.25154, 33.61312], [-88.22569, 33.63097], [-88.19947, 33.64848], [-88.17326, 33.66598], [-88.14704, 33.68348], [-88.12083, 33.70099], [-88.09462, 33.71849], [-88.06841, 33.736], [-88.04184, 33.75315], [-88.01494, 33.76996], [-87.98767, 33.78641], [-87.96007, 33.80252], [-87.9321, 33.81827], [-87.9045, 33.83437], [-87.87723, 33.85083], [-87.85031, 33.86764], [-87.82341, 33.88444], [-87.7965, 33.90125], [-87.76924, 33.9177], [-87.74163, 33.9338], [-87.71367, 33.94956], [-87.68605, 33.96566], [-87.65878, 33.98212], [-87.63187, 33.99892], [-87.60497, 34.01572], [-87.57806, 34.03253], [-87.5508, 34.04898], [-87.52284, 34.06474], [-87.49417, 34.0798], [-87.46552, 34.09485], [-87.43652, 34.10955], [-87.40716, 34.12391], [-87.39265, 34.13126], [-87.34914, 34.15331], [-87.31978, 34.16767], [-87.29077, 34.18237], [-87.26176, 34.19707], [-87.2324, 34.21143], [-87.2034, 34.22613], [-87.17439, 34.24083], [-87.14503, 34.25519], [-87.11602, 34.26989], [-87.08701, 34.2846], [-87.05766, 34.29895], [-87.02866, 34.31365], [-86.99964, 34.32836], [-86.97028, 34.34271], [-86.94128, 34.35741], [-86.91226, 34.37212], [-86.89742, 34.37912], [-86.85285, 34.40013], [-86.82279, 34.41378], [-86.80724, 34.42009], [-86.77596, 34.43251], [-86.72913, 34.45125], [-86.7134, 34.45737], [-86.68211, 34.4698], [-86.65154, 34.48293], [-86.62166, 34.49676], [-86.59195, 34.51076], [-86.54809, 34.53246], [-86.51907, 34.54717], [-86.50423, 34.55417], [-86.47452, 34.56818], [-86.44464, 34.58201], [-86.41405, 34.59513], [-86.38278, 34.60756], [-86.35149, 34.62], [-86.30449, 34.63855], [-86.28893, 34.64485], [-86.25835, 34.65798], [-86.22847, 34.67181], [-86.19859, 34.68563], [-86.15385, 34.70647], [-86.13882, 34.71329], [-86.0927, 34.73272], [-86.07697, 34.73885], [-86.04568, 34.75128], [-86.0144, 34.76371], [-85.98296, 34.77596], [-85.93647, 34.79504], [-85.9057, 34.80799], [-85.88998, 34.81412], [-85.85852, 34.82637], [-85.82724, 34.8388], [-85.78024, 34.85736], [-85.76451, 34.86349], [-85.71803, 34.88256], [-85.68727, 34.89552], [-85.67154, 34.90164], [-85.64009, 34.91389], [-85.59325, 34.93263], [-85.57753, 34.93875], [-85.53035, 34.95713], [-85.51497, 34.96361], [-85.46883, 34.98304], [-85.45311, 34.98917], [-85.42165, 35.00142], [-85.37482, 35.02015], [-85.35909, 35.02628], [-85.3119, 35.04466], [-85.29652, 35.05113], [-85.2504, 35.07056], [-85.23466, 35.07669], [-85.20304, 35.08877], [-85.17123, 35.10067], [-85.12283, 35.11783], [-85.10641, 35.12325], [-85.05748, 35.13988], [-85.04157, 35.14584], [-85.00977, 35.15774], [-84.97813, 35.16982], [-84.94703, 35.18242], [-84.91628, 35.19537], [-84.88516, 35.20798], [-84.85354, 35.22005], [-84.82173, 35.23196], [-84.78958, 35.24352], [-84.7569, 35.25454], [-84.72406, 35.2654], [-84.69138, 35.27642], [-84.65869, 35.28745], [-84.62584, 35.2983], [-84.59316, 35.30933], [-84.5451, 35.32684], [-84.52921, 35.33279], [-84.49757, 35.34486], [-84.46647, 35.35747], [-84.42033, 35.3769], [-84.40461, 35.38303], [-84.37298, 35.3951], [-84.32527, 35.41296], [-84.30902, 35.41856], [-84.27634, 35.42959], [-84.24348, 35.44044], [-84.21081, 35.45147], [-84.16171, 35.46793], [-84.14528, 35.47335], [-84.11243, 35.48421], [-84.07975, 35.49523], [-84.04707, 35.50626], [-84.01422, 35.51711], [-83.98137, 35.52797], [-83.94868, 35.53899], [-83.89958, 35.55545], [-83.88316, 35.56087], [-83.85031, 35.57173], [-83.80138, 35.58836], [-83.78494, 35.59378], [-83.7521, 35.60464], [-83.71924, 35.61549], [-83.68639, 35.62634], [-83.65318, 35.63685], [-83.60251, 35.65173], [-83.58539, 35.65645], [-83.55096, 35.66573], [-83.51636, 35.67483], [-83.48193, 35.68411], [-83.44785, 35.69374], [-83.41413, 35.70372], [-83.38092, 35.71422], [-83.33165, 35.7305], [-83.31522, 35.73592], [-83.28236, 35.74678], [-83.24969, 35.7578], [-83.21701, 35.76883], [-83.18416, 35.77969], [-83.15131, 35.79054], [-83.11845, 35.80139], [-83.08525, 35.8119], [-83.05153, 35.82188], [-83.01745, 35.8315], [-82.98302, 35.84078], [-82.94843, 35.84988], [-82.914, 35.85916], [-82.87991, 35.86879], [-82.84619, 35.87877], [-82.81299, 35.88927], [-82.78014, 35.90012], [-82.74728, 35.91097], [-82.71443, 35.92183], [-82.68158, 35.93268], [-82.64838, 35.94318], [-82.61465, 35.95316], [-82.58057, 35.96279], [-82.54615, 35.97206], [-82.51155, 35.98117], [-82.45999, 35.99517], [-82.44305, 36.00007], [-82.40932, 36.01005], [-82.37611, 36.02055], [-82.34326, 36.03141], [-82.31041, 36.04226], [-82.27756, 36.05312], [-82.24471, 36.06396], [-82.2115, 36.07447], [-82.17777, 36.08445], [-82.1437, 36.09407], [-82.10927, 36.10335], [-82.07468, 36.11245], [-82.04025, 36.12173], [-82.00618, 36.13136], [-81.97244, 36.14134], [-81.93907, 36.15166], [-81.90569, 36.16199], [-81.87196, 36.17197], [-81.82076, 36.18633], [-81.80347, 36.19088], [-81.76869, 36.19981], [-81.73357, 36.20838], [-81.69809, 36.21661], [-81.66227, 36.22449], [-81.6261, 36.23201], [-81.58957, 36.23919], [-81.55305, 36.24637], [-81.51671, 36.25372], [-81.48035, 36.26107], [-81.444, 36.26842], [-81.40765, 36.27578], [-81.37113, 36.28295], [-81.33461, 36.29013], [-81.29844, 36.29765], [-81.26261, 36.30553], [-81.22714, 36.31376], [-81.19202, 36.32233], [-81.15707, 36.33109], [-81.12195, 36.33967], [-81.08647, 36.34789], [-81.05064, 36.35577], [-81.01447, 36.3633], [-80.97794, 36.37048], [-80.94142, 36.37766], [-80.90508, 36.385], [-80.86873, 36.39236], [-80.83237, 36.39971], [-80.79604, 36.40706], [-80.75951, 36.41424], [-80.72299, 36.42142], [-80.68681, 36.42894], [-80.65099, 36.43682], [-80.61552, 36.44505], [-80.5804, 36.45362], [-80.54544, 36.46238], [-80.51031, 36.47095], [-80.47484, 36.47918], [-80.43901, 36.48706], [-80.40285, 36.49459], [-80.36632, 36.50176], [-80.3298, 36.50894], [-80.29362, 36.51646], [-80.2578, 36.52435], [-80.22233, 36.53257], [-80.18721, 36.54115], [-80.15226, 36.5499], [-80.11713, 36.55848], [-80.08166, 36.5667], [-80.04582, 36.57458], [-80.00966, 36.58211], [-79.97314, 36.58929], [-79.93661, 36.59647], [-79.90026, 36.60381], [-79.86391, 36.61117], [-79.82757, 36.61852], [-79.79122, 36.62587], [-79.7547, 36.63305], [-79.71818, 36.64023], [-79.68201, 36.64775], [-79.64618, 36.65563], [-79.6107, 36.66386], [-79.55811, 36.67681], [-79.54063, 36.68119], [-79.50549, 36.68977], [-79.47003, 36.69799], [-79.4342, 36.70587], [-79.39803, 36.7134], [-79.36151, 36.72057], [-79.32499, 36.72775], [-79.28864, 36.7351], [-79.25229, 36.74245], [-79.21595, 36.74981], [-79.1796, 36.75716], [-79.14307, 36.76434], [-79.10655, 36.77151], [-79.07038, 36.77904], [-79.03455, 36.78692], [-78.99908, 36.79514], [-78.96396, 36.80372], [-78.929, 36.81248], [-78.89388, 36.82105], [-78.85841, 36.82928], [-78.82259, 36.83716], [-78.78642, 36.84468], [-78.74989, 36.85186], [-78.71336, 36.85904], [-78.67719, 36.86656], [-78.64137, 36.87444], [-78.6059, 36.88267], [-78.57077, 36.89124], [-78.53581, 36.89999], [-78.50069, 36.90858], [-78.46523, 36.9168], [-78.4294, 36.92468], [-78.39323, 36.93221], [-78.3567, 36.93938], [-78.32018, 36.94656], [-78.28401, 36.95409], [-78.24818, 36.96196], [-78.21271, 36.97019], [-78.17758, 36.97877], [-78.14263, 36.98752], [-78.10751, 36.99609], [-78.07204, 37.00433], [-78.03621, 37.0122], [-78.00005, 37.01973], [-77.96352, 37.0269], [-77.92699, 37.03408], [-77.89082, 37.04161], [-77.855, 37.04948], [-77.81953, 37.05771], [-77.78439, 37.06629], [-77.74945, 37.07504], [-77.71432, 37.08362], [-77.67885, 37.09185], [-77.64302, 37.09972], [-77.60686, 37.10725], [-77.57033, 37.11443], [-77.53381, 37.1216], [-77.49763, 37.12914], [-77.46181, 37.13701], [-77.42635, 37.14524], [-77.39121, 37.15382], [-77.35626, 37.16257], [-77.3213, 37.17132], [-77.28636, 37.18007], [-77.25141, 37.18882], [-77.21646, 37.19758], [-77.1815, 37.20633], [-77.14639, 37.2149], [-77.11092, 37.22314], [-77.07509, 37.23101], [-77.03893, 37.23854], [-77.0024, 37.24571], [-76.96587, 37.25289], [-76.9297, 37.26042], [-76.89388, 37.2683], [-76.8584, 37.27652], [-76.82327, 37.2851], [-76.78832, 37.29385], [-76.7532, 37.30243], [-76.71773, 37.31066], [-76.6819, 37.31853], [-76.64574, 37.32606], [-76.60921, 37.33324], [-76.57269, 37.34042], [-76.53651, 37.34795], [-76.50069, 37.35582], [-76.46522, 37.36405], [-76.43008, 37.37263], [-76.37767, 37.38575], [-76.36018, 37.39013], [-76.32524, 37.39888], [-76.29029, 37.40763], [-76.25534, 37.41639], [-76.22038, 37.42514], [-76.18526, 37.43372], [-76.1498, 37.44195], [-76.11397, 37.44982], [-76.0778, 37.45735], [-76.04127, 37.46452], [-76.00475, 37.4717], [-75.96857, 37.47923], [-75.93275, 37.48711], [-75.89728, 37.49533], [-75.86215, 37.50391], [-75.82719, 37.51266], [-75.79225, 37.52142], [-75.75731, 37.53017], [-75.72236, 37.53892], [-75.68741, 37.54768], [-75.65245, 37.55643], [-75.61751, 37.56518], [-75.58255, 37.57393], [-75.54761, 37.58268], [-75.51265, 37.59143], [-75.4777, 37.60019], [-75.44275, 37.60894], [-75.4078, 37.61769], [-75.37285, 37.62644], [-75.33791, 37.63519], [-75.30296, 37.64394], [-75.26782, 37.65253], [-75.23236, 37.66076], [-75.19653, 37.66863], [-75.16036, 37.67616], [-75.12384, 37.68333], [-75.08731, 37.69051], [-75.05113, 37.69804], [-75.01532, 37.70592], [-74.97984, 37.71414], [-74.94472, 37.72272], [-74.90977, 37.73147], [-74.87482, 37.74022], [-74.83987, 37.74898], [-74.80492, 37.75773], [-74.76997, 37.76648], [-74.73502, 37.77523], [-74.70007, 37.78399], [-74.66512, 37.79274], [-74.63017, 37.80149], [-74.59521, 37.81024], [-74.56026, 37.81899], [-74.52531, 37.82775], [-74.49037, 37.8365], [-74.45542, 37.84525], [-74.42047, 37.854], [-74.38552, 37.86275], [-74.35057, 37.87151], [-74.31563, 37.88026], [-74.28068, 37.88902], [-74.24573, 37.89777], [-74.21077, 37.90652], [-74.17582, 37.91527], [-74.14087, 37.92403], [-74.10592, 37.93278], [-74.07097, 37.94153], [-74.03603, 37.95028], [-74.00107, 37.95903], [-73.96613, 37.96779], [-73.93117, 37.97654], [-73.89622, 37.98529], [-73.86127, 37.99404], [-73.82632, 38.0028], [-73.79137, 38.01155], [-73.75642, 38.0203], [-73.72147, 38.02905], [-73.68652, 38.0378], [-73.65157, 38.04656], [-73.61662, 38.05531], [-73.58167, 38.06406], [-73.54672, 38.07281], [-73.51176, 38.08157], [-73.47682, 38.09032], [-73.44188, 38.09908], [-73.40692, 38.10783], [-73.37198, 38.11658], [-73.33702, 38.12533], [-73.30208, 38.13408], [-73.26712, 38.14284], [-73.23216, 38.15159], [-73.19722, 38.16034], [-73.16227, 38.16909], [-73.12732, 38.17785], [-73.09237, 38.1866], [-73.05742, 38.19535], [-73.02248, 38.2041], [-72.98753, 38.21285], [-72.95258, 38.22161], [-72.91763, 38.23036], [-72.88268, 38.23911], [-72.84773, 38.24786], [-72.81277, 38.25661], [-72.77782, 38.26537], [-72.74287, 38.27412], [-72.69044, 38.28725], [-72.67297, 38.29163], [-72.6382, 38.30055], [-72.60378, 38.30983], [-72.5697, 38.31946], [-72.53597, 38.32944], [-72.50259, 38.33977], [-72.46922, 38.3501], [-72.43549, 38.36007], [-72.40141, 38.3697], [-72.36699, 38.37897], [-72.33221, 38.3879], [-72.29726, 38.39666], [-72.26231, 38.40541], [-72.22736, 38.41416], [-72.19241, 38.42291], [-72.15746, 38.43166], [-72.12251, 38.44042], [-72.08757, 38.44917], [-72.05261, 38.45792], [-72.01767, 38.46667], [-71.98289, 38.4756], [-71.94846, 38.48488], [-71.91438, 38.49451], [-71.88066, 38.50449], [-71.84728, 38.51482], [-71.8139, 38.52515], [-71.78018, 38.53512], [-71.7461, 38.54475], [-71.71168, 38.55402], [-71.6769, 38.56295], [-71.64195, 38.5717], [-71.60701, 38.58046], [-71.57206, 38.58921], [-71.53711, 38.59796], [-71.50233, 38.60689], [-71.4679, 38.61617], [-71.43382, 38.6258], [-71.4001, 38.63577], [-71.36671, 38.6461], [-71.33334, 38.65643], [-71.29962, 38.66641], [-71.26554, 38.67604], [-71.23111, 38.68531], [-71.19633, 38.69424], [-71.16139, 38.70299], [-71.12644, 38.71175], [-71.09149, 38.7205], [-71.05654, 38.72925], [-71.02177, 38.73817], [-70.98734, 38.74746], [-70.95326, 38.75708], [-70.91954, 38.76706], [-70.88615, 38.77739], [-70.85278, 38.78772], [-70.81906, 38.7977], [-70.78498, 38.80732], [-70.75056, 38.8166], [-70.71596, 38.8257], [-70.68153, 38.83498], [-70.64746, 38.84461], [-70.61372, 38.85458], [-70.56375, 38.87017], [-70.54697, 38.87524], [-70.51324, 38.88522], [-70.47916, 38.89485], [-70.44474, 38.90412], [-70.41014, 38.91322], [-70.37572, 38.9225], [-70.34164, 38.93213], [-70.30791, 38.94211], [-70.27454, 38.95244], [-70.24117, 38.96277], [-70.20744, 38.97274], [-70.17336, 38.98237], [-70.13893, 38.99165], [-70.10433, 39.00075], [-70.0699, 39.01003], [-70.03583, 39.01966], [-70.0021, 39.02963], [-69.9689, 39.04014], [-69.93605, 39.05099], [-69.9032, 39.06184], [-69.85391, 39.07812], [-69.83749, 39.08355], [-69.80429, 39.09406], [-69.77055, 39.10403], [-69.73648, 39.11366], [-69.70206, 39.12293], [-69.66747, 39.13203], [-69.63303, 39.14132], [-69.59895, 39.15094], [-69.56523, 39.16092], [-69.53185, 39.17125], [-69.49847, 39.18158], [-69.46475, 39.19156], [-69.43067, 39.20118], [-69.39625, 39.21046], [-69.36165, 39.21956], [-69.32722, 39.22884], [-69.29315, 39.23847], [-69.25941, 39.24844], [-69.22621, 39.25895], [-69.19336, 39.2698], [-69.16051, 39.28065], [-69.12766, 39.29151], [-69.0948, 39.30236], [-69.0616, 39.31287], [-69.02787, 39.32284], [-68.9938, 39.33247], [-68.95937, 39.34174], [-68.92477, 39.35085], [-68.89035, 39.36013], [-68.85628, 39.36975], [-68.82254, 39.37973], [-68.78917, 39.39006], [-68.75578, 39.40039], [-68.72206, 39.41037], [-68.68799, 39.41999], [-68.65356, 39.42927], [-68.61897, 39.43837], [-68.58453, 39.44765], [-68.55046, 39.45728], [-68.49995, 39.47233], [-68.48352, 39.47776], [-68.45068, 39.48861], [-68.41782, 39.49947], [-68.38496, 39.51032], [-68.35211, 39.52117], [-68.30213, 39.53675], [-68.28519, 39.54165], [-68.25111, 39.55128], [-68.21668, 39.56055], [-68.18208, 39.56966], [-68.14766, 39.57894], [-68.11359, 39.58856], [-68.07986, 39.59854], [-68.04666, 39.60905], [-68.01381, 39.6199], [-67.96452, 39.63618], [-67.9481, 39.64161], [-67.91525, 39.65246], [-67.88204, 39.66296], [-67.84831, 39.67294], [-67.81424, 39.68257], [-67.77981, 39.69184], [-67.74521, 39.70094], [-67.71078, 39.71022], [-67.67671, 39.71985], [-67.64298, 39.72983], [-67.60978, 39.74033], [-67.57693, 39.75119], [-67.54408, 39.76204], [-67.51123, 39.77289], [-67.47837, 39.78374], [-67.44517, 39.79425], [-67.41144, 39.80423], [-67.37737, 39.81385], [-67.34293, 39.82313], [-67.30833, 39.83223], [-67.27391, 39.84151], [-67.23983, 39.85114], [-67.20611, 39.86111], [-67.17291, 39.87162], [-67.14005, 39.88247], [-67.10721, 39.89333], [-67.07434, 39.90418], [-67.04149, 39.91503], [-67.00829, 39.92554], [-66.97456, 39.93551], [-66.94049, 39.94514], [-66.90607, 39.95441], [-66.87147, 39.96352], [-66.83704, 39.97279], [-66.80296, 39.98242], [-66.76924, 39.9924], [-66.73586, 40.00273], [-66.70248, 40.01306], [-66.66876, 40.02304], [-66.63468, 40.03267], [-66.60025, 40.04194], [-66.56566, 40.05104], [-66.53123, 40.06032], [-66.49715, 40.06995], [-66.46342, 40.07993], [-66.43022, 40.09043], [-66.38094, 40.10671], [-66.36452, 40.11214], [-66.33167, 40.12299], [-66.29881, 40.13384], [-66.26561, 40.14435], [-66.23189, 40.15432], [-66.19781, 40.16395], [-66.16338, 40.17323], [-66.12878, 40.18233], [-66.09436, 40.1916], [-66.06027, 40.20123], [-66.02655, 40.21121], [-65.99317, 40.22153], [-65.95979, 40.23186], [-65.92606, 40.24184], [-65.89199, 40.25147], [-65.85756, 40.26075], [-65.80566, 40.27439], [-65.78854, 40.27912], [-65.75447, 40.28875], [-65.72073, 40.29873], [-65.68736, 40.30906], [-65.65398, 40.31939], [-65.62025, 40.32936], [-65.58618, 40.33899], [-65.55176, 40.34827], [-65.51716, 40.35737], [-65.48273, 40.36665], [-65.44865, 40.37627], [-65.41493, 40.38625], [-65.38173, 40.39676], [-65.34888, 40.40761], [-65.31602, 40.41846], [-65.28317, 40.42932], [-65.25049, 40.44035], [-65.2178, 40.45137], [-65.18496, 40.46223], [-65.1521, 40.47308], [-65.10318, 40.48971], [-65.08675, 40.49513], [-65.05389, 40.50599], [-65.02122, 40.51702], [-64.98906, 40.52857], [-64.95726, 40.54047], [-64.92563, 40.55255], [-64.89452, 40.56516], [-64.86376, 40.57811], [-64.81693, 40.59684], [-64.80121, 40.60297], [-64.76993, 40.61539], [-64.73865, 40.62782], [-64.70737, 40.64025], [-64.66176, 40.66021], [-64.6469, 40.66721], [-64.60233, 40.68821], [-64.57333, 40.70292], [-64.54432, 40.71762], [-64.51496, 40.73198], [-64.48595, 40.74668], [-64.45694, 40.76138], [-64.42759, 40.77574], [-64.39859, 40.79044], [-64.36958, 40.80515], [-64.34022, 40.8195], [-64.3112, 40.83421], [-64.28255, 40.84926], [-64.25389, 40.86431], [-64.22594, 40.88007], [-64.19867, 40.89652], [-64.17175, 40.91333], [-64.1452, 40.93048], [-64.11898, 40.94799], [-64.09277, 40.96549], [-64.06655, 40.98299], [-64.04034, 41.0005], [-64.01413, 41.01801], [-63.98792, 41.03551], [-63.96171, 41.05302], [-63.93549, 41.07052], [-63.90928, 41.08802], [-63.88307, 41.10553], [-63.85686, 41.12304], [-63.83099, 41.14089], [-63.80548, 41.1591], [-63.78032, 41.17765], [-63.7555, 41.19656], [-63.73104, 41.21581], [-63.69364, 41.244], [-63.68106, 41.25327], [-63.6559, 41.27183], [-63.63073, 41.29038], [-63.60592, 41.30929], [-63.5818, 41.3289], [-63.54737, 41.36005], [-63.53602, 41.37056], [-63.50299, 41.40311], [-63.49198, 41.41397], [-63.47031, 41.43602], [-63.4483, 41.45773], [-63.42663, 41.47979], [-63.40461, 41.50149], [-63.37193, 41.5344], [-63.36092, 41.54525], [-63.33925, 41.56731], [-63.3064, 41.60004], [-63.28455, 41.62193], [-63.27354, 41.63278], [-63.25188, 41.65483], [-63.21902, 41.68757], [-63.20819, 41.6986], [-63.17534, 41.73133], [-63.16451, 41.74236], [-63.14284, 41.76442], [-63.11155, 41.79873], [-63.10124, 41.81028], [-63.07224, 41.84686], [-63.05354, 41.87189], [-63.03501, 41.8971], [-63.01649, 41.92231], [-63.00723, 41.93491], [-62.97874, 41.97202], [-62.96913, 41.98428], [-62.941, 42.02174], [-62.92265, 42.04712], [-62.90465, 42.07285], [-62.887, 42.09893], [-62.8697, 42.12537], [-62.85275, 42.15215], [-62.83615, 42.17928], [-62.81989, 42.20676], [-62.80399, 42.2346], [-62.78809, 42.26242], [-62.77184, 42.28991], [-62.75524, 42.31705], [-62.73846, 42.344], [-62.72186, 42.37113], [-62.70578, 42.39879], [-62.69058, 42.42731], [-62.6766, 42.45708], [-62.66367, 42.48788], [-62.65109, 42.51904], [-62.63868, 42.55038], [-62.62645, 42.58189], [-62.61386, 42.61304], [-62.60093, 42.64386], [-62.58835, 42.67501], [-62.57629, 42.7067], [-62.56441, 42.73856], [-62.55288, 42.77077], [-62.54187, 42.8035], [-62.53104, 42.83641], [-62.5202, 42.86932], [-62.50972, 42.90257], [-62.49976, 42.93636], [-62.49015, 42.97049], [-62.48088, 43.00498], [-62.47197, 43.03982], [-62.46341, 43.075], [-62.45536, 43.11071], [-62.4482, 43.14729], [-62.44226, 43.1851], [-62.43789, 43.22449], [-62.4351, 43.26545], [-62.43335, 43.30746], [-62.43195, 43.34982], [-62.4302, 43.39184], [-62.42758, 43.43262], [-62.42391, 43.47131], [-62.41971, 43.50771], [-62.41605, 43.5422], [-62.41395, 43.57511], [-62.41395, 43.60732], [-62.41605, 43.64023], [-62.41972, 43.67472], [-62.42391, 43.71113], [-62.42758, 43.74981], [-62.43038, 43.79042], [-62.43264, 43.83191], [-62.43492, 43.8734], [-62.43789, 43.91418], [-62.44226, 43.95357], [-62.44803, 43.99155], [-62.45467, 44.02866], [-62.46183, 44.06525], [-62.46917, 44.10166], [-62.47634, 44.13824], [-62.48368, 44.17466], [-62.49171, 44.21037], [-62.50046, 44.24538], [-62.50989, 44.27968], [-62.5202, 44.31312], [-62.53104, 44.34602], [-62.54187, 44.37894], [-62.55288, 44.41167], [-62.56441, 44.44388], [-62.57629, 44.47574], [-62.58852, 44.50725], [-62.60163, 44.53788], [-62.61544, 44.56782], [-62.62942, 44.59757], [-62.64375, 44.62698], [-62.65842, 44.65604], [-62.67293, 44.68527], [-62.68744, 44.7145], [-62.70229, 44.74339], [-62.71732, 44.77209], [-62.73269, 44.80045], [-62.74877, 44.82811], [-62.76537, 44.85524], [-62.78233, 44.88203], [-62.79963, 44.90846], [-62.8171, 44.93472], [-62.83457, 44.96098], [-62.85205, 44.98723], [-62.86952, 45.01349], [-62.887, 45.03975], [-62.90465, 45.06583], [-62.92265, 45.09156], [-62.941, 45.11694], [-62.9597, 45.14198], [-62.97874, 45.16665], [-62.99779, 45.19134], [-63.01649, 45.21637], [-63.03501, 45.24158], [-63.05354, 45.26678], [-63.07224, 45.29182], [-63.09145, 45.31632], [-63.11155, 45.33995], [-63.13235, 45.36288], [-63.15367, 45.38529], [-63.17534, 45.40735], [-63.19718, 45.42923], [-63.21902, 45.45111], [-63.24087, 45.47299], [-63.26271, 45.49487], [-63.28455, 45.51675], [-63.3064, 45.53863], [-63.32824, 45.56051], [-63.35026, 45.58221], [-63.37263, 45.60357], [-63.39552, 45.6244], [-63.43117, 45.65434], [-63.44357, 45.66379], [-63.48115, 45.6918], [-63.50631, 45.71035], [-63.53148, 45.7289], [-63.54388, 45.73836], [-63.56852, 45.75744], [-63.59316, 45.77652], [-63.61815, 45.79525], [-63.64331, 45.8138], [-63.68106, 45.84164], [-63.70622, 45.86019], [-63.71864, 45.86964], [-63.74327, 45.88873], [-63.76791, 45.90781], [-63.7929, 45.92654], [-63.81824, 45.94492], [-63.84393, 45.96295], [-63.86996, 45.98063], [-63.89635, 45.99796], [-63.93655, 46.02334], [-63.96381, 46.03979], [-63.97779, 46.04768], [-64.02042, 46.07061], [-64.04909, 46.08566], [-64.07809, 46.10036], [-64.10745, 46.11472], [-64.12196, 46.12207], [-64.16512, 46.14447], [-64.19377, 46.15953], [-64.20775, 46.1674], [-64.24934, 46.19139], [-64.26315, 46.19944], [-64.30492, 46.22325], [-64.31924, 46.23077], [-64.36328, 46.2523], [-64.39334, 46.26596], [-64.40872, 46.27244], [-64.45485, 46.29187], [-64.4849, 46.30552], [-64.49976, 46.31252], [-64.54467, 46.33318], [-64.57438, 46.34718], [-64.60444, 46.36083], [-64.62, 46.36713], [-64.667, 46.38569], [-64.6981, 46.3983], [-64.72956, 46.41055], [-64.76102, 46.42281], [-64.79177, 46.43575], [-64.82253, 46.44871], [-64.85397, 46.46096], [-64.88579, 46.47286], [-64.91759, 46.48477], [-64.96652, 46.5014], [-64.98294, 46.50682], [-65.0158, 46.51768], [-65.0483, 46.52888], [-65.08115, 46.53973], [-65.11401, 46.55059], [-65.16328, 46.56686], [-65.17971, 46.57229], [-65.21326, 46.58245], [-65.24716, 46.59225], [-65.29871, 46.60625], [-65.33349, 46.61518], [-65.36844, 46.62393], [-65.38592, 46.62831], [-65.42087, 46.63706], [-65.45582, 46.64581], [-65.49077, 46.65456], [-65.52571, 46.66332], [-65.57883, 46.67574], [-65.61467, 46.68362], [-65.63266, 46.68747], [-65.66901, 46.69483], [-65.72388, 46.70551], [-65.76022, 46.71285], [-65.79675, 46.72003], [-65.8338, 46.72668], [-65.87155, 46.73264], [-65.91017, 46.73772], [-65.94949, 46.74209], [-65.96923, 46.74419], [-66.02742, 46.75154], [-66.06517, 46.75749], [-66.10239, 46.76397], [-66.13962, 46.77045], [-66.17754, 46.77622], [-66.21685, 46.7806], [-66.25757, 46.78358], [-66.29898, 46.78585], [-66.3404, 46.78812], [-66.36102, 46.78935], [-66.42043, 46.79548], [-66.43966, 46.79811], [-66.49558, 46.80773], [-66.5328, 46.81421], [-66.5515, 46.81736], [-66.61004, 46.82436], [-66.63013, 46.82612], [-66.69304, 46.82874], [-66.73603, 46.82944], [-66.77953, 46.82961], [-66.82323, 46.82961], [-66.86692, 46.82961], [-66.91061, 46.82961], [-66.95429, 46.82961], [-66.99798, 46.82961], [-67.04166, 46.82961], [-67.08535, 46.82961], [-67.12904, 46.82961], [-67.17272, 46.82961], [-67.21642, 46.82961], [-67.25993, 46.82944], [-67.30292, 46.82874], [-67.34503, 46.82716], [-67.38593, 46.82436], [-67.42525, 46.81998], [-67.46317, 46.81421], [-67.50039, 46.80774], [-67.53761, 46.80126], [-67.57553, 46.79548], [-67.61485, 46.79111], [-67.65573, 46.78831], [-67.69768, 46.78655], [-67.73997, 46.78515], [-67.78191, 46.7834], [-67.8228, 46.7806], [-67.86212, 46.77622], [-67.90004, 46.77045], [-67.93726, 46.76397], [-67.9743, 46.75732], [-68.01152, 46.75084], [-68.06831, 46.74209], [-68.08737, 46.73929], [-68.12511, 46.73334], [-68.16234, 46.72686], [-68.19922, 46.72004], [-68.23573, 46.71286], [-68.27208, 46.70551], [-68.3086, 46.69833], [-68.34512, 46.69115], [-68.3813, 46.68362], [-68.41712, 46.67575], [-68.4526, 46.66752], [-68.5052, 46.65456], [-68.52267, 46.65019], [-68.55762, 46.64144], [-68.59257, 46.63268], [-68.62752, 46.62393], [-68.66246, 46.61518], [-68.69725, 46.60625], [-68.74879, 46.59225], [-68.7827, 46.58245], [-68.79948, 46.57737], [-68.83267, 46.56686], [-68.88196, 46.55059], [-68.91481, 46.53973], [-68.93124, 46.53431], [-68.98016, 46.51768], [-69.01302, 46.50682], [-69.02945, 46.5014], [-69.0623, 46.49054], [-69.09498, 46.47952], [-69.14408, 46.46306], [-69.17693, 46.45221], [-69.19319, 46.44661], [-69.24124, 46.4291], [-69.25714, 46.42315], [-69.30415, 46.40459], [-69.31918, 46.39777], [-69.36391, 46.37693], [-69.39397, 46.36328], [-69.42368, 46.34928], [-69.43871, 46.34245], [-69.46929, 46.32932], [-69.50056, 46.31689], [-69.53185, 46.30447], [-69.56313, 46.29204], [-69.60997, 46.27331], [-69.64002, 46.25965], [-69.66938, 46.2453], [-69.69839, 46.23059], [-69.72635, 46.21484], [-69.75361, 46.19839], [-69.78052, 46.18158], [-69.80743, 46.16478], [-69.83434, 46.14797], [-69.8616, 46.13152], [-69.88956, 46.11576], [-69.91823, 46.10071], [-69.94688, 46.08566], [-69.97554, 46.0706], [-70.0042, 46.05554], [-70.03215, 46.03979], [-70.05942, 46.02334], [-70.08633, 46.00653], [-70.11324, 45.98973], [-70.14015, 45.97292], [-70.16742, 45.95647], [-70.19502, 45.94036], [-70.22299, 45.92461], [-70.2506, 45.9085], [-70.27785, 45.89205], [-70.30477, 45.87525], [-70.33168, 45.85844], [-70.35859, 45.84164], [-70.38585, 45.82518], [-70.41346, 45.80907], [-70.44141, 45.79332], [-70.46902, 45.77722], [-70.49628, 45.76077], [-70.5232, 45.74396], [-70.55012, 45.72716], [-70.57703, 45.71035], [-70.60429, 45.69389], [-70.6319, 45.67779], [-70.64587, 45.66991], [-70.68747, 45.64593], [-70.71473, 45.62948], [-70.74164, 45.61267], [-70.76855, 45.59587], [-70.79546, 45.57906], [-70.82272, 45.56261], [-70.85033, 45.5465], [-70.87829, 45.53075], [-70.9059, 45.51465], [-70.93316, 45.49819], [-70.96008, 45.48139], [-70.98699, 45.46459], [-71.0139, 45.44778], [-71.04117, 45.43133], [-71.06877, 45.41522], [-71.09673, 45.39947], [-71.12434, 45.38337], [-71.1516, 45.36691], [-71.17851, 45.35011], [-71.20543, 45.3333], [-71.23233, 45.3165], [-71.2596, 45.30004], [-71.2872, 45.28394], [-71.31517, 45.26818], [-71.34277, 45.25208], [-71.37004, 45.23563], [-71.39696, 45.21882], [-71.42387, 45.20201], [-71.45078, 45.18521], [-71.47804, 45.16875], [-71.50565, 45.15265], [-71.53362, 45.13689], [-71.56122, 45.1208], [-71.58848, 45.10434], [-71.61539, 45.08753], [-71.6423, 45.07073], [-71.6692, 45.05392], [-71.69647, 45.03747], [-71.72408, 45.02137], [-71.75204, 45.00561], [-71.77965, 44.98951], [-71.80692, 44.97305], [-71.83383, 44.95625], [-71.86074, 44.93944], [-71.88765, 44.92264], [-71.91492, 44.90618], [-71.94252, 44.89008], [-71.97049, 44.87432], [-71.99809, 44.85822], [-72.02535, 44.84177], [-72.05227, 44.82496], [-72.07883, 44.8078], [-72.11815, 44.78155], [-72.13125, 44.7728], [-72.17057, 44.74654], [-72.18367, 44.73779], [-72.21024, 44.72063], [-72.23714, 44.70383], [-72.2644, 44.68737], [-72.29202, 44.67127], [-72.31998, 44.65551], [-72.34758, 44.63941], [-72.37485, 44.62296], [-72.40176, 44.60615], [-72.42867, 44.58934], [-72.45558, 44.57254], [-72.48285, 44.55608], [-72.51045, 44.53998], [-72.53842, 44.52423], [-72.56602, 44.50813], [-72.59328, 44.49167], [-72.6202, 44.47486], [-72.64711, 44.45806], [-72.67402, 44.44125], [-72.70128, 44.4248], [-72.72889, 44.4087], [-72.75685, 44.39294], [-72.78447, 44.37684], [-72.81172, 44.36038], [-72.83864, 44.34357], [-72.86555, 44.32677], [-72.89246, 44.30997], [-72.91972, 44.29351], [-72.94733, 44.27741], [-72.97529, 44.26165], [-73.0029, 44.24555], [-73.03016, 44.2291], [-73.05707, 44.21229], [-73.08398, 44.19548], [-73.11089, 44.17868], [-73.13815, 44.16222], [-73.16576, 44.14612], [-73.19373, 44.13037], [-73.22133, 44.11427], [-73.2486, 44.09781], [-73.27551, 44.081], [-73.30242, 44.0642], [-73.32933, 44.04739], [-73.3566, 44.03094], [-73.3842, 44.01484], [-73.41216, 43.99908], [-73.43977, 43.98298], [-73.46703, 43.96652], [-73.49394, 43.94971], [-73.52086, 43.93291], [-73.54776, 43.91611], [-73.57503, 43.89965], [-73.60299, 43.8839], [-73.63165, 43.86884], [-73.66031, 43.85379], [-73.68896, 43.83874], [-73.71763, 43.82368], [-73.74559, 43.80793], [-73.77285, 43.79147], [-73.79977, 43.77467], [-73.82667, 43.75786], [-73.85358, 43.74106], [-73.88084, 43.7246], [-73.90845, 43.7085], [-73.93641, 43.69275], [-73.96402, 43.67664], [-73.99128, 43.66019], [-74.01819, 43.64338], [-74.0451, 43.62658], [-74.07201, 43.60977], [-74.09927, 43.59332], [-74.12724, 43.57756], [-74.1559, 43.56251], [-74.18456, 43.54745], [-74.21322, 43.5324], [-74.24187, 43.51735], [-74.26984, 43.50159], [-74.2971, 43.48514], [-74.32401, 43.46833], [-74.35092, 43.45153], [-74.37782, 43.43472], [-74.40509, 43.41827], [-74.43305, 43.40252], [-74.46172, 43.38746], [-74.49036, 43.37241], [-74.51938, 43.3577], [-74.54874, 43.34335], [-74.57774, 43.32864], [-74.6064, 43.31359], [-74.63506, 43.29853], [-74.66302, 43.28278], [-74.69028, 43.26633], [-74.71719, 43.24952], [-74.7441, 43.23272], [-74.77101, 43.21591], [-74.79828, 43.19946], [-74.82624, 43.1837], [-74.8549, 43.16865], [-74.88355, 43.15359], [-74.91257, 43.13889], [-74.94192, 43.12453], [-74.97093, 43.10983], [-74.99959, 43.09478], [-75.02824, 43.07972], [-75.0562, 43.06397], [-75.08347, 43.04752], [-75.11038, 43.03071], [-75.13729, 43.0139], [-75.1642, 42.9971], [-75.19147, 42.98064], [-75.21943, 42.96489], [-75.24809, 42.94984], [-75.27674, 42.93478], [-75.30576, 42.92008], [-75.33511, 42.90572], [-75.36411, 42.89102], [-75.39312, 42.87632], [-75.42248, 42.86196], [-75.45149, 42.84726], [-75.4805, 42.83256], [-75.50986, 42.8182], [-75.53886, 42.8035], [-75.56787, 42.7888], [-75.59724, 42.77444], [-75.62624, 42.75974], [-75.65526, 42.74503], [-75.68461, 42.73068], [-75.71362, 42.71597], [-75.74262, 42.70127], [-75.77198, 42.68692], [-75.80098, 42.67221], [-75.82965, 42.65716], [-75.85831, 42.64211], [-75.88626, 42.62635], [-75.91387, 42.61025], [-75.94148, 42.59414], [-75.96945, 42.57839], [-75.9981, 42.56333], [-76.02782, 42.54933], [-76.05787, 42.53568], [-76.07325, 42.5292], [-76.104, 42.51624], [-76.14944, 42.49612], [-76.16429, 42.48911], [-76.20885, 42.46811], [-76.23786, 42.45341], [-76.26688, 42.4387], [-76.28155, 42.43153], [-76.32524, 42.40965], [-76.35425, 42.39494], [-76.38361, 42.38058], [-76.41261, 42.36588], [-76.44162, 42.35118], [-76.4563, 42.344], [-76.49999, 42.32212], [-76.529, 42.30742], [-76.55836, 42.29306], [-76.58736, 42.27836], [-76.61638, 42.26365], [-76.64607, 42.24965], [-76.67579, 42.23565], [-76.69081, 42.22882], [-76.72139, 42.21569], [-76.75267, 42.20326], [-76.78395, 42.19083], [-76.81523, 42.17841], [-76.84651, 42.16598], [-76.89212, 42.14602], [-76.92183, 42.13202], [-76.95155, 42.11801], [-76.98055, 42.10331], [-77.00957, 42.0886], [-77.03926, 42.0746], [-77.05412, 42.0676], [-77.09903, 42.04694], [-77.11458, 42.04064], [-77.14586, 42.02821], [-77.17714, 42.01579], [-77.20842, 42.00336], [-77.2397, 41.99093], [-77.27029, 41.9778], [-77.31502, 41.95697], [-77.34508, 41.94331], [-77.37479, 41.92931], [-77.38982, 41.92249], [-77.42039, 41.90936], [-77.45168, 41.89693], [-77.48296, 41.8845], [-77.51424, 41.87207], [-77.54552, 41.85964], [-77.5761, 41.84651], [-77.60597, 41.83268], [-77.65054, 41.81168], [-77.67955, 41.79697], [-77.70856, 41.78227], [-77.72341, 41.77527], [-77.76797, 41.75426], [-77.79803, 41.74061], [-77.81358, 41.73431], [-77.84486, 41.72188], [-77.87614, 41.70945], [-77.92315, 41.6909], [-77.93887, 41.68477], [-77.96998, 41.67216], [-78.00073, 41.65921], [-78.03185, 41.64661], [-78.06329, 41.63435], [-78.09457, 41.62193], [-78.12585, 41.6095], [-78.15713, 41.59707], [-78.18771, 41.58394], [-78.21761, 41.57011], [-78.26251, 41.54945], [-78.27737, 41.54245], [-78.32228, 41.5218], [-78.33783, 41.5155], [-78.36911, 41.50307], [-78.40039, 41.49064], [-78.4474, 41.47208], [-78.46294, 41.46578], [-78.49353, 41.45265], [-78.52341, 41.43882], [-78.55329, 41.425], [-78.58318, 41.41117], [-78.62808, 41.39051], [-78.64363, 41.38421], [-78.67492, 41.37178], [-78.72176, 41.35305], [-78.7532, 41.3408], [-78.76894, 41.33467], [-78.80004, 41.32207], [-78.8308, 41.30911], [-78.86191, 41.29651], [-78.89336, 41.28426], [-78.94019, 41.26552], [-78.95592, 41.2594], [-78.98737, 41.24715], [-79.01848, 41.23454], [-79.04922, 41.22159], [-79.08034, 41.20898], [-79.11179, 41.19673], [-79.15863, 41.178], [-79.17435, 41.17188], [-79.20564, 41.15945], [-79.25124, 41.13949], [-79.28095, 41.12549], [-79.29598, 41.11866], [-79.32586, 41.10483], [-79.37077, 41.08418], [-79.38632, 41.07787], [-79.4176, 41.06544], [-79.46443, 41.04671], [-79.48016, 41.04059], [-79.51161, 41.02834], [-79.54272, 41.01573], [-79.57349, 41.00278], [-79.60458, 40.99017], [-79.63605, 40.97792], [-79.68288, 40.95919], [-79.69861, 40.95306], [-79.73006, 40.94081], [-79.76116, 40.92821], [-79.8073, 40.90878], [-79.82303, 40.90265], [-79.85448, 40.8904], [-79.88576, 40.87797], [-79.93275, 40.85941], [-79.94832, 40.85311], [-79.9789, 40.83998], [-80.02364, 40.81915], [-80.0537, 40.8055], [-80.06855, 40.7985], [-80.11346, 40.77784], [-80.12901, 40.77154], [-80.16029, 40.75911], [-80.19157, 40.74668], [-80.22285, 40.73425], [-80.2543, 40.722], [-80.30079, 40.70292], [-80.31617, 40.69644], [-80.363, 40.67771], [-80.39445, 40.66546], [-80.41, 40.65916], [-80.44128, 40.64673], [-80.47275, 40.63448], [-80.50385, 40.62187], [-80.53461, 40.60892], [-80.56572, 40.59631], [-80.59717, 40.58406], [-80.62845, 40.57163], [-80.65973, 40.5592], [-80.7069, 40.54082], [-80.72228, 40.53435], [-80.75304, 40.52139], [-80.78415, 40.50879], [-80.8156, 40.49654], [-80.84688, 40.48411], [-80.87816, 40.47168], [-80.925, 40.45295], [-80.94003, 40.44612], [-80.98476, 40.42529], [-81.01482, 40.41164], [-81.04453, 40.39764], [-81.05956, 40.39081], [-81.09013, 40.37768], [-81.12141, 40.36525], [-81.15269, 40.35282], [-81.18398, 40.34039], [-81.21542, 40.32814], [-81.24654, 40.31554], [-81.27729, 40.30258], [-81.32413, 40.28385], [-81.33985, 40.27773], [-81.37114, 40.2653], [-81.40241, 40.25287], [-81.4337, 40.24044], [-81.4793, 40.22049], [-81.50901, 40.20649], [-81.53907, 40.19283], [-81.55392, 40.18583], [-81.59883, 40.16517], [-81.61438, 40.15887], [-81.64566, 40.14644], [-81.6925, 40.12771], [-81.70822, 40.12159], [-81.7395, 40.10916], [-81.77008, 40.09603], [-81.79997, 40.0822], [-81.82985, 40.06837], [-81.87459, 40.04754], [-81.88961, 40.04071], [-81.9202, 40.02758], [-81.95148, 40.01516], [-81.98276, 40.00273], [-82.01404, 39.9903], [-82.04531, 39.97787], [-82.09092, 39.95792], [-82.10577, 39.95091], [-82.13566, 39.93708], [-82.16554, 39.92326], [-82.19542, 39.90942], [-82.22601, 39.89629], [-82.27302, 39.87774], [-82.28857, 39.87144], [-82.31985, 39.85901], [-82.36668, 39.84028], [-82.38171, 39.83346], [-82.41159, 39.81963], [-82.45615, 39.79862], [-82.48516, 39.78392], [-82.51417, 39.76921], [-82.54388, 39.75521], [-82.57358, 39.7412], [-82.58861, 39.73438], [-82.63475, 39.71495], [-82.65047, 39.70882], [-82.68176, 39.69639], [-82.72876, 39.67784], [-82.74432, 39.67154], [-82.78992, 39.65158], [-82.80478, 39.64458], [-82.83449, 39.63058], [-82.87835, 39.60887], [-82.90736, 39.59416], [-82.93671, 39.57981], [-82.96571, 39.56511], [-82.99474, 39.5504], [-83.02444, 39.5364], [-83.05415, 39.5224], [-83.0842, 39.50874], [-83.09975, 39.50244], [-83.13103, 39.49002], [-83.16231, 39.47759], [-83.1936, 39.46516], [-83.24043, 39.44643], [-83.25546, 39.4396], [-83.28534, 39.42577], [-83.31505, 39.41177], [-83.3589, 39.39006], [-83.38792, 39.37536], [-83.41727, 39.361], [-83.44628, 39.3463], [-83.47529, 39.3316], [-83.50465, 39.31724], [-83.53365, 39.30254], [-83.56267, 39.28783], [-83.57751, 39.28083], [-83.62208, 39.25983], [-83.63711, 39.253], [-83.68324, 39.23357], [-83.69897, 39.22744], [-83.73026, 39.21502], [-83.76154, 39.20258], [-83.79281, 39.19016], [-83.83842, 39.1702], [-83.85327, 39.1632], [-83.89819, 39.14254], [-83.91304, 39.13554], [-83.94292, 39.12171], [-83.9735, 39.10858], [-84.00478, 39.09616], [-84.03606, 39.08373], [-84.06734, 39.0713], [-84.09862, 39.05887], [-84.14423, 39.03891], [-84.15909, 39.03191], [-84.20399, 39.01125], [-84.2337, 38.99725], [-84.24873, 38.99043], [-84.27931, 38.97729], [-84.31059, 38.96487], [-84.34187, 38.95244], [-84.37315, 38.94001], [-84.40443, 38.92758], [-84.45004, 38.90763], [-84.47975, 38.89362], [-84.49461, 38.88662], [-84.53847, 38.86491], [-84.56747, 38.85021], [-84.58233, 38.84321], [-84.61204, 38.8292], [-84.65695, 38.80855], [-84.68806, 38.79595], [-84.70378, 38.78982], [-84.73506, 38.77739], [-84.76633, 38.76496], [-84.79762, 38.75253], [-84.82819, 38.7394], [-84.85808, 38.72558], [-84.90264, 38.70457], [-84.93165, 38.68987], [-84.96066, 38.67516], [-84.99002, 38.6608], [-85.01903, 38.6461], [-85.04803, 38.6314], [-85.0774, 38.61704], [-85.1064, 38.60234], [-85.13542, 38.58764], [-85.16477, 38.57328], [-85.19378, 38.55858], [-85.22279, 38.54388], [-85.25214, 38.52952], [-85.28114, 38.51482], [-85.31017, 38.50011], [-85.33952, 38.48576], [-85.36852, 38.47105], [-85.39753, 38.45635], [-85.42689, 38.44199], [-85.4559, 38.42729], [-85.48491, 38.41259], [-85.51427, 38.39823], [-85.52878, 38.39088], [-85.5723, 38.36883], [-85.60165, 38.35447], [-85.63065, 38.33977], [-85.65966, 38.32507], [-85.68902, 38.31071], [-85.71803, 38.29601], [-85.74669, 38.28095], [-85.77534, 38.2659], [-85.8033, 38.25014], [-85.83056, 38.23369], [-85.85748, 38.21688], [-85.88439, 38.20008], [-85.9113, 38.18327], [-85.93857, 38.16682], [-85.96617, 38.15071], [-85.99413, 38.13496], [-86.02174, 38.11885], [-86.049, 38.10241], [-86.07591, 38.08559], [-86.10282, 38.06879], [-86.12973, 38.05199], [-86.157, 38.03553], [-86.18496, 38.01978], [-86.21362, 38.00472], [-86.24226, 37.98967], [-86.27094, 37.97462], [-86.29959, 37.95956], [-86.32755, 37.94381], [-86.3548, 37.92736], [-86.38172, 37.91055], [-86.40829, 37.89339], [-86.4345, 37.87589], [-86.46071, 37.85839], [-86.48692, 37.84088], [-86.51314, 37.82337], [-86.5397, 37.80622], [-86.5666, 37.78941], [-86.59387, 37.77296], [-86.62148, 37.75686], [-86.64944, 37.7411], [-86.67705, 37.72499], [-86.70432, 37.70855], [-86.73123, 37.69173], [-86.75813, 37.67493], [-86.78504, 37.65813], [-86.8123, 37.64167], [-86.83992, 37.62557], [-86.86787, 37.60981], [-86.89549, 37.59371], [-86.92276, 37.57726], [-86.94968, 37.56045], [-86.97658, 37.54365], [-87.00349, 37.52684], [-87.03075, 37.51039], [-87.05835, 37.49429], [-87.08632, 37.47853], [-87.11392, 37.46243], [-87.14117, 37.44597], [-87.16809, 37.42916], [-87.19466, 37.41201], [-87.22087, 37.39451], [-87.24708, 37.377], [-87.27329, 37.3595], [-87.29951, 37.34199], [-87.32607, 37.32484], [-87.35298, 37.30803], [-87.38025, 37.29158], [-87.40785, 37.27547], [-87.43582, 37.25972], [-87.46342, 37.24361], [-87.49069, 37.22716], [-87.51761, 37.21035], [-87.54416, 37.1932], [-87.57037, 37.1757], [-87.59659, 37.15819], [-87.6228, 37.14069], [-87.649, 37.12318], [-87.67522, 37.10567], [-87.70143, 37.08817], [-87.72765, 37.07067], [-87.75386, 37.05316], [-87.76697, 37.04441], [-87.80629, 37.01815], [-87.8325, 37.00065], [-87.85871, 36.98315], [-87.88493, 36.96564], [-87.91114, 36.94814], [-87.93735, 36.93063], [-87.96356, 36.91313], [-87.98978, 36.89562], [-88.01598, 36.87812], [-88.04219, 36.86061], [-88.06841, 36.84311], [-88.09462, 36.8256], [-88.12048, 36.80775], [-88.146, 36.78954], [-88.17116, 36.77099], [-88.19598, 36.75208], [-88.22044, 36.73283], [-88.24525, 36.71392], [-88.27042, 36.69537], [-88.29593, 36.67716], [-88.32179, 36.65931], [-88.34801, 36.6418], [-88.37422, 36.6243], [-88.40043, 36.60679], [-88.42629, 36.58894], [-88.45181, 36.57073], [-88.47697, 36.55218], [-88.50179, 36.53327], [-88.52625, 36.51402], [-88.55106, 36.49511], [-88.57623, 36.47655], [-88.60139, 36.458], [-88.62656, 36.43945], [-88.65137, 36.42054], [-88.67548, 36.40093], [-88.6989, 36.38063], [-88.72232, 36.36032], [-88.74574, 36.34002], [-88.76985, 36.32042], [-88.79467, 36.30151], [-88.81983, 36.28295], [-88.845, 36.2644], [-88.86981, 36.24549], [-88.89392, 36.22588], [-88.91734, 36.20558], [-88.94077, 36.18528], [-88.96417, 36.16497], [-88.98828, 36.14537], [-89.01309, 36.12646], [-89.03826, 36.1079], [-89.06343, 36.08935], [-89.08824, 36.07044], [-89.11236, 36.05083], [-89.13543, 36.03018], [-89.15814, 36.00917], [-89.18051, 35.98782], [-89.20323, 35.96681], [-89.2263, 35.94616], [-89.25042, 35.92656], [-89.27522, 35.90765], [-89.30039, 35.88909], [-89.32555, 35.87054], [-89.35037, 35.85163], [-89.37448, 35.83202], [-89.39755, 35.81137], [-89.42027, 35.79036], [-89.44228, 35.76866], [-89.47514, 35.73592], [-89.48598, 35.7249], [-89.508, 35.70319], [-89.54068, 35.67028], [-89.55168, 35.65943], [-89.57335, 35.63737], [-89.59538, 35.61567], [-89.61704, 35.59361], [-89.63907, 35.5719], [-89.66073, 35.54985], [-89.68275, 35.52814], [-89.70477, 35.50643], [-89.72748, 35.48543], [-89.75055, 35.46478], [-89.77466, 35.44517], [-89.79947, 35.42626], [-89.82463, 35.40771], [-89.8498, 35.38915], [-89.87462, 35.37025], [-89.89873, 35.35064], [-89.9218, 35.32999], [-89.94452, 35.30898], [-89.96653, 35.28727], [-89.98856, 35.26557], [-90.01022, 35.24351], [-90.03224, 35.22181], [-90.05391, 35.19975], [-90.07558, 35.17769], [-90.09655, 35.15494], [-90.11717, 35.13183], [-90.14618, 35.09525], [-90.15562, 35.08282], [-90.17414, 35.05761], [-90.2021, 35.01997], [-90.21153, 35.00755], [-90.23111, 34.98339], [-90.25173, 34.96028], [-90.2727, 34.93753], [-90.29437, 34.91547], [-90.31604, 34.89342], [-90.33806, 34.87171], [-90.35972, 34.84966], [-90.38174, 34.82795], [-90.4034, 34.8059], [-90.42543, 34.78419], [-90.4471, 34.76213], [-90.46877, 34.74008], [-90.50005, 34.70577], [-90.51036, 34.69421], [-90.52993, 34.67006], [-90.54881, 34.6452], [-90.56733, 34.61999], [-90.58585, 34.59478], [-90.60472, 34.56993], [-90.6243, 34.54577], [-90.65471, 34.51059], [-90.66484, 34.49886], [-90.68511, 34.4754], [-90.70468, 34.45124], [-90.72355, 34.42639], [-90.75133, 34.38858], [-90.76059, 34.37597], [-90.77912, 34.35077], [-90.79799, 34.32591], [-90.81721, 34.3014], [-90.84535, 34.26394], [-90.85461, 34.25134], [-90.87314, 34.22613], [-90.89166, 34.20092], [-90.91019, 34.17572], [-90.92906, 34.15086], [-90.94829, 34.12635], [-90.96716, 34.1015], [-90.99477, 34.06351], [-91.00385, 34.05074], [-91.02168, 34.02483], [-91.03915, 33.99857], [-91.05663, 33.97231], [-91.0741, 33.94606], [-91.09158, 33.9198], [-91.10905, 33.89354], [-91.13509, 33.85398], [-91.14365, 33.84068], [-91.16864, 33.80006], [-91.18489, 33.77258], [-91.2008, 33.74475], [-91.2167, 33.71692], [-91.23294, 33.68943], [-91.24954, 33.6623], [-91.25793, 33.64883], [-91.2831, 33.60839], [-91.2997, 33.58125], [-91.31577, 33.5536], [-91.33115, 33.52524], [-91.34618, 33.49653], [-91.36104, 33.46765], [-91.37555, 33.43842], [-91.39005, 33.40918], [-91.40472, 33.38012], [-91.41905, 33.35072], [-91.43303, 33.32096], [-91.44684, 33.29102], [-91.45995, 33.26039], [-91.47235, 33.22906], [-91.48476, 33.19772], [-91.49718, 33.16639], [-91.5094, 33.13488], [-91.52199, 33.10372], [-91.53492, 33.07291], [-91.54749, 33.04176], [-91.55956, 33.01007], [-91.57144, 32.97821], [-91.58298, 32.94601], [-91.59398, 32.91327], [-91.60482, 32.88036], [-91.61565, 32.84745], [-91.62613, 32.81419], [-91.63609, 32.78041], [-91.64569, 32.74627], [-91.65497, 32.71178], [-91.66387, 32.67695], [-91.67244, 32.64177], [-91.68066, 32.60623], [-91.68852, 32.57035], [-91.69603, 32.53411], [-91.70319, 32.49753], [-91.71036, 32.46095], [-91.7177, 32.42454], [-91.72487, 32.38795], [-91.7315, 32.35084], [-91.73746, 32.31303], [-91.74252, 32.27435], [-91.74689, 32.23496], [-91.75125, 32.19557], [-91.75632, 32.15689], [-91.76226, 32.11908], [-91.76873, 32.08179], [-91.77519, 32.0445], [-91.78096, 32.00652], [-91.78532, 31.96713], [-91.78813, 31.92617], [-91.7897, 31.88398], [-91.79041, 31.84092], [-91.79057, 31.79734], [-91.79057, 31.75357], [-91.79057, 31.70981], [-91.79057, 31.66605], [-91.79041, 31.62246], [-91.7897, 31.5794], [-91.78813, 31.53722], [-91.78532, 31.49625], [-91.78096, 31.45687], [-91.7752, 31.41888], [-91.76874, 31.3816], [-91.76227, 31.34431], [-91.75649, 31.30633], [-91.75195, 31.26712], [-91.74846, 31.22686], [-91.74532, 31.18624], [-91.74182, 31.14598], [-91.73727, 31.10677], [-91.73132, 31.06896], [-91.72417, 31.03238], [-91.71613, 30.99667], [-91.70757, 30.96148], [-91.69882, 30.92647], [-91.69009, 30.89146], [-91.68135, 30.85645], [-91.67262, 30.82144], [-91.66388, 30.78643], [-91.65497, 30.75159], [-91.64571, 30.71711], [-91.63609, 30.68298], [-91.62613, 30.6492], [-91.61565, 30.61594], [-91.60481, 30.58303], [-91.59398, 30.55012], [-91.58297, 30.51738], [-91.57144, 30.48517], [-91.55956, 30.45331], [-91.54749, 30.42163], [-91.53491, 30.39047], [-91.52199, 30.35966], [-91.5094, 30.3285], [-91.49718, 30.297], [-91.48476, 30.26566], [-91.47236, 30.23433], [-91.45995, 30.203], [-91.44685, 30.17236], [-91.43304, 30.14243], [-91.41906, 30.11267], [-91.40472, 30.08326], [-91.39005, 30.0542], [-91.37555, 30.02497], [-91.36104, 29.99574], [-91.34636, 29.96668], [-91.33185, 29.93745], [-91.31735, 29.90821], [-91.30267, 29.87916], [-91.28817, 29.84993], [-91.27367, 29.82069], [-91.2588, 29.79181], [-91.24377, 29.7631], [-91.22839, 29.73475], [-91.21233, 29.70708], [-91.19572, 29.67995], [-91.17877, 29.65317], [-91.16147, 29.62674], [-91.14382, 29.60066], [-91.11674, 29.56215], [-91.1073, 29.54972], [-91.07829, 29.51313], [-91.06816, 29.5014], [-91.03775, 29.46622], [-91.02762, 29.45449], [-91.00769, 29.43068], [-90.98847, 29.40618], [-90.96978, 29.38115], [-90.94199, 29.34333], [-90.92312, 29.31848], [-90.91333, 29.3064], [-90.89323, 29.28277], [-90.87244, 29.25984], [-90.85112, 29.23743], [-90.82945, 29.21537], [-90.79659, 29.18264], [-90.78576, 29.17161], [-90.76392, 29.14973], [-90.74207, 29.12785], [-90.72023, 29.10597], [-90.68755, 29.07306], [-90.67654, 29.06221], [-90.65469, 29.04033], [-90.62184, 29.00759], [-90.60018, 28.98553], [-90.58917, 28.97468], [-90.5565, 28.94177], [-90.54549, 28.93092], [-90.52364, 28.90904], [-90.5018, 28.88716], [-90.47995, 28.86528], [-90.4471, 28.83254], [-90.43626, 28.82151], [-90.41441, 28.79963], [-90.38174, 28.76672], [-90.35971, 28.74502], [-90.33805, 28.72296], [-90.31602, 28.70126], [-90.29401, 28.67955], [-90.2713, 28.65854], [-90.24841, 28.63789], [-90.22464, 28.61863], [-90.20036, 28.60078], [-90.17554, 28.58467], [-90.1502, 28.57067], [-90.10913, 28.55509], [-90.07977, 28.54774]]]}}]}