{"type": "FeatureCollection", "features": [{"type": "Feature", "properties": {"shapefile": "al092021-014_5day_lin", "STORMNAME": "Ida", "STORMTYPE": "HU", "ADVDATE": "1000 AM CDT Sun Aug 29 2021", "ADVISNUM": "14", "STORMNUM": 9, "FCSTPRD": 120, "BASIN": "AL"}, "geometry": {"type": "LineString", "coordinates": [[-90.0, 28.8], [-90.8, 30.0], [-91.0, 31.6], [-90.3, 33.2], [-88.5, 34.9], [-85.9, 36.4], [-82.5, 37.8], [-74.2, 40.5], [-67.0, 43.5]]}}, {"type": "Feature", "properties": {"shapefile": "al092021-014_5day_pts", "ADVDATE": "1000 AM CDT Sun Aug 29 2021", "ADVISNUM": "14", "BASIN": "AL", "DATELBL": "10:00 AM Sun", "DVLBL": "M", "FCSTPRD": 120, "FLDATELBL": "2021-08-29 7:00 AM Sun CDT", "GUST": 160, "LAT": 28, "LON": -90, "MAXWIND": 130, "MSLP": 933, "SSNUM": 4, "STORMNAME": "Hurricane Ida", "STORMNUM": 9, "STORMSRC": "Tropical Cyclone", "STORMTYPE": "MH", "TCDVLP": "Major Hurricane", "TAU": 0, "TCDIR": 320, "TCSPD": 11, "TIMEZONE": "CDT", "VALIDTIME": "29/1200"}, "geometry": {"type": "Point", "coordinates": [-90.0, 28.8]}}, {"type": "Feature", "properties": {"shapefile": "al092021-014_5day_pts", "ADVDATE": "1000 AM CDT Sun Aug 29 2021", "ADVISNUM": "14", "BASIN": "AL", "DATELBL": "7:00 PM Sun", "DVLBL": "H", "FCSTPRD": 120, "FLDATELBL": "2021-08-29 7:00 PM Sun CDT", "GUST": 110, "LAT": 30, "LON": -90, "MAXWIND": 90, "MSLP": 9999, "SSNUM": 2, "STORMNAME": "Hurricane Ida", "STORMNUM": 9, "STORMSRC": "Tropical Cyclone", "STORMTYPE": "HU", "TCDVLP": "Hurricane", "TAU": 12, "TCDIR": 9999, "TCSPD": 9999, "TIMEZONE": "CDT", "VALIDTIME": "30/0000"}, "geometry": {"type": "Point", "coordinates": [-90.8, 30.0]}}, {"type": "Feature", "properties": {"shapefile": "al092021-014_5day_pts", "ADVDATE": "1000 AM CDT Sun Aug 29 2021", "ADVISNUM": "14", "BASIN": "AL", "DATELBL": "7:00 AM Mon", "DVLBL": "S", "FCSTPRD": 120, "FLDATELBL": "2021-08-30 7:00 AM Mon CDT", "GUST": 60, "LAT": 31, "LON": -91, "MAXWIND": 50, "MSLP": 9999, "SSNUM": 0, "STORMNAME": "Hurricane Ida", "STORMNUM": 9, "STORMSRC": "Tropical Cyclone", "STORMTYPE": "TS", "TCDVLP": "Tropical Storm", "TAU": 24, "TCDIR": 9999, "TCSPD": 9999, "TIMEZONE": "CDT", "VALIDTIME": "30/1200"}, "geometry": {"type": "Point", "coordinates": [-91.0, 31.6]}}, {"type": "Feature", "properties": {"shapefile": "al092021-014_5day_pts", "ADVDATE": "1000 AM CDT Sun Aug 29 2021", "ADVISNUM": "14", "BASIN": "AL", "DATELBL": "7:00 PM Mon", "DVLBL": "D", "FCSTPRD": 120, "FLDATELBL": "2021-08-30 7:00 PM Mon CDT", "GUST": 40, "LAT": 33, "LON": -90, "MAXWIND": 30, "MSLP": 9999, "SSNUM": 0, "STORMNAME": "Hurricane Ida", "STORMNUM": 9, "STORMSRC": "Tropical Cyclone", "STORMTYPE": "TD", "TCDVLP": "Tropical Depression", "TAU": 36, "TCDIR": 9999, "TCSPD": 9999, "TIMEZONE": "CDT", "VALIDTIME": "31/0000"}, "geometry": {"type": "Point", "coordinates": [-90.3, 33.2]}}, {"type": "Feature", "properties": {"shapefile": "al092021-014_5day_pts", "ADVDATE": "1000 AM CDT Sun Aug 29 2021", "ADVISNUM": "14", "BASIN": "AL", "DATELBL": "7:00 AM Tue", "DVLBL": "D", "FCSTPRD": 120, "FLDATELBL": "2021-08-31 7:00 AM Tue CDT", "GUST": 35, "LAT": 34, "LON": -88, "MAXWIND": 25, "MSLP": 9999, "SSNUM": 0, "STORMNAME": "Hurricane Ida", "STORMNUM": 9, "STORMSRC": "Tropical Cyclone", "STORMTYPE": "TD", "TCDVLP": "Tropical Depression", "TAU": 48, "TCDIR": 9999, "TCSPD": 9999, "TIMEZONE": "CDT", "VALIDTIME": "31/1200"}, "geometry": {"type": "Point", "coordinates": [-88.5, 34.9]}}, {"type": "Feature", "properties": {"shapefile": "al092021-014_5day_pts", "ADVDATE": "1000 AM CDT Sun Aug 29 2021", "ADVISNUM": "14", "BASIN": "AL", "DATELBL": "7:00 PM Tue", "DVLBL": "D", "FCSTPRD": 120, "FLDATELBL": "2021-08-31 7:00 PM Tue CDT", "GUST": 30, "LAT": 36, "LON": -85, "MAXWIND": 20, "MSLP": 9999, "SSNUM": 0, "STORMNAME": "Hurricane Ida", "STORMNUM": 9, "STORMSRC": "Tropical Cyclone", "STORMTYPE": "TD", "TCDVLP": "Tropical Depression", "TAU": 60, "TCDIR": 9999, "TCSPD": 9999, "TIMEZONE": "CDT", "VALIDTIME": "01/0000"}, "geometry": {"type": "Point", "coordinates": [-85.9, 36.4]}}, {"type": "Feature", "properties": {"shapefile": "al092021-014_5day_pts", "ADVDATE": "1000 AM CDT Sun Aug 29 2021", "ADVISNUM": "14", "BASIN": "AL", "DATELBL": "7:00 AM Wed", "DVLBL": "D", "FCSTPRD": 120, "FLDATELBL": "2021-09-01 7:00 AM Wed CDT", "GUST": 30, "LAT": 37, "LON": -82, "MAXWIND": 20, "MSLP": 9999, "SSNUM": 0, "STORMNAME": "Hurricane Ida", "STORMNUM": 9, "STORMSRC": "Post-Tropical Cyclone", "STORMTYPE": "STD", "TCDVLP": "Subtropical Depression", "TAU": 72, "TCDIR": 9999, "TCSPD": 9999, "TIMEZONE": "CDT", "VALIDTIME": "01/1200"}, "geometry": {"type": "Point", "coordinates": [-82.5, 37.8]}}, {"type": "Feature", "properties": {"shapefile": "al092021-014_5day_pts", "ADVDATE": "1000 AM CDT Sun Aug 29 2021", "ADVISNUM": "14", "BASIN": "AL", "DATELBL": "7:00 AM Thu", "DVLBL": "D", "FCSTPRD": 120, "FLDATELBL": "2021-09-02 7:00 AM Thu CDT", "GUST": 40, "LAT": 40, "LON": -74, "MAXWIND": 30, "MSLP": 9999, "SSNUM": 0, "STORMNAME": "Hurricane Ida", "STORMNUM": 9, "STORMSRC": "Post-Tropical Cyclone", "STORMTYPE": "STD", "TCDVLP": "Subtropical Depression", "TAU": 96, "TCDIR": 9999, "TCSPD": 9999, "TIMEZONE": "CDT", "VALIDTIME": "02/1200"}, "geometry": {"type": "Point", "coordinates": [-74.2, 40.5]}}, {"type": "Feature", "properties": {"shapefile": "al092021-014_5day_pts", "ADVDATE": "1000 AM CDT Sun Aug 29 2021", "ADVISNUM": "14", "BASIN": "AL", "DATELBL": "7:00 AM Fri", "DVLBL": "S", "FCSTPRD": 120, "FLDATELBL": "2021-09-03 7:00 AM Fri CDT", "GUST": 45, "LAT": 43, "LON": -67, "MAXWIND": 35, "MSLP": 9999, "SSNUM": 0, "STORMNAME": "Hurricane Ida", "STORMNUM": 9, "STORMSRC": "Post-Tropical Cyclone", "STORMTYPE": "STS", "TCDVLP": "Subtropical Storm", "TAU": 120, "TCDIR": 9999, "TCSPD": 9999, "TIMEZONE": "CDT", "VALIDTIME": "03/1200"}, "geometry": {"type": "Point", "coordinates": [-67.0, 43.5]}}]}