{"type": "FeatureCollection", "features": [{"type": "Feature", "properties": {"shapefile": "2021082918_wsp64knt120hr_5km", "PERCENTAGE": "<5%"}, "geometry": {"type": "MultiPolygon", "coordinates": [[[[-92.13450818195918, 30.131451177845726], [-92.13450818195918, 30.760834382305358], [-92.08955223878348, 30.760834382305358], [-92.04459629560779, 31.16543787088655], [-91.9996403524321, 31.16543787088655], [-91.9546844092564, 31.435173529940677], [-91.90972846608071, 31.435173529940677], [-91.90972846608071, 31.52508541629205], [-91.86477252290501, 31.52508541629205], [-91.86477252290501, 31.614997302643427], [-91.81981657972932, 31.614997302643427], [-91.81981657972932, 31.7049091889948], [-91.77486063655363, 31.7049091889948], [-91.77486063655363, 31.794821075346178], [-91.72990469337793, 31.794821075346178], [-91.68494875020224, 31.97464484804893], [-91.59503686385085, 32.01960079122462], [-91.59503686385085, 32.10951267757599], [-91.55008092067516, 32.10951267757599], [-91.55008092067516, 32.154468620751686], [-91.46016903432377, 32.199424563927366], [-91.46016903432377, 32.289336450278746], [-91.41521309114808, 32.289336450278746], [-91.32530120479669, 32.42420427980581], [-91.2353893184453, 32.42420427980581], [-91.14547743209391, 32.559072109332874], [-91.05556554574252, 32.559072109332874], [-91.05556554574252, 32.60402805250856], [-90.96565365939114, 32.60402805250856], [-90.96565365939114, 32.64898399568425], [-90.87574177303975, 32.64898399568425], [-90.87574177303975, 32.693939938859934], [-90.78582988668836, 32.693939938859934], [-90.78582988668836, 32.73889588203562], [-90.33627045493142, 32.73889588203562], [-90.33627045493142, 32.693939938859934], [-90.24635856858004, 32.693939938859934], [-90.24635856858004, 32.64898399568425], [-90.20140262540434, 32.64898399568425], [-90.20140262540434, 32.60402805250856], [-90.15644668222865, 32.60402805250856], [-90.15644668222865, 32.559072109332874], [-90.11149073905295, 32.559072109332874], [-90.11149073905295, 32.51411616615718], [-89.97662290952587, 32.42420427980581], [-89.97662290952587, 32.33429239345443], [-89.88671102317448, 32.289336450278746], [-89.88671102317448, 32.199424563927366], [-89.84175507999879, 32.199424563927366], [-89.7967991368231, 32.01960079122462], [-89.70688725047171, 31.97464484804893], [-89.66193130729602, 31.794821075346178], [-89.57201942094463, 31.74986513217049], [-89.52706347776893, 31.570041359467737], [-89.43715159141755, 31.52508541629205], [-89.43715159141755, 31.435173529940677], [-89.39219564824185, 31.435173529940677], [-89.39219564824185, 31.390217586764987], [-89.34723970506616, 31.390217586764987], [-89.34723970506616, 31.300305700413613], [-89.25732781871477, 31.255349757237923], [-89.21237187553908, 31.075525984535172], [-89.12245998918769, 31.030570041359486], [-89.12245998918769, 30.94065815500811], [-89.077504046012, 30.94065815500811], [-89.077504046012, 30.850746268656735], [-89.0325481028363, 30.850746268656735], [-89.0325481028363, 30.760834382305358], [-88.98759215966061, 30.760834382305358], [-88.98759215966061, 30.67092249595398], [-88.94263621648491, 30.67092249595398], [-88.94263621648491, 30.536054666426917], [-88.89768027330922, 30.536054666426917], [-88.89768027330922, 30.401186836899853], [-88.85272433013353, 30.401186836899853], [-88.85272433013353, 30.221363064197103], [-88.80776838695783, 30.221363064197103], [-88.80776838695783, 30.041539291494352], [-88.76281244378214, 30.041539291494352], [-88.76281244378214, 29.771803632440225], [-88.71785650060644, 29.771803632440225], [-88.71785650060644, 29.367200143859034], [-88.76281244378214, 29.367200143859034], [-88.76281244378214, 29.097464484804906], [-88.80776838695783, 29.097464484804906], [-88.80776838695783, 28.917640712102155], [-88.85272433013353, 28.917640712102155], [-88.85272433013353, 28.78277288257509], [-88.89768027330922, 28.78277288257509], [-88.89768027330922, 28.692860996223715], [-88.94263621648491, 28.692860996223715], [-88.98759215966061, 28.513037223520964], [-89.077504046012, 28.468081280345277], [-89.077504046012, 28.3781693939939], [-89.12245998918769, 28.3781693939939], [-89.12245998918769, 28.333213450818214], [-89.16741593236338, 28.333213450818214], [-89.16741593236338, 28.288257507642527], [-89.21237187553908, 28.288257507642527], [-89.21237187553908, 28.243301564466837], [-89.25732781871477, 28.243301564466837], [-89.25732781871477, 28.19834562129115], [-89.30228376189046, 28.19834562129115], [-89.39219564824185, 28.063477791764086], [-89.57201942094463, 28.0185218485884], [-89.57201942094463, 27.973565905412713], [-89.66193130729602, 27.973565905412713], [-89.66193130729602, 27.928609962237022], [-89.7967991368231, 27.928609962237022], [-89.7967991368231, 27.883654019061336], [-90.02157885270157, 27.883654019061336], [-90.02157885270157, 27.83869807588565], [-90.4711382844585, 27.83869807588565], [-90.4711382844585, 27.883654019061336], [-90.65096205716128, 27.883654019061336], [-90.65096205716128, 27.928609962237022], [-90.78582988668836, 27.928609962237022], [-90.78582988668836, 27.973565905412713], [-90.87574177303975, 27.973565905412713], [-90.87574177303975, 28.0185218485884], [-91.05556554574252, 28.063477791764086], [-91.10052148891822, 28.153389678115463], [-91.1904333752696, 28.153389678115463], [-91.1904333752696, 28.19834562129115], [-91.2353893184453, 28.19834562129115], [-91.2353893184453, 28.243301564466837], [-91.37025714797238, 28.333213450818214], [-91.37025714797238, 28.42312533716959], [-91.50512497749946, 28.513037223520964], [-91.50512497749946, 28.60294910987234], [-91.59503686385085, 28.647905053048028], [-91.59503686385085, 28.737816939399405], [-91.63999280702654, 28.737816939399405], [-91.63999280702654, 28.82772882575078], [-91.72990469337793, 28.87268476892647], [-91.72990469337793, 28.962596655277842], [-91.77486063655363, 28.962596655277842], [-91.77486063655363, 29.05250854162922], [-91.81981657972932, 29.05250854162922], [-91.81981657972932, 29.142420427980596], [-91.86477252290501, 29.142420427980596], [-91.86477252290501, 29.27728825750766], [-91.90972846608071, 29.27728825750766], [-91.90972846608071, 29.367200143859034], [-91.9546844092564, 29.367200143859034], [-91.9546844092564, 29.502067973386097], [-91.9996403524321, 29.502067973386097], [-91.9996403524321, 29.63693580291316], [-92.04459629560779, 29.63693580291316], [-92.04459629560779, 29.861715518791602], [-92.08955223878348, 29.861715518791602], [-92.08955223878348, 30.131451177845726], [-92.13450818195918, 30.131451177845726]], [[-91.81981657972932, 30.356230893724167], [-91.77486063655363, 30.356230893724167], [-91.77486063655363, 29.90667146196729], [-91.72990469337793, 29.90667146196729], [-91.72990469337793, 29.726847689264538], [-91.68494875020224, 29.726847689264538], [-91.68494875020224, 29.547023916561784], [-91.63999280702654, 29.547023916561784], [-91.63999280702654, 29.45711203021041], [-91.59503686385085, 29.45711203021041], [-91.59503686385085, 29.322244200683347], [-91.55008092067516, 29.322244200683347], [-91.55008092067516, 29.23233231433197], [-91.50512497749946, 29.23233231433197], [-91.50512497749946, 29.142420427980596], [-91.46016903432377, 29.142420427980596], [-91.46016903432377, 29.05250854162922], [-91.41521309114808, 29.05250854162922], [-91.37025714797238, 28.87268476892647], [-91.32530120479669, 28.87268476892647], [-91.32530120479669, 28.82772882575078], [-91.280345261621, 28.82772882575078], [-91.280345261621, 28.737816939399405], [-91.1904333752696, 28.692860996223715], [-91.1904333752696, 28.60294910987234], [-91.14547743209391, 28.60294910987234], [-91.14547743209391, 28.557993166696654], [-91.10052148891822, 28.557993166696654], [-91.10052148891822, 28.513037223520964], [-91.05556554574252, 28.513037223520964], [-91.05556554574252, 28.468081280345277], [-91.01060960256683, 28.468081280345277], [-90.92069771621544, 28.333213450818214], [-90.74087394351267, 28.288257507642527], [-90.74087394351267, 28.243301564466837], [-90.65096205716128, 28.243301564466837], [-90.65096205716128, 28.19834562129115], [-90.4711382844585, 28.19834562129115], [-90.4711382844585, 28.153389678115463], [-89.97662290952587, 28.153389678115463], [-89.97662290952587, 28.19834562129115], [-89.70688725047171, 28.243301564466837], [-89.70688725047171, 28.288257507642527], [-89.61697536412032, 28.288257507642527], [-89.57201942094463, 28.3781693939939], [-89.48210753459324, 28.3781693939939], [-89.48210753459324, 28.42312533716959], [-89.39219564824185, 28.468081280345277], [-89.39219564824185, 28.557993166696654], [-89.25732781871477, 28.647905053048028], [-89.25732781871477, 28.737816939399405], [-89.21237187553908, 28.737816939399405], [-89.21237187553908, 28.82772882575078], [-89.16741593236338, 28.82772882575078], [-89.16741593236338, 28.962596655277842], [-89.12245998918769, 28.962596655277842], [-89.12245998918769, 29.097464484804906], [-89.077504046012, 29.097464484804906], [-89.077504046012, 29.322244200683347], [-89.0325481028363, 29.322244200683347], [-89.0325481028363, 29.771803632440225], [-89.077504046012, 29.771803632440225], [-89.077504046012, 30.041539291494352], [-89.12245998918769, 30.041539291494352], [-89.12245998918769, 30.221363064197103], [-89.16741593236338, 30.221363064197103], [-89.21237187553908, 30.49109872325123], [-89.25732781871477, 30.49109872325123], [-89.25732781871477, 30.581010609602608], [-89.30228376189046, 30.581010609602608], [-89.34723970506616, 30.760834382305358], [-89.43715159141755, 30.805790325481045], [-89.43715159141755, 30.895702211832422], [-89.57201942094463, 30.985614098183795], [-89.57201942094463, 31.075525984535172], [-89.61697536412032, 31.075525984535172], [-89.61697536412032, 31.12048192771086], [-89.66193130729602, 31.12048192771086], [-89.66193130729602, 31.16543787088655], [-89.70688725047171, 31.16543787088655], [-89.70688725047171, 31.210393814062236], [-89.7518431936474, 31.210393814062236], [-89.7518431936474, 31.255349757237923], [-89.7967991368231, 31.255349757237923], [-89.7967991368231, 31.300305700413613], [-89.84175507999879, 31.300305700413613], [-89.84175507999879, 31.3452616435893], [-89.88671102317448, 31.3452616435893], [-89.88671102317448, 31.390217586764987], [-89.93166696635018, 31.390217586764987], [-89.93166696635018, 31.435173529940677], [-89.97662290952587, 31.435173529940677], [-89.97662290952587, 31.480129473116364], [-90.11149073905295, 31.570041359467737], [-90.11149073905295, 31.614997302643427], [-90.20140262540434, 31.614997302643427], [-90.24635856858004, 31.7049091889948], [-90.33627045493142, 31.7049091889948], [-90.33627045493142, 31.74986513217049], [-90.42618234128281, 31.74986513217049], [-90.42618234128281, 31.794821075346178], [-90.87574177303975, 31.794821075346178], [-90.87574177303975, 31.74986513217049], [-91.01060960256683, 31.74986513217049], [-91.01060960256683, 31.7049091889948], [-91.1904333752696, 31.659953245819114], [-91.1904333752696, 31.614997302643427], [-91.2353893184453, 31.614997302643427], [-91.2353893184453, 31.570041359467737], [-91.280345261621, 31.570041359467737], [-91.280345261621, 31.52508541629205], [-91.32530120479669, 31.52508541629205], [-91.32530120479669, 31.480129473116364], [-91.37025714797238, 31.480129473116364], [-91.37025714797238, 31.435173529940677], [-91.50512497749946, 31.3452616435893], [-91.50512497749946, 31.255349757237923], [-91.55008092067516, 31.255349757237923], [-91.55008092067516, 31.16543787088655], [-91.59503686385085, 31.16543787088655], [-91.59503686385085, 31.075525984535172], [-91.63999280702654, 31.075525984535172], [-91.63999280702654, 30.985614098183795], [-91.68494875020224, 30.985614098183795], [-91.68494875020224, 30.850746268656735], [-91.72990469337793, 30.850746268656735], [-91.72990469337793, 30.71587843912967], [-91.77486063655363, 30.71587843912967], [-91.77486063655363, 30.446142780075544], [-91.81981657972932, 30.446142780075544], [-91.81981657972932, 30.356230893724167]]]]}}, {"type": "Feature", "properties": {"shapefile": "2021082918_wsp64knt120hr_5km", "PERCENTAGE": "5-10%"}, "geometry": {"type": "MultiPolygon", "coordinates": [[[[-91.81981657972932, 30.356230893724167], [-91.81981657972932, 30.446142780075544], [-91.77486063655363, 30.446142780075544], [-91.77486063655363, 30.71587843912967], [-91.72990469337793, 30.71587843912967], [-91.68494875020224, 30.985614098183795], [-91.63999280702654, 30.985614098183795], [-91.63999280702654, 31.075525984535172], [-91.59503686385085, 31.075525984535172], [-91.59503686385085, 31.16543787088655], [-91.55008092067516, 31.16543787088655], [-91.50512497749946, 31.3452616435893], [-91.46016903432377, 31.3452616435893], [-91.46016903432377, 31.390217586764987], [-91.41521309114808, 31.390217586764987], [-91.41521309114808, 31.435173529940677], [-91.37025714797238, 31.435173529940677], [-91.37025714797238, 31.480129473116364], [-91.32530120479669, 31.480129473116364], [-91.32530120479669, 31.52508541629205], [-91.280345261621, 31.52508541629205], [-91.1904333752696, 31.659953245819114], [-91.01060960256683, 31.7049091889948], [-91.01060960256683, 31.74986513217049], [-90.87574177303975, 31.74986513217049], [-90.87574177303975, 31.794821075346178], [-90.42618234128281, 31.794821075346178], [-90.42618234128281, 31.74986513217049], [-90.24635856858004, 31.7049091889948], [-90.20140262540434, 31.614997302643427], [-90.11149073905295, 31.614997302643427], [-90.11149073905295, 31.570041359467737], [-90.06653479587726, 31.570041359467737], [-90.06653479587726, 31.52508541629205], [-90.02157885270157, 31.52508541629205], [-90.02157885270157, 31.480129473116364], [-89.97662290952587, 31.480129473116364], [-89.97662290952587, 31.435173529940677], [-89.93166696635018, 31.435173529940677], [-89.93166696635018, 31.390217586764987], [-89.88671102317448, 31.390217586764987], [-89.88671102317448, 31.3452616435893], [-89.84175507999879, 31.3452616435893], [-89.84175507999879, 31.300305700413613], [-89.7967991368231, 31.300305700413613], [-89.7967991368231, 31.255349757237923], [-89.7518431936474, 31.255349757237923], [-89.7518431936474, 31.210393814062236], [-89.70688725047171, 31.210393814062236], [-89.70688725047171, 31.16543787088655], [-89.57201942094463, 31.075525984535172], [-89.57201942094463, 30.985614098183795], [-89.43715159141755, 30.895702211832422], [-89.43715159141755, 30.805790325481045], [-89.34723970506616, 30.760834382305358], [-89.34723970506616, 30.67092249595398], [-89.30228376189046, 30.67092249595398], [-89.30228376189046, 30.581010609602608], [-89.25732781871477, 30.581010609602608], [-89.25732781871477, 30.49109872325123], [-89.21237187553908, 30.49109872325123], [-89.16741593236338, 30.221363064197103], [-89.12245998918769, 30.221363064197103], [-89.12245998918769, 30.041539291494352], [-89.077504046012, 30.041539291494352], [-89.077504046012, 29.771803632440225], [-89.0325481028363, 29.771803632440225], [-89.0325481028363, 29.322244200683347], [-89.077504046012, 29.322244200683347], [-89.077504046012, 29.097464484804906], [-89.12245998918769, 29.097464484804906], [-89.12245998918769, 28.962596655277842], [-89.16741593236338, 28.962596655277842], [-89.16741593236338, 28.82772882575078], [-89.21237187553908, 28.82772882575078], [-89.25732781871477, 28.647905053048028], [-89.39219564824185, 28.557993166696654], [-89.39219564824185, 28.468081280345277], [-89.43715159141755, 28.468081280345277], [-89.48210753459324, 28.3781693939939], [-89.57201942094463, 28.3781693939939], [-89.57201942094463, 28.333213450818214], [-89.61697536412032, 28.333213450818214], [-89.61697536412032, 28.288257507642527], [-89.70688725047171, 28.288257507642527], [-89.70688725047171, 28.243301564466837], [-89.97662290952587, 28.19834562129115], [-89.97662290952587, 28.153389678115463], [-90.4711382844585, 28.153389678115463], [-90.4711382844585, 28.19834562129115], [-90.65096205716128, 28.19834562129115], [-90.65096205716128, 28.243301564466837], [-90.74087394351267, 28.243301564466837], [-90.74087394351267, 28.288257507642527], [-90.92069771621544, 28.333213450818214], [-90.92069771621544, 28.3781693939939], [-90.96565365939114, 28.3781693939939], [-90.96565365939114, 28.42312533716959], [-91.01060960256683, 28.42312533716959], [-91.01060960256683, 28.468081280345277], [-91.05556554574252, 28.468081280345277], [-91.05556554574252, 28.513037223520964], [-91.1904333752696, 28.60294910987234], [-91.1904333752696, 28.692860996223715], [-91.2353893184453, 28.692860996223715], [-91.2353893184453, 28.737816939399405], [-91.280345261621, 28.737816939399405], [-91.280345261621, 28.82772882575078], [-91.37025714797238, 28.87268476892647], [-91.37025714797238, 28.962596655277842], [-91.41521309114808, 28.962596655277842], [-91.41521309114808, 29.05250854162922], [-91.46016903432377, 29.05250854162922], [-91.46016903432377, 29.142420427980596], [-91.50512497749946, 29.142420427980596], [-91.50512497749946, 29.23233231433197], [-91.55008092067516, 29.23233231433197], [-91.55008092067516, 29.322244200683347], [-91.59503686385085, 29.322244200683347], [-91.59503686385085, 29.45711203021041], [-91.63999280702654, 29.45711203021041], [-91.63999280702654, 29.547023916561784], [-91.68494875020224, 29.547023916561784], [-91.68494875020224, 29.726847689264538], [-91.72990469337793, 29.726847689264538], [-91.72990469337793, 29.90667146196729], [-91.77486063655363, 29.90667146196729], [-91.77486063655363, 30.356230893724167], [-91.81981657972932, 30.356230893724167]], [[-91.63999280702654, 30.131451177845726], [-91.59503686385085, 30.131451177845726], [-91.59503686385085, 29.861715518791602], [-91.55008092067516, 29.861715518791602], [-91.55008092067516, 29.681891746088848], [-91.50512497749946, 29.681891746088848], [-91.46016903432377, 29.412156087034724], [-91.41521309114808, 29.412156087034724], [-91.41521309114808, 29.322244200683347], [-91.37025714797238, 29.322244200683347], [-91.37025714797238, 29.23233231433197], [-91.32530120479669, 29.23233231433197], [-91.32530120479669, 29.142420427980596], [-91.280345261621, 29.142420427980596], [-91.280345261621, 29.05250854162922], [-91.2353893184453, 29.05250854162922], [-91.1904333752696, 28.87268476892647], [-91.10052148891822, 28.82772882575078], [-91.10052148891822, 28.737816939399405], [-91.05556554574252, 28.737816939399405], [-91.05556554574252, 28.692860996223715], [-91.01060960256683, 28.692860996223715], [-91.01060960256683, 28.647905053048028], [-90.96565365939114, 28.647905053048028], [-90.96565365939114, 28.60294910987234], [-90.92069771621544, 28.60294910987234], [-90.92069771621544, 28.557993166696654], [-90.87574177303975, 28.557993166696654], [-90.78582988668836, 28.42312533716959], [-90.69591800033697, 28.42312533716959], [-90.69591800033697, 28.3781693939939], [-90.56105017080989, 28.3781693939939], [-90.56105017080989, 28.333213450818214], [-90.11149073905295, 28.288257507642527], [-90.11149073905295, 28.333213450818214], [-89.88671102317448, 28.333213450818214], [-89.88671102317448, 28.3781693939939], [-89.7967991368231, 28.3781693939939], [-89.7967991368231, 28.42312533716959], [-89.61697536412032, 28.468081280345277], [-89.61697536412032, 28.513037223520964], [-89.57201942094463, 28.513037223520964], [-89.57201942094463, 28.557993166696654], [-89.43715159141755, 28.647905053048028], [-89.43715159141755, 28.737816939399405], [-89.39219564824185, 28.737816939399405], [-89.39219564824185, 28.82772882575078], [-89.34723970506616, 28.82772882575078], [-89.34723970506616, 28.917640712102155], [-89.30228376189046, 28.917640712102155], [-89.25732781871477, 29.187376371156283], [-89.21237187553908, 29.187376371156283], [-89.21237187553908, 29.90667146196729], [-89.25732781871477, 29.90667146196729], [-89.30228376189046, 30.26631900737279], [-89.34723970506616, 30.26631900737279], [-89.34723970506616, 30.401186836899853], [-89.39219564824185, 30.401186836899853], [-89.39219564824185, 30.49109872325123], [-89.43715159141755, 30.49109872325123], [-89.48210753459324, 30.67092249595398], [-89.52706347776893, 30.67092249595398], [-89.52706347776893, 30.71587843912967], [-89.57201942094463, 30.71587843912967], [-89.57201942094463, 30.805790325481045], [-89.61697536412032, 30.805790325481045], [-89.61697536412032, 30.850746268656735], [-89.66193130729602, 30.850746268656735], [-89.66193130729602, 30.895702211832422], [-89.7967991368231, 30.985614098183795], [-89.7967991368231, 31.075525984535172], [-89.84175507999879, 31.075525984535172], [-89.84175507999879, 31.12048192771086], [-89.93166696635018, 31.12048192771086], [-89.93166696635018, 31.16543787088655], [-89.97662290952587, 31.16543787088655], [-89.97662290952587, 31.210393814062236], [-90.02157885270157, 31.210393814062236], [-90.11149073905295, 31.3452616435893], [-90.20140262540434, 31.3452616435893], [-90.24635856858004, 31.435173529940677], [-90.33627045493142, 31.435173529940677], [-90.33627045493142, 31.480129473116364], [-90.42618234128281, 31.480129473116364], [-90.42618234128281, 31.52508541629205], [-90.78582988668836, 31.52508541629205], [-90.78582988668836, 31.480129473116364], [-91.01060960256683, 31.480129473116364], [-91.01060960256683, 31.435173529940677], [-91.1904333752696, 31.390217586764987], [-91.1904333752696, 31.3452616435893], [-91.32530120479669, 31.255349757237923], [-91.37025714797238, 31.075525984535172], [-91.46016903432377, 31.030570041359486], [-91.46016903432377, 30.94065815500811], [-91.50512497749946, 30.94065815500811], [-91.50512497749946, 30.850746268656735], [-91.55008092067516, 30.850746268656735], [-91.55008092067516, 30.71587843912967], [-91.59503686385085, 30.71587843912967], [-91.59503686385085, 30.581010609602608], [-91.63999280702654, 30.581010609602608], [-91.63999280702654, 30.131451177845726]]]]}}, {"type": "Feature", "properties": {"shapefile": "2021082918_wsp64knt120hr_5km", "PERCENTAGE": "10-20%"}, "geometry": {"type": "MultiPolygon", "coordinates": [[[[-91.63999280702654, 30.131451177845726], [-91.63999280702654, 30.581010609602608], [-91.59503686385085, 30.581010609602608], [-91.55008092067516, 30.850746268656735], [-91.50512497749946, 30.850746268656735], [-91.46016903432377, 31.030570041359486], [-91.37025714797238, 31.075525984535172], [-91.32530120479669, 31.255349757237923], [-91.280345261621, 31.255349757237923], [-91.1904333752696, 31.390217586764987], [-91.10052148891822, 31.390217586764987], [-91.10052148891822, 31.435173529940677], [-91.01060960256683, 31.435173529940677], [-91.01060960256683, 31.480129473116364], [-90.78582988668836, 31.480129473116364], [-90.78582988668836, 31.52508541629205], [-90.42618234128281, 31.52508541629205], [-90.42618234128281, 31.480129473116364], [-90.24635856858004, 31.435173529940677], [-90.20140262540434, 31.3452616435893], [-90.11149073905295, 31.3452616435893], [-90.11149073905295, 31.300305700413613], [-90.06653479587726, 31.300305700413613], [-90.06653479587726, 31.255349757237923], [-90.02157885270157, 31.255349757237923], [-89.93166696635018, 31.12048192771086], [-89.84175507999879, 31.12048192771086], [-89.84175507999879, 31.075525984535172], [-89.7967991368231, 31.075525984535172], [-89.7967991368231, 30.985614098183795], [-89.7518431936474, 30.985614098183795], [-89.7518431936474, 30.94065815500811], [-89.70688725047171, 30.94065815500811], [-89.70688725047171, 30.895702211832422], [-89.57201942094463, 30.805790325481045], [-89.57201942094463, 30.71587843912967], [-89.48210753459324, 30.67092249595398], [-89.48210753459324, 30.581010609602608], [-89.43715159141755, 30.581010609602608], [-89.43715159141755, 30.49109872325123], [-89.39219564824185, 30.49109872325123], [-89.39219564824185, 30.401186836899853], [-89.34723970506616, 30.401186836899853], [-89.34723970506616, 30.26631900737279], [-89.30228376189046, 30.26631900737279], [-89.30228376189046, 30.08649523467004], [-89.25732781871477, 30.08649523467004], [-89.25732781871477, 29.90667146196729], [-89.21237187553908, 29.90667146196729], [-89.21237187553908, 29.187376371156283], [-89.25732781871477, 29.187376371156283], [-89.25732781871477, 29.05250854162922], [-89.30228376189046, 29.05250854162922], [-89.30228376189046, 28.917640712102155], [-89.34723970506616, 28.917640712102155], [-89.34723970506616, 28.82772882575078], [-89.39219564824185, 28.82772882575078], [-89.43715159141755, 28.647905053048028], [-89.48210753459324, 28.647905053048028], [-89.48210753459324, 28.60294910987234], [-89.52706347776893, 28.60294910987234], [-89.61697536412032, 28.468081280345277], [-89.7967991368231, 28.42312533716959], [-89.7967991368231, 28.3781693939939], [-89.88671102317448, 28.3781693939939], [-89.88671102317448, 28.333213450818214], [-90.11149073905295, 28.333213450818214], [-90.11149073905295, 28.288257507642527], [-90.56105017080989, 28.333213450818214], [-90.56105017080989, 28.3781693939939], [-90.69591800033697, 28.3781693939939], [-90.69591800033697, 28.42312533716959], [-90.78582988668836, 28.42312533716959], [-90.78582988668836, 28.468081280345277], [-90.83078582986406, 28.468081280345277], [-90.83078582986406, 28.513037223520964], [-90.87574177303975, 28.513037223520964], [-90.87574177303975, 28.557993166696654], [-90.92069771621544, 28.557993166696654], [-90.92069771621544, 28.60294910987234], [-90.96565365939114, 28.60294910987234], [-90.96565365939114, 28.647905053048028], [-91.10052148891822, 28.737816939399405], [-91.10052148891822, 28.82772882575078], [-91.1904333752696, 28.87268476892647], [-91.1904333752696, 28.962596655277842], [-91.2353893184453, 28.962596655277842], [-91.2353893184453, 29.05250854162922], [-91.280345261621, 29.05250854162922], [-91.280345261621, 29.142420427980596], [-91.32530120479669, 29.142420427980596], [-91.32530120479669, 29.23233231433197], [-91.37025714797238, 29.23233231433197], [-91.37025714797238, 29.322244200683347], [-91.41521309114808, 29.322244200683347], [-91.41521309114808, 29.412156087034724], [-91.46016903432377, 29.412156087034724], [-91.46016903432377, 29.547023916561784], [-91.50512497749946, 29.547023916561784], [-91.50512497749946, 29.681891746088848], [-91.55008092067516, 29.681891746088848], [-91.55008092067516, 29.861715518791602], [-91.59503686385085, 29.861715518791602], [-91.59503686385085, 30.131451177845726], [-91.63999280702654, 30.131451177845726]], [[-91.50512497749946, 30.221363064197103], [-91.46016903432377, 30.221363064197103], [-91.46016903432377, 29.90667146196729], [-91.41521309114808, 29.90667146196729], [-91.41521309114808, 29.771803632440225], [-91.37025714797238, 29.771803632440225], [-91.37025714797238, 29.63693580291316], [-91.32530120479669, 29.63693580291316], [-91.280345261621, 29.367200143859034], [-91.2353893184453, 29.367200143859034], [-91.2353893184453, 29.27728825750766], [-91.1904333752696, 29.27728825750766], [-91.1904333752696, 29.142420427980596], [-91.14547743209391, 29.142420427980596], [-91.10052148891822, 28.962596655277842], [-91.05556554574252, 28.962596655277842], [-91.05556554574252, 28.917640712102155], [-91.01060960256683, 28.917640712102155], [-91.01060960256683, 28.82772882575078], [-90.87574177303975, 28.737816939399405], [-90.87574177303975, 28.647905053048028], [-90.78582988668836, 28.647905053048028], [-90.69591800033697, 28.513037223520964], [-90.56105017080989, 28.513037223520964], [-90.56105017080989, 28.468081280345277], [-90.42618234128281, 28.468081280345277], [-90.42618234128281, 28.42312533716959], [-90.02157885270157, 28.42312533716959], [-90.02157885270157, 28.468081280345277], [-89.88671102317448, 28.468081280345277], [-89.88671102317448, 28.513037223520964], [-89.70688725047171, 28.557993166696654], [-89.70688725047171, 28.60294910987234], [-89.66193130729602, 28.60294910987234], [-89.66193130729602, 28.647905053048028], [-89.52706347776893, 28.737816939399405], [-89.52706347776893, 28.82772882575078], [-89.48210753459324, 28.82772882575078], [-89.48210753459324, 28.917640712102155], [-89.43715159141755, 28.917640712102155], [-89.43715159141755, 29.007552598453533], [-89.39219564824185, 29.007552598453533], [-89.39219564824185, 29.142420427980596], [-89.34723970506616, 29.142420427980596], [-89.34723970506616, 29.412156087034724], [-89.30228376189046, 29.412156087034724], [-89.30228376189046, 29.63693580291316], [-89.34723970506616, 29.63693580291316], [-89.34723970506616, 29.951627405142975], [-89.39219564824185, 29.951627405142975], [-89.39219564824185, 30.131451177845726], [-89.43715159141755, 30.131451177845726], [-89.43715159141755, 30.26631900737279], [-89.48210753459324, 30.26631900737279], [-89.48210753459324, 30.356230893724167], [-89.52706347776893, 30.356230893724167], [-89.57201942094463, 30.536054666426917], [-89.66193130729602, 30.581010609602608], [-89.66193130729602, 30.67092249595398], [-89.70688725047171, 30.67092249595398], [-89.70688725047171, 30.71587843912967], [-89.84175507999879, 30.805790325481045], [-89.84175507999879, 30.895702211832422], [-89.88671102317448, 30.895702211832422], [-89.97662290952587, 31.030570041359486], [-90.06653479587726, 31.030570041359486], [-90.06653479587726, 31.075525984535172], [-90.11149073905295, 31.075525984535172], [-90.20140262540434, 31.210393814062236], [-90.38122639810712, 31.255349757237923], [-90.38122639810712, 31.300305700413613], [-90.4711382844585, 31.300305700413613], [-90.4711382844585, 31.3452616435893], [-90.65096205716128, 31.3452616435893], [-90.65096205716128, 31.300305700413613], [-90.96565365939114, 31.300305700413613], [-90.96565365939114, 31.255349757237923], [-91.05556554574252, 31.255349757237923], [-91.05556554574252, 31.210393814062236], [-91.10052148891822, 31.210393814062236], [-91.10052148891822, 31.16543787088655], [-91.14547743209391, 31.16543787088655], [-91.14547743209391, 31.12048192771086], [-91.280345261621, 31.030570041359486], [-91.280345261621, 30.94065815500811], [-91.32530120479669, 30.94065815500811], [-91.32530120479669, 30.895702211832422], [-91.37025714797238, 30.895702211832422], [-91.37025714797238, 30.805790325481045], [-91.41521309114808, 30.805790325481045], [-91.41521309114808, 30.67092249595398], [-91.46016903432377, 30.67092249595398], [-91.46016903432377, 30.446142780075544], [-91.50512497749946, 30.446142780075544], [-91.50512497749946, 30.221363064197103]]]]}}, {"type": "Feature", "properties": {"shapefile": "2021082918_wsp64knt120hr_5km", "PERCENTAGE": "20-30%"}, "geometry": {"type": "MultiPolygon", "coordinates": [[[[-91.50512497749946, 30.221363064197103], [-91.50512497749946, 30.446142780075544], [-91.46016903432377, 30.446142780075544], [-91.46016903432377, 30.67092249595398], [-91.41521309114808, 30.67092249595398], [-91.41521309114808, 30.805790325481045], [-91.37025714797238, 30.805790325481045], [-91.37025714797238, 30.895702211832422], [-91.280345261621, 30.94065815500811], [-91.280345261621, 31.030570041359486], [-91.2353893184453, 31.030570041359486], [-91.2353893184453, 31.075525984535172], [-91.1904333752696, 31.075525984535172], [-91.1904333752696, 31.12048192771086], [-91.14547743209391, 31.12048192771086], [-91.05556554574252, 31.255349757237923], [-90.96565365939114, 31.255349757237923], [-90.96565365939114, 31.300305700413613], [-90.65096205716128, 31.300305700413613], [-90.65096205716128, 31.3452616435893], [-90.4711382844585, 31.3452616435893], [-90.4711382844585, 31.300305700413613], [-90.38122639810712, 31.300305700413613], [-90.38122639810712, 31.255349757237923], [-90.20140262540434, 31.210393814062236], [-90.20140262540434, 31.16543787088655], [-90.15644668222865, 31.16543787088655], [-90.06653479587726, 31.030570041359486], [-89.97662290952587, 31.030570041359486], [-89.97662290952587, 30.985614098183795], [-89.84175507999879, 30.895702211832422], [-89.84175507999879, 30.805790325481045], [-89.7967991368231, 30.805790325481045], [-89.7967991368231, 30.760834382305358], [-89.66193130729602, 30.67092249595398], [-89.66193130729602, 30.581010609602608], [-89.57201942094463, 30.536054666426917], [-89.57201942094463, 30.446142780075544], [-89.52706347776893, 30.446142780075544], [-89.52706347776893, 30.356230893724167], [-89.48210753459324, 30.356230893724167], [-89.48210753459324, 30.26631900737279], [-89.43715159141755, 30.26631900737279], [-89.43715159141755, 30.131451177845726], [-89.39219564824185, 30.131451177845726], [-89.39219564824185, 29.951627405142975], [-89.34723970506616, 29.951627405142975], [-89.34723970506616, 29.63693580291316], [-89.30228376189046, 29.63693580291316], [-89.30228376189046, 29.412156087034724], [-89.34723970506616, 29.412156087034724], [-89.34723970506616, 29.142420427980596], [-89.39219564824185, 29.142420427980596], [-89.39219564824185, 29.007552598453533], [-89.43715159141755, 29.007552598453533], [-89.43715159141755, 28.917640712102155], [-89.48210753459324, 28.917640712102155], [-89.52706347776893, 28.737816939399405], [-89.57201942094463, 28.737816939399405], [-89.57201942094463, 28.692860996223715], [-89.61697536412032, 28.692860996223715], [-89.70688725047171, 28.557993166696654], [-89.7967991368231, 28.557993166696654], [-89.7967991368231, 28.513037223520964], [-89.88671102317448, 28.513037223520964], [-89.88671102317448, 28.468081280345277], [-90.02157885270157, 28.468081280345277], [-90.02157885270157, 28.42312533716959], [-90.42618234128281, 28.42312533716959], [-90.42618234128281, 28.468081280345277], [-90.69591800033697, 28.513037223520964], [-90.78582988668836, 28.647905053048028], [-90.87574177303975, 28.647905053048028], [-90.87574177303975, 28.737816939399405], [-91.01060960256683, 28.82772882575078], [-91.01060960256683, 28.917640712102155], [-91.10052148891822, 28.962596655277842], [-91.10052148891822, 29.05250854162922], [-91.14547743209391, 29.05250854162922], [-91.14547743209391, 29.142420427980596], [-91.1904333752696, 29.142420427980596], [-91.1904333752696, 29.27728825750766], [-91.2353893184453, 29.27728825750766], [-91.2353893184453, 29.367200143859034], [-91.280345261621, 29.367200143859034], [-91.280345261621, 29.502067973386097], [-91.32530120479669, 29.502067973386097], [-91.32530120479669, 29.63693580291316], [-91.37025714797238, 29.63693580291316], [-91.37025714797238, 29.771803632440225], [-91.41521309114808, 29.771803632440225], [-91.41521309114808, 29.90667146196729], [-91.46016903432377, 29.90667146196729], [-91.46016903432377, 30.221363064197103], [-91.50512497749946, 30.221363064197103]], [[-91.37025714797238, 30.131451177845726], [-91.32530120479669, 30.131451177845726], [-91.32530120479669, 29.90667146196729], [-91.280345261621, 29.90667146196729], [-91.280345261621, 29.771803632440225], [-91.2353893184453, 29.771803632440225], [-91.2353893184453, 29.63693580291316], [-91.1904333752696, 29.63693580291316], [-91.14547743209391, 29.367200143859034], [-91.10052148891822, 29.367200143859034], [-91.10052148891822, 29.27728825750766], [-91.05556554574252, 29.27728825750766], [-91.05556554574252, 29.142420427980596], [-91.01060960256683, 29.142420427980596], [-91.01060960256683, 29.05250854162922], [-90.96565365939114, 29.05250854162922], [-90.92069771621544, 28.87268476892647], [-90.87574177303975, 28.87268476892647], [-90.87574177303975, 28.82772882575078], [-90.83078582986406, 28.82772882575078], [-90.83078582986406, 28.78277288257509], [-90.78582988668836, 28.78277288257509], [-90.69591800033697, 28.647905053048028], [-90.60600611398559, 28.647905053048028], [-90.60600611398559, 28.60294910987234], [-90.5160942276342, 28.60294910987234], [-90.5160942276342, 28.557993166696654], [-90.29131451175573, 28.557993166696654], [-90.29131451175573, 28.513037223520964], [-90.15644668222865, 28.513037223520964], [-90.15644668222865, 28.557993166696654], [-89.93166696635018, 28.557993166696654], [-89.93166696635018, 28.60294910987234], [-89.7518431936474, 28.647905053048028], [-89.7518431936474, 28.692860996223715], [-89.61697536412032, 28.78277288257509], [-89.61697536412032, 28.87268476892647], [-89.57201942094463, 28.87268476892647], [-89.57201942094463, 28.962596655277842], [-89.52706347776893, 28.962596655277842], [-89.52706347776893, 29.05250854162922], [-89.48210753459324, 29.05250854162922], [-89.48210753459324, 29.23233231433197], [-89.43715159141755, 29.23233231433197], [-89.43715159141755, 29.81675957561591], [-89.48210753459324, 29.81675957561591], [-89.48210753459324, 30.041539291494352], [-89.52706347776893, 30.041539291494352], [-89.52706347776893, 30.176407121021416], [-89.57201942094463, 30.176407121021416], [-89.57201942094463, 30.26631900737279], [-89.61697536412032, 30.26631900737279], [-89.61697536412032, 30.356230893724167], [-89.66193130729602, 30.356230893724167], [-89.66193130729602, 30.446142780075544], [-89.7967991368231, 30.536054666426917], [-89.7967991368231, 30.625966552778294], [-89.84175507999879, 30.625966552778294], [-89.84175507999879, 30.67092249595398], [-89.88671102317448, 30.67092249595398], [-89.88671102317448, 30.71587843912967], [-89.93166696635018, 30.71587843912967], [-89.93166696635018, 30.760834382305358], [-89.97662290952587, 30.760834382305358], [-89.97662290952587, 30.805790325481045], [-90.02157885270157, 30.805790325481045], [-90.02157885270157, 30.850746268656735], [-90.06653479587726, 30.850746268656735], [-90.06653479587726, 30.895702211832422], [-90.20140262540434, 30.985614098183795], [-90.20140262540434, 31.030570041359486], [-90.38122639810712, 31.075525984535172], [-90.38122639810712, 31.12048192771086], [-90.4711382844585, 31.12048192771086], [-90.4711382844585, 31.16543787088655], [-90.78582988668836, 31.16543787088655], [-90.78582988668836, 31.12048192771086], [-90.96565365939114, 31.12048192771086], [-91.01060960256683, 31.030570041359486], [-91.10052148891822, 31.030570041359486], [-91.10052148891822, 30.985614098183795], [-91.14547743209391, 30.985614098183795], [-91.14547743209391, 30.895702211832422], [-91.2353893184453, 30.850746268656735], [-91.280345261621, 30.67092249595398], [-91.32530120479669, 30.67092249595398], [-91.32530120479669, 30.49109872325123], [-91.37025714797238, 30.49109872325123], [-91.37025714797238, 30.131451177845726]]]]}}, {"type": "Feature", "properties": {"shapefile": "2021082918_wsp64knt120hr_5km", "PERCENTAGE": "30-40%"}, "geometry": {"type": "MultiPolygon", "coordinates": [[[[-91.37025714797238, 30.131451177845726], [-91.37025714797238, 30.49109872325123], [-91.32530120479669, 30.49109872325123], [-91.32530120479669, 30.67092249595398], [-91.280345261621, 30.67092249595398], [-91.280345261621, 30.760834382305358], [-91.2353893184453, 30.760834382305358], [-91.2353893184453, 30.850746268656735], [-91.14547743209391, 30.895702211832422], [-91.14547743209391, 30.985614098183795], [-91.10052148891822, 30.985614098183795], [-91.10052148891822, 31.030570041359486], [-91.01060960256683, 31.030570041359486], [-90.96565365939114, 31.12048192771086], [-90.78582988668836, 31.12048192771086], [-90.78582988668836, 31.16543787088655], [-90.4711382844585, 31.16543787088655], [-90.4711382844585, 31.12048192771086], [-90.38122639810712, 31.12048192771086], [-90.38122639810712, 31.075525984535172], [-90.20140262540434, 31.030570041359486], [-90.20140262540434, 30.985614098183795], [-90.15644668222865, 30.985614098183795], [-90.15644668222865, 30.94065815500811], [-90.11149073905295, 30.94065815500811], [-90.11149073905295, 30.895702211832422], [-90.06653479587726, 30.895702211832422], [-90.06653479587726, 30.850746268656735], [-90.02157885270157, 30.850746268656735], [-90.02157885270157, 30.805790325481045], [-89.97662290952587, 30.805790325481045], [-89.97662290952587, 30.760834382305358], [-89.93166696635018, 30.760834382305358], [-89.93166696635018, 30.71587843912967], [-89.7967991368231, 30.625966552778294], [-89.7967991368231, 30.536054666426917], [-89.66193130729602, 30.446142780075544], [-89.66193130729602, 30.356230893724167], [-89.61697536412032, 30.356230893724167], [-89.61697536412032, 30.26631900737279], [-89.57201942094463, 30.26631900737279], [-89.57201942094463, 30.176407121021416], [-89.52706347776893, 30.176407121021416], [-89.52706347776893, 30.041539291494352], [-89.48210753459324, 30.041539291494352], [-89.48210753459324, 29.81675957561591], [-89.43715159141755, 29.81675957561591], [-89.43715159141755, 29.23233231433197], [-89.48210753459324, 29.23233231433197], [-89.48210753459324, 29.05250854162922], [-89.52706347776893, 29.05250854162922], [-89.52706347776893, 28.962596655277842], [-89.57201942094463, 28.962596655277842], [-89.61697536412032, 28.78277288257509], [-89.66193130729602, 28.78277288257509], [-89.7518431936474, 28.647905053048028], [-89.84175507999879, 28.647905053048028], [-89.84175507999879, 28.60294910987234], [-89.93166696635018, 28.60294910987234], [-89.93166696635018, 28.557993166696654], [-90.15644668222865, 28.557993166696654], [-90.15644668222865, 28.513037223520964], [-90.29131451175573, 28.513037223520964], [-90.29131451175573, 28.557993166696654], [-90.5160942276342, 28.557993166696654], [-90.5160942276342, 28.60294910987234], [-90.69591800033697, 28.647905053048028], [-90.69591800033697, 28.692860996223715], [-90.74087394351267, 28.692860996223715], [-90.74087394351267, 28.737816939399405], [-90.78582988668836, 28.737816939399405], [-90.78582988668836, 28.78277288257509], [-90.92069771621544, 28.87268476892647], [-90.92069771621544, 28.962596655277842], [-90.96565365939114, 28.962596655277842], [-90.96565365939114, 29.05250854162922], [-91.01060960256683, 29.05250854162922], [-91.01060960256683, 29.142420427980596], [-91.05556554574252, 29.142420427980596], [-91.05556554574252, 29.27728825750766], [-91.10052148891822, 29.27728825750766], [-91.10052148891822, 29.367200143859034], [-91.14547743209391, 29.367200143859034], [-91.14547743209391, 29.502067973386097], [-91.1904333752696, 29.502067973386097], [-91.1904333752696, 29.63693580291316], [-91.2353893184453, 29.63693580291316], [-91.2353893184453, 29.771803632440225], [-91.280345261621, 29.771803632440225], [-91.280345261621, 29.90667146196729], [-91.32530120479669, 29.90667146196729], [-91.32530120479669, 30.131451177845726], [-91.37025714797238, 30.131451177845726]], [[-91.2353893184453, 30.041539291494352], [-91.1904333752696, 30.041539291494352], [-91.1904333752696, 29.861715518791602], [-91.14547743209391, 29.861715518791602], [-91.14547743209391, 29.726847689264538], [-91.10052148891822, 29.726847689264538], [-91.10052148891822, 29.591979859737474], [-91.05556554574252, 29.591979859737474], [-91.05556554574252, 29.45711203021041], [-91.01060960256683, 29.45711203021041], [-90.96565365939114, 29.187376371156283], [-90.92069771621544, 29.187376371156283], [-90.92069771621544, 29.097464484804906], [-90.87574177303975, 29.097464484804906], [-90.83078582986406, 28.917640712102155], [-90.78582988668836, 28.917640712102155], [-90.78582988668836, 28.87268476892647], [-90.74087394351267, 28.87268476892647], [-90.74087394351267, 28.82772882575078], [-90.69591800033697, 28.82772882575078], [-90.60600611398559, 28.692860996223715], [-90.5160942276342, 28.692860996223715], [-90.5160942276342, 28.647905053048028], [-90.29131451175573, 28.647905053048028], [-90.29131451175573, 28.60294910987234], [-90.15644668222865, 28.60294910987234], [-90.15644668222865, 28.647905053048028], [-89.97662290952587, 28.647905053048028], [-89.97662290952587, 28.692860996223715], [-89.7967991368231, 28.737816939399405], [-89.7967991368231, 28.78277288257509], [-89.66193130729602, 28.87268476892647], [-89.66193130729602, 28.962596655277842], [-89.61697536412032, 28.962596655277842], [-89.61697536412032, 29.05250854162922], [-89.57201942094463, 29.05250854162922], [-89.57201942094463, 29.23233231433197], [-89.52706347776893, 29.23233231433197], [-89.52706347776893, 29.771803632440225], [-89.57201942094463, 29.771803632440225], [-89.57201942094463, 29.996583348318666], [-89.61697536412032, 29.996583348318666], [-89.61697536412032, 30.131451177845726], [-89.66193130729602, 30.131451177845726], [-89.70688725047171, 30.31127495054848], [-89.84175507999879, 30.401186836899853], [-89.84175507999879, 30.49109872325123], [-89.88671102317448, 30.49109872325123], [-89.88671102317448, 30.536054666426917], [-90.02157885270157, 30.625966552778294], [-90.02157885270157, 30.71587843912967], [-90.06653479587726, 30.71587843912967], [-90.15644668222865, 30.850746268656735], [-90.24635856858004, 30.850746268656735], [-90.24635856858004, 30.895702211832422], [-90.29131451175573, 30.895702211832422], [-90.29131451175573, 30.94065815500811], [-90.38122639810712, 30.94065815500811], [-90.38122639810712, 30.985614098183795], [-90.5160942276342, 30.985614098183795], [-90.5160942276342, 31.030570041359486], [-90.69591800033697, 31.030570041359486], [-90.69591800033697, 30.985614098183795], [-90.92069771621544, 30.985614098183795], [-90.92069771621544, 30.94065815500811], [-91.01060960256683, 30.94065815500811], [-91.01060960256683, 30.895702211832422], [-91.10052148891822, 30.850746268656735], [-91.10052148891822, 30.760834382305358], [-91.1904333752696, 30.71587843912967], [-91.1904333752696, 30.581010609602608], [-91.2353893184453, 30.581010609602608], [-91.2353893184453, 30.041539291494352]]]]}}, {"type": "Feature", "properties": {"shapefile": "2021082918_wsp64knt120hr_5km", "PERCENTAGE": "40-50%"}, "geometry": {"type": "MultiPolygon", "coordinates": [[[[-91.2353893184453, 30.041539291494352], [-91.2353893184453, 30.581010609602608], [-91.1904333752696, 30.581010609602608], [-91.1904333752696, 30.71587843912967], [-91.10052148891822, 30.760834382305358], [-91.10052148891822, 30.850746268656735], [-91.05556554574252, 30.850746268656735], [-91.01060960256683, 30.94065815500811], [-90.92069771621544, 30.94065815500811], [-90.92069771621544, 30.985614098183795], [-90.69591800033697, 30.985614098183795], [-90.69591800033697, 31.030570041359486], [-90.5160942276342, 31.030570041359486], [-90.5160942276342, 30.985614098183795], [-90.38122639810712, 30.985614098183795], [-90.38122639810712, 30.94065815500811], [-90.29131451175573, 30.94065815500811], [-90.24635856858004, 30.850746268656735], [-90.15644668222865, 30.850746268656735], [-90.15644668222865, 30.805790325481045], [-90.02157885270157, 30.71587843912967], [-90.02157885270157, 30.625966552778294], [-89.97662290952587, 30.625966552778294], [-89.97662290952587, 30.581010609602608], [-89.84175507999879, 30.49109872325123], [-89.84175507999879, 30.401186836899853], [-89.70688725047171, 30.31127495054848], [-89.70688725047171, 30.221363064197103], [-89.66193130729602, 30.221363064197103], [-89.66193130729602, 30.131451177845726], [-89.61697536412032, 30.131451177845726], [-89.61697536412032, 29.996583348318666], [-89.57201942094463, 29.996583348318666], [-89.57201942094463, 29.771803632440225], [-89.52706347776893, 29.771803632440225], [-89.52706347776893, 29.23233231433197], [-89.57201942094463, 29.23233231433197], [-89.57201942094463, 29.05250854162922], [-89.61697536412032, 29.05250854162922], [-89.66193130729602, 28.87268476892647], [-89.70688725047171, 28.87268476892647], [-89.7967991368231, 28.737816939399405], [-89.88671102317448, 28.737816939399405], [-89.88671102317448, 28.692860996223715], [-89.97662290952587, 28.692860996223715], [-89.97662290952587, 28.647905053048028], [-90.15644668222865, 28.647905053048028], [-90.15644668222865, 28.60294910987234], [-90.29131451175573, 28.60294910987234], [-90.29131451175573, 28.647905053048028], [-90.5160942276342, 28.647905053048028], [-90.5160942276342, 28.692860996223715], [-90.60600611398559, 28.692860996223715], [-90.60600611398559, 28.737816939399405], [-90.65096205716128, 28.737816939399405], [-90.65096205716128, 28.78277288257509], [-90.69591800033697, 28.78277288257509], [-90.69591800033697, 28.82772882575078], [-90.83078582986406, 28.917640712102155], [-90.83078582986406, 29.007552598453533], [-90.87574177303975, 29.007552598453533], [-90.87574177303975, 29.097464484804906], [-90.92069771621544, 29.097464484804906], [-90.92069771621544, 29.187376371156283], [-90.96565365939114, 29.187376371156283], [-90.96565365939114, 29.322244200683347], [-91.01060960256683, 29.322244200683347], [-91.01060960256683, 29.45711203021041], [-91.05556554574252, 29.45711203021041], [-91.05556554574252, 29.591979859737474], [-91.10052148891822, 29.591979859737474], [-91.10052148891822, 29.726847689264538], [-91.14547743209391, 29.726847689264538], [-91.14547743209391, 29.861715518791602], [-91.1904333752696, 29.861715518791602], [-91.1904333752696, 30.041539291494352], [-91.2353893184453, 30.041539291494352]], [[-91.14547743209391, 30.131451177845726], [-91.10052148891822, 30.131451177845726], [-91.10052148891822, 29.951627405142975], [-91.05556554574252, 29.951627405142975], [-91.05556554574252, 29.81675957561591], [-91.01060960256683, 29.81675957561591], [-91.01060960256683, 29.681891746088848], [-90.96565365939114, 29.681891746088848], [-90.96565365939114, 29.547023916561784], [-90.92069771621544, 29.547023916561784], [-90.92069771621544, 29.367200143859034], [-90.87574177303975, 29.367200143859034], [-90.83078582986406, 29.097464484804906], [-90.78582988668836, 29.097464484804906], [-90.74087394351267, 28.917640712102155], [-90.69591800033697, 28.917640712102155], [-90.60600611398559, 28.78277288257509], [-90.5160942276342, 28.78277288257509], [-90.5160942276342, 28.737816939399405], [-90.33627045493142, 28.737816939399405], [-90.33627045493142, 28.692860996223715], [-90.11149073905295, 28.692860996223715], [-90.11149073905295, 28.737816939399405], [-89.93166696635018, 28.737816939399405], [-89.88671102317448, 28.82772882575078], [-89.7967991368231, 28.82772882575078], [-89.7967991368231, 28.87268476892647], [-89.7518431936474, 28.87268476892647], [-89.7518431936474, 28.962596655277842], [-89.70688725047171, 28.962596655277842], [-89.70688725047171, 29.05250854162922], [-89.66193130729602, 29.05250854162922], [-89.66193130729602, 29.23233231433197], [-89.61697536412032, 29.23233231433197], [-89.61697536412032, 29.771803632440225], [-89.66193130729602, 29.771803632440225], [-89.66193130729602, 29.996583348318666], [-89.70688725047171, 29.996583348318666], [-89.70688725047171, 30.08649523467004], [-89.7518431936474, 30.08649523467004], [-89.7967991368231, 30.26631900737279], [-89.93166696635018, 30.356230893724167], [-89.93166696635018, 30.446142780075544], [-89.97662290952587, 30.446142780075544], [-89.97662290952587, 30.49109872325123], [-90.02157885270157, 30.49109872325123], [-90.02157885270157, 30.536054666426917], [-90.06653479587726, 30.536054666426917], [-90.06653479587726, 30.581010609602608], [-90.11149073905295, 30.581010609602608], [-90.11149073905295, 30.625966552778294], [-90.15644668222865, 30.625966552778294], [-90.15644668222865, 30.67092249595398], [-90.20140262540434, 30.67092249595398], [-90.20140262540434, 30.71587843912967], [-90.33627045493142, 30.805790325481045], [-90.33627045493142, 30.850746268656735], [-90.42618234128281, 30.850746268656735], [-90.42618234128281, 30.895702211832422], [-90.74087394351267, 30.895702211832422], [-90.74087394351267, 30.850746268656735], [-90.92069771621544, 30.850746268656735], [-90.92069771621544, 30.805790325481045], [-91.01060960256683, 30.805790325481045], [-91.01060960256683, 30.760834382305358], [-91.05556554574252, 30.760834382305358], [-91.05556554574252, 30.67092249595398], [-91.10052148891822, 30.67092249595398], [-91.10052148891822, 30.581010609602608], [-91.14547743209391, 30.581010609602608], [-91.14547743209391, 30.131451177845726]]]]}}, {"type": "Feature", "properties": {"shapefile": "2021082918_wsp64knt120hr_5km", "PERCENTAGE": "50-60%"}, "geometry": {"type": "MultiPolygon", "coordinates": [[[[-91.14547743209391, 30.131451177845726], [-91.14547743209391, 30.581010609602608], [-91.10052148891822, 30.581010609602608], [-91.10052148891822, 30.67092249595398], [-91.05556554574252, 30.67092249595398], [-91.05556554574252, 30.760834382305358], [-91.01060960256683, 30.760834382305358], [-91.01060960256683, 30.805790325481045], [-90.92069771621544, 30.805790325481045], [-90.92069771621544, 30.850746268656735], [-90.74087394351267, 30.850746268656735], [-90.74087394351267, 30.895702211832422], [-90.42618234128281, 30.895702211832422], [-90.42618234128281, 30.850746268656735], [-90.33627045493142, 30.850746268656735], [-90.33627045493142, 30.805790325481045], [-90.29131451175573, 30.805790325481045], [-90.29131451175573, 30.760834382305358], [-90.24635856858004, 30.760834382305358], [-90.24635856858004, 30.71587843912967], [-90.20140262540434, 30.71587843912967], [-90.20140262540434, 30.67092249595398], [-90.15644668222865, 30.67092249595398], [-90.15644668222865, 30.625966552778294], [-90.11149073905295, 30.625966552778294], [-90.11149073905295, 30.581010609602608], [-90.06653479587726, 30.581010609602608], [-90.06653479587726, 30.536054666426917], [-89.93166696635018, 30.446142780075544], [-89.93166696635018, 30.356230893724167], [-89.7967991368231, 30.26631900737279], [-89.7967991368231, 30.176407121021416], [-89.7518431936474, 30.176407121021416], [-89.7518431936474, 30.08649523467004], [-89.70688725047171, 30.08649523467004], [-89.70688725047171, 29.996583348318666], [-89.66193130729602, 29.996583348318666], [-89.66193130729602, 29.771803632440225], [-89.61697536412032, 29.771803632440225], [-89.61697536412032, 29.23233231433197], [-89.66193130729602, 29.23233231433197], [-89.66193130729602, 29.05250854162922], [-89.70688725047171, 29.05250854162922], [-89.7518431936474, 28.87268476892647], [-89.7967991368231, 28.87268476892647], [-89.7967991368231, 28.82772882575078], [-89.88671102317448, 28.82772882575078], [-89.93166696635018, 28.737816939399405], [-90.11149073905295, 28.737816939399405], [-90.11149073905295, 28.692860996223715], [-90.33627045493142, 28.692860996223715], [-90.33627045493142, 28.737816939399405], [-90.5160942276342, 28.737816939399405], [-90.5160942276342, 28.78277288257509], [-90.60600611398559, 28.78277288257509], [-90.60600611398559, 28.82772882575078], [-90.74087394351267, 28.917640712102155], [-90.78582988668836, 29.097464484804906], [-90.83078582986406, 29.097464484804906], [-90.83078582986406, 29.23233231433197], [-90.87574177303975, 29.23233231433197], [-90.87574177303975, 29.367200143859034], [-90.92069771621544, 29.367200143859034], [-90.92069771621544, 29.547023916561784], [-90.96565365939114, 29.547023916561784], [-90.96565365939114, 29.681891746088848], [-91.01060960256683, 29.681891746088848], [-91.01060960256683, 29.81675957561591], [-91.05556554574252, 29.81675957561591], [-91.05556554574252, 29.951627405142975], [-91.10052148891822, 29.951627405142975], [-91.10052148891822, 30.131451177845726], [-91.14547743209391, 30.131451177845726]], [[-91.05556554574252, 30.176407121021416], [-91.01060960256683, 30.176407121021416], [-91.01060960256683, 29.996583348318666], [-90.96565365939114, 29.996583348318666], [-90.96565365939114, 29.861715518791602], [-90.92069771621544, 29.861715518791602], [-90.92069771621544, 29.771803632440225], [-90.87574177303975, 29.771803632440225], [-90.87574177303975, 29.591979859737474], [-90.83078582986406, 29.591979859737474], [-90.83078582986406, 29.412156087034724], [-90.78582988668836, 29.412156087034724], [-90.78582988668836, 29.23233231433197], [-90.74087394351267, 29.23233231433197], [-90.74087394351267, 29.05250854162922], [-90.69591800033697, 29.05250854162922], [-90.69591800033697, 28.962596655277842], [-90.65096205716128, 28.962596655277842], [-90.56105017080989, 28.82772882575078], [-90.42618234128281, 28.82772882575078], [-90.42618234128281, 28.78277288257509], [-90.02157885270157, 28.78277288257509], [-90.02157885270157, 28.82772882575078], [-89.84175507999879, 28.87268476892647], [-89.84175507999879, 28.917640712102155], [-89.7967991368231, 28.917640712102155], [-89.7967991368231, 29.007552598453533], [-89.7518431936474, 29.007552598453533], [-89.7518431936474, 29.142420427980596], [-89.70688725047171, 29.142420427980596], [-89.70688725047171, 29.81675957561591], [-89.7518431936474, 29.81675957561591], [-89.7518431936474, 29.996583348318666], [-89.7967991368231, 29.996583348318666], [-89.84175507999879, 30.176407121021416], [-89.88671102317448, 30.176407121021416], [-89.88671102317448, 30.221363064197103], [-89.93166696635018, 30.221363064197103], [-89.93166696635018, 30.26631900737279], [-90.06653479587726, 30.356230893724167], [-90.06653479587726, 30.446142780075544], [-90.11149073905295, 30.446142780075544], [-90.11149073905295, 30.49109872325123], [-90.15644668222865, 30.49109872325123], [-90.15644668222865, 30.536054666426917], [-90.20140262540434, 30.536054666426917], [-90.20140262540434, 30.581010609602608], [-90.24635856858004, 30.581010609602608], [-90.24635856858004, 30.625966552778294], [-90.29131451175573, 30.625966552778294], [-90.29131451175573, 30.67092249595398], [-90.33627045493142, 30.67092249595398], [-90.42618234128281, 30.805790325481045], [-90.65096205716128, 30.805790325481045], [-90.65096205716128, 30.760834382305358], [-90.78582988668836, 30.760834382305358], [-90.78582988668836, 30.71587843912967], [-90.92069771621544, 30.71587843912967], [-90.92069771621544, 30.67092249595398], [-91.01060960256683, 30.67092249595398], [-91.01060960256683, 30.581010609602608], [-91.05556554574252, 30.581010609602608], [-91.05556554574252, 30.176407121021416]]]]}}, {"type": "Feature", "properties": {"shapefile": "2021082918_wsp64knt120hr_5km", "PERCENTAGE": "60-70%"}, "geometry": {"type": "MultiPolygon", "coordinates": [[[[-91.05556554574252, 30.176407121021416], [-91.05556554574252, 30.581010609602608], [-91.01060960256683, 30.581010609602608], [-91.01060960256683, 30.67092249595398], [-90.92069771621544, 30.67092249595398], [-90.92069771621544, 30.71587843912967], [-90.78582988668836, 30.71587843912967], [-90.78582988668836, 30.760834382305358], [-90.65096205716128, 30.760834382305358], [-90.65096205716128, 30.805790325481045], [-90.42618234128281, 30.805790325481045], [-90.42618234128281, 30.760834382305358], [-90.38122639810712, 30.760834382305358], [-90.38122639810712, 30.71587843912967], [-90.33627045493142, 30.71587843912967], [-90.33627045493142, 30.67092249595398], [-90.29131451175573, 30.67092249595398], [-90.29131451175573, 30.625966552778294], [-90.24635856858004, 30.625966552778294], [-90.24635856858004, 30.581010609602608], [-90.20140262540434, 30.581010609602608], [-90.20140262540434, 30.536054666426917], [-90.06653479587726, 30.446142780075544], [-90.06653479587726, 30.356230893724167], [-90.02157885270157, 30.356230893724167], [-90.02157885270157, 30.31127495054848], [-89.97662290952587, 30.31127495054848], [-89.97662290952587, 30.26631900737279], [-89.84175507999879, 30.176407121021416], [-89.84175507999879, 30.08649523467004], [-89.7967991368231, 30.08649523467004], [-89.7967991368231, 29.996583348318666], [-89.7518431936474, 29.996583348318666], [-89.7518431936474, 29.81675957561591], [-89.70688725047171, 29.81675957561591], [-89.70688725047171, 29.142420427980596], [-89.7518431936474, 29.142420427980596], [-89.7518431936474, 29.007552598453533], [-89.7967991368231, 29.007552598453533], [-89.7967991368231, 28.917640712102155], [-89.84175507999879, 28.917640712102155], [-89.84175507999879, 28.87268476892647], [-89.93166696635018, 28.87268476892647], [-89.93166696635018, 28.917640712102155], [-89.84175507999879, 28.962596655277842], [-89.84175507999879, 29.05250854162922], [-89.7967991368231, 29.05250854162922], [-89.7967991368231, 29.861715518791602], [-89.84175507999879, 29.861715518791602], [-89.84175507999879, 30.041539291494352], [-89.88671102317448, 30.041539291494352], [-89.88671102317448, 30.131451177845726], [-89.93166696635018, 30.131451177845726], [-89.97662290952587, 30.221363064197103], [-90.06653479587726, 30.221363064197103], [-90.06653479587726, 30.26631900737279], [-90.20140262540434, 30.356230893724167], [-90.20140262540434, 30.446142780075544], [-90.33627045493142, 30.536054666426917], [-90.33627045493142, 30.625966552778294], [-90.38122639810712, 30.625966552778294], [-90.38122639810712, 30.67092249595398], [-90.4711382844585, 30.67092249595398], [-90.4711382844585, 30.71587843912967], [-90.60600611398559, 30.71587843912967], [-90.60600611398559, 30.67092249595398], [-90.74087394351267, 30.67092249595398], [-90.74087394351267, 30.625966552778294], [-90.92069771621544, 30.581010609602608], [-90.92069771621544, 30.536054666426917], [-90.96565365939114, 30.536054666426917], [-90.92069771621544, 30.08649523467004], [-90.87574177303975, 30.08649523467004], [-90.87574177303975, 29.951627405142975], [-90.83078582986406, 29.951627405142975], [-90.83078582986406, 29.81675957561591], [-90.78582988668836, 29.81675957561591], [-90.78582988668836, 29.63693580291316], [-90.74087394351267, 29.63693580291316], [-90.74087394351267, 29.412156087034724], [-90.69591800033697, 29.412156087034724], [-90.65096205716128, 29.007552598453533], [-90.60600611398559, 29.007552598453533], [-90.5160942276342, 28.87268476892647], [-90.33627045493142, 28.87268476892647], [-90.33627045493142, 28.82772882575078], [-89.93166696635018, 28.87268476892647], [-89.93166696635018, 28.82772882575078], [-90.02157885270157, 28.82772882575078], [-90.02157885270157, 28.78277288257509], [-90.42618234128281, 28.78277288257509], [-90.42618234128281, 28.82772882575078], [-90.56105017080989, 28.82772882575078], [-90.56105017080989, 28.87268476892647], [-90.69591800033697, 28.962596655277842], [-90.69591800033697, 29.05250854162922], [-90.74087394351267, 29.05250854162922], [-90.74087394351267, 29.23233231433197], [-90.78582988668836, 29.23233231433197], [-90.78582988668836, 29.412156087034724], [-90.83078582986406, 29.412156087034724], [-90.83078582986406, 29.591979859737474], [-90.87574177303975, 29.591979859737474], [-90.87574177303975, 29.771803632440225], [-90.92069771621544, 29.771803632440225], [-90.92069771621544, 29.861715518791602], [-90.96565365939114, 29.861715518791602], [-90.96565365939114, 29.996583348318666], [-91.01060960256683, 29.996583348318666], [-91.01060960256683, 30.176407121021416], [-91.05556554574252, 30.176407121021416]]]]}}, {"type": "Feature", "properties": {"shapefile": "2021082918_wsp64knt120hr_5km", "PERCENTAGE": "70-80%"}, "geometry": {"type": "MultiPolygon", "coordinates": [[[[-90.56105017080989, 28.917640712102155], [-90.56105017080989, 28.962596655277842], [-90.5160942276342, 28.962596655277842], [-90.5160942276342, 28.917640712102155], [-90.56105017080989, 28.917640712102155]]], [[[-90.96565365939114, 30.31127495054848], [-90.96565365939114, 30.536054666426917], [-90.92069771621544, 30.536054666426917], [-90.92069771621544, 30.581010609602608], [-90.83078582986406, 30.581010609602608], [-90.83078582986406, 30.625966552778294], [-90.74087394351267, 30.625966552778294], [-90.74087394351267, 30.67092249595398], [-90.60600611398559, 30.67092249595398], [-90.60600611398559, 30.71587843912967], [-90.4711382844585, 30.71587843912967], [-90.4711382844585, 30.67092249595398], [-90.38122639810712, 30.67092249595398], [-90.38122639810712, 30.625966552778294], [-90.33627045493142, 30.625966552778294], [-90.33627045493142, 30.536054666426917], [-90.20140262540434, 30.446142780075544], [-90.20140262540434, 30.356230893724167], [-90.15644668222865, 30.356230893724167], [-90.06653479587726, 30.221363064197103], [-89.97662290952587, 30.221363064197103], [-89.97662290952587, 30.176407121021416], [-89.88671102317448, 30.131451177845726], [-89.88671102317448, 30.041539291494352], [-89.84175507999879, 30.041539291494352], [-89.84175507999879, 29.861715518791602], [-89.7967991368231, 29.861715518791602], [-89.7967991368231, 29.05250854162922], [-89.84175507999879, 29.05250854162922], [-89.84175507999879, 28.962596655277842], [-89.88671102317448, 28.962596655277842], [-89.93166696635018, 28.87268476892647], [-90.11149073905295, 28.87268476892647], [-90.11149073905295, 28.82772882575078], [-90.5160942276342, 28.87268476892647], [-90.5160942276342, 28.917640712102155], [-89.97662290952587, 28.917640712102155], [-89.97662290952587, 28.962596655277842], [-89.88671102317448, 29.007552598453533], [-89.88671102317448, 29.142420427980596], [-89.84175507999879, 29.142420427980596], [-89.84175507999879, 29.681891746088848], [-89.88671102317448, 29.681891746088848], [-89.88671102317448, 29.996583348318666], [-89.93166696635018, 29.996583348318666], [-89.93166696635018, 30.08649523467004], [-90.02157885270157, 30.08649523467004], [-90.06653479587726, 30.176407121021416], [-90.15644668222865, 30.176407121021416], [-90.15644668222865, 30.221363064197103], [-90.20140262540434, 30.221363064197103], [-90.20140262540434, 30.26631900737279], [-90.33627045493142, 30.356230893724167], [-90.33627045493142, 30.446142780075544], [-90.38122639810712, 30.446142780075544], [-90.38122639810712, 30.536054666426917], [-90.42618234128281, 30.536054666426917], [-90.4711382844585, 30.625966552778294], [-90.56105017080989, 30.625966552778294], [-90.56105017080989, 30.581010609602608], [-90.69591800033697, 30.581010609602608], [-90.69591800033697, 30.536054666426917], [-90.74087394351267, 30.536054666426917], [-90.74087394351267, 29.90667146196729], [-90.69591800033697, 29.90667146196729], [-90.69591800033697, 29.726847689264538], [-90.65096205716128, 29.726847689264538], [-90.65096205716128, 29.367200143859034], [-90.60600611398559, 29.367200143859034], [-90.60600611398559, 29.05250854162922], [-90.56105017080989, 29.05250854162922], [-90.56105017080989, 28.962596655277842], [-90.60600611398559, 28.962596655277842], [-90.60600611398559, 29.007552598453533], [-90.65096205716128, 29.007552598453533], [-90.65096205716128, 29.187376371156283], [-90.69591800033697, 29.187376371156283], [-90.69591800033697, 29.412156087034724], [-90.74087394351267, 29.412156087034724], [-90.78582988668836, 29.81675957561591], [-90.83078582986406, 29.81675957561591], [-90.83078582986406, 29.951627405142975], [-90.87574177303975, 29.951627405142975], [-90.87574177303975, 30.08649523467004], [-90.92069771621544, 30.08649523467004], [-90.92069771621544, 30.31127495054848], [-90.96565365939114, 30.31127495054848]]]]}}, {"type": "Feature", "properties": {"shapefile": "2021082918_wsp64knt120hr_5km", "PERCENTAGE": "80-90%"}, "geometry": {"type": "MultiPolygon", "coordinates": [[[[-89.97662290952587, 28.962596655277842], [-89.97662290952587, 29.007552598453533], [-89.93166696635018, 29.007552598453533], [-89.93166696635018, 28.962596655277842], [-89.97662290952587, 28.962596655277842]]], [[[-90.74087394351267, 29.90667146196729], [-90.74087394351267, 30.536054666426917], [-90.69591800033697, 30.536054666426917], [-90.69591800033697, 30.581010609602608], [-90.56105017080989, 30.581010609602608], [-90.56105017080989, 30.625966552778294], [-90.4711382844585, 30.625966552778294], [-90.4711382844585, 30.581010609602608], [-90.38122639810712, 30.536054666426917], [-90.33627045493142, 30.356230893724167], [-90.29131451175573, 30.356230893724167], [-90.29131451175573, 30.31127495054848], [-90.24635856858004, 30.31127495054848], [-90.15644668222865, 30.176407121021416], [-90.06653479587726, 30.176407121021416], [-90.02157885270157, 30.08649523467004], [-89.93166696635018, 30.08649523467004], [-89.93166696635018, 29.996583348318666], [-89.88671102317448, 29.996583348318666], [-89.88671102317448, 29.681891746088848], [-89.84175507999879, 29.681891746088848], [-89.84175507999879, 29.142420427980596], [-89.88671102317448, 29.142420427980596], [-89.88671102317448, 29.007552598453533], [-89.93166696635018, 29.007552598453533], [-89.93166696635018, 29.81675957561591], [-89.97662290952587, 29.81675957561591], [-89.97662290952587, 30.041539291494352], [-90.24635856858004, 30.08649523467004], [-90.24635856858004, 30.131451177845726], [-90.38122639810712, 30.221363064197103], [-90.38122639810712, 30.31127495054848], [-90.42618234128281, 30.31127495054848], [-90.42618234128281, 30.401186836899853], [-90.4711382844585, 30.401186836899853], [-90.4711382844585, 30.536054666426917], [-90.5160942276342, 30.536054666426917], [-90.5160942276342, 30.446142780075544], [-90.56105017080989, 30.446142780075544], [-90.56105017080989, 30.26631900737279], [-90.60600611398559, 30.26631900737279], [-90.60600611398559, 29.81675957561591], [-90.56105017080989, 29.81675957561591], [-90.56105017080989, 29.187376371156283], [-90.5160942276342, 29.187376371156283], [-90.5160942276342, 29.007552598453533], [-90.4711382844585, 29.007552598453533], [-90.4711382844585, 28.962596655277842], [-89.97662290952587, 28.962596655277842], [-89.97662290952587, 28.917640712102155], [-90.5160942276342, 28.917640712102155], [-90.5160942276342, 28.962596655277842], [-90.56105017080989, 28.962596655277842], [-90.56105017080989, 29.05250854162922], [-90.60600611398559, 29.05250854162922], [-90.60600611398559, 29.367200143859034], [-90.65096205716128, 29.367200143859034], [-90.65096205716128, 29.726847689264538], [-90.69591800033697, 29.726847689264538], [-90.69591800033697, 29.90667146196729], [-90.74087394351267, 29.90667146196729]]]]}}, {"type": "Feature", "properties": {"shapefile": "2021082918_wsp64knt120hr_5km", "PERCENTAGE": ">90%"}, "geometry": {"type": "MultiPolygon", "coordinates": [[[[-90.60600611398559, 29.81675957561591], [-90.60600611398559, 30.26631900737279], [-90.56105017080989, 30.26631900737279], [-90.56105017080989, 30.446142780075544], [-90.5160942276342, 30.446142780075544], [-90.5160942276342, 30.536054666426917], [-90.4711382844585, 30.536054666426917], [-90.4711382844585, 30.401186836899853], [-90.42618234128281, 30.401186836899853], [-90.38122639810712, 30.221363064197103], [-90.33627045493142, 30.221363064197103], [-90.24635856858004, 30.08649523467004], [-89.97662290952587, 30.041539291494352], [-89.97662290952587, 29.81675957561591], [-89.93166696635018, 29.81675957561591], [-89.93166696635018, 29.007552598453533], [-89.97662290952587, 29.007552598453533], [-89.97662290952587, 28.962596655277842], [-90.4711382844585, 28.962596655277842], [-90.4711382844585, 29.007552598453533], [-90.5160942276342, 29.007552598453533], [-90.5160942276342, 29.187376371156283], [-90.56105017080989, 29.187376371156283], [-90.56105017080989, 29.81675957561591], [-90.60600611398559, 29.81675957561591]]]]}}]}