{"type": "FeatureCollection", "features": [{"type": "Feature", "properties": {"shapefile": "al092021_2021082915_initialradii", "RADII": 34, "STORMID": "al092021", "BASIN": "al", "STORMNUM": 9, "ADVNUM": "14", "VALIDTIME": "2021082915", "SYNOPTIME": "2021082912", "TIMEZONE": "UTC", "TAU": 0, "NE": 130, "SE": 110, "SW": 80, "NW": 110}, "geometry": {"type": "Polygon", "coordinates": [[[-89.9792328, 30.7961292], [-89.9385681, 30.7991943], [-89.8977737, 30.8016357], [-89.8568573, 30.8034458], [-89.8158417, 30.8046265], [-89.7747345, 30.8051758], [-89.733551, 30.8050842], [-89.6922913, 30.8043594], [-89.6509857, 30.8029957], [-89.609642, 30.8009815], [-89.5682678, 30.7983322], [-89.5268784, 30.7950344], [-89.4855042, 30.7910938], [-89.4441376, 30.7865028], [-89.4028015, 30.7812634], [-89.3615189, 30.7753773], [-89.3202896, 30.7688389], [-89.2791443, 30.7616501], [-89.2380753, 30.7538223], [-89.197113, 30.7453384], [-89.1562729, 30.7362061], [-89.1155548, 30.7264271], [-89.0749817, 30.7160072], [-89.0345764, 30.7049351], [-88.9943085, 30.693224], [-88.9542618, 30.6808701], [-88.9143982, 30.6678772], [-88.8747559, 30.6542435], [-88.8353424, 30.6399803], [-88.7961731, 30.625082], [-88.7572479, 30.6095486], [-88.7185974, 30.5933914], [-88.6802444, 30.5766125], [-88.6421814, 30.5592117], [-88.6044235, 30.5411949], [-88.5669861, 30.522562], [-88.5298767, 30.5033264], [-88.4931412, 30.4834824], [-88.4567642, 30.4630394], [-88.4207611, 30.4420033], [-88.3851547, 30.4203758], [-88.3502884, 30.3978786], [-88.3165436, 30.3742542], [-88.2839508, 30.3495274], [-88.2525558, 30.3237228], [-88.2223892, 30.296875], [-88.1934662, 30.2690048], [-88.1658401, 30.2401562], [-88.1395264, 30.2103481], [-88.1145554, 30.1796131], [-88.0906143, 30.1482716], [-88.0673752, 30.1166172], [-88.0448303, 30.0846653], [-88.022995, 30.0524292], [-88.0018692, 30.0199146], [-87.9814606, 29.9871349], [-87.9617767, 29.9541092], [-87.9428024, 29.9208374], [-87.9245529, 29.8873386], [-87.9070282, 29.8536243], [-87.8902359, 29.8197021], [-87.874176, 29.7855873], [-87.8588333, 29.7512894], [-87.8442383, 29.7168179], [-87.8303833, 29.6821899], [-87.8172531, 29.6474171], [-87.804863, 29.6125088], [-87.7932053, 29.5774708], [-87.7822952, 29.5423241], [-87.7721252, 29.5070763], [-87.7626953, 29.4717445], [-87.7539902, 29.4363308], [-87.7460251, 29.4008522], [-87.7388077, 29.3653183], [-87.7323303, 29.3297462], [-87.7265778, 29.294138], [-87.7215576, 29.2585106], [-87.7172775, 29.2228794], [-87.7137146, 29.1872482], [-87.7108917, 29.1516342], [-87.708786, 29.116045], [-87.7073975, 29.080492], [-87.7067413, 29.0449905], [-87.7067947, 29.0095444], [-87.7075577, 28.9741688], [-87.7090302, 28.9388771], [-87.7112122, 28.903677], [-87.7140884, 28.868578], [-87.7176743, 28.8335953], [-87.7219467, 28.7987366], [-87.7269135, 28.7640114], [-87.7325668, 28.7294312], [-87.738884, 28.6950073], [-87.7458801, 28.6607533], [-87.7535553, 28.6266689], [-87.7618866, 28.5927734], [-87.770874, 28.5590725], [-87.7805252, 28.5255814], [-87.790802, 28.4923], [-87.8017273, 28.4592495], [-87.8132858, 28.4264297], [-87.82547, 28.393856], [-87.8382721, 28.361536], [-87.8516922, 28.3294792], [-87.865715, 28.2976952], [-87.8803406, 28.2661896], [-87.8955536, 28.2349758], [-87.9113464, 28.2040539], [-87.9277267, 28.1734447], [-87.9446716, 28.1431503], [-87.9621811, 28.1131744], [-87.9802399, 28.0835323], [-87.9988251, 28.0542278], [-88.0179749, 28.0252724], [-88.0376434, 27.9966717], [-88.0578308, 27.9684315], [-88.0785217, 27.9405651], [-88.0997238, 27.9130745], [-88.1214218, 27.8859634], [-88.1435928, 27.8592453], [-88.1662521, 27.8329258], [-88.1893692, 27.8070126], [-88.212944, 27.7815056], [-88.2369766, 27.7564182], [-88.2614365, 27.7317562], [-88.2863312, 27.7075195], [-88.3116379, 27.6837196], [-88.3373642, 27.6603603], [-88.3634796, 27.6374454], [-88.3899841, 27.6149845], [-88.4168777, 27.5929794], [-88.4442215, 27.5715103], [-88.4720764, 27.5506592], [-88.5004272, 27.5304375], [-88.5292664, 27.5108528], [-88.5585709, 27.4919128], [-88.5883331, 27.4736252], [-88.6185226, 27.4560051], [-88.6491241, 27.4390488], [-88.68013, 27.4227772], [-88.711441, 27.4071121], [-88.7429581, 27.3919868], [-88.7746887, 27.3774033], [-88.8065796, 27.3633652], [-88.8386536, 27.3498764], [-88.8708878, 27.3369293], [-88.9032822, 27.3245296], [-88.9358139, 27.3126774], [-88.9684677, 27.3013744], [-89.001236, 27.2906208], [-89.0341187, 27.2804184], [-89.0670929, 27.2707615], [-89.1001511, 27.2616615], [-89.1332779, 27.2531052], [-89.1664658, 27.2450981], [-89.1996994, 27.2376442], [-89.2329712, 27.2307339], [-89.2662735, 27.224371], [-89.2995911, 27.2185516], [-89.3329086, 27.2132778], [-89.3662186, 27.2085438], [-89.3995132, 27.2043533], [-89.4327774, 27.2007008], [-89.466011, 27.1975842], [-89.4991837, 27.1950016], [-89.5323029, 27.192955], [-89.5653381, 27.191431], [-89.5982971, 27.1904392], [-89.6311722, 27.18997], [-89.6639404, 27.1900234], [-89.6965942, 27.1905899], [-89.729126, 27.1916733], [-89.761528, 27.193264], [-89.7937851, 27.195364], [-89.825882, 27.1979694], [-89.8578186, 27.201067], [-89.889595, 27.2046623], [-89.9211807, 27.2087498], [-89.9525757, 27.2133236], [-89.9837646, 27.2183743], [-90.0147476, 27.2239017], [-90.045517, 27.2299023], [-90.0760574, 27.2363701], [-90.1063614, 27.2432976], [-90.1364212, 27.2506809], [-90.1662216, 27.2585144], [-90.1957626, 27.2667942], [-90.2250366, 27.2755127], [-90.2540283, 27.2846622], [-90.2827377, 27.2942429], [-90.311142, 27.3042431], [-90.3392639, 27.3146591], [-90.3670654, 27.3254833], [-90.3945465, 27.33671], [-90.4217072, 27.3483334], [-90.4485168, 27.3603439], [-90.4750137, 27.3727379], [-90.501152, 27.3855057], [-90.526947, 27.3986435], [-90.5523758, 27.4121437], [-90.5774384, 27.4260006], [-90.6021347, 27.4402008], [-90.6264496, 27.4547462], [-90.650383, 27.4696178], [-90.6739197, 27.4848213], [-90.6970749, 27.5003414], [-90.7198181, 27.5161667], [-90.742157, 27.5323009], [-90.7640915, 27.5487289], [-90.785614, 27.5654411], [-90.806694, 27.5824337], [-90.8273621, 27.5996971], [-90.8476028, 27.6172237], [-90.8674011, 27.635004], [-90.8867722, 27.6530342], [-90.9057007, 27.6713047], [-90.9241867, 27.689806], [-90.9422226, 27.7085304], [-90.9598083, 27.7274628], [-90.9769287, 27.7466068], [-90.9935913, 27.7659492], [-91.0102921, 27.7850418], [-91.0275421, 27.8034706], [-91.045372, 27.8212566], [-91.063797, 27.838419], [-91.0828705, 27.8549843], [-91.1026077, 27.8709755], [-91.1230392, 27.8864212], [-91.1441956, 27.9013462], [-91.1660995, 27.9157791], [-91.1882858, 27.9301777], [-91.2102509, 27.9449902], [-91.2320099, 27.9602089], [-91.2535248, 27.9758377], [-91.2748108, 27.9918671], [-91.295845, 28.008297], [-91.3166122, 28.0251255], [-91.3371124, 28.0423508], [-91.357338, 28.0599651], [-91.3772812, 28.0779667], [-91.3969193, 28.0963535], [-91.4162521, 28.1151257], [-91.4352722, 28.1342697], [-91.4539719, 28.1537857], [-91.4723282, 28.1736717], [-91.4903488, 28.1939259], [-91.5080261, 28.2145367], [-91.5253372, 28.2355022], [-91.5422821, 28.2568188], [-91.5588531, 28.2784805], [-91.5750275, 28.300478], [-91.5908127, 28.322813], [-91.6061859, 28.3454781], [-91.6211624, 28.3684635], [-91.6357117, 28.3917675], [-91.6498337, 28.4153824], [-91.6635208, 28.4393044], [-91.6767578, 28.463522], [-91.6895447, 28.4880333], [-91.7018738, 28.5128307], [-91.7137299, 28.5379105], [-91.7251282, 28.5632553], [-91.7360153, 28.588871], [-91.7464294, 28.6147423], [-91.75634, 28.6408653], [-91.7657547, 28.6672287], [-91.7746506, 28.6938305], [-91.7830276, 28.7206593], [-91.7908783, 28.7477112], [-91.7982025, 28.7749767], [-91.804985, 28.8024426], [-91.8112183, 28.8301048], [-91.8169098, 28.857954], [-91.8220444, 28.8859825], [-91.8266068, 28.9141846], [-91.8306046, 28.9425449], [-91.8340378, 28.9710598], [-91.8368759, 28.9997158], [-91.8391418, 29.028511], [-91.8408203, 29.0574265], [-91.8418961, 29.0864601], [-91.8423767, 29.1156044], [-91.8422546, 29.1448441], [-91.8415222, 29.1741734], [-91.8401794, 29.2035789], [-91.8382187, 29.2330551], [-91.83564, 29.2625904], [-91.8324432, 29.2921753], [-91.8286285, 29.3217983], [-91.8241653, 29.3514481], [-91.8190765, 29.3811245], [-91.8133545, 29.4108009], [-91.8070068, 29.4404774], [-91.8000031, 29.4701443], [-91.7923737, 29.4997826], [-91.7840805, 29.5293961], [-91.7751541, 29.5589638], [-91.7655792, 29.58848], [-91.7553711, 29.6179276], [-91.7444992, 29.6473007], [-91.7329865, 29.6765881], [-91.7208252, 29.7057838], [-91.7080078, 29.7348671], [-91.6945496, 29.7638321], [-91.6804352, 29.7926712], [-91.6656799, 29.8213673], [-91.6502686, 29.8499146], [-91.6342087, 29.8782997], [-91.6175156, 29.9065151], [-91.6001663, 29.9345474], [-91.5821838, 29.9623814], [-91.5634766, 29.9899426], [-91.5439682, 30.0171375], [-91.5236664, 30.0439491], [-91.5025711, 30.0703697], [-91.4807205, 30.0963783], [-91.4580765, 30.1219616], [-91.4346924, 30.1470985], [-91.410553, 30.1717834], [-91.3856964, 30.1959934], [-91.360199, 30.2197952], [-91.3341599, 30.2432384], [-91.3075638, 30.2663231], [-91.2804489, 30.2890358], [-91.2528076, 30.3113708], [-91.2246399, 30.3333225], [-91.1959534, 30.3548717], [-91.1667709, 30.3760166], [-91.1370926, 30.3967457], [-91.1069183, 30.4170494], [-91.0762634, 30.4369297], [-91.0451279, 30.4563637], [-91.0135193, 30.4753513], [-90.9814606, 30.4938831], [-90.9489517, 30.5119495], [-90.9160156, 30.5295486], [-90.8826294, 30.5466614], [-90.8488388, 30.5632935], [-90.8146133, 30.5794277], [-90.7799988, 30.5950584], [-90.7450027, 30.6101856], [-90.70961, 30.6247902], [-90.6738434, 30.638876], [-90.6377258, 30.6524353], [-90.6012421, 30.665453], [-90.5644302, 30.677927], [-90.5272827, 30.6898575], [-90.4898224, 30.7012291], [-90.4520493, 30.7120399], [-90.4139862, 30.7222862], [-90.3756409, 30.7319603], [-90.3370285, 30.7410545], [-90.2981491, 30.7495689], [-90.2590179, 30.757494], [-90.2196503, 30.7648315], [-90.180069, 30.7715664], [-90.140274, 30.7776966], [-90.1002655, 30.7832241], [-90.0600891, 30.7881432], [-90.0197372, 30.7924461], [-89.9792328, 30.7961292]]]}}, {"type": "Feature", "properties": {"shapefile": "al092021_2021082915_initialradii", "RADII": 50, "STORMID": "al092021", "BASIN": "al", "STORMNUM": 9, "ADVNUM": "14", "VALIDTIME": "2021082915", "SYNOPTIME": "2021082912", "TIMEZONE": "UTC", "TAU": 0, "NE": 70, "SE": 60, "SW": 40, "NW": 60}, "geometry": {"type": "Polygon", "coordinates": [[[-89.9888763, 29.8811741], [-89.9670715, 29.8826828], [-89.9451828, 29.8838577], [-89.9232483, 29.8846951], [-89.9012604, 29.8851967], [-89.8792267, 29.885355], [-89.8571548, 29.8851719], [-89.8350525, 29.8846531], [-89.8129272, 29.8837891], [-89.7907944, 29.8825855], [-89.7686462, 29.8810329], [-89.7465057, 29.879137], [-89.7243652, 29.8768921], [-89.70224, 29.8743076], [-89.68013, 29.871376], [-89.6580505, 29.8680992], [-89.6360092, 29.8644753], [-89.614006, 29.8605042], [-89.5920639, 29.8561802], [-89.5701599, 29.8515186], [-89.5483398, 29.8465137], [-89.5265808, 29.8411598], [-89.5049133, 29.8354626], [-89.4833069, 29.8294201], [-89.4618149, 29.8230381], [-89.4404144, 29.8163147], [-89.4191284, 29.809248], [-89.3979492, 29.8018417], [-89.3768921, 29.7940979], [-89.3559799, 29.7860184], [-89.3351898, 29.7776051], [-89.3145523, 29.768856], [-89.2940674, 29.7597752], [-89.273735, 29.7503662], [-89.2535706, 29.7406273], [-89.2335739, 29.7305641], [-89.2137756, 29.7201767], [-89.1941376, 29.7094727], [-89.1747055, 29.6984425], [-89.1554718, 29.6870995], [-89.1364441, 29.6754456], [-89.1178055, 29.6633377], [-89.0997314, 29.6506424], [-89.0822449, 29.637373], [-89.0653534, 29.6235485], [-89.0490952, 29.6091824], [-89.0334702, 29.5942822], [-89.018486, 29.5788746], [-89.0041885, 29.5629673], [-88.9905548, 29.5465775], [-88.9774628, 29.5298672], [-88.9647369, 29.5129795], [-88.9523697, 29.4959278], [-88.9403839, 29.4787197], [-88.9287643, 29.4613514], [-88.9175186, 29.4438343], [-88.9066544, 29.4261742], [-88.8961716, 29.4083824], [-88.8860626, 29.3904591], [-88.8763275, 29.3724136], [-88.8669815, 29.3542519], [-88.8580322, 29.3359718], [-88.8494568, 29.3175926], [-88.8412781, 29.2991104], [-88.8334961, 29.2805347], [-88.8260956, 29.2618752], [-88.8190994, 29.2431374], [-88.8124771, 29.2243214], [-88.8062515, 29.2054348], [-88.8004303, 29.1864891], [-88.7949905, 29.1674881], [-88.7899475, 29.1484375], [-88.7853088, 29.129343], [-88.7810516, 29.1102085], [-88.7771912, 29.0910511], [-88.773735, 29.0718613], [-88.7706604, 29.0526562], [-88.7679825, 29.0334396], [-88.7657013, 29.0142136], [-88.7638092, 28.9949875], [-88.7623062, 28.975769], [-88.7612, 28.9565639], [-88.7604675, 28.9373703], [-88.7601318, 28.9182053], [-88.7601776, 28.8990707], [-88.7606049, 28.8799706], [-88.7614212, 28.8609142], [-88.7626114, 28.8419018], [-88.7641907, 28.8229446], [-88.7661438, 28.8040466], [-88.7684631, 28.7852135], [-88.7711563, 28.7664528], [-88.774231, 28.7477646], [-88.7776718, 28.7291603], [-88.7814713, 28.7106419], [-88.7856369, 28.6922207], [-88.7901611, 28.673893], [-88.7950439, 28.6556664], [-88.8002777, 28.6375561], [-88.8058701, 28.6195583], [-88.8118057, 28.6016808], [-88.8180923, 28.5839233], [-88.824707, 28.5663013], [-88.8316727, 28.548811], [-88.8389587, 28.5314636], [-88.8465881, 28.5142612], [-88.8545456, 28.4972134], [-88.8628235, 28.4803123], [-88.8714218, 28.4635715], [-88.8803406, 28.4469986], [-88.8895569, 28.4305916], [-88.8990936, 28.4143581], [-88.9089279, 28.398304], [-88.919075, 28.382431], [-88.929512, 28.3667469], [-88.9402313, 28.3512497], [-88.9512329, 28.3359509], [-88.9625168, 28.3208523], [-88.9740829, 28.305954], [-88.9859314, 28.2912636], [-88.9980392, 28.2767811], [-89.0104065, 28.2625179], [-89.0230408, 28.2484684], [-89.0359116, 28.234642], [-89.0490417, 28.2210464], [-89.0624084, 28.2076759], [-89.0760193, 28.1945343], [-89.089859, 28.181633], [-89.1039276, 28.1689682], [-89.1182022, 28.1565475], [-89.1327209, 28.1443691], [-89.147522, 28.1325111], [-89.1626892, 28.1210556], [-89.1782074, 28.1100082], [-89.1940613, 28.0993786], [-89.2102356, 28.0891743], [-89.226738, 28.0793972], [-89.2435532, 28.0700588], [-89.2606506, 28.0611649], [-89.2780228, 28.0527172], [-89.2955856, 28.0446548], [-89.3132553, 28.0368977], [-89.3310013, 28.0294571], [-89.3488464, 28.0223198], [-89.3667526, 28.0154991], [-89.3847351, 28.0089874], [-89.4027786, 28.0027885], [-89.4208755, 27.9969006], [-89.4390411, 27.9913216], [-89.4572372, 27.9860554], [-89.4754639, 27.981102], [-89.4937286, 27.9764557], [-89.5120163, 27.9721222], [-89.530304, 27.9680958], [-89.5486145, 27.9643784], [-89.5669327, 27.960968], [-89.5852432, 27.9578629], [-89.6035461, 27.9550648], [-89.6218338, 27.9525681], [-89.6400909, 27.9503765], [-89.6583176, 27.9484844], [-89.6765213, 27.9468918], [-89.6946793, 27.9456005], [-89.7127838, 27.944603], [-89.7308426, 27.9439011], [-89.7488327, 27.9434929], [-89.7667618, 27.9433746], [-89.7846298, 27.9435444], [-89.8023987, 27.9439983], [-89.8201065, 27.9447384], [-89.8377151, 27.9457607], [-89.8552246, 27.9470615], [-89.8726425, 27.9486389], [-89.8899612, 27.950491], [-89.9071579, 27.95261], [-89.9242401, 27.9549999], [-89.9411926, 27.957655], [-89.9580231, 27.9605732], [-89.9747238, 27.9637508], [-89.9912949, 27.967186], [-90.0077209, 27.970871], [-90.0239944, 27.9748077], [-90.0401154, 27.9789886], [-90.056076, 27.9834118], [-90.0718689, 27.9880753], [-90.0875092, 27.9929733], [-90.1029892, 27.9981041], [-90.1182785, 28.0034618], [-90.1333923, 28.0090427], [-90.1483231, 28.0148487], [-90.1630554, 28.0208664], [-90.1776199, 28.0270977], [-90.1919785, 28.0335426], [-90.2061462, 28.040184], [-90.2200928, 28.0470295], [-90.2338486, 28.0540714], [-90.2473831, 28.0613022], [-90.2607117, 28.0687218], [-90.2738266, 28.0763245], [-90.2867126, 28.0841064], [-90.2993774, 28.092062], [-90.311821, 28.1001873], [-90.3240433, 28.1084785], [-90.3360138, 28.11693], [-90.3477554, 28.1255379], [-90.3592758, 28.1342964], [-90.3705521, 28.1432018], [-90.3815765, 28.1522503], [-90.3923645, 28.1614361], [-90.402916, 28.1707535], [-90.413208, 28.1801987], [-90.4232483, 28.1897678], [-90.4330368, 28.1994553], [-90.4425812, 28.209259], [-90.4518738, 28.2191658], [-90.4608994, 28.2291794], [-90.4696732, 28.2392921], [-90.4781799, 28.2495003], [-90.4864349, 28.2597961], [-90.4944229, 28.270174], [-90.5021591, 28.2806377], [-90.5099716, 28.2908821], [-90.5181885, 28.3006363], [-90.526825, 28.3099117], [-90.5359497, 28.3187256], [-90.5455475, 28.327095], [-90.5556412, 28.335041], [-90.5662613, 28.342577], [-90.5774231, 28.3497257], [-90.5891418, 28.3564987], [-90.6010971, 28.3632126], [-90.6129684, 28.3701572], [-90.6247406, 28.3773346], [-90.6364212, 28.3847408], [-90.6479874, 28.392374], [-90.659462, 28.4002399], [-90.6708145, 28.408329], [-90.682045, 28.416647], [-90.6931458, 28.4251862], [-90.7041245, 28.4339504], [-90.7149582, 28.4429379], [-90.7256546, 28.4521446], [-90.7362061, 28.4615688], [-90.7466125, 28.4712124], [-90.7568436, 28.4810696], [-90.7669144, 28.4911366], [-90.7768173, 28.5014172], [-90.7865448, 28.5119114], [-90.7960892, 28.5226059], [-90.8054581, 28.5335083], [-90.8146286, 28.5446072], [-90.8236084, 28.5559082], [-90.8323822, 28.5674057], [-90.8409576, 28.5790977], [-90.8493118, 28.5909805], [-90.8574524, 28.6030502], [-90.8653793, 28.6153049], [-90.8730698, 28.627739], [-90.8805313, 28.640358], [-90.8877716, 28.6531467], [-90.8947449, 28.666111], [-90.9014969, 28.6792431], [-90.9079895, 28.6925392], [-90.914238, 28.7059975], [-90.9202194, 28.7196083], [-90.9259338, 28.7333755], [-90.9313889, 28.7472935], [-90.9365616, 28.7613525], [-90.9414749, 28.7755527], [-90.9460983, 28.789896], [-90.9504318, 28.8043728], [-90.954483, 28.8189697], [-90.9582367, 28.8336964], [-90.9617004, 28.8485374], [-90.964859, 28.8635025], [-90.96772, 28.8785706], [-90.9702606, 28.8937473], [-90.9725037, 28.9090233], [-90.9744263, 28.9243946], [-90.9760361, 28.9398594], [-90.9773254, 28.95541], [-90.9782944, 28.9710388], [-90.9789276, 28.986742], [-90.9792404, 29.0025158], [-90.9792175, 29.0183582], [-90.9788589, 29.0342579], [-90.978157, 29.050211], [-90.9771271, 29.0662136], [-90.9757462, 29.082262], [-90.9740295, 29.0983448], [-90.9719543, 29.1144619], [-90.9695511, 29.1306019], [-90.9667816, 29.1467667], [-90.9636612, 29.1629429], [-90.9601974, 29.1791286], [-90.9563751, 29.1953201], [-90.9521942, 29.2115078], [-90.9476624, 29.227684], [-90.9427643, 29.2438488], [-90.9375, 29.2599926], [-90.9318848, 29.2761097], [-90.9259109, 29.2921925], [-90.9195709, 29.3082371], [-90.9128723, 29.3242359], [-90.9057999, 29.3401871], [-90.8983841, 29.3560791], [-90.8905945, 29.3719082], [-90.8824463, 29.3876648], [-90.8739319, 29.4033432], [-90.8650513, 29.4189491], [-90.8558197, 29.4344616], [-90.8461456, 29.4498081], [-90.8359451, 29.4649048], [-90.8252258, 29.4797363], [-90.814003, 29.4943027], [-90.8022842, 29.5085793], [-90.7900696, 29.5225658], [-90.7773743, 29.5362473], [-90.7641983, 29.549612], [-90.7505569, 29.5626564], [-90.7365417, 29.5754356], [-90.7222443, 29.5880203], [-90.7076645, 29.6004028], [-90.6927948, 29.6125755], [-90.6776505, 29.6245461], [-90.6622467, 29.6362991], [-90.6465759, 29.6478367], [-90.6306305, 29.6591415], [-90.614418, 29.6702271], [-90.5979691, 29.6810741], [-90.5812607, 29.6916885], [-90.5643005, 29.7020569], [-90.5471039, 29.7121811], [-90.5296631, 29.7220592], [-90.512001, 29.7316799], [-90.4941101, 29.741045], [-90.4759827, 29.7501488], [-90.4576569, 29.7589855], [-90.4391098, 29.7675514], [-90.4203568, 29.7758446], [-90.4013977, 29.783865], [-90.3822403, 29.7915993], [-90.3628998, 29.7990513], [-90.3433685, 29.8062172], [-90.3236694, 29.8130932], [-90.3037949, 29.8196716], [-90.2837372, 29.8259544], [-90.2635269, 29.8319397], [-90.2431641, 29.8376236], [-90.2226334, 29.8429966], [-90.2019806, 29.8480606], [-90.1811905, 29.8528137], [-90.1602554, 29.8572521], [-90.1391983, 29.8613758], [-90.1180344, 29.865181], [-90.0967484, 29.8686619], [-90.0753555, 29.8718185], [-90.0538635, 29.874651], [-90.03228, 29.8771572], [-90.0106201, 29.8793297], [-89.9888763, 29.8811741]]]}}, {"type": "Feature", "properties": {"shapefile": "al092021_2021082915_initialradii", "RADII": 64, "STORMID": "al092021", "BASIN": "al", "STORMNUM": 9, "ADVNUM": "14", "VALIDTIME": "2021082915", "SYNOPTIME": "2021082912", "TIMEZONE": "UTC", "TAU": 0, "NE": 45, "SE": 35, "SW": 20, "NW": 30}, "geometry": {"type": "Polygon", "coordinates": [[[-89.9933777, 29.4246082], [-89.9807816, 29.4271774], [-89.968071, 29.4295578], [-89.9552689, 29.431736], [-89.9423676, 29.4337158], [-89.9293747, 29.4354992], [-89.9162903, 29.4370689], [-89.9031067, 29.4384384], [-89.8898544, 29.4395981], [-89.8765335, 29.4405479], [-89.8631439, 29.4412842], [-89.8496704, 29.4418068], [-89.8361435, 29.442112], [-89.8225479, 29.4422035], [-89.8089142, 29.4420681], [-89.7952271, 29.4417191], [-89.7814865, 29.4411411], [-89.7677231, 29.4403419], [-89.7539139, 29.4393139], [-89.7400742, 29.4380627], [-89.7262192, 29.4365807], [-89.7123184, 29.4348679], [-89.6984253, 29.43293], [-89.6845245, 29.4307594], [-89.6706238, 29.4283543], [-89.6567078, 29.4257202], [-89.642807, 29.4228477], [-89.6289139, 29.4197426], [-89.6150284, 29.416399], [-89.6011887, 29.4128246], [-89.5873566, 29.4090176], [-89.5735703, 29.4049644], [-89.5598068, 29.4006863], [-89.5460892, 29.3961658], [-89.5324249, 29.3914051], [-89.5188141, 29.3864136], [-89.505249, 29.3811855], [-89.4917679, 29.3757191], [-89.4783401, 29.370018], [-89.4649963, 29.3640823], [-89.4517365, 29.357914], [-89.4387512, 29.3513279], [-89.4263153, 29.3441639], [-89.4144135, 29.3364334], [-89.4030685, 29.328146], [-89.3923111, 29.3193226], [-89.3821564, 29.3099747], [-89.3726044, 29.3001232], [-89.3636932, 29.2897778], [-89.355423, 29.2789574], [-89.3476105, 29.2678623], [-89.3400421, 29.2566738], [-89.3327255, 29.2453918], [-89.3256607, 29.2340298], [-89.3188477, 29.2225876], [-89.3122864, 29.2110729], [-89.3059921, 29.1994801], [-89.2999344, 29.1878262], [-89.294136, 29.1761036], [-89.2885895, 29.1643238], [-89.2833023, 29.1524887], [-89.2782669, 29.1406021], [-89.2734909, 29.1286716], [-89.2689743, 29.1166954], [-89.2647171, 29.1046829], [-89.2607117, 29.092638], [-89.256958, 29.0805588], [-89.2534714, 29.0684586], [-89.2502441, 29.0563354], [-89.247261, 29.0441933], [-89.2445374, 29.0320396], [-89.2420654, 29.0198765], [-89.2398605, 29.0077076], [-89.2378998, 28.9955368], [-89.2361984, 28.9833755], [-89.2347412, 28.9712124], [-89.2335434, 28.9590664], [-89.2325897, 28.9469299], [-89.2318954, 28.9348183], [-89.2314529, 28.9227219], [-89.2312469, 28.9106579], [-89.2312927, 28.8986244], [-89.2315826, 28.8866234], [-89.2321091, 28.8746643], [-89.2328796, 28.8627453], [-89.2338943, 28.8508682], [-89.2351456, 28.8390427], [-89.2366409, 28.8272743], [-89.2383499, 28.8155556], [-89.2403107, 28.8039017], [-89.2425079, 28.7923107], [-89.2449188, 28.7807884], [-89.2475662, 28.7693348], [-89.2504272, 28.7579575], [-89.2535095, 28.7466564], [-89.2568207, 28.7354355], [-89.2603531, 28.7243042], [-89.2641068, 28.7132607], [-89.2680588, 28.7022972], [-89.2722244, 28.6914406], [-89.2765884, 28.6806717], [-89.2811737, 28.6700058], [-89.285965, 28.6594448], [-89.290947, 28.6489868], [-89.2961273, 28.6386375], [-89.301506, 28.6284046], [-89.3070831, 28.6182823], [-89.3128357, 28.6082764], [-89.3187714, 28.5983963], [-89.3248901, 28.5886326], [-89.3311996, 28.5789967], [-89.337677, 28.5694885], [-89.3443298, 28.5601101], [-89.3511429, 28.5508633], [-89.358139, 28.5417557], [-89.3652802, 28.5327797], [-89.3725967, 28.5239487], [-89.3800583, 28.515255], [-89.3876801, 28.5067062], [-89.3954391, 28.4983044], [-89.4033508, 28.4900513], [-89.4114075, 28.4819469], [-89.4196091, 28.4739952], [-89.427948, 28.4661942], [-89.4364014, 28.4585476], [-89.4449844, 28.4510593], [-89.4537048, 28.4437332], [-89.4625397, 28.4365616], [-89.471489, 28.4295559], [-89.4805603, 28.4227085], [-89.4897385, 28.4160252], [-89.4990616, 28.4095478], [-89.5085678, 28.4033089], [-89.5182495, 28.3973179], [-89.5280914, 28.3915768], [-89.5380936, 28.3860855], [-89.5482559, 28.3808517], [-89.5585632, 28.3758774], [-89.5690079, 28.3711624], [-89.5795898, 28.3667107], [-89.5902481, 28.3624916], [-89.6009521, 28.3584671], [-89.611702, 28.3546333], [-89.622467, 28.3509922], [-89.633255, 28.3475437], [-89.6440659, 28.3442917], [-89.654892, 28.3412323], [-89.6657333, 28.3383656], [-89.67659, 28.3356876], [-89.6874313, 28.3332043], [-89.698288, 28.3309097], [-89.709137, 28.3288021], [-89.7199783, 28.3268852], [-89.7308044, 28.3251553], [-89.7416077, 28.3236122], [-89.7523956, 28.322258], [-89.7631531, 28.3210831], [-89.7738953, 28.3200951], [-89.7845993, 28.3192902], [-89.7952499, 28.3186646], [-89.8058777, 28.3182201], [-89.816452, 28.3179493], [-89.8269882, 28.3178616], [-89.8374557, 28.3179436], [-89.8478699, 28.3181992], [-89.8582382, 28.3186283], [-89.8685455, 28.3192291], [-89.8787689, 28.3199997], [-89.8889236, 28.3209305], [-89.8990097, 28.3220291], [-89.9090271, 28.3232899], [-89.9189529, 28.3247108], [-89.9287949, 28.3262863], [-89.9385529, 28.3280239], [-89.9482117, 28.3299103], [-89.9577942, 28.331953], [-89.9672623, 28.3341446], [-89.9766541, 28.3364792], [-89.9859238, 28.3389626], [-89.9950943, 28.3415871], [-90.004158, 28.3443527], [-90.0131073, 28.3472538], [-90.0219421, 28.3502903], [-90.0306702, 28.3534584], [-90.0392761, 28.3567581], [-90.04776, 28.3601818], [-90.0561218, 28.3637295], [-90.0643616, 28.367403], [-90.0724716, 28.3711929], [-90.0804443, 28.3750992], [-90.0882874, 28.3791142], [-90.0960007, 28.3832436], [-90.103569, 28.3874817], [-90.1110077, 28.3918209], [-90.118309, 28.3962631], [-90.1254578, 28.4008045], [-90.1324768, 28.4054394], [-90.1393433, 28.4101677], [-90.1460571, 28.4149857], [-90.152626, 28.4198914], [-90.1590576, 28.4248772], [-90.1653137, 28.4299488], [-90.1714401, 28.4350929], [-90.1774063, 28.4403114], [-90.1832275, 28.4456005], [-90.1888733, 28.4509583], [-90.1943741, 28.4563808], [-90.1997223, 28.4618664], [-90.2049103, 28.467411], [-90.209938, 28.4730091], [-90.2148132, 28.4786587], [-90.2195206, 28.484354], [-90.2240753, 28.490099], [-90.2284622, 28.4958878], [-90.2326889, 28.501709], [-90.2367554, 28.5075722], [-90.2406616, 28.5134678], [-90.2444077, 28.519392], [-90.2479858, 28.5253468], [-90.2514114, 28.5313206], [-90.2546768, 28.5373192], [-90.257988, 28.5431519], [-90.2615662, 28.548645], [-90.2654114, 28.5538158], [-90.2695618, 28.5586681], [-90.2740173, 28.5632153], [-90.278801, 28.5674667], [-90.283905, 28.5714378], [-90.2893753, 28.5751343], [-90.2951965, 28.5785732], [-90.301178, 28.5819397], [-90.3071136, 28.5854282], [-90.3130112, 28.5890293], [-90.31884, 28.5927429], [-90.3246231, 28.5965786], [-90.3303528, 28.6005211], [-90.3360291, 28.6045799], [-90.3416443, 28.6087551], [-90.3471985, 28.6130371], [-90.3526688, 28.6174316], [-90.3580933, 28.6219387], [-90.3634338, 28.6265564], [-90.3687057, 28.6312828], [-90.3738785, 28.6361179], [-90.3789902, 28.6410618], [-90.3840179, 28.6461105], [-90.3889542, 28.6512661], [-90.3938065, 28.6565247], [-90.3985672, 28.6618862], [-90.4032288, 28.6673508], [-90.4078064, 28.6729164], [-90.4122772, 28.6785793], [-90.4166565, 28.6843395], [-90.420929, 28.6901989], [-90.4250793, 28.6961575], [-90.4291229, 28.7022018], [-90.4330673, 28.7083435], [-90.4368896, 28.7145767], [-90.4405975, 28.7208939], [-90.444191, 28.7273026], [-90.44767, 28.7337952], [-90.4510193, 28.7403736], [-90.4542313, 28.7470303], [-90.4573212, 28.753767], [-90.4602814, 28.760582], [-90.4631042, 28.7674789], [-90.4658051, 28.7744446], [-90.4683685, 28.7814865], [-90.4707947, 28.7885952], [-90.4730682, 28.7957764], [-90.4752045, 28.8030186], [-90.4772034, 28.8103256], [-90.4790344, 28.8176956], [-90.4807358, 28.8251266], [-90.4822693, 28.8326111], [-90.4836731, 28.8401527], [-90.4849167, 28.847744], [-90.4859924, 28.8553867], [-90.4869156, 28.8630772], [-90.4876862, 28.8708115], [-90.4882965, 28.8785877], [-90.488739, 28.8864059], [-90.4890213, 28.8942604], [-90.4891434, 28.9021473], [-90.4891052, 28.9100647], [-90.4888763, 28.9180164], [-90.4884949, 28.9259911], [-90.4879456, 28.9339905], [-90.4872131, 28.9420128], [-90.4863129, 28.9500523], [-90.4852524, 28.958107], [-90.4840012, 28.9661732], [-90.4825821, 28.9742508], [-90.4809875, 28.9823341], [-90.4792175, 28.9904213], [-90.477272, 28.9985085], [-90.4751511, 29.0065918], [-90.4728546, 29.0146751], [-90.4703674, 29.0227489], [-90.4677124, 29.0308094], [-90.4648743, 29.0388622], [-90.4618607, 29.0468922], [-90.4586563, 29.0549049], [-90.4552765, 29.0628929], [-90.4517136, 29.0708542], [-90.4479752, 29.0787868], [-90.4440613, 29.0866909], [-90.4399643, 29.0945568], [-90.4356842, 29.1023865], [-90.4312363, 29.1101685], [-90.4265976, 29.1179104], [-90.4218369, 29.1256447], [-90.416954, 29.1334], [-90.4119797, 29.1411781], [-90.4069061, 29.1489773], [-90.4017258, 29.1568031], [-90.3964462, 29.1646461], [-90.3910446, 29.1725082], [-90.3855362, 29.1803932], [-90.3799133, 29.1882973], [-90.3741302, 29.1961803], [-90.3681488, 29.2040024], [-90.361969, 29.2117653], [-90.3555756, 29.2194595], [-90.348999, 29.2270851], [-90.3422165, 29.2346325], [-90.3352432, 29.2421055], [-90.328064, 29.2494946], [-90.3207016, 29.2568016], [-90.3131409, 29.2640171], [-90.3053894, 29.2711411], [-90.2974396, 29.2781715], [-90.289299, 29.2851028], [-90.2809753, 29.2919273], [-90.2724686, 29.2986488], [-90.2637787, 29.3052578], [-90.2549057, 29.3117504], [-90.2458496, 29.3181286], [-90.236618, 29.3243885], [-90.227211, 29.3305149], [-90.2176208, 29.3365173], [-90.2078552, 29.3423901], [-90.1979446, 29.3481274], [-90.1878357, 29.3537254], [-90.1775818, 29.3591785], [-90.16716, 29.3644924], [-90.1565857, 29.3696518], [-90.1458435, 29.3746643], [-90.1349564, 29.3795166], [-90.1239166, 29.3842163], [-90.1127014, 29.3887539], [-90.1013641, 29.3931274], [-90.0898972, 29.3973351], [-90.0782776, 29.4013672], [-90.0665207, 29.4052334], [-90.0546417, 29.4089184], [-90.0426331, 29.4124279], [-90.0304947, 29.4157505], [-90.0182419, 29.4188919], [-90.005867, 29.4218445], [-89.9933777, 29.4246082]]]}}]}