{"type": "FeatureCollection", "features": [{"type": "Feature", "properties": {"shapefile": "al092021-006_5day_pgn", "STORMNAME": "Ida", "STORMTYPE": "HU", "ADVDATE": "500 PM EDT Fri Aug 27 2021", "ADVISNUM": "6", "STORMNUM": 9, "FCSTPRD": 120, "BASIN": "AL"}, "geometry": {"type": "Polygon", "coordinates": [[[-83.23877, 21.83237], [-83.21443, 21.83049], [-83.20248, 21.83122], [-83.16243, 21.83583], [-83.13549, 21.84204], [-83.1087, 21.85012], [-83.08276, 21.85993], [-83.05814, 21.87133], [-83.03523, 21.88446], [-83.0044, 21.90769], [-82.98683, 21.92616], [-82.96451, 21.9579], [-82.95774, 21.96916], [-82.9416, 22.00711], [-82.93353, 22.03481], [-82.92792, 22.0641], [-82.92519, 22.09455], [-82.92561, 22.12528], [-82.92937, 22.15501], [-82.93642, 22.18286], [-82.94664, 22.2084], [-82.9596, 22.23148], [-82.97473, 22.25241], [-82.9998, 22.28141], [-83.01766, 22.29959], [-83.03553, 22.31777], [-83.0446, 22.32671], [-83.06261, 22.34475], [-83.08047, 22.36293], [-83.09805, 22.3814], [-83.11519, 22.4003], [-83.13982, 22.42974], [-83.15537, 22.45023], [-83.17064, 22.47101], [-83.17827, 22.4814], [-83.19368, 22.50203], [-83.2176, 22.53219], [-83.2346, 22.55124], [-83.25188, 22.56999], [-83.26081, 22.57909], [-83.28761, 22.60635], [-83.30575, 22.62425], [-83.31468, 22.63334], [-83.34176, 22.66032], [-83.35963, 22.6785], [-83.37777, 22.69639], [-83.3867, 22.70548], [-83.40471, 22.72352], [-83.43165, 22.75064], [-83.44979, 22.76854], [-83.45872, 22.77763], [-83.47673, 22.79567], [-83.49474, 22.8137], [-83.52181, 22.84069], [-83.53075, 22.84978], [-83.55782, 22.87676], [-83.57569, 22.89494], [-83.58476, 22.90388], [-83.60277, 22.92192], [-83.62078, 22.93996], [-83.64772, 22.96708], [-83.65665, 22.97617], [-83.68286, 23.00402], [-83.69987, 23.02307], [-83.70793, 23.03303], [-83.72377, 23.05323], [-83.73918, 23.07386], [-83.75446, 23.09464], [-83.76987, 23.11527], [-83.78571, 23.13547], [-83.80228, 23.15495], [-83.82806, 23.18324], [-83.84593, 23.20141], [-83.85486, 23.21051], [-83.88194, 23.23749], [-83.89087, 23.24658], [-83.90887, 23.26462], [-83.93581, 23.29174], [-83.95396, 23.30964], [-83.96289, 23.31873], [-83.9809, 23.33676], [-83.9989, 23.3548], [-84.02599, 23.38178], [-84.04384, 23.39996], [-84.062, 23.41785], [-84.07092, 23.42694], [-84.09801, 23.45393], [-84.10693, 23.46302], [-84.12494, 23.48105], [-84.15187, 23.50818], [-84.16095, 23.51713], [-84.18788, 23.54425], [-84.20604, 23.56215], [-84.22389, 23.58033], [-84.23297, 23.58927], [-84.25098, 23.60731], [-84.26898, 23.62534], [-84.29591, 23.65247], [-84.31407, 23.67037], [-84.323, 23.67946], [-84.341, 23.69749], [-84.36794, 23.72462], [-84.38609, 23.74251], [-84.40395, 23.76069], [-84.4221, 23.77858], [-84.43103, 23.78767], [-84.45811, 23.81466], [-84.46706, 23.82375], [-84.49413, 23.85073], [-84.512, 23.86891], [-84.53014, 23.8868], [-84.53908, 23.89589], [-84.55708, 23.91393], [-84.57509, 23.93197], [-84.59309, 23.95], [-84.62003, 23.97713], [-84.6291, 23.98608], [-84.65604, 24.0132], [-84.66498, 24.02229], [-84.68254, 24.04076], [-84.70847, 24.0689], [-84.71683, 24.07857], [-84.74159, 24.10786], [-84.75802, 24.12748], [-84.77473, 24.14682], [-84.79115, 24.16644], [-84.80757, 24.18607], [-84.82428, 24.2054], [-84.84071, 24.22503], [-84.85712, 24.24465], [-84.86547, 24.25432], [-84.89111, 24.28274], [-84.9084, 24.3015], [-84.92626, 24.31968], [-84.94413, 24.33786], [-84.96227, 24.35575], [-84.98014, 24.37394], [-84.99829, 24.39183], [-85.01615, 24.41001], [-85.0343, 24.4279], [-85.05216, 24.44608], [-85.07031, 24.46397], [-85.08817, 24.48215], [-85.10632, 24.50005], [-85.12419, 24.51823], [-85.14233, 24.53612], [-85.1602, 24.5543], [-85.17834, 24.57219], [-85.19621, 24.59037], [-85.21436, 24.60826], [-85.23222, 24.62645], [-85.25037, 24.64434], [-85.26823, 24.66252], [-85.27731, 24.67146], [-85.30424, 24.69859], [-85.3224, 24.71649], [-85.34026, 24.73466], [-85.35841, 24.75256], [-85.36734, 24.76165], [-85.39442, 24.78863], [-85.41228, 24.80681], [-85.43044, 24.8247], [-85.43936, 24.83379], [-85.46645, 24.86077], [-85.4843, 24.87896], [-85.50246, 24.89685], [-85.51138, 24.90594], [-85.53847, 24.93292], [-85.54739, 24.94201], [-85.57448, 24.969], [-85.59233, 24.98718], [-85.61049, 25.00507], [-85.62834, 25.02325], [-85.6465, 25.04114], [-85.66435, 25.05932], [-85.68251, 25.07721], [-85.70036, 25.09539], [-85.70944, 25.10434], [-85.73637, 25.13147], [-85.74545, 25.14042], [-85.77238, 25.16754], [-85.79054, 25.18544], [-85.8084, 25.20362], [-85.82655, 25.22151], [-85.84441, 25.23969], [-85.86256, 25.25758], [-85.88042, 25.27576], [-85.89857, 25.29365], [-85.91644, 25.31183], [-85.93459, 25.32973], [-85.95246, 25.34791], [-85.97061, 25.3658], [-85.97954, 25.37489], [-86.00663, 25.40187], [-86.02448, 25.42006], [-86.04264, 25.43795], [-86.06049, 25.45613], [-86.07865, 25.47402], [-86.0965, 25.4922], [-86.11466, 25.51009], [-86.13251, 25.52827], [-86.15067, 25.54617], [-86.16853, 25.56435], [-86.18668, 25.58224], [-86.20454, 25.60042], [-86.22269, 25.61831], [-86.24055, 25.63649], [-86.25871, 25.65438], [-86.27656, 25.67257], [-86.28564, 25.68151], [-86.30364, 25.69955], [-86.33073, 25.72653], [-86.34858, 25.74471], [-86.36674, 25.76261], [-86.38459, 25.78078], [-86.40275, 25.79868], [-86.4206, 25.81686], [-86.43876, 25.83475], [-86.45661, 25.85293], [-86.47477, 25.87082], [-86.49262, 25.889], [-86.51078, 25.90689], [-86.52863, 25.92508], [-86.54679, 25.94297], [-86.56464, 25.96115], [-86.57372, 25.9701], [-86.60065, 25.99722], [-86.61881, 26.01512], [-86.63667, 26.0333], [-86.64574, 26.04224], [-86.67268, 26.06937], [-86.69083, 26.08726], [-86.70869, 26.10544], [-86.72685, 26.12333], [-86.74471, 26.14151], [-86.76286, 26.15941], [-86.78072, 26.17759], [-86.79887, 26.19548], [-86.81673, 26.21366], [-86.83488, 26.23156], [-86.85274, 26.24973], [-86.8709, 26.26763], [-86.87982, 26.27672], [-86.90691, 26.3037], [-86.92476, 26.32188], [-86.94292, 26.33977], [-86.96077, 26.35795], [-86.97893, 26.37584], [-86.99678, 26.39402], [-87.01465, 26.4122], [-87.03193, 26.43097], [-87.04893, 26.45001], [-87.057, 26.45997], [-87.08061, 26.49041], [-87.09589, 26.51119], [-87.11116, 26.53197], [-87.12672, 26.55246], [-87.13478, 26.56241], [-87.15984, 26.59142], [-87.17712, 26.61018], [-87.19499, 26.62836], [-87.21284, 26.64654], [-87.231, 26.66443], [-87.24886, 26.68261], [-87.26701, 26.7005], [-87.28487, 26.71869], [-87.30302, 26.73658], [-87.32088, 26.75476], [-87.33904, 26.77265], [-87.3569, 26.79083], [-87.37505, 26.80872], [-87.39291, 26.8269], [-87.41106, 26.8448], [-87.42892, 26.86298], [-87.438, 26.87193], [-87.46493, 26.89905], [-87.48309, 26.91694], [-87.49201, 26.92603], [-87.5191, 26.95301], [-87.53695, 26.9712], [-87.55511, 26.98909], [-87.56403, 26.99818], [-87.59112, 27.02516], [-87.60897, 27.04334], [-87.62713, 27.06124], [-87.64498, 27.07941], [-87.66314, 27.09731], [-87.68099, 27.11549], [-87.69915, 27.13338], [-87.70808, 27.14247], [-87.73516, 27.16945], [-87.75301, 27.18763], [-87.77117, 27.20552], [-87.78902, 27.22371], [-87.80718, 27.2416], [-87.82504, 27.25978], [-87.84319, 27.27767], [-87.86105, 27.29585], [-87.87892, 27.31403], [-87.89621, 27.33279], [-87.91321, 27.35184], [-87.92934, 27.37175], [-87.9449, 27.39224], [-87.95253, 27.40263], [-87.97543, 27.4338], [-87.98322, 27.44404], [-88.00713, 27.4742], [-88.02412, 27.49325], [-88.03276, 27.50262], [-88.05927, 27.53019], [-88.07713, 27.54837], [-88.09528, 27.56626], [-88.11314, 27.58444], [-88.13129, 27.60233], [-88.14022, 27.61142], [-88.1673, 27.6384], [-88.18517, 27.65658], [-88.19424, 27.66553], [-88.22118, 27.69266], [-88.23933, 27.71055], [-88.24826, 27.71964], [-88.27505, 27.74691], [-88.28369, 27.75629], [-88.30933, 27.78472], [-88.3174, 27.79467], [-88.33324, 27.81487], [-88.35629, 27.8459], [-88.36392, 27.85629], [-88.38712, 27.88717], [-88.39519, 27.89712], [-88.42025, 27.92612], [-88.42889, 27.9355], [-88.44646, 27.95397], [-88.47325, 27.98124], [-88.48233, 27.99019], [-88.50926, 28.01731], [-88.51834, 28.02626], [-88.53635, 28.0443], [-88.56343, 28.07128], [-88.58128, 28.08946], [-88.59036, 28.0984], [-88.60837, 28.11644], [-88.63545, 28.14343], [-88.65331, 28.16161], [-88.67146, 28.1795], [-88.68932, 28.19768], [-88.70718, 28.21586], [-88.71582, 28.22524], [-88.73296, 28.24414], [-88.7576, 28.27358], [-88.77315, 28.29407], [-88.78843, 28.31484], [-88.8037, 28.33562], [-88.81148, 28.34587], [-88.82732, 28.36607], [-88.84389, 28.38555], [-88.86967, 28.41383], [-88.87862, 28.42292], [-88.89647, 28.4411], [-88.91448, 28.45914], [-88.93249, 28.47717], [-88.95049, 28.49521], [-88.97742, 28.52234], [-88.98636, 28.53143], [-89.01257, 28.55928], [-89.02107, 28.5688], [-89.0457, 28.59824], [-89.05348, 28.60848], [-89.06889, 28.62911], [-89.08416, 28.64989], [-89.10735, 28.68077], [-89.11542, 28.69073], [-89.13184, 28.71035], [-89.14854, 28.72969], [-89.16525, 28.74902], [-89.18167, 28.76864], [-89.19753, 28.78885], [-89.21294, 28.80948], [-89.2282, 28.83025], [-89.25111, 28.86142], [-89.25888, 28.87167], [-89.27458, 28.89201], [-89.29807, 28.9226], [-89.31334, 28.94338], [-89.32083, 28.95392], [-89.343, 28.98581], [-89.35741, 29.00745], [-89.36446, 29.01842], [-89.37843, 29.04049], [-89.39212, 29.06286], [-89.40538, 29.08566], [-89.41805, 29.10903], [-89.43044, 29.13269], [-89.44269, 29.1565], [-89.45464, 29.1806], [-89.47265, 29.21667], [-89.4787, 29.22865], [-89.49066, 29.25275], [-89.50261, 29.27684], [-89.51472, 29.30079], [-89.52652, 29.32504], [-89.53804, 29.34956], [-89.55504, 29.38665], [-89.56023, 29.39949], [-89.57031, 29.42546], [-89.57996, 29.45187], [-89.58904, 29.47885], [-89.5974, 29.50655], [-89.60532, 29.53469], [-89.61295, 29.56312], [-89.6203, 29.59183], [-89.62735, 29.62083], [-89.63399, 29.65027], [-89.63989, 29.68043], [-89.64479, 29.71159], [-89.64839, 29.74406], [-89.6507, 29.77782], [-89.65199, 29.8126], [-89.65257, 29.84809], [-89.65271, 29.88402], [-89.65257, 29.91995], [-89.65199, 29.95545], [-89.6507, 29.99022], [-89.64839, 30.02399], [-89.64479, 30.05645], [-89.63989, 30.08762], [-89.63715, 30.10292], [-89.62736, 30.14721], [-89.62016, 30.17607], [-89.61237, 30.20435], [-89.60402, 30.23206], [-89.59496, 30.25904], [-89.58486, 30.28501], [-89.57392, 30.31012], [-89.56254, 30.33479], [-89.55678, 30.34706], [-89.53862, 30.38299], [-89.52667, 30.40709], [-89.51471, 30.43118], [-89.50246, 30.45499], [-89.49007, 30.47865], [-89.47726, 30.50188], [-89.47063, 30.51328], [-89.45651, 30.53521], [-89.44153, 30.55628], [-89.42568, 30.57648], [-89.4087, 30.59553], [-89.3914, 30.61429], [-89.37354, 30.63247], [-89.35569, 30.65065], [-89.33753, 30.66854], [-89.31968, 30.68672], [-89.30152, 30.70462], [-89.28367, 30.7228], [-89.26579, 30.74098], [-89.24852, 30.75974], [-89.23152, 30.77878], [-89.21538, 30.79869], [-89.19983, 30.81918], [-89.18456, 30.83996], [-89.16928, 30.86074], [-89.15373, 30.88123], [-89.1376, 30.90114], [-89.12061, 30.92019], [-89.10332, 30.93895], [-89.07653, 30.96622], [-89.0676, 30.97531], [-89.04945, 30.9932], [-89.03159, 31.01138], [-89.01372, 31.02956], [-88.99644, 31.04832], [-88.97945, 31.06736], [-88.9633, 31.08728], [-88.94775, 31.10777], [-88.93248, 31.12855], [-88.91721, 31.14932], [-88.90165, 31.16981], [-88.88551, 31.18972], [-88.86852, 31.20877], [-88.85123, 31.22753], [-88.83337, 31.24571], [-88.80643, 31.27283], [-88.79736, 31.28178], [-88.7795, 31.29996], [-88.76163, 31.31815], [-88.73585, 31.34643], [-88.72735, 31.35595], [-88.70345, 31.3861], [-88.69566, 31.39635], [-88.68039, 31.41713], [-88.66512, 31.43791], [-88.64956, 31.4584], [-88.63344, 31.47831], [-88.61643, 31.49736], [-88.59915, 31.51612], [-88.58128, 31.53429], [-88.56343, 31.55248], [-88.53635, 31.57946], [-88.52742, 31.58855], [-88.50926, 31.60644], [-88.49141, 31.62462], [-88.47325, 31.64252], [-88.4554, 31.66069], [-88.43724, 31.67859], [-88.41939, 31.69677], [-88.40123, 31.71466], [-88.38338, 31.73284], [-88.36522, 31.75074], [-88.34737, 31.76892], [-88.32921, 31.78681], [-88.31136, 31.80499], [-88.2932, 31.82288], [-88.27534, 31.84106], [-88.25719, 31.85895], [-88.23933, 31.87713], [-88.22118, 31.89503], [-88.20332, 31.9132], [-88.18517, 31.9311], [-88.16731, 31.94928], [-88.14915, 31.96717], [-88.1313, 31.98535], [-88.11314, 32.00325], [-88.09529, 32.02143], [-88.07713, 32.03932], [-88.05928, 32.0575], [-88.04112, 32.07539], [-88.02296, 32.09328], [-88.00424, 32.1106], [-87.98522, 32.12762], [-87.96535, 32.14379], [-87.94489, 32.15937], [-87.92415, 32.17466], [-87.90341, 32.18996], [-87.88266, 32.20525], [-87.86221, 32.22084], [-87.84204, 32.23671], [-87.8213, 32.25201], [-87.7997, 32.26643], [-87.77693, 32.27971], [-87.76483, 32.28563], [-87.72681, 32.30164], [-87.71326, 32.30611], [-87.68575, 32.31462], [-87.65752, 32.32242], [-87.62886, 32.32978], [-87.60005, 32.33699], [-87.57124, 32.34421], [-87.52803, 32.35503], [-87.51363, 32.35864], [-87.48467, 32.36571], [-87.45543, 32.37249], [-87.4259, 32.37898], [-87.39608, 32.38519], [-87.36598, 32.39111], [-87.33587, 32.39702], [-87.30591, 32.40308], [-87.2758, 32.409], [-87.24541, 32.41463], [-87.21473, 32.41997], [-87.18362, 32.42487], [-87.15221, 32.42949], [-87.12109, 32.43439], [-87.09042, 32.43973], [-87.05988, 32.44521], [-87.02919, 32.45055], [-86.99809, 32.45546], [-86.96625, 32.45964], [-86.93384, 32.46325], [-86.90143, 32.46686], [-86.8696, 32.47104], [-86.83849, 32.47595], [-86.8078, 32.48129], [-86.77711, 32.48663], [-86.74601, 32.49153], [-86.71417, 32.49571], [-86.68176, 32.49932], [-86.64935, 32.50293], [-86.61752, 32.50711], [-86.5864, 32.51202], [-86.55571, 32.51736], [-86.52503, 32.5227], [-86.49392, 32.5276], [-86.46208, 32.53178], [-86.42967, 32.53539], [-86.39726, 32.539], [-86.36543, 32.54318], [-86.33432, 32.54809], [-86.30363, 32.55343], [-86.27296, 32.55877], [-86.24184, 32.56367], [-86.21001, 32.56786], [-86.1776, 32.57147], [-86.14519, 32.57507], [-86.11336, 32.57925], [-86.08224, 32.58417], [-86.05156, 32.5895], [-86.02101, 32.59499], [-85.99033, 32.60033], [-85.95921, 32.60523], [-85.92782, 32.60985], [-85.8967, 32.61475], [-85.86602, 32.62009], [-85.83548, 32.62558], [-85.80495, 32.63106], [-85.75885, 32.639], [-85.74315, 32.6413], [-85.71175, 32.64592], [-85.68063, 32.65083], [-85.64996, 32.65617], [-85.61942, 32.66165], [-85.58888, 32.66713], [-85.5582, 32.67247], [-85.52708, 32.67738], [-85.49568, 32.68199], [-85.46457, 32.6869], [-85.43389, 32.69224], [-85.4035, 32.69787], [-85.37339, 32.70378], [-85.34343, 32.70984], [-85.31332, 32.71576], [-85.28322, 32.72167], [-85.25326, 32.72773], [-85.2233, 32.7338], [-85.19333, 32.73985], [-85.16338, 32.74591], [-85.13326, 32.75183], [-85.10315, 32.75774], [-85.07319, 32.7638], [-85.04323, 32.76987], [-85.01326, 32.77593], [-84.98331, 32.78199], [-84.9532, 32.7879], [-84.9231, 32.79382], [-84.89328, 32.80003], [-84.86375, 32.80652], [-84.83451, 32.8133], [-84.80556, 32.82037], [-84.77689, 32.82773], [-84.7344, 32.83928], [-84.72043, 32.84332], [-84.69263, 32.85154], [-84.66525, 32.8602], [-84.63818, 32.86915], [-84.6111, 32.87809], [-84.58401, 32.88704], [-84.55708, 32.89613], [-84.53014, 32.90522], [-84.48952, 32.91863], [-84.47598, 32.92311], [-84.43565, 32.93682], [-84.40855, 32.94576], [-84.39502, 32.95023], [-84.35469, 32.96394], [-84.34158, 32.96885], [-84.31537, 32.97866], [-84.28929, 32.98862], [-84.26366, 32.999], [-84.22562, 33.01502], [-84.21266, 33.02007], [-84.17377, 33.03522], [-84.16095, 33.04042], [-84.13517, 33.05067], [-84.10938, 33.06091], [-84.07179, 33.07735], [-84.05955, 33.08313], [-84.02281, 33.10044], [-83.9989, 33.11256], [-83.97499, 33.12469], [-83.95079, 33.13652], [-83.93884, 33.14257], [-83.90297, 33.16076], [-83.89087, 33.16667], [-83.85486, 33.1847], [-83.8429, 33.19077], [-83.81885, 33.20275], [-83.78284, 33.22078], [-83.75893, 33.2329], [-83.74683, 33.23882], [-83.71082, 33.25686], [-83.68719, 33.26926], [-83.67537, 33.27547], [-83.65204, 33.28817], [-83.61804, 33.30823], [-83.60695, 33.31515], [-83.57396, 33.33622], [-83.56316, 33.34343], [-83.53075, 33.36507], [-83.50914, 33.37951], [-83.48753, 33.39393], [-83.46593, 33.40836], [-83.44432, 33.42279], [-83.42271, 33.43722], [-83.40111, 33.45165], [-83.3795, 33.46608], [-83.35789, 33.48051], [-83.33629, 33.49494], [-83.31497, 33.50965], [-83.29394, 33.52466], [-83.2732, 33.53996], [-83.25275, 33.55554], [-83.23258, 33.57141], [-83.21212, 33.587], [-83.19138, 33.60229], [-83.17064, 33.61758], [-83.14989, 33.63288], [-83.12944, 33.64846], [-83.10956, 33.66463], [-83.09055, 33.68165], [-83.07182, 33.69897], [-83.05367, 33.71686], [-83.03552, 33.73475], [-83.01738, 33.75264], [-82.99864, 33.76996], [-82.97963, 33.78698], [-82.95975, 33.80315], [-82.93929, 33.81873], [-82.91855, 33.83402], [-82.89781, 33.84932], [-82.87736, 33.86491], [-82.85777, 33.88136], [-82.83933, 33.89896], [-82.82175, 33.91743], [-82.80533, 33.93705], [-82.78978, 33.95754], [-82.76688, 33.98871], [-82.75924, 33.9991], [-82.74368, 34.01958], [-82.72755, 34.0395], [-82.71055, 34.05854], [-82.69327, 34.0773], [-82.6754, 34.09548], [-82.65755, 34.11366], [-82.63939, 34.13155], [-82.62154, 34.14974], [-82.60368, 34.16792], [-82.58639, 34.18668], [-82.56939, 34.20572], [-82.55325, 34.22564], [-82.53021, 34.25666], [-82.52272, 34.26719], [-82.50082, 34.29937], [-82.48642, 34.32101], [-82.47202, 34.34266], [-82.45761, 34.3643], [-82.44321, 34.38595], [-82.4288, 34.40759], [-82.4144, 34.42923], [-82.39999, 34.45087], [-82.39279, 34.46169], [-82.37119, 34.49416], [-82.35678, 34.51581], [-82.34252, 34.53759], [-82.32855, 34.55967], [-82.32163, 34.57078], [-82.30147, 34.60469], [-82.28836, 34.62763], [-82.27525, 34.65057], [-82.26186, 34.67323], [-82.24817, 34.69559], [-82.23434, 34.71782], [-82.22066, 34.74018], [-82.2074, 34.76298], [-82.19486, 34.7865], [-82.18334, 34.81103], [-82.17268, 34.83643], [-82.16231, 34.86211], [-82.15208, 34.88793], [-82.14185, 34.91376], [-82.13104, 34.93902], [-82.11967, 34.96369], [-82.10829, 34.98837], [-82.09691, 35.01304], [-82.08553, 35.03771], [-82.07472, 35.06296], [-82.06464, 35.08894], [-82.05484, 35.1152], [-82.04533, 35.14175], [-82.03627, 35.16872], [-82.02734, 35.19585], [-82.0184, 35.22298], [-82.00977, 35.2504], [-82.00559, 35.26425], [-81.99364, 35.30638], [-81.986, 35.3348], [-81.97865, 35.36353], [-81.9716, 35.39252], [-81.96483, 35.42182], [-81.95834, 35.4514], [-81.95215, 35.48126], [-81.94624, 35.51142], [-81.94033, 35.54158], [-81.93428, 35.57159], [-81.92838, 35.60175], [-81.9229, 35.63234], [-81.91815, 35.66365], [-81.91441, 35.69597], [-81.91153, 35.72916], [-81.90894, 35.76263], [-81.90605, 35.79582], [-81.90231, 35.82815], [-81.89755, 35.85946], [-81.89223, 35.89019], [-81.88689, 35.92093], [-81.88214, 35.95224], [-81.87854, 35.9847], [-81.87624, 36.01847], [-81.87508, 36.0531], [-81.87508, 36.08802], [-81.87624, 36.12265], [-81.87854, 36.15641], [-81.88214, 36.18888], [-81.88689, 36.22019], [-81.89223, 36.25092], [-81.89755, 36.28165], [-81.90231, 36.31297], [-81.90605, 36.34529], [-81.90894, 36.37847], [-81.91153, 36.41195], [-81.91441, 36.44514], [-81.91815, 36.47746], [-81.9229, 36.50877], [-81.92838, 36.53936], [-81.93428, 36.56952], [-81.94034, 36.59953], [-81.94624, 36.62969], [-81.95229, 36.6597], [-81.95892, 36.68914], [-81.96612, 36.71799], [-81.97389, 36.74628], [-81.98225, 36.77398], [-81.99075, 36.80154], [-81.99895, 36.82939], [-82.00688, 36.85753], [-82.01466, 36.88581], [-82.02258, 36.91394], [-82.03094, 36.94165], [-82.03555, 36.95507], [-82.04952, 36.99518], [-82.05975, 37.02101], [-82.06998, 37.04684], [-82.08006, 37.07281], [-82.09029, 37.09863], [-82.10051, 37.12446], [-82.11073, 37.15029], [-82.11636, 37.1627], [-82.13292, 37.20022], [-82.14445, 37.22475], [-82.15626, 37.24899], [-82.16837, 37.27294], [-82.18032, 37.29704], [-82.19228, 37.32114], [-82.20451, 37.34495], [-82.2169, 37.36861], [-82.22958, 37.39198], [-82.24284, 37.41478], [-82.25653, 37.43715], [-82.27036, 37.45937], [-82.29109, 37.4927], [-82.29787, 37.50395], [-82.31126, 37.52661], [-82.32437, 37.54955], [-82.33762, 37.57235], [-82.35145, 37.59457], [-82.36584, 37.61621], [-82.38083, 37.63728], [-82.39639, 37.65777], [-82.41209, 37.67812], [-82.42751, 37.69875], [-82.44277, 37.71953], [-82.45804, 37.74031], [-82.47331, 37.76109], [-82.48872, 37.78172], [-82.50443, 37.80206], [-82.52013, 37.82241], [-82.53554, 37.84304], [-82.5508, 37.86382], [-82.56607, 37.8846], [-82.58149, 37.90524], [-82.59734, 37.92543], [-82.61389, 37.94491], [-82.63104, 37.96381], [-82.64861, 37.98228], [-82.66647, 38.00047], [-82.68448, 38.0185], [-82.70248, 38.03654], [-82.72049, 38.05457], [-82.73849, 38.07261], [-82.76558, 38.09959], [-82.77451, 38.10868], [-82.79251, 38.12672], [-82.81052, 38.14476], [-82.82852, 38.1628], [-82.84653, 38.18083], [-82.87361, 38.20781], [-82.88269, 38.21676], [-82.91048, 38.24302], [-82.9295, 38.26005], [-82.93944, 38.26813], [-82.9596, 38.284], [-82.98021, 38.29944], [-83.01132, 38.32238], [-83.02155, 38.33017], [-83.04172, 38.34604], [-83.07097, 38.37086], [-83.08061, 38.37923], [-83.09991, 38.39597], [-83.11951, 38.41242], [-83.1499, 38.43608], [-83.16042, 38.44359], [-83.19225, 38.46581], [-83.21385, 38.48024], [-83.23546, 38.49467], [-83.24626, 38.50188], [-83.27867, 38.52352], [-83.30028, 38.53796], [-83.32188, 38.55238], [-83.33269, 38.5596], [-83.3651, 38.58124], [-83.3867, 38.59567], [-83.40831, 38.6101], [-83.41911, 38.61732], [-83.44086, 38.6316], [-83.46291, 38.64559], [-83.49647, 38.66608], [-83.51951, 38.67907], [-83.54314, 38.69148], [-83.56676, 38.70389], [-83.59038, 38.7163], [-83.61401, 38.72871], [-83.63705, 38.74169], [-83.64829, 38.74847], [-83.68172, 38.76911], [-83.69281, 38.77604], [-83.71498, 38.78989], [-83.74855, 38.81038], [-83.77159, 38.82336], [-83.78355, 38.82943], [-83.8321, 38.85294], [-83.84448, 38.85857], [-83.87013, 38.86896], [-83.89606, 38.87906], [-83.92169, 38.88945], [-83.94762, 38.89955], [-83.97327, 38.90993], [-83.99803, 38.92119], [-84.02252, 38.93273], [-84.0473, 38.94399], [-84.05955, 38.94976], [-84.10938, 38.97198], [-84.12221, 38.97718], [-84.14842, 38.98699], [-84.17464, 38.9968], [-84.20143, 39.00604], [-84.2285, 39.01499], [-84.26898, 39.02855], [-84.28238, 39.03316], [-84.30946, 39.04211], [-84.33653, 39.05106], [-84.37701, 39.06462], [-84.39041, 39.06924], [-84.4175, 39.07818], [-84.45811, 39.09161], [-84.47166, 39.09608], [-84.49845, 39.10531], [-84.52553, 39.11425], [-84.55261, 39.1232], [-84.59323, 39.13662], [-84.60677, 39.14109], [-84.64841, 39.1535], [-84.6765, 39.16144], [-84.70487, 39.16909], [-84.73354, 39.17645], [-84.74794, 39.18005], [-84.79173, 39.1903], [-84.82126, 39.19679], [-84.83609, 39.19997], [-84.88118, 39.20892], [-84.91128, 39.21483], [-84.94124, 39.22089], [-84.97134, 39.22681], [-84.98647, 39.22969], [-85.03242, 39.23778], [-85.04784, 39.24037], [-85.09495, 39.2473], [-85.11065, 39.24961], [-85.15674, 39.25754], [-85.18729, 39.26302], [-85.20255, 39.26577], [-85.24908, 39.27327], [-85.28091, 39.27745], [-85.31332, 39.28106], [-85.32961, 39.28279], [-85.37756, 39.28885], [-85.40868, 39.29376], [-85.42409, 39.29636], [-85.45463, 39.30184], [-85.48545, 39.30703], [-85.53371, 39.31281], [-85.56741, 39.31511], [-85.60213, 39.31641], [-85.63757, 39.31699], [-85.67343, 39.31713], [-85.70944, 39.31713], [-85.74545, 39.31713], [-85.78146, 39.31713], [-85.81747, 39.31713], [-85.85349, 39.31713], [-85.8895, 39.31713], [-85.92551, 39.31713], [-85.96153, 39.31713], [-85.99754, 39.31713], [-86.03355, 39.31713], [-86.06956, 39.31713], [-86.10558, 39.31713], [-86.14159, 39.31713], [-86.1776, 39.31713], [-86.21361, 39.31713], [-86.24962, 39.31713], [-86.28563, 39.31713], [-86.32164, 39.31713], [-86.35751, 39.31699], [-86.39294, 39.31641], [-86.42766, 39.31511], [-86.46136, 39.31281], [-86.49377, 39.3092], [-86.52504, 39.30444], [-86.55572, 39.2991], [-86.5864, 39.29375], [-86.61752, 39.28885], [-86.64935, 39.28467], [-86.68176, 39.28106], [-86.71417, 39.27745], [-86.746, 39.27327], [-86.77711, 39.26836], [-86.8078, 39.26302], [-86.83833, 39.25754], [-86.86901, 39.2522], [-86.90013, 39.2473], [-86.93153, 39.24268], [-86.96265, 39.23777], [-86.99332, 39.23244], [-87.02371, 39.22681], [-87.05383, 39.22089], [-87.08379, 39.21483], [-87.11389, 39.20892], [-87.15898, 39.19997], [-87.17381, 39.19679], [-87.20334, 39.1903], [-87.24713, 39.18005], [-87.26154, 39.17645], [-87.2902, 39.16909], [-87.31857, 39.16144], [-87.34666, 39.1535], [-87.38831, 39.14109], [-87.40185, 39.13662], [-87.42892, 39.12768], [-87.456, 39.11873], [-87.49663, 39.10531], [-87.51003, 39.10069], [-87.53696, 39.09161], [-87.56403, 39.08266], [-87.59112, 39.07371], [-87.61806, 39.06462], [-87.64499, 39.05553], [-87.67207, 39.04659], [-87.69915, 39.03764], [-87.72609, 39.02855], [-87.75302, 39.01946], [-87.7801, 39.01051], [-87.82043, 38.9968], [-87.83354, 38.9919], [-87.87288, 38.97718], [-87.88583, 38.97213], [-87.91148, 38.96174], [-87.93684, 38.95106], [-87.97543, 38.93562], [-88.00137, 38.92552], [-88.01418, 38.92033], [-88.03996, 38.91008], [-88.06575, 38.89983], [-88.09096, 38.88902], [-88.12784, 38.87185], [-88.14008, 38.86607], [-88.16428, 38.85424], [-88.18819, 38.84212], [-88.22435, 38.82423], [-88.24825, 38.81211], [-88.27189, 38.7997], [-88.2837, 38.7935], [-88.30704, 38.7808], [-88.32979, 38.76752], [-88.3632, 38.74689], [-88.3743, 38.73997], [-88.39648, 38.72611], [-88.43004, 38.70562], [-88.44142, 38.69898], [-88.47585, 38.67936], [-88.49861, 38.66608], [-88.50984, 38.6593], [-88.53217, 38.6456], [-88.55435, 38.63174], [-88.58762, 38.61097], [-88.59886, 38.60419], [-88.62148, 38.59077], [-88.64438, 38.57764], [-88.66714, 38.56436], [-88.70027, 38.54344], [-88.7216, 38.52872], [-88.74233, 38.51342], [-88.7625, 38.49755], [-88.78294, 38.48196], [-88.8037, 38.46667], [-88.82443, 38.45138], [-88.84518, 38.43608], [-88.86593, 38.42079], [-88.88638, 38.4052], [-88.90656, 38.38934], [-88.92702, 38.37375], [-88.94775, 38.35845], [-88.96849, 38.34316], [-88.98923, 38.32786], [-89.00969, 38.31228], [-89.02956, 38.29612], [-89.04859, 38.27909], [-89.06731, 38.26178], [-89.08546, 38.24389], [-89.10361, 38.22599], [-89.12175, 38.2081], [-89.14049, 38.19078], [-89.1595, 38.17376], [-89.17937, 38.1576], [-89.19983, 38.14201], [-89.22057, 38.12672], [-89.2413, 38.11142], [-89.26205, 38.09613], [-89.28251, 38.08054], [-89.30267, 38.06467], [-89.32314, 38.04909], [-89.34387, 38.0338], [-89.36461, 38.0185], [-89.38535, 38.0032], [-89.4061, 37.98791], [-89.42656, 37.97233], [-89.44672, 37.95646], [-89.46718, 37.94087], [-89.48792, 37.92558], [-89.50867, 37.91028], [-89.53978, 37.88734], [-89.55015, 37.87969], [-89.5706, 37.86411], [-89.601, 37.84044], [-89.61122, 37.83265], [-89.64233, 37.80971], [-89.65271, 37.80206], [-89.67345, 37.78677], [-89.69419, 37.77148], [-89.71465, 37.75589], [-89.73481, 37.74002], [-89.75526, 37.72443], [-89.77602, 37.70914], [-89.79675, 37.69384], [-89.81749, 37.67855], [-89.83823, 37.66326], [-89.85869, 37.64767], [-89.87885, 37.6318], [-89.89931, 37.61621], [-89.92006, 37.60092], [-89.94109, 37.58591], [-89.9624, 37.5712], [-89.98401, 37.55677], [-90.00562, 37.54234], [-90.02722, 37.52791], [-90.04854, 37.51319], [-90.06956, 37.49818], [-90.09002, 37.4826], [-90.1099, 37.46644], [-90.1292, 37.4497], [-90.14851, 37.43296], [-90.1678, 37.41623], [-90.18768, 37.40006], [-90.20815, 37.38448], [-90.22888, 37.36919], [-90.24963, 37.35389], [-90.27037, 37.3386], [-90.29083, 37.32302], [-90.311, 37.30714], [-90.33144, 37.29156], [-90.35219, 37.27626], [-90.37293, 37.26096], [-90.39368, 37.24567], [-90.41414, 37.23008], [-90.43401, 37.21392], [-90.45331, 37.19719], [-90.47262, 37.18045], [-90.49192, 37.16372], [-90.5118, 37.14755], [-90.53224, 37.13197], [-90.55299, 37.11668], [-90.57374, 37.10138], [-90.59419, 37.0858], [-90.61407, 37.06963], [-90.63307, 37.05261], [-90.66087, 37.02634], [-90.67902, 37.00845], [-90.6881, 36.9995], [-90.70625, 36.98162], [-90.72498, 36.9643], [-90.744, 36.94728], [-90.76387, 36.93111], [-90.78432, 36.91553], [-90.80507, 36.90024], [-90.82582, 36.88494], [-90.84627, 36.86936], [-90.86615, 36.8532], [-90.88517, 36.83617], [-90.91296, 36.80991], [-90.92204, 36.80096], [-90.94912, 36.77398], [-90.95805, 36.76489], [-90.98513, 36.73791], [-91.00314, 36.71987], [-91.01221, 36.71093], [-91.03008, 36.69275], [-91.04822, 36.67485], [-91.06609, 36.65667], [-91.08424, 36.63878], [-91.1021, 36.6206], [-91.12025, 36.60271], [-91.13811, 36.58452], [-91.15627, 36.56663], [-91.17412, 36.54845], [-91.19228, 36.53056], [-91.21013, 36.51238], [-91.22829, 36.49449], [-91.24614, 36.47631], [-91.2643, 36.45841], [-91.28215, 36.44023], [-91.30923, 36.41325], [-91.31816, 36.40416], [-91.33602, 36.38598], [-91.35331, 36.36722], [-91.37031, 36.34817], [-91.38644, 36.32826], [-91.40199, 36.30777], [-91.41727, 36.28699], [-91.43253, 36.26621], [-91.4481, 36.24572], [-91.46422, 36.22581], [-91.48122, 36.20676], [-91.4985, 36.18801], [-91.51608, 36.16954], [-91.53336, 36.15078], [-91.55036, 36.13173], [-91.5665, 36.11182], [-91.58205, 36.09133], [-91.60495, 36.06017], [-91.61259, 36.04977], [-91.62785, 36.029], [-91.64342, 36.00851], [-91.65926, 35.98831], [-91.67482, 35.96782], [-91.69008, 35.94704], [-91.70536, 35.92626], [-91.72063, 35.90548], [-91.7359, 35.88471], [-91.75146, 35.86422], [-91.76731, 35.84402], [-91.78288, 35.82352], [-91.79814, 35.80275], [-91.81313, 35.78168], [-91.83501, 35.7495], [-91.84221, 35.73868], [-91.86324, 35.70564], [-91.87692, 35.68327], [-91.89032, 35.66062], [-91.89695, 35.64922], [-91.91654, 35.61474], [-91.92994, 35.59209], [-91.93671, 35.58083], [-91.95744, 35.5475], [-91.97127, 35.52528], [-91.98495, 35.50291], [-91.99835, 35.48026], [-92.01146, 35.45731], [-92.02457, 35.43437], [-92.03797, 35.41171], [-92.05165, 35.38935], [-92.06548, 35.36713], [-92.0793, 35.3449], [-92.08621, 35.33379], [-92.10624, 35.29974], [-92.11891, 35.27637], [-92.1313, 35.25271], [-92.14355, 35.2289], [-92.1555, 35.2048], [-92.16746, 35.18071], [-92.17956, 35.15675], [-92.18561, 35.14478], [-92.20347, 35.10856], [-92.21557, 35.08461], [-92.22752, 35.06051], [-92.23343, 35.04839], [-92.25158, 35.01246], [-92.26353, 34.98837], [-92.27549, 34.96426], [-92.2876, 34.94032], [-92.29364, 34.92834], [-92.30545, 34.90409], [-92.32361, 34.86816], [-92.33542, 34.84393], [-92.34694, 34.8194], [-92.35832, 34.79472], [-92.36913, 34.76947], [-92.37936, 34.74364], [-92.38959, 34.71782], [-92.39982, 34.69199], [-92.4099, 34.66601], [-92.42026, 34.64033], [-92.43092, 34.61494], [-92.44129, 34.58925], [-92.45138, 34.56328], [-92.46161, 34.53745], [-92.47184, 34.51162], [-92.48192, 34.48565], [-92.49228, 34.45996], [-92.50294, 34.43457], [-92.51331, 34.40888], [-92.52325, 34.38277], [-92.53305, 34.35651], [-92.54256, 34.32996], [-92.55164, 34.30297], [-92.56057, 34.27585], [-92.56964, 34.24887], [-92.57872, 34.22188], [-92.58765, 34.19476], [-92.59658, 34.16763], [-92.60565, 34.14065], [-92.61473, 34.11366], [-92.62366, 34.08654], [-92.63259, 34.05941], [-92.64166, 34.03242], [-92.65074, 34.00544], [-92.65967, 33.97832], [-92.6686, 33.95119], [-92.67754, 33.92406], [-92.68617, 33.89665], [-92.69438, 33.8688], [-92.7023, 33.84066], [-92.70994, 33.81223], [-92.71729, 33.78352], [-92.72449, 33.75466], [-92.73169, 33.72581], [-92.73889, 33.69695], [-92.74609, 33.66809], [-92.75344, 33.63937], [-92.76108, 33.61095], [-92.769, 33.58281], [-92.77721, 33.55496], [-92.78571, 33.5274], [-92.79407, 33.4997], [-92.80183, 33.47142], [-92.80904, 33.44256], [-92.81567, 33.41312], [-92.82172, 33.38311], [-92.82762, 33.35295], [-92.83382, 33.32309], [-92.8403, 33.2935], [-92.84707, 33.26421], [-92.85413, 33.23521], [-92.86133, 33.20635], [-92.86839, 33.17735], [-92.87515, 33.14806], [-92.88164, 33.11848], [-92.8848, 33.10362], [-92.89374, 33.05846], [-92.89661, 33.0433], [-92.90569, 32.99828], [-92.91174, 32.96827], [-92.91779, 32.93826], [-92.92384, 32.90824], [-92.92975, 32.87809], [-92.93565, 32.84793], [-92.9417, 32.81792], [-92.94761, 32.78776], [-92.95323, 32.75731], [-92.95856, 32.72658], [-92.96116, 32.71114], [-92.96806, 32.66396], [-92.97296, 32.63279], [-92.97829, 32.60206], [-92.98376, 32.57147], [-92.98924, 32.54088], [-92.99458, 32.51015], [-92.99947, 32.47898], [-93.00407, 32.44753], [-93.00897, 32.41636], [-93.01431, 32.38562], [-93.01978, 32.35503], [-93.0251, 32.3243], [-93.02986, 32.29298], [-93.03361, 32.26066], [-93.03648, 32.22747], [-93.03908, 32.194], [-93.04195, 32.16081], [-93.0457, 32.12849], [-93.05046, 32.09718], [-93.05579, 32.06644], [-93.06111, 32.03571], [-93.06587, 32.0044], [-93.06947, 31.97193], [-93.07178, 31.93817], [-93.07321, 31.90354], [-93.07437, 31.86862], [-93.07581, 31.83399], [-93.07812, 31.80022], [-93.08171, 31.76776], [-93.08647, 31.73645], [-93.09195, 31.70586], [-93.09785, 31.6757], [-93.1039, 31.64569], [-93.1098, 31.61553], [-93.11269, 31.60038], [-93.12177, 31.55536], [-93.12767, 31.5252], [-93.13329, 31.49476], [-93.13862, 31.46402], [-93.14352, 31.43286], [-93.14813, 31.4014], [-93.15302, 31.37024], [-93.15836, 31.3395], [-93.16383, 31.30891], [-93.16916, 31.27818], [-93.1739, 31.24686], [-93.17751, 31.2144], [-93.17981, 31.18063], [-93.18111, 31.14586], [-93.18169, 31.11036], [-93.18183, 31.07443], [-93.18183, 31.03836], [-93.18183, 31.00229], [-93.18183, 30.96622], [-93.18183, 30.93015], [-93.18183, 30.89407], [-93.18183, 30.858], [-93.18183, 30.82192], [-93.18183, 30.78585], [-93.18183, 30.74978], [-93.18169, 30.71385], [-93.18111, 30.67835], [-93.17981, 30.64358], [-93.17751, 30.60981], [-93.1739, 30.57735], [-93.16915, 30.54604], [-93.16383, 30.5153], [-93.15836, 30.48471], [-93.15302, 30.45398], [-93.14812, 30.42281], [-93.14351, 30.39136], [-93.13861, 30.36019], [-93.13315, 30.3296], [-93.12709, 30.29959], [-93.12047, 30.27015], [-93.11341, 30.24115], [-93.10606, 30.21243], [-93.09843, 30.18401], [-93.0905, 30.15587], [-93.08229, 30.12803], [-93.07365, 30.10061], [-93.06473, 30.07348], [-93.05579, 30.04635], [-93.04685, 30.01923], [-93.03778, 29.99224], [-93.0287, 29.96526], [-93.01978, 29.93813], [-93.0107, 29.91115], [-93.00119, 29.8846], [-92.99139, 29.85834], [-92.98146, 29.83222], [-92.97108, 29.80654], [-92.96043, 29.78115], [-92.95006, 29.75546], [-92.93998, 29.72949], [-92.92975, 29.70366], [-92.91952, 29.67783], [-92.90929, 29.652], [-92.89849, 29.62675], [-92.88711, 29.60208], [-92.87573, 29.5774], [-92.86436, 29.55273], [-92.85297, 29.52805], [-92.84217, 29.5028], [-92.83195, 29.47697], [-92.82172, 29.45115], [-92.81149, 29.42532], [-92.80126, 29.39949], [-92.79564, 29.38708], [-92.77908, 29.34956], [-92.76756, 29.32504], [-92.75574, 29.30079], [-92.7435, 29.27699], [-92.73112, 29.25332], [-92.71844, 29.22995], [-92.70518, 29.20715], [-92.6915, 29.18478], [-92.67767, 29.16256], [-92.66385, 29.14034], [-92.64339, 29.10672], [-92.63676, 29.09532], [-92.62366, 29.07238], [-92.61055, 29.04944], [-92.59715, 29.02678], [-92.58347, 29.00442], [-92.5695, 28.98234], [-92.54803, 28.94973], [-92.53363, 28.92809], [-92.52643, 28.91727], [-92.51202, 28.89562], [-92.49042, 28.86316], [-92.47601, 28.84151], [-92.46881, 28.83069], [-92.45441, 28.80904], [-92.44, 28.7874], [-92.42559, 28.76576], [-92.40398, 28.73329], [-92.39664, 28.72261], [-92.3818, 28.7014], [-92.36653, 28.68063], [-92.34261, 28.65047], [-92.32591, 28.63114], [-92.31755, 28.62147], [-92.30084, 28.60213], [-92.28442, 28.58251], [-92.26858, 28.56231], [-92.25317, 28.54168], [-92.23789, 28.5209], [-92.22248, 28.50026], [-92.20663, 28.48006], [-92.19008, 28.46058], [-92.16429, 28.4323], [-92.14643, 28.41412], [-92.1375, 28.40503], [-92.11042, 28.37804], [-92.10149, 28.36895], [-92.07441, 28.34197], [-92.06548, 28.33288], [-92.0384, 28.3059], [-92.02947, 28.29681], [-92.01161, 28.27863], [-91.99403, 28.26016], [-91.9769, 28.24125], [-91.95226, 28.21182], [-91.94448, 28.20157], [-91.92907, 28.18094], [-91.91365, 28.16031], [-91.88975, 28.13015], [-91.87245, 28.11139], [-91.8631, 28.10274], [-91.83385, 28.07792], [-91.8134, 28.06233], [-91.79265, 28.04704], [-91.7722, 28.03145], [-91.75232, 28.0153], [-91.7333, 27.99827], [-91.71458, 27.98095], [-91.69643, 27.96306], [-91.67828, 27.94517], [-91.66935, 27.93608], [-91.65134, 27.91804], [-91.6244, 27.89091], [-91.61533, 27.88197], [-91.58839, 27.85484], [-91.57932, 27.84589], [-91.55238, 27.81877], [-91.5433, 27.80982], [-91.51637, 27.7827], [-91.49821, 27.7648], [-91.48929, 27.75571], [-91.4622, 27.72873], [-91.44405, 27.71084], [-91.43469, 27.70218], [-91.40632, 27.6765], [-91.38644, 27.66033], [-91.36598, 27.64475], [-91.34525, 27.62946], [-91.3245, 27.61416], [-91.30405, 27.59858], [-91.29411, 27.5905], [-91.27466, 27.5739], [-91.24643, 27.54808], [-91.23721, 27.53928], [-91.20927, 27.51316], [-91.19025, 27.49613], [-91.17038, 27.47997], [-91.16015, 27.47218], [-91.12918, 27.44909], [-91.10844, 27.4338], [-91.08769, 27.4185], [-91.06724, 27.40292], [-91.04707, 27.38704], [-91.02663, 27.37146], [-91.00587, 27.35617], [-90.98514, 27.34087], [-90.96439, 27.32558], [-90.94365, 27.31028], [-90.92319, 27.2947], [-90.90302, 27.27883], [-90.88256, 27.26324], [-90.86182, 27.24795], [-90.84108, 27.23265], [-90.82034, 27.21736], [-90.79959, 27.20206], [-90.77914, 27.18648], [-90.75897, 27.17061], [-90.73851, 27.15502], [-90.71777, 27.13973], [-90.69674, 27.12473], [-90.67543, 27.11], [-90.65382, 27.09558], [-90.63222, 27.08115], [-90.61061, 27.06672], [-90.589, 27.05229], [-90.5674, 27.03786], [-90.54579, 27.02343], [-90.52419, 27.009], [-90.50258, 26.99457], [-90.48126, 26.97985], [-90.46024, 26.96485], [-90.43948, 26.94955], [-90.41903, 26.93397], [-90.39886, 26.9181], [-90.3784, 26.90251], [-90.35767, 26.88722], [-90.33663, 26.87221], [-90.31532, 26.85749], [-90.29371, 26.84306], [-90.2721, 26.82863], [-90.2505, 26.8142], [-90.22889, 26.79977], [-90.20728, 26.78535], [-90.18568, 26.77092], [-90.16406, 26.75649], [-90.15326, 26.74928], [-90.12085, 26.72763], [-90.09924, 26.7132], [-90.07764, 26.69877], [-90.05603, 26.68434], [-90.03442, 26.66991], [-90.01311, 26.6552], [-89.99208, 26.64019], [-89.97134, 26.6249], [-89.95088, 26.60931], [-89.93072, 26.59344], [-89.91026, 26.57786], [-89.88951, 26.56256], [-89.86848, 26.54755], [-89.84717, 26.53284], [-89.82556, 26.51841], [-89.80396, 26.50398], [-89.78235, 26.48955], [-89.76103, 26.47483], [-89.74001, 26.45982], [-89.71926, 26.44453], [-89.69881, 26.42895], [-89.67864, 26.41307], [-89.65819, 26.39749], [-89.63744, 26.38219], [-89.61641, 26.36719], [-89.59509, 26.35247], [-89.57349, 26.33804], [-89.55188, 26.32361], [-89.53027, 26.30918], [-89.50895, 26.29447], [-89.48792, 26.27946], [-89.46717, 26.26417], [-89.44672, 26.24858], [-89.42655, 26.23271], [-89.40611, 26.21712], [-89.38536, 26.20183], [-89.36433, 26.18682], [-89.343, 26.17211], [-89.3214, 26.15767], [-89.29979, 26.14325], [-89.27818, 26.12882], [-89.25658, 26.11439], [-89.23497, 26.09996], [-89.22417, 26.09274], [-89.19176, 26.0711], [-89.17015, 26.05667], [-89.14883, 26.04195], [-89.1278, 26.02695], [-89.10706, 26.01165], [-89.09683, 26.00386], [-89.06644, 25.9802], [-89.046, 25.96461], [-89.02525, 25.94931], [-89.00423, 25.93431], [-88.98289, 25.91959], [-88.96129, 25.90516], [-88.93967, 25.89074], [-88.91807, 25.87631], [-88.89675, 25.86159], [-88.87572, 25.84658], [-88.85497, 25.83129], [-88.83453, 25.8157], [-88.81435, 25.79983], [-88.7939, 25.78425], [-88.77316, 25.76895], [-88.75212, 25.75394], [-88.73081, 25.73923], [-88.70921, 25.7248], [-88.6876, 25.71037], [-88.66599, 25.69594], [-88.64438, 25.68151], [-88.62277, 25.66708], [-88.60117, 25.65265], [-88.57956, 25.63822], [-88.55795, 25.62379], [-88.53664, 25.60908], [-88.5156, 25.59407], [-88.49486, 25.57878], [-88.4744, 25.56319], [-88.45424, 25.54732], [-88.43379, 25.53173], [-88.41304, 25.51644], [-88.39201, 25.50143], [-88.3707, 25.48672], [-88.34909, 25.47229], [-88.32748, 25.45786], [-88.30588, 25.44343], [-88.28427, 25.429], [-88.26266, 25.41457], [-88.24106, 25.40014], [-88.21945, 25.38571], [-88.19785, 25.37128], [-88.17653, 25.35656], [-88.15549, 25.34156], [-88.13475, 25.32626], [-88.1143, 25.31068], [-88.09413, 25.29481], [-88.07368, 25.27922], [-88.05293, 25.26393], [-88.03191, 25.24892], [-88.01057, 25.23421], [-87.98897, 25.21978], [-87.96736, 25.20535], [-87.94576, 25.19092], [-87.92415, 25.17649], [-87.90254, 25.16206], [-87.88094, 25.14763], [-87.85933, 25.1332], [-87.83772, 25.11877], [-87.81641, 25.10405], [-87.79538, 25.08905], [-87.77463, 25.07375], [-87.75417, 25.05817], [-87.73401, 25.0423], [-87.71355, 25.02671], [-87.69281, 25.01142], [-87.67178, 24.99641], [-87.65047, 24.9817], [-87.62886, 24.96727], [-87.60725, 24.95284], [-87.58565, 24.93841], [-87.56404, 24.92398], [-87.54243, 24.90955], [-87.52083, 24.89512], [-87.49922, 24.88069], [-87.47762, 24.86626], [-87.4563, 24.85154], [-87.43526, 24.83654], [-87.41451, 24.82124], [-87.39406, 24.80566], [-87.37389, 24.78978], [-87.35344, 24.7742], [-87.3327, 24.75891], [-87.31166, 24.7439], [-87.29035, 24.72918], [-87.26875, 24.71475], [-87.24713, 24.70032], [-87.22552, 24.68589], [-87.20421, 24.67118], [-87.18318, 24.65617], [-87.16244, 24.64087], [-87.14198, 24.62529], [-87.12182, 24.60942], [-87.10136, 24.59384], [-87.08061, 24.57854], [-87.05988, 24.56325], [-87.03914, 24.54795], [-87.01839, 24.53266], [-86.99794, 24.51707], [-86.97778, 24.5012], [-86.95732, 24.48561], [-86.93657, 24.47032], [-86.91554, 24.45532], [-86.89423, 24.4406], [-86.87262, 24.42617], [-86.85101, 24.41174], [-86.82941, 24.39731], [-86.80809, 24.38259], [-86.78706, 24.36759], [-86.76632, 24.35229], [-86.74586, 24.33671], [-86.7257, 24.32084], [-86.70525, 24.30525], [-86.68449, 24.28996], [-86.66347, 24.27495], [-86.64215, 24.26023], [-86.62054, 24.2458], [-86.59893, 24.23137], [-86.57732, 24.21695], [-86.556, 24.20223], [-86.53497, 24.18722], [-86.51423, 24.17193], [-86.49377, 24.15634], [-86.47361, 24.14047], [-86.45316, 24.12489], [-86.43242, 24.10959], [-86.41167, 24.0943], [-86.39092, 24.079], [-86.37019, 24.06371], [-86.34973, 24.04812], [-86.32957, 24.03225], [-86.30912, 24.01667], [-86.28838, 24.00137], [-86.27786, 23.99387], [-86.24602, 23.97165], [-86.22441, 23.95722], [-86.2028, 23.94279], [-86.1812, 23.92836], [-86.15988, 23.91364], [-86.13885, 23.89863], [-86.11811, 23.88334], [-86.09766, 23.86776], [-86.07748, 23.85189], [-86.05704, 23.8363], [-86.03629, 23.82101], [-86.01555, 23.80571], [-85.9948, 23.79042], [-85.97406, 23.77512], [-85.95361, 23.75954], [-85.93343, 23.74366], [-85.91298, 23.72808], [-85.89223, 23.71279], [-85.8712, 23.69778], [-85.84989, 23.68306], [-85.82829, 23.66863], [-85.80668, 23.65421], [-85.78507, 23.63977], [-85.76375, 23.62506], [-85.74272, 23.61005], [-85.72197, 23.59475], [-85.70152, 23.57917], [-85.68135, 23.5633], [-85.6609, 23.54772], [-85.64015, 23.53242], [-85.61913, 23.51741], [-85.59781, 23.5027], [-85.5762, 23.48827], [-85.5546, 23.47384], [-85.53299, 23.45941], [-85.51167, 23.44469], [-85.49064, 23.42968], [-85.46989, 23.41439], [-85.44944, 23.39881], [-85.42928, 23.38293], [-85.40883, 23.36735], [-85.38808, 23.35205], [-85.36705, 23.33705], [-85.34573, 23.32233], [-85.32413, 23.3079], [-85.30252, 23.29347], [-85.28091, 23.27905], [-85.2596, 23.26433], [-85.23856, 23.24932], [-85.21782, 23.23402], [-85.19736, 23.21844], [-85.1772, 23.20257], [-85.15674, 23.18699], [-85.136, 23.17169], [-85.11525, 23.1564], [-85.09451, 23.1411], [-85.07376, 23.1258], [-85.05331, 23.11022], [-85.03314, 23.09435], [-85.01268, 23.07877], [-84.99194, 23.06347], [-84.97092, 23.04847], [-84.9496, 23.03375], [-84.92799, 23.01932], [-84.90639, 23.00489], [-84.88478, 22.99046], [-84.86346, 22.97574], [-84.84243, 22.96074], [-84.82169, 22.94544], [-84.80123, 22.92986], [-84.78107, 22.91398], [-84.7606, 22.8984], [-84.73987, 22.88311], [-84.71913, 22.86781], [-84.69839, 22.85252], [-84.67764, 22.83722], [-84.65719, 22.82164], [-84.63702, 22.80577], [-84.61656, 22.79018], [-84.59583, 22.77489], [-84.57509, 22.75959], [-84.55434, 22.7443], [-84.5336, 22.729], [-84.51314, 22.71342], [-84.49297, 22.69755], [-84.47252, 22.68196], [-84.45177, 22.66667], [-84.43074, 22.65166], [-84.40943, 22.63694], [-84.38783, 22.62251], [-84.36621, 22.60809], [-84.3446, 22.59365], [-84.32329, 22.57894], [-84.30226, 22.56393], [-84.28152, 22.54864], [-84.26106, 22.53305], [-84.24089, 22.51718], [-84.22044, 22.5016], [-84.19969, 22.4863], [-84.17867, 22.4713], [-84.15735, 22.45658], [-84.13574, 22.44215], [-84.11414, 22.42772], [-84.09253, 22.41329], [-84.07121, 22.39857], [-84.05019, 22.38357], [-84.02944, 22.36827], [-84.00899, 22.35269], [-83.98882, 22.33681], [-83.96837, 22.32123], [-83.94762, 22.30593], [-83.92688, 22.29064], [-83.90614, 22.27535], [-83.8854, 22.26005], [-83.86494, 22.24447], [-83.84477, 22.2286], [-83.82433, 22.21301], [-83.80357, 22.19772], [-83.78255, 22.18271], [-83.76123, 22.168], [-83.73962, 22.15356], [-83.71802, 22.13914], [-83.6964, 22.12471], [-83.67509, 22.10999], [-83.65405, 22.09498], [-83.63331, 22.07969], [-83.61285, 22.0641], [-83.59269, 22.04823], [-83.57223, 22.03265], [-83.55149, 22.01735], [-83.53075, 22.00206], [-83.51, 21.98676], [-83.48927, 21.97147], [-83.46881, 21.95588], [-83.44865, 21.94001], [-83.4279, 21.92472], [-83.40659, 21.91], [-83.3736, 21.88922], [-83.36266, 21.88258], [-83.34003, 21.87046], [-83.30647, 21.85373], [-83.28444, 21.84435], [-83.26196, 21.83713], [-83.23877, 21.83237]]]}}]}