{
  "type": "FeatureCollection",
  "features": [
    {
      "type": "Feature",
      "properties": {
        "kind": "observed-history",
        "source": "NHC GIS Best Track Archive",
        "through": "2021-08-27T18:00:00Z"
      },
      "geometry": {
        "type": "LineString",
        "coordinates": [
          [-78.9, 16.5],
          [-79.5, 17.4],
          [-80.2, 18.3],
          [-80.9, 19.4],
          [-81.7, 20.4],
          [-82.6, 21.5],
          [-83.2, 22.1]
        ]
      }
    },
    {
      "type": "Feature",
      "properties": { "DTG": "2021082612", "STORMTYPE": "TD", "INTENSITY": 30 },
      "geometry": { "type": "Point", "coordinates": [-78.9, 16.5] }
    },
    {
      "type": "Feature",
      "properties": { "DTG": "2021082618", "STORMTYPE": "TS", "INTENSITY": 35 },
      "geometry": { "type": "Point", "coordinates": [-79.5, 17.4] }
    },
    {
      "type": "Feature",
      "properties": { "DTG": "2021082700", "STORMTYPE": "TS", "INTENSITY": 40 },
      "geometry": { "type": "Point", "coordinates": [-80.2, 18.3] }
    },
    {
      "type": "Feature",
      "properties": { "DTG": "2021082706", "STORMTYPE": "TS", "INTENSITY": 45 },
      "geometry": { "type": "Point", "coordinates": [-80.9, 19.4] }
    },
    {
      "type": "Feature",
      "properties": { "DTG": "2021082712", "STORMTYPE": "TS", "INTENSITY": 55 },
      "geometry": { "type": "Point", "coordinates": [-81.7, 20.4] }
    },
    {
      "type": "Feature",
      "properties": { "DTG": "2021082718", "STORMTYPE": "HU", "INTENSITY": 70 },
      "geometry": { "type": "Point", "coordinates": [-82.6, 21.5] }
    }
  ]
}
