{"type": "FeatureCollection", "features": [{"type": "Feature", "properties": {"shapefile": "al092021-006_5day_lin", "STORMNAME": "Ida", "STORMTYPE": "HU", "ADVDATE": "500 PM EDT Fri Aug 27 2021", "ADVISNUM": "6", "STORMNUM": 9, "FCSTPRD": 120, "BASIN": "AL"}, "geometry": {"type": "LineString", "coordinates": [[-83.2, 22.1], [-84.8, 23.5], [-86.9, 25.3], [-89.0, 27.1], [-90.6, 28.6], [-91.3, 30.0], [-91.1, 31.5], [-89.3, 34.4], [-86.0, 36.0]]}}, {"type": "Feature", "properties": {"shapefile": "al092021-006_5day_pts", "ADVDATE": "500 PM EDT Fri Aug 27 2021", "ADVISNUM": "6", "BASIN": "AL", "DATELBL": "5:00 PM Fri", "DVLBL": "H", "FCSTPRD": 120, "FLDATELBL": "2021-08-27 2:00 PM Fri EDT", "GUST": 85, "LAT": 22, "LON": -83, "MAXWIND": 70, "MSLP": 985, "SSNUM": 1, "STORMNAME": "Hurricane Ida", "STORMNUM": 9, "STORMSRC": "Tropical Cyclone", "STORMTYPE": "HU", "TCDVLP": "Hurricane", "TAU": 0, "TCDIR": 320, "TCSPD": 13, "TIMEZONE": "EDT", "VALIDTIME": "27/1800"}, "geometry": {"type": "Point", "coordinates": [-83.2, 22.1]}}, {"type": "Feature", "properties": {"shapefile": "al092021-006_5day_pts", "ADVDATE": "500 PM EDT Fri Aug 27 2021", "ADVISNUM": "6", "BASIN": "AL", "DATELBL": "2:00 AM Sat", "DVLBL": "H", "FCSTPRD": 120, "FLDATELBL": "2021-08-28 2:00 AM Sat EDT", "GUST": 105, "LAT": 23, "LON": -84, "MAXWIND": 85, "MSLP": 9999, "SSNUM": 2, "STORMNAME": "Hurricane Ida", "STORMNUM": 9, "STORMSRC": "Tropical Cyclone", "STORMTYPE": "HU", "TCDVLP": "Hurricane", "TAU": 12, "TCDIR": 9999, "TCSPD": 9999, "TIMEZONE": "EDT", "VALIDTIME": "28/0600"}, "geometry": {"type": "Point", "coordinates": [-84.8, 23.5]}}, {"type": "Feature", "properties": {"shapefile": "al092021-006_5day_pts", "ADVDATE": "500 PM EDT Fri Aug 27 2021", "ADVISNUM": "6", "BASIN": "AL", "DATELBL": "2:00 PM Sat", "DVLBL": "M", "FCSTPRD": 120, "FLDATELBL": "2021-08-28 2:00 PM Sat EDT", "GUST": 130, "LAT": 25, "LON": -86, "MAXWIND": 105, "MSLP": 9999, "SSNUM": 3, "STORMNAME": "Hurricane Ida", "STORMNUM": 9, "STORMSRC": "Tropical Cyclone", "STORMTYPE": "MH", "TCDVLP": "Major Hurricane", "TAU": 24, "TCDIR": 9999, "TCSPD": 9999, "TIMEZONE": "EDT", "VALIDTIME": "28/1800"}, "geometry": {"type": "Point", "coordinates": [-86.9, 25.3]}}, {"type": "Feature", "properties": {"shapefile": "al092021-006_5day_pts", "ADVDATE": "500 PM EDT Fri Aug 27 2021", "ADVISNUM": "6", "BASIN": "AL", "DATELBL": "2:00 AM Sun", "DVLBL": "M", "FCSTPRD": 120, "FLDATELBL": "2021-08-29 2:00 AM Sun EDT", "GUST": 140, "LAT": 27, "LON": -89, "MAXWIND": 115, "MSLP": 9999, "SSNUM": 4, "STORMNAME": "Hurricane Ida", "STORMNUM": 9, "STORMSRC": "Tropical Cyclone", "STORMTYPE": "MH", "TCDVLP": "Major Hurricane", "TAU": 36, "TCDIR": 9999, "TCSPD": 9999, "TIMEZONE": "EDT", "VALIDTIME": "29/0600"}, "geometry": {"type": "Point", "coordinates": [-89.0, 27.1]}}, {"type": "Feature", "properties": {"shapefile": "al092021-006_5day_pts", "ADVDATE": "500 PM EDT Fri Aug 27 2021", "ADVISNUM": "6", "BASIN": "AL", "DATELBL": "2:00 PM Sun", "DVLBL": "M", "FCSTPRD": 120, "FLDATELBL": "2021-08-29 2:00 PM Sun EDT", "GUST": 145, "LAT": 28, "LON": -90, "MAXWIND": 120, "MSLP": 9999, "SSNUM": 4, "STORMNAME": "Hurricane Ida", "STORMNUM": 9, "STORMSRC": "Tropical Cyclone", "STORMTYPE": "MH", "TCDVLP": "Major Hurricane", "TAU": 48, "TCDIR": 9999, "TCSPD": 9999, "TIMEZONE": "EDT", "VALIDTIME": "29/1800"}, "geometry": {"type": "Point", "coordinates": [-90.6, 28.6]}}, {"type": "Feature", "properties": {"shapefile": "al092021-006_5day_pts", "ADVDATE": "500 PM EDT Fri Aug 27 2021", "ADVISNUM": "6", "BASIN": "AL", "DATELBL": "2:00 AM Mon", "DVLBL": "H", "FCSTPRD": 120, "FLDATELBL": "2021-08-30 2:00 AM Mon EDT", "GUST": 100, "LAT": 30, "LON": -91, "MAXWIND": 80, "MSLP": 9999, "SSNUM": 1, "STORMNAME": "Hurricane Ida", "STORMNUM": 9, "STORMSRC": "Tropical Cyclone", "STORMTYPE": "HU", "TCDVLP": "Hurricane", "TAU": 60, "TCDIR": 9999, "TCSPD": 9999, "TIMEZONE": "EDT", "VALIDTIME": "30/0600"}, "geometry": {"type": "Point", "coordinates": [-91.3, 30.0]}}, {"type": "Feature", "properties": {"shapefile": "al092021-006_5day_pts", "ADVDATE": "500 PM EDT Fri Aug 27 2021", "ADVISNUM": "6", "BASIN": "AL", "DATELBL": "2:00 PM Mon", "DVLBL": "S", "FCSTPRD": 120, "FLDATELBL": "2021-08-30 2:00 PM Mon EDT", "GUST": 50, "LAT": 31, "LON": -91, "MAXWIND": 40, "MSLP": 9999, "SSNUM": 0, "STORMNAME": "Hurricane Ida", "STORMNUM": 9, "STORMSRC": "Tropical Cyclone", "STORMTYPE": "TS", "TCDVLP": "Tropical Storm", "TAU": 72, "TCDIR": 9999, "TCSPD": 9999, "TIMEZONE": "EDT", "VALIDTIME": "30/1800"}, "geometry": {"type": "Point", "coordinates": [-91.1, 31.5]}}, {"type": "Feature", "properties": {"shapefile": "al092021-006_5day_pts", "ADVDATE": "500 PM EDT Fri Aug 27 2021", "ADVISNUM": "6", "BASIN": "AL", "DATELBL": "2:00 PM Tue", "DVLBL": "D", "FCSTPRD": 120, "FLDATELBL": "2021-08-31 2:00 PM Tue EDT", "GUST": 40, "LAT": 34, "LON": -89, "MAXWIND": 30, "MSLP": 9999, "SSNUM": 0, "STORMNAME": "Hurricane Ida", "STORMNUM": 9, "STORMSRC": "Tropical Cyclone", "STORMTYPE": "TD", "TCDVLP": "Tropical Depression", "TAU": 96, "TCDIR": 9999, "TCSPD": 9999, "TIMEZONE": "EDT", "VALIDTIME": "31/1800"}, "geometry": {"type": "Point", "coordinates": [-89.3, 34.4]}}, {"type": "Feature", "properties": {"shapefile": "al092021-006_5day_pts", "ADVDATE": "500 PM EDT Fri Aug 27 2021", "ADVISNUM": "6", "BASIN": "AL", "DATELBL": "2:00 PM Wed", "DVLBL": "D", "FCSTPRD": 120, "FLDATELBL": "2021-09-01 2:00 PM Wed EDT", "GUST": 30, "LAT": 36, "LON": -86, "MAXWIND": 20, "MSLP": 9999, "SSNUM": 0, "STORMNAME": "Hurricane Ida", "STORMNUM": 9, "STORMSRC": "Post-Tropical Cyclone", "STORMTYPE": "STD", "TCDVLP": "Subtropical Depression", "TAU": 120, "TCDIR": 9999, "TCSPD": 9999, "TIMEZONE": "EDT", "VALIDTIME": "01/1800"}, "geometry": {"type": "Point", "coordinates": [-86.0, 36.0]}}]}