{"type": "FeatureCollection", "features": [{"type": "Feature", "properties": {"shapefile": "al092021_2021082721_initialradii", "RADII": 34, "STORMID": "al092021", "BASIN": "al", "STORMNUM": 9, "ADVNUM": "6", "VALIDTIME": "2021082721", "SYNOPTIME": "2021082718", "TIMEZONE": "UTC", "TAU": 0, "NE": 80, "SE": 60, "SW": 40, "NW": 60}, "geometry": {"type": "Polygon", "coordinates": [[[-83.1884766, 23.2651901], [-83.1662292, 23.2685165], [-83.1438675, 23.2714825], [-83.1213684, 23.2740822], [-83.0987625, 23.2763119], [-83.0760345, 23.2781677], [-83.0532227, 23.2796535], [-83.030304, 23.2807579], [-83.0073013, 23.2814827], [-82.9842224, 23.2818279], [-82.9610596, 23.2817898], [-82.9378357, 23.2813644], [-82.9145737, 23.2805462], [-82.8912506, 23.2793388], [-82.8678894, 23.2777367], [-82.8444748, 23.2757416], [-82.8210602, 23.2733517], [-82.7976151, 23.2705631], [-82.7741623, 23.2673759], [-82.7507095, 23.2637882], [-82.7272644, 23.2598019], [-82.7038345, 23.2554092], [-82.6804276, 23.250618], [-82.6570663, 23.2454205], [-82.633728, 23.2398186], [-82.6104431, 23.2338161], [-82.5872192, 23.2274075], [-82.5640564, 23.2205944], [-82.5409698, 23.2133751], [-82.5179672, 23.2057552], [-82.4950409, 23.197731], [-82.4722214, 23.1893044], [-82.4495163, 23.1804733], [-82.4269257, 23.1712418], [-82.4044495, 23.1616077], [-82.3821182, 23.151577], [-82.3599167, 23.1411476], [-82.3378601, 23.1303196], [-82.3159714, 23.1191025], [-82.2942505, 23.1074867], [-82.2726974, 23.09548], [-82.2516556, 23.082798], [-82.2314453, 23.0691738], [-82.2121201, 23.0546265], [-82.1936951, 23.0391846], [-82.1762161, 23.0228748], [-82.1596985, 23.0057182], [-82.1441574, 22.9877415], [-82.129631, 22.9689751], [-82.1161423, 22.9494438], [-82.1033859, 22.9294605], [-82.0910721, 22.9093246], [-82.0791855, 22.8890457], [-82.0677185, 22.8686295], [-82.0567017, 22.8480816], [-82.0461121, 22.8274155], [-82.0359497, 22.8066311], [-82.0262146, 22.7857399], [-82.0169373, 22.7647514], [-82.0080872, 22.7436733], [-81.9996719, 22.7225113], [-81.9916992, 22.701273], [-81.9841614, 22.679966], [-81.977066, 22.658596], [-81.9703979, 22.6371784], [-81.9641724, 22.6157093], [-81.9583893, 22.594202], [-81.9530334, 22.5726681], [-81.9481201, 22.5511093], [-81.943634, 22.5295353], [-81.9395828, 22.5079536], [-81.9359589, 22.4863701], [-81.9327774, 22.4647923], [-81.9300079, 22.4432297], [-81.927681, 22.4216862], [-81.9257736, 22.4001694], [-81.9242859, 22.3786926], [-81.9232178, 22.357254], [-81.9225769, 22.3358631], [-81.9223404, 22.3145332], [-81.9225311, 22.2932644], [-81.9231262, 22.2720661], [-81.9241257, 22.2509441], [-81.9255447, 22.2299061], [-81.9273529, 22.2089558], [-81.9295654, 22.1881027], [-81.9321747, 22.1673527], [-81.9351807, 22.1467133], [-81.9385681, 22.1261902], [-81.9423447, 22.1057892], [-81.9465027, 22.0855179], [-81.9510345, 22.0653801], [-81.9559479, 22.0453835], [-81.961235, 22.0255337], [-81.9668732, 22.0058365], [-81.9728775, 21.9862957], [-81.9792404, 21.9669209], [-81.9859619, 21.9477139], [-81.9930267, 21.9286823], [-82.0004425, 21.9098301], [-82.0081863, 21.8911667], [-82.0162735, 21.8726902], [-82.0246811, 21.854414], [-82.0334167, 21.8363361], [-82.0424728, 21.8184681], [-82.0518417, 21.800808], [-82.0615082, 21.7833652], [-82.0714951, 21.76614], [-82.0817719, 21.7491417], [-82.0923462, 21.7323723], [-82.1032028, 21.7158394], [-82.1143417, 21.6995411], [-82.1257553, 21.6834869], [-82.1374359, 21.6676769], [-82.1493835, 21.6521168], [-82.1615829, 21.6368103], [-82.1740417, 21.6217575], [-82.1867447, 21.6069679], [-82.1996918, 21.5924454], [-82.2128601, 21.5781879], [-82.2262726, 21.5642014], [-82.2398987, 21.5504856], [-82.253746, 21.5370502], [-82.2677917, 21.5238914], [-82.2820511, 21.5110149], [-82.2965012, 21.4984245], [-82.311142, 21.4861221], [-82.3259659, 21.4741077], [-82.3409729, 21.4623852], [-82.3561478, 21.4509563], [-82.3714828, 21.4398251], [-82.3869858, 21.4289894], [-82.4026337, 21.4184551], [-82.4184341, 21.4082203], [-82.4343643, 21.3982925], [-82.4504318, 21.3886642], [-82.466629, 21.379343], [-82.4829407, 21.370327], [-82.4993591, 21.3616199], [-82.515892, 21.35322], [-82.5325241, 21.3451309], [-82.5492477, 21.3373547], [-82.5660629, 21.3298874], [-82.5829468, 21.322731], [-82.5999069, 21.3158855], [-82.6169357, 21.3093529], [-82.6340332, 21.3031349], [-82.6511765, 21.297224], [-82.6683807, 21.291626], [-82.6856232, 21.2863388], [-82.7028961, 21.2813683], [-82.720192, 21.2767067], [-82.7375183, 21.2723503], [-82.7548523, 21.2683067], [-82.7722015, 21.2645741], [-82.7895584, 21.2611485], [-82.8069077, 21.2580299], [-82.8242493, 21.2552147], [-82.8415833, 21.2527084], [-82.8588867, 21.2505016], [-82.8761673, 21.2486], [-82.8934021, 21.2469978], [-82.9106216, 21.2456894], [-82.9277725, 21.2446842], [-82.9448929, 21.2439728], [-82.9619446, 21.2435532], [-82.9789429, 21.2434292], [-82.9958725, 21.2435894], [-83.0127258, 21.2440395], [-83.0295029, 21.244772], [-83.0461884, 21.2457848], [-83.0627899, 21.2470798], [-83.0792999, 21.2486534], [-83.0957031, 21.2504997], [-83.1120071, 21.2526188], [-83.1281967, 21.2550068], [-83.1442642, 21.2576599], [-83.1602173, 21.2605762], [-83.1760559, 21.2637539], [-83.1917496, 21.2671852], [-83.2073135, 21.2708702], [-83.2227402, 21.2748051], [-83.2380142, 21.2789898], [-83.2531433, 21.2834129], [-83.2681198, 21.2880783], [-83.2829437, 21.2929802], [-83.2975922, 21.2981129], [-83.312088, 21.3034744], [-83.326416, 21.3090611], [-83.3405609, 21.3148689], [-83.3545303, 21.3208923], [-83.3683167, 21.3271294], [-83.3819199, 21.3335762], [-83.3953247, 21.3402252], [-83.4085464, 21.3470764], [-83.4215775, 21.3541222], [-83.4344101, 21.3613605], [-83.4470291, 21.3687878], [-83.4594498, 21.3763962], [-83.4716568, 21.3841877], [-83.4836578, 21.3921471], [-83.4954376, 21.4002819], [-83.5069962, 21.408577], [-83.5183411, 21.417038], [-83.5294647, 21.4256516], [-83.5403671, 21.4344215], [-83.5510406, 21.4433327], [-83.5614853, 21.4523869], [-83.5716934, 21.4615822], [-83.581665, 21.4709091], [-83.5914078, 21.48036], [-83.600914, 21.4899368], [-83.6101837, 21.4996338], [-83.6192093, 21.5094414], [-83.6279907, 21.5193596], [-83.6365356, 21.5293808], [-83.6448364, 21.5395031], [-83.6528931, 21.5497189], [-83.6606903, 21.5600224], [-83.668251, 21.5704117], [-83.67556, 21.5808792], [-83.6829376, 21.5911331], [-83.6907043, 21.6008949], [-83.6988907, 21.610178], [-83.7075043, 21.6190014], [-83.7165833, 21.6273823], [-83.7261429, 21.6353378], [-83.7361755, 21.6428871], [-83.7467346, 21.6500473], [-83.7578201, 21.6568356], [-83.7691269, 21.6635628], [-83.780365, 21.6705227], [-83.7914963, 21.6777115], [-83.8025436, 21.6851311], [-83.8134995, 21.6927795], [-83.8243408, 21.7006569], [-83.8350754, 21.7087612], [-83.8456879, 21.7170925], [-83.8561935, 21.7256508], [-83.8665695, 21.7344284], [-83.8768158, 21.7434292], [-83.8869247, 21.7526493], [-83.8968887, 21.7620907], [-83.9067078, 21.7717476], [-83.9163742, 21.78162], [-83.9259033, 21.7917023], [-83.935257, 21.8019981], [-83.9444427, 21.8125057], [-83.9534607, 21.8232174], [-83.9623032, 21.8341312], [-83.9709702, 21.8452492], [-83.9794388, 21.8565598], [-83.9877243, 21.8680706], [-83.9958115, 21.8797779], [-84.0036926, 21.8916721], [-84.0113754, 21.9037571], [-84.0188446, 21.9160271], [-84.0261002, 21.9284744], [-84.0331421, 21.9411049], [-84.0399628, 21.9539089], [-84.0465469, 21.9668808], [-84.0528946, 21.9800243], [-84.0590134, 21.99333], [-84.064888, 22.0067978], [-84.0705261, 22.0204239], [-84.0758896, 22.0342007], [-84.0810242, 22.0481262], [-84.0858917, 22.0621967], [-84.0904922, 22.0764084], [-84.0948334, 22.0907574], [-84.0989075, 22.105238], [-84.1026917, 22.1198483], [-84.1062164, 22.1345806], [-84.1094666, 22.1494312], [-84.1124115, 22.1643963], [-84.1150818, 22.179472], [-84.1174622, 22.1946526], [-84.1195374, 22.2099361], [-84.1213226, 22.2253094], [-84.1228027, 22.2407761], [-84.1239929, 22.2563248], [-84.1248627, 22.2719555], [-84.1254349, 22.2876644], [-84.1256866, 22.3034401], [-84.1256332, 22.3192806], [-84.1252594, 22.3351803], [-84.1245575, 22.3511314], [-84.1235504, 22.3671341], [-84.1222153, 22.3831749], [-84.1205444, 22.3992558], [-84.1185532, 22.4153671], [-84.1162338, 22.4315052], [-84.1135864, 22.4476643], [-84.1106033, 22.4638348], [-84.1072845, 22.4800129], [-84.1036377, 22.4961967], [-84.0996552, 22.5123768], [-84.0953217, 22.5285454], [-84.0906677, 22.5447006], [-84.0856628, 22.560833], [-84.0803223, 22.5769405], [-84.0746384, 22.5930138], [-84.0686111, 22.6090469], [-84.0622482, 22.6250381], [-84.055542, 22.6409721], [-84.0485001, 22.6568546], [-84.0411072, 22.6726685], [-84.0333862, 22.6884136], [-84.0253067, 22.7040825], [-84.0168915, 22.7196693], [-84.0081482, 22.7351646], [-83.999054, 22.7505665], [-83.9896317, 22.7658691], [-83.9798584, 22.7810631], [-83.9697571, 22.7961483], [-83.9593201, 22.8111076], [-83.9485321, 22.8259449], [-83.9374313, 22.8406467], [-83.9259949, 22.8552094], [-83.9142303, 22.8696308], [-83.9021301, 22.8838997], [-83.8897171, 22.8980141], [-83.876976, 22.9119644], [-83.8639069, 22.925745], [-83.8505402, 22.939352], [-83.8368378, 22.952776], [-83.8228302, 22.966013], [-83.8085098, 22.9790611], [-83.7938843, 22.9919071], [-83.7789612, 23.004549], [-83.7637177, 23.0169773], [-83.7481995, 23.029192], [-83.7323685, 23.0411835], [-83.7162628, 23.052948], [-83.6998596, 23.0644779], [-83.6831894, 23.0757694], [-83.6662292, 23.0868149], [-83.6489944, 23.0976105], [-83.6314926, 23.1081505], [-83.6137314, 23.1184292], [-83.5956879, 23.1284389], [-83.5774078, 23.1381779], [-83.5588684, 23.1476402], [-83.5400925, 23.1568222], [-83.5210648, 23.1657162], [-83.5018005, 23.1743183], [-83.4823151, 23.1826248], [-83.4626083, 23.1906261], [-83.4426651, 23.1983242], [-83.4225159, 23.2057095], [-83.4021606, 23.21278], [-83.3815994, 23.2195282], [-83.3608475, 23.2259541], [-83.3399048, 23.2320518], [-83.3187714, 23.2378159], [-83.2974548, 23.2432442], [-83.2759705, 23.2483292], [-83.2543259, 23.2530727], [-83.2325211, 23.2574654], [-83.2105713, 23.2615051], [-83.1884766, 23.2651901]]]}}, {"type": "Feature", "properties": {"shapefile": "al092021_2021082721_initialradii", "RADII": 50, "STORMID": "al092021", "BASIN": "al", "STORMNUM": 9, "ADVNUM": "6", "VALIDTIME": "2021082721", "SYNOPTIME": "2021082718", "TIMEZONE": "UTC", "TAU": 0, "NE": 40, "SE": 30, "SW": 0, "NW": 20}, "geometry": {"type": "Polygon", "coordinates": [[[-83.194809, 22.6004257], [-83.1852493, 22.6039562], [-83.1755447, 22.6073303], [-83.1657104, 22.6105442], [-83.1557465, 22.6135941], [-83.1456604, 22.6164761], [-83.1354523, 22.6191864], [-83.1251221, 22.6217251], [-83.1146774, 22.6240883], [-83.104126, 22.6262684], [-83.0934525, 22.6282692], [-83.0826797, 22.6300812], [-83.0718079, 22.6317101], [-83.0608368, 22.6331444], [-83.0497742, 22.6343899], [-83.0386124, 22.635437], [-83.0273743, 22.6362858], [-83.0160675, 22.6369343], [-83.0046692, 22.6373787], [-82.9931946, 22.6376152], [-82.9816589, 22.6376457], [-82.9700546, 22.6374683], [-82.9583969, 22.6370773], [-82.9466782, 22.6364746], [-82.934906, 22.6356506], [-82.9230957, 22.6346149], [-82.9112473, 22.6333561], [-82.899353, 22.6318798], [-82.8874283, 22.6301804], [-82.8754807, 22.6282558], [-82.8635025, 22.6261063], [-82.8515244, 22.6237278], [-82.8395157, 22.6211224], [-82.8275146, 22.618288], [-82.8155136, 22.6152248], [-82.8035049, 22.6119308], [-82.7915115, 22.6084042], [-82.7795258, 22.6046448], [-82.7675629, 22.6006527], [-82.7556305, 22.596426], [-82.7437134, 22.5919647], [-82.7320786, 22.5870533], [-82.7209625, 22.5814896], [-82.7104111, 22.5752907], [-82.7004242, 22.5684681], [-82.6910248, 22.5610409], [-82.6822433, 22.5530243], [-82.6740875, 22.5444393], [-82.6665802, 22.5353012], [-82.6597366, 22.525631], [-82.6533432, 22.5156612], [-82.6471558, 22.5056114], [-82.6411819, 22.4954948], [-82.6354294, 22.4853039], [-82.6298981, 22.4750519], [-82.6245651, 22.464735], [-82.6194687, 22.454361], [-82.614563, 22.4439316], [-82.6098938, 22.4334545], [-82.6054306, 22.4229317], [-82.6011887, 22.4123631], [-82.5971603, 22.4017601], [-82.5933533, 22.3911209], [-82.5897598, 22.3804493], [-82.5863876, 22.369751], [-82.5832367, 22.3590279], [-82.5802994, 22.3482876], [-82.5775757, 22.3375282], [-82.5750732, 22.3267593], [-82.5727844, 22.3159771], [-82.5707092, 22.3051929], [-82.5688553, 22.2944088], [-82.567215, 22.2836266], [-82.5657883, 22.27285], [-82.5645828, 22.2620831], [-82.5635681, 22.2513294], [-82.5627747, 22.240593], [-82.5622025, 22.2298717], [-82.561821, 22.2191792], [-82.5616608, 22.2085133], [-82.5616989, 22.1978798], [-82.5619583, 22.1872768], [-82.5624084, 22.176712], [-82.5630722, 22.166193], [-82.5639343, 22.155714], [-82.5649872, 22.1452827], [-82.566246, 22.134901], [-82.5676956, 22.1245766], [-82.5693512, 22.1143074], [-82.5711975, 22.1040993], [-82.5732269, 22.0939541], [-82.5754547, 22.0838757], [-82.5778503, 22.0738678], [-82.580452, 22.0639343], [-82.5832291, 22.0540733], [-82.5861969, 22.0442905], [-82.5893326, 22.0345898], [-82.592659, 22.0249767], [-82.5961533, 22.0154476], [-82.599823, 22.0060043], [-82.6036606, 21.9966602], [-82.607666, 21.9874096], [-82.6118393, 21.9782543], [-82.6161728, 21.9692001], [-82.6206665, 21.9602489], [-82.6253204, 21.9514046], [-82.630127, 21.9426651], [-82.6350937, 21.9340363], [-82.6401978, 21.9255161], [-82.645462, 21.9171143], [-82.6508713, 21.9088268], [-82.6564102, 21.9006596], [-82.6621017, 21.8926144], [-82.6679153, 21.8846912], [-82.6738663, 21.8768902], [-82.6799545, 21.8692188], [-82.6861725, 21.8616734], [-82.6925125, 21.8542595], [-82.698967, 21.8469791], [-82.7055359, 21.8398304], [-82.7122269, 21.8328171], [-82.7190323, 21.8259373], [-82.7259521, 21.8192005], [-82.7329636, 21.8126011], [-82.7400818, 21.8061428], [-82.7473068, 21.7998257], [-82.7546234, 21.7936573], [-82.7620392, 21.7876282], [-82.7695389, 21.7817478], [-82.7771301, 21.7760143], [-82.7847977, 21.7704296], [-82.7927017, 21.7651405], [-82.8009949, 21.7603016], [-82.809639, 21.7559261], [-82.818634, 21.752018], [-82.8279648, 21.7485962], [-82.837616, 21.7456608], [-82.8475647, 21.7432327], [-82.8577881, 21.7413101], [-82.8683014, 21.7399044], [-82.8789062, 21.7388783], [-82.8894424, 21.7380848], [-82.8999252, 21.7375202], [-82.9103241, 21.7371807], [-82.9206467, 21.7370682], [-82.9308777, 21.737175], [-82.9410248, 21.7375031], [-82.9510803, 21.7380466], [-82.9610214, 21.7388077], [-82.9708633, 21.7397747], [-82.9806061, 21.7409515], [-82.9902267, 21.7423306], [-82.9997253, 21.7439079], [-83.0091095, 21.7456856], [-83.0183563, 21.7476578], [-83.0274811, 21.7498131], [-83.0364609, 21.7521591], [-83.0452881, 21.7546902], [-83.0539856, 21.7573967], [-83.0625305, 21.7602806], [-83.0709229, 21.7633305], [-83.079155, 21.7665501], [-83.0872345, 21.7699318], [-83.0951462, 21.7734699], [-83.10289, 21.7771645], [-83.1104584, 21.7810078], [-83.1178589, 21.784996], [-83.1250839, 21.7891254], [-83.1321182, 21.7933903], [-83.1389771, 21.7977867], [-83.1456528, 21.8023109], [-83.1521301, 21.8069572], [-83.158432, 21.811718], [-83.1645279, 21.816597], [-83.1704407, 21.821579], [-83.1761398, 21.8266678], [-83.1816406, 21.831852], [-83.1869431, 21.8371315], [-83.1920471, 21.842495], [-83.1969452, 21.8479462], [-83.2016296, 21.8534756], [-83.2061157, 21.8590775], [-83.2103882, 21.864748], [-83.214447, 21.8704796], [-83.2182846, 21.8762722], [-83.2219162, 21.8821182], [-83.2253418, 21.8880081], [-83.2285461, 21.8939438], [-83.2315292, 21.8999157], [-83.2343063, 21.90592], [-83.2368698, 21.9119511], [-83.239212, 21.9180069], [-83.241333, 21.924078], [-83.243248, 21.9301586], [-83.2449493, 21.936245], [-83.2464294, 21.942337], [-83.2476959, 21.9484253], [-83.2487411, 21.954504], [-83.2495804, 21.9605675], [-83.250206, 21.9666119], [-83.250618, 21.9726353], [-83.2508163, 21.9786282], [-83.2508163, 21.9845848], [-83.2505951, 21.9905052], [-83.2501602, 21.9963837], [-83.2495422, 22.0022106], [-83.248703, 22.0079842], [-83.247673, 22.0137005], [-83.2464371, 22.0193558], [-83.2450104, 22.0249405], [-83.2433777, 22.0304527], [-83.2415695, 22.0358906], [-83.239563, 22.0412483], [-83.2373734, 22.0465164], [-83.234993, 22.051693], [-83.2324142, 22.056776], [-83.2296677, 22.0617599], [-83.226738, 22.0666428], [-83.2236557, 22.0714169], [-83.2203827, 22.0760784], [-83.2169495, 22.0806236], [-83.2137451, 22.084692], [-83.2111893, 22.0879345], [-83.2093201, 22.0903778], [-83.2081604, 22.0920391], [-83.2077332, 22.0929489], [-83.2080688, 22.0931263], [-83.209198, 22.092598], [-83.2111511, 22.0913925], [-83.2139511, 22.0895329], [-83.2172165, 22.0874119], [-83.2205734, 22.085392], [-83.2240143, 22.0834789], [-83.2275162, 22.0816727], [-83.231102, 22.0799732], [-83.2347565, 22.0783863], [-83.2384796, 22.0769119], [-83.2422714, 22.0755539], [-83.2461243, 22.0743084], [-83.2500381, 22.0731831], [-83.2539978, 22.0721779], [-83.2580185, 22.0712948], [-83.262085, 22.0705261], [-83.2662048, 22.0698853], [-83.2703552, 22.0693684], [-83.2745438, 22.0689774], [-83.2787704, 22.068716], [-83.2830276, 22.0685768], [-83.287323, 22.0685692], [-83.291626, 22.0686874], [-83.2959595, 22.0689411], [-83.3003082, 22.0693226], [-83.3046722, 22.0698376], [-83.3090515, 22.0704823], [-83.3134308, 22.0712605], [-83.3178101, 22.0721703], [-83.3221893, 22.0732155], [-83.3265686, 22.0743923], [-83.3309402, 22.0757046], [-83.335289, 22.0771465], [-83.3396301, 22.0787258], [-83.343956, 22.0804386], [-83.3482513, 22.082283], [-83.3525314, 22.0842628], [-83.3567734, 22.0863724], [-83.3609848, 22.0886154], [-83.3651505, 22.090992], [-83.369278, 22.0934982], [-83.3733597, 22.0961342], [-83.3774033, 22.0989037], [-83.3813705, 22.101799], [-83.3852997, 22.1048222], [-83.3891678, 22.107975], [-83.3929749, 22.1112537], [-83.3967056, 22.1146564], [-83.4003677, 22.1181831], [-83.4039612, 22.1218338], [-83.4074707, 22.1256046], [-83.4109039, 22.1294956], [-83.4142532, 22.1335068], [-83.417511, 22.1376343], [-83.4206848, 22.1418762], [-83.4237518, 22.1462326], [-83.4267273, 22.1507015], [-83.4296036, 22.1552792], [-83.4323807, 22.1599655], [-83.4350357, 22.1647568], [-83.4375916, 22.1696529], [-83.440033, 22.1746502], [-83.4423599, 22.1797466], [-83.4445572, 22.1849422], [-83.4466324, 22.1902313], [-83.4485931, 22.195612], [-83.4504166, 22.201086], [-83.4521103, 22.2066441], [-83.4536667, 22.2122898], [-83.4550858, 22.2180176], [-83.4563675, 22.2238235], [-83.4575119, 22.2297077], [-83.4585037, 22.2356644], [-83.4593506, 22.2416916], [-83.4600525, 22.2477875], [-83.4606018, 22.2539501], [-83.4609909, 22.2601738], [-83.4612274, 22.2664566], [-83.4613037, 22.2727947], [-83.4612198, 22.2791843], [-83.4609756, 22.2856236], [-83.4605713, 22.2921085], [-83.4599915, 22.2986374], [-83.4592514, 22.3052063], [-83.4583435, 22.3118095], [-83.4572525, 22.3184452], [-83.4560013, 22.3251095], [-83.454567, 22.3317986], [-83.4529724, 22.3385086], [-83.4511871, 22.3452377], [-83.4492264, 22.3519802], [-83.4470825, 22.3587341], [-83.4447632, 22.3654957], [-83.4422607, 22.3722572], [-83.4395752, 22.3790207], [-83.4367294, 22.3857803], [-83.4336777, 22.3925266], [-83.4304504, 22.3992653], [-83.4270325, 22.4059868], [-83.4234314, 22.4126873], [-83.4196472, 22.4193649], [-83.4156799, 22.4260159], [-83.4115295, 22.4326324], [-83.407196, 22.4392147], [-83.4026718, 22.4457569], [-83.3979645, 22.4522533], [-83.393074, 22.458704], [-83.3879852, 22.4651031], [-83.3827362, 22.4714451], [-83.3772888, 22.4777298], [-83.371666, 22.4839497], [-83.36586, 22.4901009], [-83.3598709, 22.4961796], [-83.3537064, 22.502182], [-83.3473587, 22.5081081], [-83.3408279, 22.5139503], [-83.3341293, 22.5197067], [-83.32724, 22.5253677], [-83.3201981, 22.5309353], [-83.312973, 22.5364017], [-83.3055801, 22.5417709], [-83.2980118, 22.5470276], [-83.2902832, 22.5521755], [-83.2823868, 22.5572071], [-83.2743301, 22.5621223], [-83.2661133, 22.5669174], [-83.2577209, 22.5715847], [-83.2491837, 22.5761204], [-83.2405014, 22.5805244], [-83.2316589, 22.5847931], [-83.2226639, 22.5889206], [-83.2135315, 22.5929031], [-83.2042389, 22.5967407], [-83.194809, 22.6004257]]]}}, {"type": "Feature", "properties": {"shapefile": "al092021_2021082721_initialradii", "RADII": 64, "STORMID": "al092021", "BASIN": "al", "STORMNUM": 9, "ADVNUM": "6", "VALIDTIME": "2021082721", "SYNOPTIME": "2021082718", "TIMEZONE": "UTC", "TAU": 0, "NE": 20, "SE": 0, "SW": 0, "NW": 0}, "geometry": {"type": "Polygon", "coordinates": [[[-83.1979599, 22.2680397], [-83.1946793, 22.2716732], [-83.1912689, 22.2752476], [-83.1877136, 22.2787666], [-83.1840363, 22.2822227], [-83.1802216, 22.2856121], [-83.1762772, 22.2889366], [-83.1722031, 22.2921829], [-83.167984, 22.2953568], [-83.1636505, 22.2984543], [-83.1591797, 22.3014679], [-83.1545792, 22.3043957], [-83.1498718, 22.3072357], [-83.1450348, 22.3099842], [-83.1400909, 22.3126373], [-83.1350174, 22.3151951], [-83.1298294, 22.3176498], [-83.1245346, 22.3200035], [-83.1191177, 22.3222523], [-83.1136017, 22.3243923], [-83.1079788, 22.3264198], [-83.1022644, 22.328331], [-83.0964432, 22.3301258], [-83.0905304, 22.3318043], [-83.0845108, 22.3333569], [-83.0783997, 22.3347874], [-83.072197, 22.3360901], [-83.0659256, 22.3372612], [-83.0595627, 22.3383007], [-83.0531158, 22.3392048], [-83.0466003, 22.3399734], [-83.0400085, 22.3406048], [-83.0333405, 22.3410931], [-83.0266113, 22.3414383], [-83.0198212, 22.3416386], [-83.01297, 22.3416939], [-83.0060654, 22.3415966], [-82.9990997, 22.3413525], [-82.9920883, 22.3409538], [-82.9850235, 22.3404007], [-82.9779358, 22.3396931], [-82.9711075, 22.3385391], [-82.9649124, 22.3366718], [-82.9593506, 22.3341026], [-82.9544525, 22.3308544], [-82.9502411, 22.326952], [-82.9467468, 22.3224125], [-82.9440002, 22.3172588], [-82.9419861, 22.3115177], [-82.9407654, 22.3052082], [-82.9400177, 22.2986412], [-82.9394531, 22.2921104], [-82.9390488, 22.2856236], [-82.938797, 22.2791862], [-82.9387131, 22.2727947], [-82.938797, 22.2664566], [-82.9390335, 22.2601757], [-82.9394226, 22.2539539], [-82.9399719, 22.2477913], [-82.9406662, 22.2416954], [-82.9415131, 22.2356663], [-82.9425125, 22.2297096], [-82.9436493, 22.2238255], [-82.9449234, 22.2180176], [-82.9463501, 22.2122898], [-82.9479065, 22.2066441], [-82.9496002, 22.201086], [-82.9514313, 22.1956158], [-82.9533844, 22.1902313], [-82.9554596, 22.1849442], [-82.9576645, 22.1797485], [-82.9599915, 22.1746502], [-82.9624252, 22.1696529], [-82.9649811, 22.1647568], [-82.9676361, 22.1599655], [-82.9704056, 22.1552811], [-82.9732819, 22.1507034], [-82.9762573, 22.1462345], [-82.979332, 22.14188], [-82.9825058, 22.1376381], [-82.9857559, 22.1335068], [-82.9891052, 22.1294975], [-82.9925385, 22.1256046], [-82.9960556, 22.1218357], [-82.999649, 22.118187], [-83.0033188, 22.1146584], [-83.0070496, 22.1112576], [-83.0108566, 22.107975], [-83.0147171, 22.1048222], [-83.0186462, 22.101799], [-83.0226212, 22.0989017], [-83.0266571, 22.0961342], [-83.0307388, 22.0934982], [-83.034874, 22.0909901], [-83.039032, 22.0886154], [-83.0432434, 22.0863724], [-83.047493, 22.0842609], [-83.0517578, 22.082283], [-83.0560608, 22.0804386], [-83.0603867, 22.0787277], [-83.0647278, 22.0771484], [-83.0690842, 22.0757046], [-83.0734558, 22.0743923], [-83.0778351, 22.0732155], [-83.0822067, 22.0721703], [-83.0865936, 22.0712585], [-83.0909729, 22.0704803], [-83.0953445, 22.0698338], [-83.0997009, 22.0693226], [-83.1040573, 22.0689392], [-83.1083908, 22.0686874], [-83.1127014, 22.0685692], [-83.1169891, 22.0685787], [-83.1212463, 22.0687141], [-83.1254654, 22.0689774], [-83.1296692, 22.0693703], [-83.1338196, 22.0698853], [-83.1379318, 22.0705261], [-83.1419983, 22.071291], [-83.146019, 22.0721798], [-83.1499786, 22.073185], [-83.1538925, 22.0743122], [-83.1577377, 22.0755539], [-83.1615295, 22.0769119], [-83.1652527, 22.0783882], [-83.1689148, 22.0799732], [-83.172493, 22.0816727], [-83.1760178, 22.0834789], [-83.1794434, 22.0853958], [-83.1828003, 22.0874138], [-83.1860733, 22.0895348], [-83.1891022, 22.0916138], [-83.1917419, 22.0934887], [-83.1940002, 22.09515], [-83.1958694, 22.0965881], [-83.1973877, 22.0977898], [-83.198555, 22.0987434], [-83.1993713, 22.0994358], [-83.1998596, 22.0998611], [-83.2000122, 22.1000042], [-83.2000122, 22.1000042], [-83.2000122, 22.1000042], [-83.2000122, 22.1000042], [-83.2000122, 22.1000042], [-83.2000122, 22.1000042], [-83.2000122, 22.1000042], [-83.2000122, 22.1000042], [-83.2000122, 22.1000042], [-83.2000122, 22.1000042], [-83.2000122, 22.1000042], [-83.2000122, 22.1000042], [-83.2000122, 22.1000042], [-83.2000122, 22.1000042], [-83.2000122, 22.1000042], [-83.2000122, 22.1000042], [-83.2000122, 22.1000042], [-83.2000122, 22.1000042], [-83.2000122, 22.1000042], [-83.2000122, 22.1000042], [-83.2000122, 22.1000042], [-83.2000122, 22.1000042], [-83.2000122, 22.1000042], [-83.2000122, 22.1000042], [-83.2000122, 22.1000042], [-83.2000122, 22.1000042], [-83.2000122, 22.1000042], [-83.2000122, 22.1000042], [-83.2000122, 22.1000042], [-83.2000122, 22.1000042], [-83.2000122, 22.1000042], [-83.2000122, 22.1000042], [-83.2000122, 22.1000042], [-83.2000122, 22.1000042], [-83.2000122, 22.1000042], [-83.2000122, 22.1000042], [-83.2000122, 22.1000042], [-83.2000122, 22.1000042], [-83.2000122, 22.1000042], [-83.2000122, 22.1000042], [-83.2000122, 22.1000042], [-83.2000122, 22.1000042], [-83.2000122, 22.1000042], [-83.2000122, 22.1000042], [-83.2000122, 22.1000042], [-83.2000122, 22.1000042], [-83.2000122, 22.1000042], [-83.2000122, 22.1000042], [-83.2000122, 22.1000042], [-83.2000122, 22.1000042], [-83.2000122, 22.1000042], [-83.2000122, 22.1000042], [-83.2000122, 22.1000042], [-83.2000122, 22.1000042], [-83.2000122, 22.1000042], [-83.2000122, 22.1000042], [-83.2000122, 22.1000042], [-83.2000122, 22.1000042], [-83.2000122, 22.1000042], [-83.2000122, 22.1000042], [-83.2000122, 22.1000042], [-83.2000122, 22.1000042], [-83.2000122, 22.1000042], [-83.2000122, 22.1000042], [-83.2000122, 22.1000042], [-83.2000122, 22.1000042], [-83.2000122, 22.1000042], [-83.2000122, 22.1000042], [-83.2000122, 22.1000042], [-83.2000122, 22.1000042], [-83.2000122, 22.1000042], [-83.2000122, 22.1000042], [-83.2000122, 22.1000042], [-83.2000122, 22.1000042], [-83.2000122, 22.1000042], [-83.2000122, 22.1000042], [-83.2000122, 22.1000042], [-83.2000122, 22.1000042], [-83.2000122, 22.1000042], [-83.2000122, 22.1000042], [-83.2000122, 22.1000042], [-83.2000122, 22.1000042], [-83.2000122, 22.1000042], [-83.2000122, 22.1000042], [-83.2000122, 22.1000042], [-83.2000122, 22.1000042], [-83.2000122, 22.1000042], [-83.2000122, 22.1000042], [-83.2000122, 22.1000042], [-83.2000122, 22.1000042], [-83.2000122, 22.1000042], [-83.2000122, 22.1000042], [-83.2000122, 22.1000042], [-83.2000122, 22.1000042], [-83.2000122, 22.1000042], [-83.2000122, 22.1000042], [-83.2000122, 22.1000042], [-83.2000122, 22.1000042], [-83.2000122, 22.1000042], [-83.2000122, 22.1000042], [-83.2000122, 22.1000042], [-83.2000122, 22.1000042], [-83.2000122, 22.1000042], [-83.2000122, 22.1000042], [-83.2000122, 22.1000042], [-83.2000122, 22.1000042], [-83.2000122, 22.1000042], [-83.2000122, 22.1000042], [-83.2000122, 22.1000042], [-83.2000122, 22.1000042], [-83.2000122, 22.1000042], [-83.2000122, 22.1000042], [-83.2000122, 22.1000042], [-83.2000122, 22.1000042], [-83.2000122, 22.1000042], [-83.2000122, 22.1000042], [-83.2000122, 22.1000042], [-83.2000122, 22.1000042], [-83.2000122, 22.1000042], [-83.2000122, 22.1000042], [-83.2000122, 22.1000042], [-83.2000122, 22.1000042], [-83.2000122, 22.1000042], [-83.2000122, 22.1000042], [-83.2000122, 22.1000042], [-83.2000122, 22.1000042], [-83.2000122, 22.1000042], [-83.2000122, 22.1000042], [-83.2000122, 22.1000042], [-83.2000122, 22.1000042], [-83.2000122, 22.1000042], [-83.2000122, 22.1000042], [-83.2000122, 22.1000042], [-83.2000122, 22.1000042], [-83.2000122, 22.1000042], [-83.2000122, 22.1000042], [-83.2000122, 22.1000042], [-83.2000122, 22.1000042], [-83.2000122, 22.1000042], [-83.2000122, 22.1000042], [-83.2000122, 22.1000042], [-83.2000122, 22.1000042], [-83.2000122, 22.1000042], [-83.2000122, 22.1000042], [-83.2000122, 22.1000042], [-83.2000122, 22.1000042], [-83.2000122, 22.1000042], [-83.2000122, 22.1000042], [-83.2000122, 22.1000042], [-83.2000122, 22.1000042], [-83.2000122, 22.1000042], [-83.2000122, 22.1000042], [-83.2000122, 22.1000042], [-83.2000122, 22.1000042], [-83.2000122, 22.1000042], [-83.2000122, 22.1000042], [-83.2000122, 22.1000042], [-83.2000122, 22.1000042], [-83.2000122, 22.1000042], [-83.2000122, 22.1000042], [-83.2000122, 22.1000042], [-83.2000122, 22.1000042], [-83.2000122, 22.1000042], [-83.2000122, 22.1000042], [-83.2000122, 22.1000042], [-83.2000122, 22.1000042], [-83.2000122, 22.1000042], [-83.2000122, 22.1000042], [-83.2000122, 22.1000042], [-83.2000122, 22.1000042], [-83.2000122, 22.1000042], [-83.2000122, 22.1000042], [-83.2001648, 22.1001511], [-83.2006226, 22.1005955], [-83.2013702, 22.1013527], [-83.2024002, 22.1024284], [-83.2037048, 22.1038342], [-83.2052536, 22.1055794], [-83.2070465, 22.1076679], [-83.2090683, 22.1101131], [-83.2113037, 22.1129189], [-83.2135925, 22.1159496], [-83.2157822, 22.1190567], [-83.2178497, 22.1222382], [-83.2197952, 22.1254921], [-83.2216263, 22.1288147], [-83.2233353, 22.1322041], [-83.2249298, 22.1356564], [-83.2263947, 22.1391678], [-83.2277451, 22.1427383], [-83.2289581, 22.1463623], [-83.2300415, 22.1500359], [-83.2309952, 22.153759], [-83.2318268, 22.1575279], [-83.2325134, 22.1613388], [-83.2330627, 22.1651878], [-83.23349, 22.169075], [-83.2337723, 22.1729927], [-83.2339249, 22.1769371], [-83.2339325, 22.180912], [-83.2338028, 22.184906], [-83.2335281, 22.1889191], [-83.2331161, 22.1929512], [-83.2325592, 22.1969948], [-83.2318497, 22.201046], [-83.2310104, 22.2051048], [-83.2300186, 22.2091656], [-83.2288895, 22.2132263], [-83.2276154, 22.2172813], [-83.2261963, 22.2213287], [-83.2246323, 22.2253647], [-83.2229309, 22.2293873], [-83.221077, 22.2333889], [-83.2190857, 22.2373714], [-83.2169418, 22.2413292], [-83.214653, 22.2452564], [-83.2122269, 22.2491531], [-83.2096558, 22.2530155], [-83.2069397, 22.2568378], [-83.2040863, 22.2606182], [-83.201088, 22.2643528], [-83.1979599, 22.2680397]]]}}]}