{"type": "FeatureCollection", "features": [{"type": "Feature", "properties": {"shapefile": "al092021-010_5day_pgn", "STORMNAME": "Ida", "STORMTYPE": "HU", "ADVDATE": "400 PM CDT Sat Aug 28 2021", "ADVISNUM": "10", "STORMNUM": 9, "FCSTPRD": 120, "BASIN": "AL"}, "geometry": {"type": "Polygon", "coordinates": [[[-87.04053, 25.93473], [-87.01755, 25.93296], [-86.99347, 25.93419], [-86.96845, 25.938], [-86.94302, 25.94386], [-86.90506, 25.95571], [-86.89323, 25.96075], [-86.86984, 25.97138], [-86.8478, 25.98337], [-86.81734, 26.00394], [-86.79884, 26.01948], [-86.78116, 26.03583], [-86.76484, 26.05354], [-86.7496, 26.07234], [-86.73627, 26.09305], [-86.72104, 26.12861], [-86.71437, 26.15491], [-86.71085, 26.18298], [-86.71043, 26.212], [-86.71301, 26.24074], [-86.71832, 26.2684], [-86.72594, 26.29456], [-86.73573, 26.31881], [-86.75368, 26.35192], [-86.76756, 26.37209], [-86.78252, 26.39116], [-86.79054, 26.40015], [-86.81516, 26.42659], [-86.83257, 26.44321], [-86.85052, 26.45929], [-86.86929, 26.47454], [-86.88861, 26.48926], [-86.9082, 26.5037], [-86.92778, 26.51814], [-86.9471, 26.53286], [-86.96587, 26.54812], [-86.98383, 26.5642], [-87.00151, 26.58054], [-87.01865, 26.59744], [-87.03578, 26.61433], [-87.05265, 26.6315], [-87.06978, 26.6484], [-87.08665, 26.66557], [-87.10378, 26.68246], [-87.12065, 26.69963], [-87.13779, 26.71652], [-87.15465, 26.73368], [-87.17179, 26.75058], [-87.18865, 26.76775], [-87.2058, 26.78464], [-87.22266, 26.80181], [-87.23981, 26.8187], [-87.25667, 26.83587], [-87.2738, 26.85277], [-87.29066, 26.86993], [-87.30782, 26.88683], [-87.32468, 26.904], [-87.34181, 26.92089], [-87.35869, 26.93806], [-87.37581, 26.95495], [-87.39268, 26.97212], [-87.40981, 26.98901], [-87.42668, 27.00618], [-87.44382, 27.02308], [-87.46068, 27.04025], [-87.47782, 27.05714], [-87.49468, 27.0743], [-87.51183, 27.0912], [-87.52869, 27.10836], [-87.54584, 27.12526], [-87.5627, 27.14243], [-87.57983, 27.15932], [-87.59669, 27.17649], [-87.61385, 27.19339], [-87.63071, 27.21055], [-87.63927, 27.219], [-87.66472, 27.24462], [-87.67328, 27.25306], [-87.69872, 27.27868], [-87.71585, 27.29557], [-87.73271, 27.31274], [-87.74986, 27.32963], [-87.76672, 27.3468], [-87.78386, 27.36369], [-87.80072, 27.38086], [-87.81787, 27.39776], [-87.83473, 27.41492], [-87.85187, 27.43182], [-87.86873, 27.44899], [-87.88588, 27.46588], [-87.90274, 27.48305], [-87.91988, 27.49994], [-87.93675, 27.51711], [-87.95387, 27.534], [-87.97075, 27.55117], [-87.98788, 27.56806], [-87.99631, 27.57665], [-88.02188, 27.60213], [-88.03874, 27.61929], [-88.04732, 27.62774], [-88.07275, 27.65336], [-88.08989, 27.67025], [-88.09833, 27.67883], [-88.11533, 27.69586], [-88.14076, 27.72148], [-88.14934, 27.72993], [-88.17476, 27.75554], [-88.18333, 27.76399], [-88.20877, 27.7896], [-88.22591, 27.8065], [-88.24278, 27.82367], [-88.25134, 27.83211], [-88.27678, 27.85773], [-88.28534, 27.86618], [-88.31078, 27.89179], [-88.31934, 27.90024], [-88.34477, 27.92585], [-88.36192, 27.94275], [-88.37035, 27.95133], [-88.39593, 27.97681], [-88.40436, 27.98539], [-88.42137, 28.00242], [-88.44679, 28.02804], [-88.46394, 28.04493], [-88.4808, 28.0621], [-88.49794, 28.07899], [-88.50638, 28.08757], [-88.53194, 28.11305], [-88.54037, 28.12164], [-88.55737, 28.13867], [-88.58281, 28.16428], [-88.59995, 28.18118], [-88.61681, 28.19835], [-88.62538, 28.20679], [-88.65081, 28.23241], [-88.66795, 28.2493], [-88.68481, 28.26647], [-88.70197, 28.28336], [-88.71039, 28.29195], [-88.7274, 28.30898], [-88.75282, 28.33459], [-88.76997, 28.35149], [-88.78683, 28.36865], [-88.79539, 28.3771], [-88.82085, 28.40272], [-88.82941, 28.41117], [-88.84641, 28.4282], [-88.8634, 28.44522], [-88.8804, 28.46226], [-88.89741, 28.47929], [-88.91441, 28.49632], [-88.93998, 28.5218], [-88.95684, 28.53897], [-88.97398, 28.55585], [-88.98242, 28.56444], [-89.008, 28.58992], [-89.01642, 28.5985], [-89.04199, 28.62398], [-89.05043, 28.63256], [-89.076, 28.65804], [-89.08444, 28.66663], [-89.10973, 28.69238], [-89.11789, 28.70123], [-89.14211, 28.72808], [-89.14972, 28.73748], [-89.17203, 28.76622], [-89.17923, 28.77603], [-89.19366, 28.79565], [-89.21555, 28.82481], [-89.22317, 28.83421], [-89.24683, 28.8616], [-89.26315, 28.87931], [-89.28003, 28.89648], [-89.28845, 28.90506], [-89.30547, 28.92209], [-89.33089, 28.9477], [-89.34804, 28.9646], [-89.35647, 28.97318], [-89.37346, 28.99022], [-89.39891, 29.01583], [-89.41603, 29.03272], [-89.43291, 29.04989], [-89.44976, 29.06706], [-89.46608, 29.08477], [-89.48213, 29.10275], [-89.49738, 29.12156], [-89.51206, 29.1409], [-89.52648, 29.16052], [-89.54089, 29.18014], [-89.55559, 29.19949], [-89.5632, 29.20889], [-89.58659, 29.23655], [-89.60237, 29.25481], [-89.61815, 29.27306], [-89.63339, 29.29187], [-89.64074, 29.30154], [-89.66249, 29.33083], [-89.66971, 29.34064], [-89.69133, 29.37007], [-89.69868, 29.37975], [-89.71349, 29.39895], [-89.73566, 29.42784], [-89.74287, 29.43765], [-89.76424, 29.46735], [-89.77116, 29.47743], [-89.7917, 29.50795], [-89.79851, 29.51817], [-89.81211, 29.53861], [-89.82571, 29.55905], [-89.84612, 29.5897], [-89.85972, 29.61014], [-89.87305, 29.63085], [-89.88611, 29.65183], [-89.8989, 29.67308], [-89.91141, 29.69461], [-89.91753, 29.70551], [-89.9299, 29.72717], [-89.94894, 29.75919], [-89.96199, 29.78017], [-89.96852, 29.79067], [-89.98811, 29.82214], [-89.99451, 29.83277], [-90.00702, 29.85429], [-90.01899, 29.87637], [-90.03069, 29.89871], [-90.04225, 29.92119], [-90.05354, 29.94395], [-90.06483, 29.9667], [-90.07625, 29.98932], [-90.0874, 30.0122], [-90.09829, 30.03537], [-90.11433, 30.07038], [-90.11923, 30.08251], [-90.12875, 30.10703], [-90.138, 30.13183], [-90.14698, 30.1569], [-90.15555, 30.18238], [-90.16399, 30.20799], [-90.17241, 30.23361], [-90.18057, 30.25949], [-90.18833, 30.28579], [-90.1958, 30.31236], [-90.20302, 30.3392], [-90.20995, 30.36631], [-90.21323, 30.38007], [-90.22288, 30.42149], [-90.22845, 30.44997], [-90.23308, 30.4794], [-90.23648, 30.51005], [-90.23866, 30.54193], [-90.23988, 30.57477], [-90.24042, 30.60829], [-90.24055, 30.64221], [-90.24055, 30.67627], [-90.24055, 30.71034], [-90.24055, 30.7444], [-90.24042, 30.77832], [-90.23987, 30.81184], [-90.23865, 30.84468], [-90.23648, 30.87656], [-90.23308, 30.90721], [-90.22859, 30.93678], [-90.22342, 30.96566], [-90.21784, 30.99414], [-90.21214, 31.02248], [-90.20656, 31.05095], [-90.20098, 31.07943], [-90.19513, 31.10763], [-90.18901, 31.13556], [-90.18262, 31.16322], [-90.17595, 31.19061], [-90.16901, 31.21772], [-90.1618, 31.24456], [-90.15433, 31.27113], [-90.14658, 31.29743], [-90.14262, 31.3105], [-90.1342, 31.33612], [-90.12154, 31.37454], [-90.11298, 31.40002], [-90.10863, 31.41269], [-90.09937, 31.43749], [-90.09013, 31.46228], [-90.08033, 31.48653], [-90.06428, 31.52155], [-90.05341, 31.54472], [-90.04796, 31.5563], [-90.03653, 31.57891], [-90.01953, 31.61297], [-90.00824, 31.63573], [-90.00253, 31.64704], [-89.98552, 31.6811], [-89.97424, 31.70385], [-89.96268, 31.72633], [-89.95683, 31.7375], [-89.94514, 31.75985], [-89.9265, 31.79227], [-89.9201, 31.8029], [-89.90704, 31.82388], [-89.88692, 31.85481], [-89.88011, 31.86503], [-89.85971, 31.89569], [-89.85291, 31.90591], [-89.83931, 31.92634], [-89.81891, 31.957], [-89.80531, 31.97744], [-89.7917, 31.99787], [-89.7849, 32.00809], [-89.7645, 32.03874], [-89.75771, 32.04897], [-89.7441, 32.0694], [-89.72316, 32.09951], [-89.70874, 32.11913], [-89.7014, 32.12881], [-89.67827, 32.15673], [-89.67039, 32.16586], [-89.64672, 32.19325], [-89.63883, 32.20238], [-89.6236, 32.22118], [-89.6089, 32.24053], [-89.58728, 32.26996], [-89.58007, 32.27977], [-89.56538, 32.29912], [-89.54212, 32.32691], [-89.5341, 32.3359], [-89.51778, 32.35361], [-89.5009, 32.37078], [-89.48404, 32.38795], [-89.46718, 32.40511], [-89.44283, 32.43182], [-89.42719, 32.45021], [-89.41957, 32.45962], [-89.40488, 32.47897], [-89.38326, 32.50839], [-89.3687, 32.52788], [-89.36136, 32.53755], [-89.3381, 32.56535], [-89.33008, 32.57434], [-89.31375, 32.59205], [-89.29689, 32.60921], [-89.28003, 32.62638], [-89.26288, 32.64328], [-89.24602, 32.66044], [-89.22888, 32.67734], [-89.21202, 32.6945], [-89.19487, 32.7114], [-89.17801, 32.72857], [-89.16087, 32.74546], [-89.144, 32.76263], [-89.12687, 32.77952], [-89.10973, 32.79642], [-89.09205, 32.81277], [-89.06471, 32.83647], [-89.05533, 32.8441], [-89.03601, 32.85882], [-89.01642, 32.87326], [-88.99684, 32.8877], [-88.97752, 32.90242], [-88.95876, 32.91768], [-88.9408, 32.93375], [-88.91454, 32.95856], [-88.90598, 32.967], [-88.88884, 32.98389], [-88.87196, 33.00106], [-88.85484, 33.01795], [-88.83769, 33.03485], [-88.82002, 33.0512], [-88.80207, 33.06728], [-88.78329, 33.08253], [-88.76398, 33.09725], [-88.7444, 33.11169], [-88.72481, 33.12614], [-88.70549, 33.14085], [-88.68672, 33.15611], [-88.66876, 33.17219], [-88.65108, 33.18854], [-88.63396, 33.20543], [-88.61681, 33.22233], [-88.59995, 33.23949], [-88.58281, 33.25639], [-88.56593, 33.27355], [-88.54881, 33.29045], [-88.53194, 33.30762], [-88.51481, 33.32452], [-88.49767, 33.34141], [-88.47999, 33.35776], [-88.46203, 33.37383], [-88.44326, 33.38909], [-88.42393, 33.40381], [-88.40435, 33.41825], [-88.38477, 33.43269], [-88.36545, 33.44741], [-88.34668, 33.46267], [-88.32873, 33.47874], [-88.31105, 33.49509], [-88.29363, 33.51171], [-88.27596, 33.52807], [-88.258, 33.54414], [-88.23924, 33.5594], [-88.21992, 33.57412], [-88.20033, 33.58856], [-88.18075, 33.603], [-88.16116, 33.61744], [-88.14185, 33.63216], [-88.1228, 33.64715], [-88.1035, 33.66186], [-88.08391, 33.6763], [-88.06405, 33.69047], [-88.04392, 33.70437], [-88.02351, 33.71799], [-88.00312, 33.73162], [-87.98271, 33.74525], [-87.96231, 33.75887], [-87.94191, 33.7725], [-87.92151, 33.78612], [-87.91131, 33.79293], [-87.88071, 33.81337], [-87.86031, 33.82699], [-87.8399, 33.84061], [-87.8297, 33.84743], [-87.79881, 33.86759], [-87.77788, 33.88067], [-87.75666, 33.89348], [-87.73489, 33.90574], [-87.72375, 33.9116], [-87.70143, 33.92332], [-87.66771, 33.94062], [-87.65628, 33.94621], [-87.63356, 33.95752], [-87.5997, 33.97469], [-87.57684, 33.98586], [-87.56555, 33.99158], [-87.54298, 34.00302], [-87.50883, 34.01992], [-87.49754, 34.02564], [-87.47496, 34.03709], [-87.45226, 34.04839], [-87.42954, 34.0597], [-87.40696, 34.07114], [-87.37282, 34.08804], [-87.36153, 34.09377], [-87.33896, 34.10521], [-87.3161, 34.11638], [-87.28142, 34.13273], [-87.26971, 34.13805], [-87.23381, 34.15317], [-87.20906, 34.16243], [-87.19655, 34.16693], [-87.17111, 34.17551], [-87.14499, 34.18341], [-87.11847, 34.19091], [-87.09168, 34.19813], [-87.06474, 34.20522], [-87.03796, 34.21244], [-87.01143, 34.21993], [-86.97212, 34.23165], [-86.9592, 34.23574], [-86.93322, 34.24377], [-86.90697, 34.25154], [-86.88045, 34.25903], [-86.85365, 34.26625], [-86.82672, 34.27334], [-86.79993, 34.28056], [-86.7734, 34.28806], [-86.74715, 34.29582], [-86.72118, 34.30386], [-86.69519, 34.3119], [-86.66895, 34.31966], [-86.64243, 34.32716], [-86.61562, 34.33438], [-86.58856, 34.34132], [-86.56136, 34.34814], [-86.53415, 34.35495], [-86.50696, 34.36176], [-86.47975, 34.36858], [-86.45268, 34.37553], [-86.42589, 34.38274], [-86.38617, 34.39405], [-86.37311, 34.398], [-86.34714, 34.40604], [-86.32115, 34.41408], [-86.29491, 34.42184], [-86.26838, 34.42934], [-86.24158, 34.43656], [-86.21452, 34.44351], [-86.18732, 34.45033], [-86.16011, 34.45714], [-86.11931, 34.46735], [-86.10571, 34.47076], [-86.07864, 34.47771], [-86.05185, 34.48493], [-86.01213, 34.49624], [-85.99907, 34.50019], [-85.97309, 34.50823], [-85.94711, 34.51627], [-85.92087, 34.52403], [-85.89435, 34.53152], [-85.86755, 34.53875], [-85.84048, 34.5457], [-85.81327, 34.55251], [-85.78607, 34.55933], [-85.75887, 34.56613], [-85.73166, 34.57294], [-85.69086, 34.58317], [-85.67726, 34.58657], [-85.65005, 34.59338], [-85.62286, 34.6002], [-85.59566, 34.60701], [-85.56859, 34.61396], [-85.54179, 34.62118], [-85.51527, 34.62867], [-85.48901, 34.63644], [-85.46304, 34.64447], [-85.43706, 34.65252], [-85.41081, 34.66028], [-85.38428, 34.66777], [-85.35749, 34.675], [-85.33041, 34.68195], [-85.30322, 34.68876], [-85.27602, 34.69557], [-85.24881, 34.70238], [-85.22162, 34.7092], [-85.19441, 34.716], [-85.16721, 34.72282], [-85.14001, 34.72963], [-85.1128, 34.73645], [-85.0856, 34.74326], [-85.05839, 34.75007], [-85.03119, 34.75688], [-85.00398, 34.76369], [-84.97678, 34.77051], [-84.94958, 34.77732], [-84.90878, 34.78754], [-84.89517, 34.79095], [-84.86798, 34.79776], [-84.84077, 34.80457], [-84.81357, 34.81138], [-84.77277, 34.8216], [-84.75916, 34.825], [-84.73196, 34.83182], [-84.70476, 34.83863], [-84.67755, 34.84544], [-84.65048, 34.85239], [-84.62369, 34.85961], [-84.59717, 34.8671], [-84.55786, 34.87882], [-84.54494, 34.88291], [-84.51896, 34.89095], [-84.49271, 34.89871], [-84.46619, 34.90621], [-84.43939, 34.91343], [-84.41232, 34.92038], [-84.38513, 34.92719], [-84.35792, 34.93401], [-84.33072, 34.94082], [-84.30351, 34.94763], [-84.27631, 34.95444], [-84.24911, 34.96125], [-84.2219, 34.96806], [-84.1947, 34.97488], [-84.1675, 34.98169], [-84.14029, 34.9885], [-84.1131, 34.99532], [-84.08589, 35.00213], [-84.05869, 35.00894], [-84.03149, 35.01575], [-84.00428, 35.02256], [-83.97708, 35.02938], [-83.94987, 35.03619], [-83.92267, 35.043], [-83.89546, 35.04981], [-83.86826, 35.05663], [-83.84106, 35.06344], [-83.81386, 35.07025], [-83.78665, 35.07706], [-83.75946, 35.08388], [-83.73225, 35.09069], [-83.70505, 35.0975], [-83.67786, 35.10431], [-83.65064, 35.11112], [-83.62344, 35.11794], [-83.59623, 35.12475], [-83.56903, 35.13156], [-83.54182, 35.13837], [-83.51463, 35.14518], [-83.48743, 35.152], [-83.46036, 35.15894], [-83.42023, 35.16985], [-83.40704, 35.17366], [-83.36773, 35.18538], [-83.35481, 35.18946], [-83.32883, 35.1975], [-83.28938, 35.20908], [-83.27606, 35.21276], [-83.24927, 35.21999], [-83.2222, 35.22693], [-83.19498, 35.23375], [-83.16779, 35.24056], [-83.14058, 35.24737], [-83.11338, 35.25418], [-83.08618, 35.261], [-83.05898, 35.26781], [-83.03177, 35.27462], [-83.00458, 35.28143], [-82.97737, 35.28825], [-82.95016, 35.29506], [-82.92297, 35.30187], [-82.89576, 35.30869], [-82.86856, 35.3155], [-82.84135, 35.32231], [-82.81415, 35.32912], [-82.78694, 35.33593], [-82.74614, 35.34615], [-82.73254, 35.34956], [-82.70534, 35.35637], [-82.67813, 35.36318], [-82.65094, 35.37], [-82.62373, 35.3768], [-82.59653, 35.38362], [-82.56934, 35.39043], [-82.54212, 35.39724], [-82.50132, 35.40746], [-82.48772, 35.41087], [-82.46051, 35.41768], [-82.4333, 35.42449], [-82.40611, 35.4313], [-82.37891, 35.43812], [-82.3517, 35.44493], [-82.32449, 35.45174], [-82.2837, 35.46196], [-82.27023, 35.4655], [-82.24344, 35.47272], [-82.21691, 35.48022], [-82.19066, 35.48798], [-82.16468, 35.49603], [-82.1387, 35.50406], [-82.11246, 35.51183], [-82.08593, 35.51932], [-82.05913, 35.52654], [-82.03207, 35.53349], [-82.00486, 35.54031], [-81.97766, 35.54712], [-81.95045, 35.55392], [-81.92325, 35.56074], [-81.89606, 35.56755], [-81.86885, 35.57436], [-81.84164, 35.58118], [-81.81445, 35.58799], [-81.78724, 35.5948], [-81.74643, 35.60502], [-81.73283, 35.60843], [-81.70563, 35.61523], [-81.67842, 35.62205], [-81.65122, 35.62886], [-81.62416, 35.63581], [-81.59737, 35.64303], [-81.57085, 35.65053], [-81.54459, 35.65829], [-81.51862, 35.66633], [-81.49264, 35.67437], [-81.46638, 35.68214], [-81.42653, 35.69331], [-81.41307, 35.69685], [-81.38613, 35.70393], [-81.35934, 35.71116], [-81.33282, 35.71865], [-81.3067, 35.72655], [-81.28127, 35.73514], [-81.25638, 35.74427], [-81.23176, 35.75367], [-81.20755, 35.76347], [-81.17165, 35.7786], [-81.15939, 35.78337], [-81.13491, 35.79291], [-81.11057, 35.80258], [-81.08623, 35.81225], [-81.04977, 35.82683], [-81.02638, 35.83746], [-81.01482, 35.84291], [-80.99169, 35.85381], [-80.96884, 35.86498], [-80.93498, 35.88214], [-80.92355, 35.88773], [-80.90083, 35.89904], [-80.86697, 35.91621], [-80.85555, 35.92179], [-80.82153, 35.93883], [-80.79897, 35.95027], [-80.77611, 35.96144], [-80.75352, 35.97289], [-80.73122, 35.9846], [-80.72007, 35.99046], [-80.69803, 36.00245], [-80.66594, 36.02139], [-80.64499, 36.03447], [-80.62404, 36.04755], [-80.6031, 36.06063], [-80.59249, 36.06703], [-80.56039, 36.08597], [-80.54951, 36.0921], [-80.52802, 36.10464], [-80.49673, 36.12439], [-80.47661, 36.13829], [-80.45702, 36.15273], [-80.43797, 36.16772], [-80.41866, 36.18243], [-80.39908, 36.19688], [-80.37949, 36.21132], [-80.3697, 36.21854], [-80.34059, 36.24047], [-80.32182, 36.25574], [-80.30359, 36.27154], [-80.28536, 36.28735], [-80.26714, 36.30315], [-80.24837, 36.31841], [-80.22905, 36.33312], [-80.20947, 36.34756], [-80.18988, 36.36201], [-80.18022, 36.36937], [-80.15181, 36.39198], [-80.13385, 36.40806], [-80.11617, 36.42442], [-80.09903, 36.44131], [-80.08189, 36.4582], [-80.06502, 36.47536], [-80.04789, 36.49226], [-80.03102, 36.50943], [-80.006, 36.53545], [-79.98981, 36.5533], [-79.98178, 36.56229], [-79.96655, 36.58109], [-79.94465, 36.61025], [-79.93744, 36.62006], [-79.91568, 36.64936], [-79.90072, 36.66843], [-79.88522, 36.68696], [-79.87733, 36.69609], [-79.86154, 36.71435], [-79.84577, 36.7326], [-79.82319, 36.76108], [-79.80877, 36.7807], [-79.8017, 36.79064], [-79.78102, 36.82103], [-79.77422, 36.83125], [-79.75382, 36.8619], [-79.74702, 36.87212], [-79.73342, 36.89256], [-79.71302, 36.92321], [-79.69955, 36.94379], [-79.68636, 36.96463], [-79.67343, 36.98575], [-79.66704, 36.99638], [-79.64896, 37.02935], [-79.63725, 37.05169], [-79.6257, 37.07417], [-79.6144, 37.09693], [-79.60312, 37.11968], [-79.59169, 37.1423], [-79.5804, 37.16505], [-79.56911, 37.1878], [-79.5634, 37.19911], [-79.54654, 37.23331], [-79.53564, 37.25647], [-79.52491, 37.27977], [-79.51471, 37.30361], [-79.50519, 37.32814], [-79.49608, 37.35307], [-79.4875, 37.37855], [-79.47961, 37.40471], [-79.47214, 37.43128], [-79.46492, 37.45812], [-79.46139, 37.47161], [-79.45119, 37.51248], [-79.4444, 37.53973], [-79.43759, 37.56698], [-79.43079, 37.59423], [-79.42398, 37.62148], [-79.41732, 37.64886], [-79.41405, 37.66263], [-79.40549, 37.70514], [-79.40086, 37.73457], [-79.39732, 37.76508], [-79.39461, 37.79642], [-79.39217, 37.82803], [-79.38943, 37.85937], [-79.3859, 37.88988], [-79.38141, 37.91945], [-79.37651, 37.94834], [-79.37202, 37.97681], [-79.36876, 38.00515], [-79.36754, 38.03363], [-79.36876, 38.0621], [-79.37203, 38.09044], [-79.37651, 38.11892], [-79.38142, 38.1478], [-79.3859, 38.17737], [-79.3893, 38.20802], [-79.39162, 38.23977], [-79.39339, 38.27206], [-79.39515, 38.30435], [-79.39746, 38.33609], [-79.40086, 38.36675], [-79.40549, 38.39618], [-79.41106, 38.42466], [-79.41732, 38.45245], [-79.42398, 38.47984], [-79.43092, 38.50695], [-79.43813, 38.53379], [-79.44562, 38.56036], [-79.45337, 38.58665], [-79.45758, 38.59946], [-79.46996, 38.63815], [-79.47839, 38.66377], [-79.48697, 38.68925], [-79.49593, 38.71432], [-79.50519, 38.73912], [-79.51471, 38.76364], [-79.5249, 38.78748], [-79.53564, 38.81078], [-79.54653, 38.83394], [-79.55769, 38.85683], [-79.56911, 38.87945], [-79.5804, 38.9022], [-79.59169, 38.92495], [-79.60312, 38.94757], [-79.61441, 38.97033], [-79.6257, 38.99308], [-79.63725, 39.01556], [-79.64896, 39.03791], [-79.66093, 39.05997], [-79.67344, 39.0815], [-79.67996, 39.092], [-79.69955, 39.12347], [-79.71301, 39.14404], [-79.72662, 39.16448], [-79.74022, 39.18492], [-79.75382, 39.20535], [-79.76742, 39.22579], [-79.78102, 39.24623], [-79.79475, 39.26653], [-79.80878, 39.28656], [-79.82319, 39.30618], [-79.83815, 39.32525], [-79.85379, 39.34364], [-79.87814, 39.37035], [-79.88657, 39.37894], [-79.90344, 39.3961], [-79.92901, 39.42158], [-79.93744, 39.43016], [-79.95444, 39.44719], [-79.97144, 39.46422], [-79.98845, 39.48125], [-80.00545, 39.49828], [-80.02245, 39.51531], [-80.04788, 39.54093], [-80.05645, 39.54938], [-80.08189, 39.57499], [-80.09045, 39.58344], [-80.10745, 39.60047], [-80.12447, 39.6175], [-80.14989, 39.64312], [-80.15846, 39.65157], [-80.1756, 39.66846], [-80.19301, 39.68508], [-80.21083, 39.70129], [-80.23857, 39.72459], [-80.24823, 39.73195], [-80.26768, 39.74653], [-80.28727, 39.76097], [-80.30685, 39.77541], [-80.32631, 39.78999], [-80.34548, 39.80484], [-80.37431, 39.82705], [-80.39391, 39.84149], [-80.40384, 39.84858], [-80.42383, 39.86261], [-80.45429, 39.88319], [-80.47497, 39.89654], [-80.48544, 39.90308], [-80.51714, 39.92242], [-80.52788, 39.92869], [-80.56039, 39.94722], [-80.57114, 39.95349], [-80.6031, 39.97256], [-80.62404, 39.98564], [-80.64499, 39.99873], [-80.66594, 40.0118], [-80.68715, 40.02461], [-80.70891, 40.03687], [-80.73122, 40.04859], [-80.76482, 40.06602], [-80.77611, 40.07175], [-80.79924, 40.08265], [-80.83405, 40.09886], [-80.84575, 40.10418], [-80.86996, 40.11399], [-80.89444, 40.12353], [-80.93089, 40.1381], [-80.94314, 40.14287], [-80.96735, 40.15268], [-80.99074, 40.16331], [-81.0023, 40.16875], [-81.04882, 40.19028], [-81.06038, 40.19574], [-81.08378, 40.20636], [-81.10799, 40.21618], [-81.13274, 40.22544], [-81.17014, 40.23906], [-81.19557, 40.24765], [-81.20836, 40.25187], [-81.24672, 40.26454], [-81.27256, 40.27271], [-81.29881, 40.28048], [-81.32533, 40.28798], [-81.35213, 40.2952], [-81.37906, 40.30228], [-81.40585, 40.3095], [-81.43238, 40.31699], [-81.44557, 40.32081], [-81.47169, 40.32871], [-81.49754, 40.33689], [-81.52391, 40.34452], [-81.56458, 40.35487], [-81.59233, 40.36114], [-81.62062, 40.36686], [-81.64905, 40.37245], [-81.66319, 40.37531], [-81.69148, 40.38103], [-81.72005, 40.38648], [-81.76344, 40.39411], [-81.79282, 40.39875], [-81.80764, 40.40092], [-81.85185, 40.40774], [-81.88081, 40.41277], [-81.90965, 40.41796], [-81.93863, 40.423], [-81.96814, 40.4275], [-81.99875, 40.4309], [-82.03043, 40.43322], [-82.06267, 40.43499], [-82.09489, 40.43676], [-82.12659, 40.43907], [-82.1572, 40.44248], [-82.17216, 40.44452], [-82.21569, 40.45202], [-82.24466, 40.45706], [-82.27418, 40.46156], [-82.30478, 40.46497], [-82.33661, 40.46714], [-82.36938, 40.46836], [-82.40285, 40.46891], [-82.43671, 40.46905], [-82.47072, 40.46905], [-82.50471, 40.46905], [-82.53872, 40.46905], [-82.57273, 40.46905], [-82.6066, 40.46891], [-82.62319, 40.4685], [-82.67283, 40.46714], [-82.70465, 40.46496], [-82.73526, 40.46156], [-82.76478, 40.45706], [-82.79375, 40.45202], [-82.82272, 40.44698], [-82.85224, 40.44248], [-82.86789, 40.44112], [-82.91454, 40.43676], [-82.94676, 40.43499], [-82.96281, 40.43403], [-83.0107, 40.4309], [-83.0413, 40.4275], [-83.07081, 40.423], [-83.09978, 40.41796], [-83.12862, 40.41278], [-83.15759, 40.40774], [-83.18697, 40.4031], [-83.21661, 40.39874], [-83.246, 40.39411], [-83.27483, 40.38894], [-83.30312, 40.38321], [-83.33087, 40.37695], [-83.35822, 40.37027], [-83.38541, 40.36345], [-83.42622, 40.35323], [-83.43982, 40.34983], [-83.46703, 40.34302], [-83.49423, 40.3362], [-83.52129, 40.32926], [-83.54809, 40.32203], [-83.57461, 40.31454], [-83.60086, 40.30678], [-83.6267, 40.2986], [-83.65227, 40.29015], [-83.67784, 40.28171], [-83.70341, 40.27326], [-83.72885, 40.26468], [-83.75429, 40.2561], [-83.77986, 40.24765], [-83.80543, 40.2392], [-83.83086, 40.23061], [-83.8563, 40.22203], [-83.88187, 40.21358], [-83.9073, 40.205], [-83.93233, 40.19601], [-83.95708, 40.18674], [-83.98157, 40.1772], [-84.00537, 40.16699], [-84.02863, 40.15622], [-84.06331, 40.13987], [-84.0746, 40.13415], [-84.09718, 40.12271], [-84.13132, 40.10581], [-84.15389, 40.09437], [-84.16518, 40.08865], [-84.1879, 40.07734], [-84.22191, 40.06031], [-84.24448, 40.04886], [-84.26733, 40.03769], [-84.28992, 40.02625], [-84.30121, 40.02052], [-84.33534, 40.00363], [-84.35792, 39.99218], [-84.38023, 39.98046], [-84.39138, 39.97461], [-84.4243, 39.95649], [-84.44551, 39.94368], [-84.46646, 39.9306], [-84.4874, 39.91752], [-84.50835, 39.90444], [-84.52957, 39.89163], [-84.54045, 39.8855], [-84.57364, 39.86765], [-84.58479, 39.86179], [-84.61825, 39.84422], [-84.6294, 39.83836], [-84.66232, 39.82024], [-84.68353, 39.80743], [-84.70448, 39.79435], [-84.72543, 39.78127], [-84.74638, 39.76819], [-84.76759, 39.75538], [-84.78935, 39.74312], [-84.81166, 39.73141], [-84.82281, 39.72555], [-84.85628, 39.70797], [-84.86743, 39.70211], [-84.90034, 39.68399], [-84.93204, 39.66464], [-84.9425, 39.6581], [-84.96346, 39.64503], [-84.98441, 39.63194], [-84.99501, 39.62554], [-85.02739, 39.60687], [-85.03854, 39.60101], [-85.07199, 39.58344], [-85.09457, 39.572], [-85.106, 39.56641], [-85.12871, 39.5551], [-85.16231, 39.53766], [-85.17346, 39.53181], [-85.20638, 39.51368], [-85.217, 39.50728], [-85.23807, 39.49434], [-85.26949, 39.47472], [-85.27995, 39.46818], [-85.31165, 39.44883], [-85.32254, 39.4427], [-85.35572, 39.42485], [-85.36687, 39.41899], [-85.4006, 39.40169], [-85.42345, 39.39051], [-85.43475, 39.38479], [-85.45732, 39.37334], [-85.48004, 39.36204], [-85.50276, 39.35073], [-85.52521, 39.33915], [-85.55865, 39.32157], [-85.56953, 39.31544], [-85.59103, 39.3029], [-85.62257, 39.28342], [-85.64353, 39.27035], [-85.66447, 39.25727], [-85.68569, 39.24446], [-85.70746, 39.2322], [-85.71861, 39.22634], [-85.75207, 39.20876], [-85.76335, 39.20304], [-85.78607, 39.19173], [-85.80879, 39.18042], [-85.83138, 39.16898], [-85.86551, 39.15208], [-85.88808, 39.14064], [-85.91066, 39.12919], [-85.92209, 39.1236], [-85.95609, 39.10658], [-85.96724, 39.10072], [-86.0007, 39.08314], [-86.01158, 39.077], [-86.03308, 39.06447], [-86.06464, 39.04499], [-86.08559, 39.03191], [-86.10652, 39.01883], [-86.11713, 39.01243], [-86.14951, 38.99376], [-86.16065, 38.98791], [-86.19411, 38.97033], [-86.20541, 38.96461], [-86.22812, 38.95329], [-86.26212, 38.93626], [-86.2847, 38.92482], [-86.29613, 38.91924], [-86.31885, 38.90792], [-86.34129, 38.89634], [-86.37474, 38.87877], [-86.38563, 38.87264], [-86.41772, 38.8537], [-86.4282, 38.84716], [-86.45961, 38.82754], [-86.48057, 38.81446], [-86.50179, 38.80165], [-86.51266, 38.79552], [-86.54585, 38.77767], [-86.557, 38.77181], [-86.59073, 38.75451], [-86.60216, 38.74892], [-86.63616, 38.7319], [-86.65874, 38.72045], [-86.67017, 38.71486], [-86.69289, 38.70355], [-86.72649, 38.68612], [-86.74879, 38.6744], [-86.75967, 38.66827], [-86.79176, 38.64933], [-86.81271, 38.63625], [-86.83366, 38.62317], [-86.8546, 38.61009], [-86.8652, 38.60368], [-86.8867, 38.59115], [-86.90874, 38.57916], [-86.93105, 38.56744], [-86.96478, 38.55014], [-86.97621, 38.54456], [-87.01021, 38.52752], [-87.0215, 38.5218], [-87.0442, 38.51049], [-87.06693, 38.49918], [-87.08937, 38.4876], [-87.11167, 38.47588], [-87.14459, 38.45776], [-87.1658, 38.44495], [-87.18675, 38.43188], [-87.19722, 38.42534], [-87.22865, 38.40572], [-87.24986, 38.39291], [-87.26074, 38.38678], [-87.29393, 38.36893], [-87.31624, 38.35722], [-87.33882, 38.34577], [-87.35024, 38.34018], [-87.38425, 38.32315], [-87.3954, 38.3173], [-87.41771, 38.30558], [-87.45062, 38.28746], [-87.47184, 38.27465], [-87.49278, 38.26157], [-87.50326, 38.25503], [-87.53468, 38.23541], [-87.55589, 38.2226], [-87.56677, 38.21647], [-87.58881, 38.20448], [-87.62227, 38.1869], [-87.63342, 38.18105], [-87.66689, 38.16347], [-87.67776, 38.15734], [-87.70987, 38.1384], [-87.73082, 38.12532], [-87.74129, 38.11878], [-87.77271, 38.09916], [-87.78333, 38.09276], [-87.81541, 38.07382], [-87.83718, 38.06156], [-87.85867, 38.04902], [-87.87988, 38.03622], [-87.89036, 38.02967], [-87.9113, 38.01659], [-87.93224, 38.00352], [-87.95334, 37.99057], [-87.97482, 37.97803], [-88.00801, 37.96019], [-88.03032, 37.94847], [-88.04147, 37.94261], [-88.06377, 37.9309], [-88.09669, 37.91277], [-88.11791, 37.89997], [-88.12839, 37.89343], [-88.15981, 37.87381], [-88.17027, 37.86727], [-88.20197, 37.84792], [-88.22346, 37.83539], [-88.23434, 37.82926], [-88.25597, 37.81686], [-88.28792, 37.79778], [-88.30888, 37.7847], [-88.32954, 37.77135], [-88.34995, 37.75772], [-88.37035, 37.7441], [-88.39075, 37.73048], [-88.40096, 37.72366], [-88.42149, 37.71017], [-88.45277, 37.69042], [-88.46339, 37.68401], [-88.49549, 37.66508], [-88.51725, 37.65282], [-88.53874, 37.64028], [-88.55995, 37.62748], [-88.57043, 37.62093], [-88.60158, 37.60104], [-88.62198, 37.58742], [-88.64238, 37.57379], [-88.65259, 37.56698], [-88.67299, 37.55335], [-88.7036, 37.53292], [-88.72398, 37.51929], [-88.73419, 37.51248], [-88.75459, 37.49886], [-88.7852, 37.47842], [-88.79539, 37.4716], [-88.826, 37.45117], [-88.8362, 37.44436], [-88.85661, 37.43073], [-88.88721, 37.41029], [-88.90761, 37.39667], [-88.91781, 37.38986], [-88.94841, 37.36942], [-88.95862, 37.36261], [-88.98922, 37.34217], [-89.00963, 37.32854], [-89.03002, 37.31492], [-89.04022, 37.30811], [-89.06062, 37.29449], [-89.09123, 37.27405], [-89.10143, 37.26724], [-89.14211, 37.23985], [-89.15218, 37.2329], [-89.18182, 37.21151], [-89.1916, 37.20429], [-89.22044, 37.18208], [-89.22997, 37.17459], [-89.24928, 37.15987], [-89.26888, 37.14543], [-89.28846, 37.13099], [-89.30804, 37.11655], [-89.32763, 37.1021], [-89.35647, 37.0799], [-89.36599, 37.0724], [-89.3853, 37.05769], [-89.40488, 37.04325], [-89.42474, 37.02908], [-89.43481, 37.02213], [-89.46527, 37.00155], [-89.48567, 36.98793], [-89.50607, 36.9743], [-89.52647, 36.96068], [-89.54688, 36.94706], [-89.56728, 36.93343], [-89.57748, 36.92662], [-89.60808, 36.90618], [-89.62849, 36.89256], [-89.64889, 36.87893], [-89.6693, 36.8653], [-89.68969, 36.85168], [-89.72017, 36.83111], [-89.73024, 36.82416], [-89.75988, 36.80277], [-89.76967, 36.79555], [-89.79851, 36.77334], [-89.80803, 36.76585], [-89.82735, 36.75113], [-89.85673, 36.72947], [-89.86652, 36.72224], [-89.88611, 36.7078], [-89.90569, 36.69336], [-89.92501, 36.67865], [-89.94405, 36.66366], [-89.96336, 36.64894], [-89.98294, 36.6345], [-90.00253, 36.62006], [-90.02211, 36.60562], [-90.04169, 36.59118], [-90.06102, 36.57646], [-90.08972, 36.55412], [-90.09938, 36.54676], [-90.11896, 36.53232], [-90.13855, 36.51788], [-90.15813, 36.50343], [-90.17744, 36.48872], [-90.19621, 36.47346], [-90.21417, 36.45738], [-90.23186, 36.44103], [-90.24927, 36.42441], [-90.26695, 36.40806], [-90.2849, 36.39198], [-90.30367, 36.37672], [-90.32298, 36.36201], [-90.34258, 36.34756], [-90.36215, 36.33312], [-90.38147, 36.31841], [-90.40024, 36.30315], [-90.4182, 36.28707], [-90.43587, 36.27072], [-90.453, 36.25383], [-90.47015, 36.23693], [-90.48701, 36.21976], [-90.50415, 36.20287], [-90.52101, 36.18571], [-90.53816, 36.16882], [-90.55502, 36.15165], [-90.57216, 36.13475], [-90.58904, 36.11758], [-90.60616, 36.10069], [-90.6316, 36.07507], [-90.64017, 36.06663], [-90.65703, 36.04946], [-90.67417, 36.03256], [-90.69103, 36.0154], [-90.70818, 35.9985], [-90.72504, 35.98133], [-90.74219, 35.96444], [-90.75905, 35.94727], [-90.77592, 35.93011], [-90.79224, 35.9124], [-90.8159, 35.88501], [-90.83086, 35.86593], [-90.84541, 35.84645], [-90.85984, 35.82683], [-90.86704, 35.81702], [-90.88934, 35.78827], [-90.89697, 35.77887], [-90.92062, 35.75149], [-90.92851, 35.74236], [-90.95191, 35.7147], [-90.95953, 35.7053], [-90.98143, 35.67614], [-90.98864, 35.66633], [-91.00305, 35.64671], [-91.02481, 35.61742], [-91.03216, 35.60774], [-91.04712, 35.58867], [-91.06902, 35.55951], [-91.07623, 35.5497], [-91.09038, 35.52981], [-91.10426, 35.50964], [-91.11785, 35.4892], [-91.13145, 35.46877], [-91.15186, 35.43811], [-91.15865, 35.42789], [-91.17226, 35.40746], [-91.19266, 35.3768], [-91.20625, 35.35637], [-91.21306, 35.34615], [-91.23346, 35.31549], [-91.24026, 35.30527], [-91.26067, 35.27462], [-91.27427, 35.25418], [-91.28107, 35.24397], [-91.30147, 35.21331], [-91.30827, 35.20309], [-91.32854, 35.17229], [-91.34174, 35.15145], [-91.35466, 35.13033], [-91.36105, 35.11971], [-91.37968, 35.08728], [-91.3858, 35.07638], [-91.40471, 35.04423], [-91.41763, 35.02311], [-91.42416, 35.01262], [-91.44374, 34.98114], [-91.45667, 34.96003], [-91.46306, 34.9494], [-91.48169, 34.91697], [-91.49406, 34.89531], [-91.50032, 34.88454], [-91.51311, 34.86329], [-91.5327, 34.83182], [-91.53923, 34.82133], [-91.55228, 34.80035], [-91.56507, 34.77909], [-91.58371, 34.74667], [-91.59608, 34.725], [-91.60873, 34.70361], [-91.61512, 34.69298], [-91.63484, 34.66164], [-91.64151, 34.65128], [-91.65511, 34.63085], [-91.67551, 34.60019], [-91.68232, 34.58997], [-91.69592, 34.56954], [-91.70924, 34.54883], [-91.7223, 34.52785], [-91.73508, 34.50659], [-91.75372, 34.47417], [-91.7661, 34.4525], [-91.77235, 34.44174], [-91.79167, 34.41], [-91.79819, 34.39951], [-91.81778, 34.36803], [-91.8307, 34.34691], [-91.84322, 34.32539], [-91.85519, 34.30331], [-91.86103, 34.29214], [-91.87845, 34.25849], [-91.88416, 34.24718], [-91.90102, 34.21298], [-91.91245, 34.19036], [-91.92374, 34.16761], [-91.93503, 34.14486], [-91.94644, 34.12224], [-91.95775, 34.09949], [-91.96332, 34.08804], [-91.98045, 34.05412], [-91.99174, 34.03136], [-92.00304, 34.00861], [-92.00875, 33.99731], [-92.02575, 33.96324], [-92.03703, 33.94049], [-92.04847, 33.91787], [-92.05975, 33.89512], [-92.06532, 33.88367], [-92.07675, 33.86105], [-92.09377, 33.82699], [-92.10505, 33.80424], [-92.11647, 33.78162], [-92.12762, 33.75874], [-92.13851, 33.73557], [-92.14925, 33.71227], [-92.15945, 33.68843], [-92.16435, 33.6763], [-92.17877, 33.63965], [-92.18843, 33.61526], [-92.19794, 33.59074], [-92.20774, 33.56648], [-92.2178, 33.54251], [-92.2276, 33.51826], [-92.23712, 33.49373], [-92.24678, 33.46935], [-92.25643, 33.44495], [-92.26595, 33.42043], [-92.27575, 33.39618], [-92.28581, 33.3722], [-92.29561, 33.34795], [-92.30499, 33.32329], [-92.31423, 33.29849], [-92.32321, 33.27342], [-92.33179, 33.24794], [-92.34023, 33.22233], [-92.34865, 33.19671], [-92.35286, 33.18391], [-92.36456, 33.14453], [-92.37204, 33.11796], [-92.37925, 33.09112], [-92.38632, 33.06414], [-92.39354, 33.0373], [-92.40102, 33.01073], [-92.40877, 32.98444], [-92.41679, 32.95842], [-92.42482, 32.9324], [-92.43257, 32.9061], [-92.44005, 32.87952], [-92.44726, 32.85268], [-92.45419, 32.82557], [-92.46086, 32.79819], [-92.46725, 32.77053], [-92.47337, 32.7426], [-92.47923, 32.7144], [-92.4848, 32.68592], [-92.49037, 32.65745], [-92.49609, 32.6291], [-92.50179, 32.60077], [-92.50751, 32.57243], [-92.51322, 32.54409], [-92.5188, 32.51561], [-92.52438, 32.48714], [-92.53009, 32.4588], [-92.53568, 32.43032], [-92.54084, 32.40144], [-92.54546, 32.37201], [-92.54941, 32.3419], [-92.55281, 32.31124], [-92.55621, 32.28059], [-92.56015, 32.25047], [-92.56478, 32.22104], [-92.56981, 32.19202], [-92.57484, 32.16301], [-92.57933, 32.13344], [-92.58273, 32.10278], [-92.58492, 32.0709], [-92.58614, 32.03806], [-92.58668, 32.00455], [-92.58681, 31.97062], [-92.58681, 31.93656], [-92.58681, 31.9025], [-92.58681, 31.86844], [-92.58681, 31.83438], [-92.58681, 31.80031], [-92.58681, 31.76625], [-92.58681, 31.73219], [-92.58681, 31.69813], [-92.58681, 31.66407], [-92.58681, 31.63], [-92.58681, 31.59594], [-92.58681, 31.56188], [-92.58681, 31.52782], [-92.58681, 31.49376], [-92.58681, 31.4597], [-92.58681, 31.42563], [-92.58681, 31.39157], [-92.58667, 31.35765], [-92.58612, 31.32413], [-92.58491, 31.29129], [-92.58273, 31.25941], [-92.57933, 31.22876], [-92.57484, 31.19919], [-92.56981, 31.17017], [-92.56464, 31.14128], [-92.5596, 31.11227], [-92.55499, 31.08284], [-92.55063, 31.05313], [-92.54601, 31.0237], [-92.54097, 30.99468], [-92.53568, 30.96594], [-92.53009, 30.93746], [-92.52438, 30.90912], [-92.5188, 30.88065], [-92.51595, 30.86648], [-92.50739, 30.82397], [-92.50127, 30.79604], [-92.49487, 30.76838], [-92.4882, 30.74099], [-92.48126, 30.71388], [-92.47406, 30.68704], [-92.46657, 30.66047], [-92.45882, 30.63417], [-92.45461, 30.62136], [-92.44223, 30.58267], [-92.43379, 30.55706], [-92.42536, 30.53144], [-92.41244, 30.49329], [-92.40822, 30.48048], [-92.39978, 30.45487], [-92.39122, 30.42939], [-92.38225, 30.40432], [-92.37299, 30.37953], [-92.36362, 30.35487], [-92.35382, 30.33061], [-92.34376, 30.30663], [-92.339, 30.29437], [-92.32445, 30.25786], [-92.31479, 30.23347], [-92.30513, 30.20908], [-92.29547, 30.18469], [-92.28527, 30.16085], [-92.27452, 30.13755], [-92.26364, 30.11439], [-92.25249, 30.0915], [-92.24663, 30.08033], [-92.22922, 30.04667], [-92.21725, 30.0246], [-92.20474, 30.00308], [-92.1853, 29.97147], [-92.17876, 29.96098], [-92.15918, 29.9295], [-92.14639, 29.90825], [-92.13388, 29.88672], [-92.12776, 29.87582], [-92.10912, 29.8434], [-92.09634, 29.82214], [-92.08329, 29.80116], [-92.07663, 29.7908], [-92.05635, 29.76001], [-92.04941, 29.74993], [-92.02833, 29.71995], [-92.02112, 29.71014], [-91.99922, 29.68099], [-91.98427, 29.66191], [-91.97692, 29.65224], [-91.95515, 29.62294], [-91.94073, 29.60333], [-91.92632, 29.58371], [-91.91164, 29.56436], [-91.90401, 29.55496], [-91.88036, 29.52757], [-91.87219, 29.51871], [-91.85573, 29.50114], [-91.8311, 29.47471], [-91.81506, 29.45672], [-91.80744, 29.44732], [-91.79248, 29.42825], [-91.77072, 29.39896], [-91.7563, 29.37934], [-91.74896, 29.36966], [-91.72638, 29.34119], [-91.71033, 29.3232], [-91.69402, 29.30549], [-91.67715, 29.28832], [-91.66872, 29.27974], [-91.64314, 29.25426], [-91.62628, 29.23709], [-91.60913, 29.2202], [-91.59227, 29.20303], [-91.57513, 29.18614], [-91.5667, 29.17756], [-91.54112, 29.15208], [-91.52399, 29.13518], [-91.5063, 29.11883], [-91.48836, 29.10275], [-91.46959, 29.0875], [-91.45993, 29.08014], [-91.44048, 29.06556], [-91.4111, 29.0439], [-91.39178, 29.02918], [-91.3824, 29.02155], [-91.35506, 28.99784], [-91.33738, 28.98149], [-91.32024, 28.9646], [-91.3031, 28.9477], [-91.28624, 28.93054], [-91.27766, 28.92209], [-91.25195, 28.89675], [-91.23427, 28.8804], [-91.2253, 28.87236], [-91.19756, 28.84906], [-91.17825, 28.83435], [-91.16845, 28.82713], [-91.13907, 28.80546], [-91.11976, 28.79075], [-91.10098, 28.77549], [-91.09201, 28.76745], [-91.06535, 28.74306], [-91.05678, 28.73462], [-91.03107, 28.70927], [-91.01393, 28.69238], [-90.99625, 28.67603], [-90.9783, 28.65995], [-90.95953, 28.64469], [-90.94022, 28.62998], [-90.92063, 28.61553], [-90.90105, 28.60109], [-90.88173, 28.58638], [-90.87234, 28.57875], [-90.85399, 28.56308], [-90.82733, 28.53869], [-90.80992, 28.52207], [-90.79224, 28.50572], [-90.77428, 28.48964], [-90.76489, 28.48201], [-90.74585, 28.46702], [-90.7166, 28.44522], [-90.70681, 28.438], [-90.6777, 28.41607], [-90.65894, 28.40081], [-90.64071, 28.385], [-90.62248, 28.3692], [-90.61337, 28.36129], [-90.58549, 28.33813], [-90.56618, 28.32342], [-90.54659, 28.30898], [-90.527, 28.29454], [-90.50742, 28.28009], [-90.4881, 28.26538], [-90.46906, 28.25039], [-90.44975, 28.23568], [-90.43016, 28.22123], [-90.42036, 28.21401], [-90.39098, 28.19235], [-90.3812, 28.18513], [-90.35208, 28.16319], [-90.33304, 28.1482], [-90.31374, 28.13349], [-90.29415, 28.11905], [-90.28436, 28.11183], [-90.26476, 28.09739], [-90.23539, 28.07572], [-90.21608, 28.06101], [-90.19704, 28.04602], [-90.18738, 28.03866], [-90.15813, 28.01686], [-90.13854, 28.00242], [-90.11896, 27.98798], [-90.09937, 27.97354], [-90.08006, 27.95882], [-90.06101, 27.94383], [-90.05136, 27.93648], [-90.03191, 27.9219], [-90.00226, 27.90051], [-89.98213, 27.88661], [-89.96173, 27.87299], [-89.94133, 27.85936], [-89.92092, 27.84574], [-89.90053, 27.83211], [-89.88012, 27.81849], [-89.85972, 27.80486], [-89.83931, 27.79124], [-89.81891, 27.77761], [-89.79878, 27.76371], [-89.78885, 27.75663], [-89.75934, 27.7351], [-89.74968, 27.72775], [-89.72098, 27.7054], [-89.71132, 27.69804], [-89.68208, 27.67624], [-89.66222, 27.66208], [-89.6319, 27.64137], [-89.62169, 27.63455], [-89.60129, 27.62093], [-89.58089, 27.6073], [-89.56049, 27.59368], [-89.54008, 27.58006], [-89.51968, 27.56643], [-89.49928, 27.55281], [-89.47887, 27.53918], [-89.45847, 27.52556], [-89.43806, 27.51193], [-89.41767, 27.49831], [-89.39727, 27.48468], [-89.37687, 27.47106], [-89.35674, 27.45716], [-89.33687, 27.44299], [-89.31729, 27.42855], [-89.29797, 27.41383], [-89.27893, 27.39885], [-89.25963, 27.38413], [-89.24004, 27.36969], [-89.2301, 27.3626], [-89.20005, 27.34162], [-89.17964, 27.328], [-89.15925, 27.31437], [-89.13884, 27.30075], [-89.11842, 27.28712], [-89.09804, 27.2735], [-89.07764, 27.25987], [-89.05723, 27.24625], [-89.03682, 27.23262], [-89.01643, 27.219], [-88.99603, 27.20538], [-88.97562, 27.19175], [-88.95522, 27.17812], [-88.93481, 27.1645], [-88.91469, 27.1506], [-88.89482, 27.13644], [-88.87524, 27.12199], [-88.85593, 27.10728], [-88.83688, 27.09229], [-88.81757, 27.07757], [-88.79799, 27.06313], [-88.77812, 27.04896], [-88.758, 27.03506], [-88.73759, 27.02144], [-88.71719, 27.00782], [-88.69679, 26.99419], [-88.67639, 26.98057], [-88.65599, 26.96694], [-88.63559, 26.95332], [-88.61519, 26.93969], [-88.59477, 26.92607], [-88.57437, 26.91244], [-88.55397, 26.89882], [-88.53358, 26.88519], [-88.51317, 26.87157], [-88.49277, 26.85794], [-88.47237, 26.84432], [-88.45197, 26.8307], [-88.43156, 26.81707], [-88.41116, 26.80344], [-88.39076, 26.78982], [-88.37035, 26.7762], [-88.34995, 26.76257], [-88.32954, 26.74895], [-88.30915, 26.73532], [-88.28874, 26.7217], [-88.26834, 26.70807], [-88.24794, 26.69445], [-88.22754, 26.68082], [-88.20714, 26.6672], [-88.17653, 26.64676], [-88.16634, 26.63995], [-88.14594, 26.62632], [-88.12553, 26.6127], [-88.10512, 26.59907], [-88.08473, 26.58545], [-88.06432, 26.57183], [-88.04392, 26.5582], [-88.02351, 26.54457], [-88.00312, 26.53095], [-87.98271, 26.51733], [-87.96231, 26.5037], [-87.94191, 26.49008], [-87.92151, 26.47645], [-87.90111, 26.46283], [-87.88071, 26.4492], [-87.86031, 26.43558], [-87.8399, 26.42195], [-87.8195, 26.40833], [-87.79909, 26.3947], [-87.77869, 26.38108], [-87.75829, 26.36745], [-87.73789, 26.35383], [-87.71748, 26.3402], [-87.69709, 26.32658], [-87.67668, 26.31296], [-87.65627, 26.29933], [-87.63588, 26.2857], [-87.61548, 26.27208], [-87.5948, 26.25873], [-87.57385, 26.24565], [-87.55263, 26.23284], [-87.53114, 26.2203], [-87.50938, 26.20804], [-87.48788, 26.19551], [-87.46667, 26.1827], [-87.44572, 26.16962], [-87.42506, 26.15627], [-87.40465, 26.14265], [-87.38425, 26.12902], [-87.36385, 26.11539], [-87.34344, 26.10177], [-87.32304, 26.08815], [-87.30264, 26.07452], [-87.28224, 26.0609], [-87.26183, 26.04727], [-87.24144, 26.03365], [-87.22075, 26.02029], [-87.19981, 26.00721], [-87.17873, 25.99441], [-87.15752, 25.98214], [-87.13615, 25.9707], [-87.1152, 25.9598], [-87.09453, 25.95013], [-87.07359, 25.94236], [-87.04053, 25.93473]]]}}]}