{"type": "FeatureCollection", "features": [{"type": "Feature", "geometry": {"type": "LineString", "coordinates": [[-85.7, 24.6], [-86.8, 25.6], [-87.7, 26.5], [-88.9, 27.7], [-90.0, 28.6], [-90.6, 29.4], [-91.0, 30.2], [-91.4, 31.2], [-91.5, 32.2], [-91.2, 32.9], [-90.4, 33.9], [-89.9, 34.7], [-88.7, 35.6], [-87.2, 36.6], [-85.8, 36.7], [-83.6, 37.2], [-80.5, 38.2], [-78.6, 38.4], [-76.5, 38.5], [-74.0, 38.5], [-71.8, 39.0], [-67.7, 40.3], [-63.7, 42.9], [-62.1, 44.1], [-60.5, 45.0], [-58.4, 46.2], [-56.8, 46.7], [-54.5, 47.8], [-52.2, 49.6], [-50.6, 50.9], [-48.9, 51.7], [-46.7, 52.8], [-44.5, 54.1], [-42.5, 55.0], [-40.5, 57.5], [-39.4, 60.0], [-39.2, 60.7], [-37.2, 61.4], [-33.8, 62.9], [-31.6, 64.5], [-28.2, 65.9]]}, "properties": {"model": "CMC", "label": "CMC", "kind": "physics", "group": "deterministic", "cycle": "2021082812"}}, {"type": "Feature", "geometry": {"type": "LineString", "coordinates": [[-86.5, 25.3], [-87.4, 26.5], [-88.5, 27.5], [-89.3, 28.5], [-89.9, 29.5], [-90.4, 30.5], [-90.6, 31.3], [-90.4, 32.2], [-89.9, 33.1], [-89.2, 33.9], [-88.8, 34.7], [-87.9, 35.5], [-87.2, 35.5], [-85.6, 35.0], [-84.7, 34.8], [-83.4, 35.0], [-81.5, 35.5], [-79.9, 35.7], [-78.3, 35.8]]}, "properties": {"model": "AP01", "label": "GEFS 01", "kind": "ensemble", "group": "ensemble", "cycle": "2021082818"}}, {"type": "Feature", "geometry": {"type": "LineString", "coordinates": [[-86.7, 25.6], [-87.7, 26.6], [-89.0, 27.4], [-89.9, 28.1], [-90.6, 28.8], [-91.2, 29.4], [-91.5, 30.0], [-91.6, 30.9], [-91.6, 31.8], [-91.0, 32.6], [-90.6, 33.5], [-90.0, 34.5], [-89.2, 35.4], [-88.0, 36.1], [-86.9, 36.7], [-85.6, 37.5], [-83.3, 38.4], [-81.4, 39.4], [-80.9, 39.2], [-80.7, 38.5], [-80.8, 37.1], [-81.7, 35.8]]}, "properties": {"model": "AP03", "label": "GEFS 03", "kind": "ensemble", "group": "ensemble", "cycle": "2021082818"}}, {"type": "Feature", "geometry": {"type": "LineString", "coordinates": [[-86.6, 25.5], [-87.5, 26.7], [-88.7, 27.6], [-89.5, 28.5], [-90.1, 29.3], [-90.6, 30.1], [-91.1, 30.8], [-90.9, 31.4], [-90.5, 32.0], [-89.9, 32.5], [-89.4, 33.0], [-88.2, 33.7], [-87.0, 34.3], [-85.7, 34.8], [-83.7, 36.3], [-82.0, 37.5], [-80.5, 38.3], [-78.1, 38.7], [-75.9, 39.5], [-75.2, 39.2], [-74.6, 39.3], [-73.0, 39.9], [-73.7, 38.9], [-73.9, 38.3], [-75.7, 36.9], [-76.9, 36.3]]}, "properties": {"model": "AP04", "label": "GEFS 04", "kind": "ensemble", "group": "ensemble", "cycle": "2021082818"}}, {"type": "Feature", "geometry": {"type": "LineString", "coordinates": [[-86.7, 25.6], [-87.9, 26.6], [-89.1, 27.4], [-90.0, 28.1], [-90.8, 28.8], [-91.5, 29.5], [-91.8, 30.1], [-91.9, 30.9], [-91.9, 31.8], [-91.6, 32.7], [-91.3, 33.2], [-90.4, 33.9], [-89.5, 34.6], [-88.3, 35.4], [-87.1, 36.1], [-85.6, 37.1], [-83.8, 37.8], [-81.7, 38.8], [-80.2, 39.7], [-78.7, 39.8], [-77.0, 39.9], [-75.8, 40.0], [-74.5, 40.3], [-73.3, 40.5], [-72.1, 40.5], [-70.9, 40.8], [-70.0, 41.0], [-69.1, 41.2], [-68.3, 41.0], [-67.1, 41.1], [-65.2, 41.4], [-63.1, 41.9], [-60.3, 42.2]]}, "properties": {"model": "AP06", "label": "GEFS 06", "kind": "ensemble", "group": "ensemble", "cycle": "2021082818"}}, {"type": "Feature", "geometry": {"type": "LineString", "coordinates": [[-86.6, 25.4], [-87.6, 26.4], [-88.8, 27.1], [-89.5, 27.9], [-90.3, 28.7], [-90.8, 29.3], [-91.3, 29.9], [-91.3, 30.6], [-91.1, 31.4], [-90.9, 32.3], [-90.9, 33.1], [-90.8, 33.6], [-90.2, 34.1], [-89.3, 34.8], [-89.0, 35.4], [-88.7, 35.3], [-88.1, 35.1], [-87.4, 34.9], [-87.4, 34.7], [-87.1, 34.7], [-86.7, 34.7], [-87.1, 34.5], [-87.9, 34.1], [-89.0, 34.1], [-89.9, 34.3], [-90.8, 34.6], [-91.3, 35.0], [-91.5, 35.7], [-90.8, 36.8], [-89.6, 37.8]]}, "properties": {"model": "AP07", "label": "GEFS 07", "kind": "ensemble", "group": "ensemble", "cycle": "2021082818"}}, {"type": "Feature", "geometry": {"type": "LineString", "coordinates": [[-86.7, 25.3], [-87.8, 26.3], [-89.0, 27.3], [-89.8, 28.2], [-90.5, 28.9], [-91.1, 29.7], [-91.6, 30.4], [-92.1, 31.2], [-92.1, 31.9], [-92.0, 32.6], [-91.7, 33.2], [-91.2, 33.7], [-90.5, 34.2], [-89.4, 34.7], [-88.8, 35.3], [-87.9, 35.7], [-87.2, 35.5], [-86.4, 35.3], [-85.7, 35.6], [-85.7, 35.5], [-85.8, 34.6], [-85.4, 34.0], [-85.7, 33.6], [-85.6, 33.7], [-85.8, 34.0], [-86.3, 34.1], [-87.3, 34.6], [-88.2, 35.3], [-88.6, 36.1], [-88.8, 36.5], [-89.1, 36.7], [-88.8, 36.9], [-88.9, 36.5]]}, "properties": {"model": "AP08", "label": "GEFS 08", "kind": "ensemble", "group": "ensemble", "cycle": "2021082818"}}, {"type": "Feature", "geometry": {"type": "LineString", "coordinates": [[-86.5, 25.4], [-87.2, 26.5], [-88.2, 27.4], [-88.7, 28.2], [-89.0, 28.9], [-89.1, 29.4], [-89.2, 29.7], [-89.1, 30.2], [-89.0, 30.7], [-88.6, 31.2], [-88.3, 31.7], [-87.7, 32.5], [-87.2, 33.4], [-86.2, 34.1], [-85.2, 34.8], [-83.7, 35.8], [-81.8, 37.0], [-79.4, 37.1], [-76.4, 38.4], [-72.1, 40.1], [-68.9, 41.6], [-65.5, 44.2], [-63.6, 46.5], [-63.8, 47.2], [-63.3, 47.4], [-62.4, 48.2], [-62.5, 48.8], [-62.9, 48.8], [-63.0, 48.6], [-61.7, 48.3], [-59.4, 48.2], [-56.5, 49.4], [-56.7, 52.8]]}, "properties": {"model": "AP13", "label": "GEFS 13", "kind": "ensemble", "group": "ensemble", "cycle": "2021082818"}}, {"type": "Feature", "geometry": {"type": "LineString", "coordinates": [[-86.6, 25.4], [-87.5, 26.6], [-88.7, 27.4], [-89.7, 28.2], [-90.5, 29.1], [-91.1, 29.9], [-91.5, 30.8], [-91.7, 31.7], [-91.3, 32.5], [-90.7, 33.4], [-90.2, 34.1], [-89.0, 35.5], [-87.7, 36.5], [-86.2, 37.0], [-84.4, 38.1], [-82.7, 39.0], [-81.3, 39.4], [-79.4, 39.6], [-77.7, 38.7], [-76.1, 38.8], [-73.4, 39.0], [-71.0, 40.1]]}, "properties": {"model": "AP14", "label": "GEFS 14", "kind": "ensemble", "group": "ensemble", "cycle": "2021082818"}}, {"type": "Feature", "geometry": {"type": "LineString", "coordinates": [[-86.7, 25.5], [-87.9, 26.6], [-89.1, 27.6], [-89.9, 28.4], [-90.6, 29.4], [-91.0, 30.3], [-91.3, 31.1], [-91.2, 32.1], [-91.0, 33.0], [-90.7, 33.9], [-90.4, 34.5], [-89.5, 35.2], [-88.5, 35.7], [-86.9, 36.6], [-85.2, 37.2], [-82.2, 38.5], [-79.4, 40.0], [-76.9, 40.7], [-74.3, 41.2], [-70.0, 42.6], [-66.6, 44.3], [-64.2, 45.1], [-59.5, 47.3], [-57.1, 48.3], [-54.4, 49.2], [-51.5, 50.2], [-49.7, 50.6], [-47.0, 51.0], [-43.1, 52.0], [-38.3, 52.5], [-33.2, 53.0], [-26.9, 54.3], [-20.5, 56.2]]}, "properties": {"model": "AP15", "label": "GEFS 15", "kind": "ensemble", "group": "ensemble", "cycle": "2021082818"}}, {"type": "Feature", "geometry": {"type": "LineString", "coordinates": [[-86.5, 25.5], [-87.6, 26.7], [-89.1, 27.6], [-90.0, 28.3], [-90.9, 29.1], [-91.4, 30.0], [-91.7, 30.9], [-91.6, 31.9], [-91.4, 32.9], [-91.1, 33.9], [-90.8, 34.3], [-89.7, 35.0], [-88.3, 35.9], [-86.8, 36.6], [-85.7, 37.0], [-84.6, 37.0], [-81.9, 37.9], [-79.8, 38.5], [-77.2, 38.5]]}, "properties": {"model": "AP18", "label": "GEFS 18", "kind": "ensemble", "group": "ensemble", "cycle": "2021082818"}}, {"type": "Feature", "geometry": {"type": "LineString", "coordinates": [[-86.8, 25.2], [-88.0, 26.1], [-89.4, 26.9], [-90.5, 27.7], [-91.5, 28.4], [-92.2, 29.1], [-92.9, 29.9], [-93.1, 30.7], [-93.2, 31.6], [-93.0, 32.4], [-92.5, 33.1], [-91.5, 33.8], [-90.3, 34.7], [-88.9, 35.4], [-87.5, 35.8], [-85.7, 36.2], [-83.6, 36.8], [-80.5, 38.2], [-77.2, 39.3], [-73.8, 40.5], [-69.4, 42.1], [-65.7, 43.5], [-63.0, 44.6], [-60.0, 45.2], [-56.4, 45.8], [-52.8, 46.8], [-50.0, 47.7], [-46.9, 48.2], [-43.4, 49.4], [-40.3, 50.4], [-37.0, 51.1], [-33.2, 52.2], [-30.0, 53.7]]}, "properties": {"model": "AP21", "label": "GEFS 21", "kind": "ensemble", "group": "ensemble", "cycle": "2021082818"}}, {"type": "Feature", "geometry": {"type": "LineString", "coordinates": [[-86.7, 25.4], [-87.6, 26.5], [-88.8, 27.5], [-89.7, 28.4], [-90.5, 29.2], [-91.0, 30.0], [-91.6, 30.6], [-91.6, 31.2], [-91.5, 31.6], [-91.1, 32.1], [-90.6, 32.5], [-89.5, 33.1], [-88.3, 33.7], [-87.3, 34.1], [-85.8, 34.8], [-84.5, 34.4], [-82.9, 34.9], [-81.3, 36.5], [-81.1, 36.6], [-81.5, 35.6]]}, "properties": {"model": "AP22", "label": "GEFS 22", "kind": "ensemble", "group": "ensemble", "cycle": "2021082818"}}, {"type": "Feature", "geometry": {"type": "LineString", "coordinates": [[-86.6, 25.6], [-87.6, 26.8], [-88.6, 27.5], [-89.4, 28.3], [-89.9, 28.9], [-90.4, 29.4], [-90.9, 29.9], [-91.1, 30.5], [-91.3, 31.0], [-91.0, 31.6], [-90.7, 32.5], [-90.2, 33.5], [-89.5, 34.3], [-88.6, 34.7], [-87.5, 35.4], [-85.5, 36.2], [-83.4, 36.6], [-81.0, 36.3], [-79.3, 37.2]]}, "properties": {"model": "AP23", "label": "GEFS 23", "kind": "ensemble", "group": "ensemble", "cycle": "2021082818"}}, {"type": "Feature", "geometry": {"type": "LineString", "coordinates": [[-86.7, 25.5], [-87.7, 26.6], [-88.9, 27.5], [-89.8, 28.5], [-90.6, 29.4], [-91.2, 30.1], [-91.7, 30.8], [-91.6, 31.6], [-91.4, 32.3], [-90.7, 32.9], [-90.3, 33.8], [-89.7, 34.5], [-89.0, 34.9], [-87.9, 35.2], [-86.4, 35.8], [-85.2, 35.8], [-84.5, 34.7], [-83.8, 34.2], [-83.0, 34.0], [-82.7, 33.7], [-83.3, 32.4], [-83.2, 31.6], [-83.3, 31.4], [-82.8, 31.5], [-82.7, 31.7], [-82.4, 31.9], [-83.0, 32.3], [-83.1, 32.5], [-83.8, 32.6]]}, "properties": {"model": "AP25", "label": "GEFS 25", "kind": "ensemble", "group": "ensemble", "cycle": "2021082818"}}, {"type": "Feature", "geometry": {"type": "LineString", "coordinates": [[-86.8, 25.6], [-87.8, 26.7], [-89.1, 27.6], [-90.0, 28.6], [-90.8, 29.7], [-91.3, 30.5], [-91.6, 31.3], [-91.6, 32.1], [-91.0, 33.0], [-90.4, 33.7], [-90.2, 34.4], [-89.3, 34.8], [-88.1, 35.2], [-86.2, 36.1], [-84.4, 37.1], [-81.0, 38.5], [-77.4, 39.5], [-74.2, 40.7], [-72.1, 41.6], [-69.6, 43.1], [-68.9, 43.7], [-68.7, 44.0], [-67.1, 45.1], [-66.4, 46.1], [-65.4, 47.4], [-65.0, 47.6], [-64.9, 47.9], [-64.7, 48.7], [-63.9, 49.7], [-62.4, 50.4], [-62.4, 52.8], [-58.8, 54.1], [-55.5, 55.8]]}, "properties": {"model": "AP27", "label": "GEFS 27", "kind": "ensemble", "group": "ensemble", "cycle": "2021082818"}}, {"type": "Feature", "geometry": {"type": "LineString", "coordinates": [[-86.8, 25.3], [-87.8, 26.3], [-89.1, 27.1], [-90.0, 28.0], [-90.6, 28.8], [-91.0, 29.5], [-91.2, 30.2], [-91.4, 31.2], [-91.6, 31.9], [-91.0, 32.6], [-90.6, 33.6], [-89.9, 34.7], [-89.3, 35.6], [-88.5, 36.0], [-87.9, 36.2], [-87.3, 36.2], [-86.6, 36.0], [-85.9, 35.5], [-85.3, 35.2], [-84.5, 35.5], [-83.0, 35.3], [-82.6, 35.1], [-84.2, 34.2], [-85.7, 34.0], [-86.6, 33.4], [-87.7, 33.7], [-87.6, 34.0]]}, "properties": {"model": "AP28", "label": "GEFS 28", "kind": "ensemble", "group": "ensemble", "cycle": "2021082818"}}, {"type": "Feature", "geometry": {"type": "LineString", "coordinates": [[-86.7, 25.1], [-87.7, 26.2], [-89.1, 27.0], [-89.9, 27.8], [-90.6, 28.5], [-91.1, 29.1], [-91.7, 29.8], [-91.9, 30.4], [-91.8, 31.0], [-91.4, 31.8], [-91.1, 32.4], [-90.4, 33.2], [-89.8, 34.0], [-89.0, 34.6], [-88.8, 34.7], [-88.7, 34.6], [-88.7, 33.9], [-88.5, 33.3], [-89.0, 32.8], [-89.4, 32.8], [-90.3, 33.0], [-90.6, 33.4], [-91.3, 34.0], [-91.8, 34.8], [-91.3, 35.7], [-90.5, 36.6]]}, "properties": {"model": "AP29", "label": "GEFS 29", "kind": "ensemble", "group": "ensemble", "cycle": "2021082818"}}, {"type": "Feature", "geometry": {"type": "LineString", "coordinates": [[-86.7, 25.4], [-87.7, 26.5], [-88.9, 27.4], [-89.8, 28.2], [-90.5, 29.1], [-91.1, 29.9], [-91.5, 30.5], [-91.3, 31.5], [-91.0, 32.4], [-90.5, 33.2], [-89.8, 33.8], [-88.6, 34.6], [-87.3, 35.3], [-85.7, 36.1], [-83.9, 37.0], [-81.2, 38.6], [-78.0, 39.9], [-75.8, 40.6], [-73.1, 41.7], [-69.6, 43.5], [-67.3, 45.3], [-66.1, 46.1], [-64.9, 47.1], [-63.7, 47.7], [-62.6, 48.9], [-61.4, 49.4], [-60.4, 49.9], [-59.5, 49.8], [-57.8, 49.2], [-55.1, 47.8], [-52.2, 46.9], [-48.1, 48.7]]}, "properties": {"model": "AVNO", "label": "GFS", "kind": "physics", "group": "deterministic", "cycle": "2021082818"}}, {"type": "Feature", "geometry": {"type": "LineString", "coordinates": [[-86.6, 25.6], [-87.9, 26.5], [-88.9, 27.5], [-89.7, 28.2], [-90.5, 29.1], [-91.0, 29.8], [-91.3, 30.5], [-91.2, 31.5], [-91.1, 32.1], [-90.9, 33.0], [-90.4, 33.8], [-89.6, 34.7], [-88.0, 35.5], [-87.1, 36.1], [-85.6, 36.7], [-83.4, 37.6], [-80.0, 39.1], [-77.1, 40.1]]}, "properties": {"model": "CTCX", "label": "COAMPS-TC", "kind": "physics", "group": "deterministic", "cycle": "2021082818"}}, {"type": "Feature", "geometry": {"type": "LineString", "coordinates": [[-85.6, 24.7], [-87.5, 26.7], [-89.7, 28.6], [-91.2, 29.7], [-91.8, 31.2], [-91.6, 32.5], [-90.0, 34.2], [-88.4, 36.0], [-86.8, 37.0], [-84.9, 37.0], [-83.6, 37.2]]}, "properties": {"model": "EGRR", "label": "UKMET", "kind": "physics", "group": "deterministic", "cycle": "2021082812"}}, {"type": "Feature", "geometry": {"type": "LineString", "coordinates": [[-86.6, 25.6], [-88.7, 27.5], [-90.4, 29.1], [-91.3, 30.5], [-91.2, 32.2], [-90.2, 34.0], [-88.4, 35.8], [-85.6, 37.3], [-82.3, 38.3], [-79.4, 38.9], [-76.8, 38.9], [-73.9, 38.8], [-70.8, 38.9], [-68.8, 39.1], [-66.7, 39.8]]}, "properties": {"model": "HCCA", "label": "HFIP Corrected Consensus", "kind": "consensus", "group": "consensus", "cycle": "2021082818"}}, {"type": "Feature", "geometry": {"type": "LineString", "coordinates": [[-86.6, 25.6], [-87.3, 26.1], [-88.0, 26.6], [-88.7, 26.9], [-89.2, 27.2], [-89.6, 27.6], [-89.9, 28.1], [-90.3, 28.5], [-90.6, 28.9], [-90.9, 29.4], [-91.2, 29.7], [-91.4, 30.1], [-91.6, 30.6], [-91.8, 31.0], [-91.9, 31.5], [-91.9, 31.8], [-91.9, 32.2], [-91.6, 32.7], [-91.4, 33.2], [-91.4, 33.5], [-91.3, 33.6], [-90.8, 33.8], [-90.3, 34.2], [-89.7, 34.6], [-89.1, 35.0], [-88.5, 35.3], [-87.8, 35.6], [-87.1, 36.1], [-86.3, 36.4], [-85.7, 36.7], [-85.3, 36.6], [-84.7, 36.6], [-83.6, 36.3], [-82.7, 36.3], [-81.8, 36.2], [-81.5, 35.8], [-81.2, 35.3], [-81.1, 35.1], [-80.5, 35.1], [-80.1, 35.0], [-79.9, 35.1], [-80.3, 35.0], [-81.3, 34.4]]}, "properties": {"model": "HMON", "label": "HMON", "kind": "physics", "group": "deterministic", "cycle": "2021082818"}}, {"type": "Feature", "geometry": {"type": "LineString", "coordinates": [[-86.6, 25.6], [-87.9, 26.7], [-89.1, 27.5], [-90.0, 28.3], [-90.8, 29.1], [-91.4, 29.9], [-92.0, 30.5], [-92.0, 31.2], [-92.0, 32.0], [-91.7, 32.7], [-91.2, 33.4], [-90.2, 34.2], [-89.3, 34.9], [-88.3, 35.7], [-87.5, 36.1], [-86.3, 36.4], [-85.2, 36.8], [-84.3, 36.9], [-84.0, 36.6], [-84.1, 35.7], [-84.1, 34.8], [-83.8, 34.1]]}, "properties": {"model": "HWRF", "label": "HWRF", "kind": "physics", "group": "deterministic", "cycle": "2021082818"}}, {"type": "Feature", "geometry": {"type": "LineString", "coordinates": [[-86.6, 25.5], [-87.7, 26.5], [-88.8, 27.5], [-89.9, 28.5], [-90.8, 29.0], [-91.3, 29.6], [-91.9, 30.2], [-92.2, 30.8], [-92.3, 31.4], [-91.9, 32.0], [-91.4, 32.6], [-90.4, 33.4], [-89.7, 34.1], [-88.9, 34.9], [-88.0, 35.3], [-86.9, 35.8], [-86.2, 36.0], [-85.3, 36.0], [-84.3, 36.1], [-83.3, 36.4]]}, "properties": {"model": "UE00", "label": "ECMWF Ens 00", "kind": "ensemble", "group": "ensemble", "cycle": "2021082818"}}, {"type": "Feature", "geometry": {"type": "LineString", "coordinates": [[-86.6, 25.2], [-87.8, 26.1], [-88.9, 27.0], [-89.9, 27.9], [-91.1, 28.5], [-91.8, 29.2], [-92.5, 29.8], [-92.9, 30.2], [-93.1, 30.9], [-93.0, 31.6], [-93.1, 32.2], [-92.8, 32.4], [-92.0, 32.6], [-90.8, 33.6], [-90.9, 33.2], [-90.5, 33.4], [-90.1, 33.0], [-89.9, 33.1], [-89.8, 33.0], [-89.1, 33.2], [-88.9, 33.6], [-89.5, 33.9], [-90.0, 33.8], [-90.5, 34.5]]}, "properties": {"model": "UE01", "label": "ECMWF Ens 01", "kind": "ensemble", "group": "ensemble", "cycle": "2021082818"}}, {"type": "Feature", "geometry": {"type": "LineString", "coordinates": [[-86.8, 25.7], [-87.8, 26.8], [-89.1, 27.9], [-90.3, 29.0], [-91.2, 29.6], [-91.7, 30.1], [-92.0, 30.8], [-92.2, 31.5], [-92.0, 31.8], [-91.4, 32.4], [-90.8, 33.2], [-89.8, 34.1], [-89.2, 34.9], [-88.0, 35.6], [-86.7, 36.4], [-85.5, 36.8], [-84.1, 37.5], [-83.0, 37.6]]}, "properties": {"model": "UE02", "label": "ECMWF Ens 02", "kind": "ensemble", "group": "ensemble", "cycle": "2021082818"}}, {"type": "Feature", "geometry": {"type": "LineString", "coordinates": [[-86.4, 25.7], [-87.4, 26.8], [-88.6, 27.8], [-89.7, 28.7], [-90.4, 29.3], [-91.1, 29.8], [-91.5, 30.4], [-91.7, 31.0], [-91.5, 31.3], [-90.3, 32.2], [-90.3, 33.8], [-89.7, 34.5], [-88.6, 35.3], [-87.4, 35.9], [-86.3, 36.8], [-85.0, 37.5], [-84.1, 37.7], [-83.3, 37.7], [-83.0, 37.6], [-82.4, 37.4]]}, "properties": {"model": "UE03", "label": "ECMWF Ens 03", "kind": "ensemble", "group": "ensemble", "cycle": "2021082818"}}, {"type": "Feature", "geometry": {"type": "LineString", "coordinates": [[-86.0, 25.3], [-87.2, 26.5], [-88.6, 27.4], [-89.5, 28.2], [-90.3, 28.9], [-90.8, 29.6], [-91.4, 30.2], [-91.6, 31.0], [-91.8, 31.8], [-91.7, 32.4], [-91.6, 33.1], [-91.1, 33.3], [-90.4, 33.5], [-88.9, 34.7], [-88.5, 34.7], [-87.8, 35.0], [-87.5, 34.9], [-86.9, 34.7], [-87.1, 34.8], [-87.2, 34.7], [-87.8, 34.5], [-88.6, 34.0], [-89.7, 33.5], [-89.8, 33.2], [-90.1, 33.4]]}, "properties": {"model": "UE04", "label": "ECMWF Ens 04", "kind": "ensemble", "group": "ensemble", "cycle": "2021082818"}}, {"type": "Feature", "geometry": {"type": "LineString", "coordinates": [[-86.4, 25.5], [-87.5, 26.7], [-88.8, 27.7], [-89.7, 28.4], [-90.5, 29.1], [-90.9, 30.0], [-91.2, 30.7], [-91.4, 31.6], [-91.2, 32.3], [-90.6, 33.3], [-89.8, 34.0], [-88.6, 34.9], [-87.4, 35.8], [-85.8, 36.2], [-84.1, 37.1], [-81.2, 38.2], [-79.1, 38.4], [-75.4, 39.8], [-73.2, 40.0], [-71.1, 39.9], [-64.9, 42.7], [-61.4, 44.3], [-58.8, 45.1], [-55.7, 46.1], [-52.4, 46.9], [-50.0, 47.4], [-47.8, 48.0], [-45.9, 49.0], [-43.5, 50.7], [-38.3, 50.5], [-36.9, 53.0], [-36.6, 54.2]]}, "properties": {"model": "UE05", "label": "ECMWF Ens 05", "kind": "ensemble", "group": "ensemble", "cycle": "2021082818"}}, {"type": "Feature", "geometry": {"type": "LineString", "coordinates": [[-86.5, 25.7], [-87.6, 26.8], [-88.9, 27.9], [-90.0, 28.8], [-90.6, 29.4], [-91.1, 30.1], [-91.6, 30.8], [-91.9, 31.4], [-91.9, 32.1], [-91.4, 32.8], [-90.8, 33.2], [-89.5, 33.7], [-88.0, 34.5], [-86.6, 35.4], [-85.2, 36.3], [-83.6, 36.9], [-81.8, 37.6], [-79.6, 37.7], [-77.0, 39.0]]}, "properties": {"model": "UE06", "label": "ECMWF Ens 06", "kind": "ensemble", "group": "ensemble", "cycle": "2021082818"}}, {"type": "Feature", "geometry": {"type": "LineString", "coordinates": [[-86.7, 25.7], [-88.0, 26.6], [-89.1, 27.6], [-90.3, 28.6], [-91.2, 29.4], [-91.9, 30.0], [-92.6, 30.6], [-93.0, 31.2], [-93.1, 31.7], [-93.0, 32.6], [-92.8, 32.8], [-92.0, 33.2], [-91.4, 33.6], [-90.6, 33.9], [-89.8, 34.3], [-89.1, 35.0], [-88.7, 34.9], [-88.3, 34.7], [-88.0, 34.7], [-87.3, 34.5], [-86.7, 34.6], [-86.6, 34.1], [-86.6, 33.9], [-86.7, 33.8], [-87.4, 33.8]]}, "properties": {"model": "UE07", "label": "ECMWF Ens 07", "kind": "ensemble", "group": "ensemble", "cycle": "2021082818"}}, {"type": "Feature", "geometry": {"type": "LineString", "coordinates": [[-86.7, 25.6], [-88.0, 26.4], [-89.1, 27.2], [-90.2, 28.1], [-91.4, 28.7], [-92.0, 28.9], [-92.8, 29.3], [-93.1, 29.8], [-93.6, 30.0], [-93.7, 30.3], [-93.4, 30.6], [-92.8, 31.0], [-92.0, 31.5], [-91.1, 32.3], [-90.6, 33.0], [-90.0, 33.6], [-89.6, 33.9], [-89.2, 34.1], [-88.9, 34.3], [-88.3, 34.6], [-88.6, 34.7], [-89.1, 34.3], [-89.9, 34.3], [-90.6, 34.1]]}, "properties": {"model": "UE08", "label": "ECMWF Ens 08", "kind": "ensemble", "group": "ensemble", "cycle": "2021082818"}}, {"type": "Feature", "geometry": {"type": "LineString", "coordinates": [[-86.5, 25.6], [-87.7, 26.4], [-88.8, 27.3], [-89.7, 28.4], [-91.1, 29.1], [-92.0, 29.4], [-92.5, 29.6], [-92.5, 30.1], [-92.6, 30.8], [-92.8, 31.3], [-92.4, 31.5], [-91.9, 32.1], [-91.4, 32.3], [-90.3, 33.0], [-90.0, 33.6], [-89.5, 33.6], [-88.9, 34.0], [-88.8, 34.3], [-89.2, 34.4], [-88.9, 34.4], [-88.8, 34.5]]}, "properties": {"model": "UE09", "label": "ECMWF Ens 09", "kind": "ensemble", "group": "ensemble", "cycle": "2021082818"}}, {"type": "Feature", "geometry": {"type": "LineString", "coordinates": [[-86.6, 25.8], [-87.8, 26.9], [-88.9, 27.8], [-90.0, 28.7], [-90.6, 29.1], [-91.1, 29.8], [-91.7, 30.2], [-91.6, 30.8], [-91.4, 31.4], [-90.9, 31.9], [-90.3, 32.6], [-89.5, 33.2], [-88.8, 33.8], [-88.2, 34.5], [-88.0, 34.5], [-87.6, 34.5], [-87.4, 34.1], [-87.2, 33.4], [-86.9, 32.9], [-86.5, 32.8]]}, "properties": {"model": "UE10", "label": "ECMWF Ens 10", "kind": "ensemble", "group": "ensemble", "cycle": "2021082818"}}, {"type": "Feature", "geometry": {"type": "LineString", "coordinates": [[-86.3, 25.5], [-87.5, 26.6], [-88.6, 27.5], [-89.9, 28.4], [-91.1, 29.0], [-91.7, 29.4], [-92.1, 30.0], [-92.5, 30.9], [-92.5, 31.5], [-92.5, 31.9], [-92.0, 32.2], [-91.5, 32.5], [-90.9, 33.0], [-90.2, 33.2], [-89.9, 33.4], [-88.9, 33.4], [-88.5, 33.4], [-88.0, 33.2], [-87.4, 33.2], [-86.3, 33.6], [-85.5, 34.1], [-86.1, 33.4], [-86.9, 32.9]]}, "properties": {"model": "UE11", "label": "ECMWF Ens 11", "kind": "ensemble", "group": "ensemble", "cycle": "2021082818"}}, {"type": "Feature", "geometry": {"type": "LineString", "coordinates": [[-86.3, 25.5], [-87.4, 26.6], [-88.6, 27.7], [-89.7, 28.8], [-90.9, 29.4], [-91.7, 29.8], [-92.5, 30.1], [-92.8, 30.6], [-93.1, 31.1], [-93.5, 31.3], [-93.3, 31.5], [-92.5, 31.9], [-92.1, 32.0], [-91.4, 31.8], [-90.1, 32.8], [-88.9, 33.5], [-88.3, 33.7], [-88.0, 33.8], [-88.0, 33.7], [-87.8, 33.6]]}, "properties": {"model": "UE12", "label": "ECMWF Ens 12", "kind": "ensemble", "group": "ensemble", "cycle": "2021082818"}}, {"type": "Feature", "geometry": {"type": "LineString", "coordinates": [[-86.6, 25.5], [-87.8, 26.5], [-89.1, 27.4], [-90.3, 28.1], [-91.4, 28.5], [-91.9, 28.9], [-92.3, 29.5], [-92.5, 30.2], [-92.8, 30.8], [-92.9, 31.6], [-92.8, 32.1], [-92.5, 32.8], [-92.2, 33.2], [-91.9, 33.7], [-91.7, 33.6], [-91.2, 33.7], [-91.2, 33.8], [-91.2, 33.9], [-91.6, 33.8], [-91.9, 33.9], [-92.1, 33.8]]}, "properties": {"model": "UE13", "label": "ECMWF Ens 13", "kind": "ensemble", "group": "ensemble", "cycle": "2021082818"}}, {"type": "Feature", "geometry": {"type": "LineString", "coordinates": [[-86.4, 25.5], [-87.5, 26.5], [-88.6, 27.4], [-89.7, 28.3], [-90.6, 29.0], [-91.4, 29.6], [-92.2, 30.2], [-92.2, 30.9], [-92.2, 31.5], [-91.7, 32.3], [-91.3, 33.0], [-90.3, 34.0], [-89.4, 34.9], [-88.0, 36.0], [-86.6, 37.1], [-84.6, 38.2], [-83.2, 39.1], [-81.4, 39.8], [-77.7, 41.0], [-76.5, 41.3], [-74.1, 41.3], [-72.8, 41.7], [-70.4, 42.9], [-69.6, 44.6], [-70.0, 46.2], [-70.2, 46.9], [-70.1, 47.1], [-69.6, 47.6], [-69.9, 47.5], [-70.3, 47.4]]}, "properties": {"model": "UE14", "label": "ECMWF Ens 14", "kind": "ensemble", "group": "ensemble", "cycle": "2021082818"}}, {"type": "Feature", "geometry": {"type": "LineString", "coordinates": [[-86.5, 25.5], [-87.5, 26.7], [-88.7, 27.8], [-89.7, 28.8], [-90.6, 29.5], [-90.8, 30.1], [-91.2, 30.8], [-91.4, 31.6], [-91.6, 32.3], [-91.1, 32.8], [-90.5, 33.4], [-89.7, 34.6], [-89.2, 35.2], [-88.5, 35.5], [-88.0, 35.4], [-86.8, 36.2], [-86.5, 35.8], [-86.6, 35.1]]}, "properties": {"model": "UE15", "label": "ECMWF Ens 15", "kind": "ensemble", "group": "ensemble", "cycle": "2021082818"}}, {"type": "Feature", "geometry": {"type": "LineString", "coordinates": [[-86.4, 25.7], [-87.5, 26.6], [-88.6, 27.7], [-89.9, 28.5], [-90.8, 29.1], [-91.2, 29.5], [-91.6, 30.1], [-91.9, 30.7], [-92.0, 31.2], [-91.7, 31.5], [-91.2, 31.9], [-90.5, 32.4], [-89.7, 32.8], [-88.9, 33.4], [-87.8, 34.1], [-87.4, 34.3], [-86.5, 34.6], [-85.5, 35.5], [-84.9, 36.3], [-84.9, 35.8], [-83.0, 36.1]]}, "properties": {"model": "UE16", "label": "ECMWF Ens 16", "kind": "ensemble", "group": "ensemble", "cycle": "2021082818"}}, {"type": "Feature", "geometry": {"type": "LineString", "coordinates": [[-86.7, 25.9], [-87.9, 27.0], [-88.9, 27.9], [-90.0, 28.9], [-90.9, 29.7], [-91.4, 30.3], [-91.9, 31.1], [-92.2, 31.9], [-91.9, 32.8], [-91.5, 33.9], [-91.1, 34.7], [-90.0, 35.4], [-89.1, 36.0], [-88.0, 36.9], [-86.9, 36.8], [-85.0, 37.4], [-84.0, 37.4]]}, "properties": {"model": "UE17", "label": "ECMWF Ens 17", "kind": "ensemble", "group": "ensemble", "cycle": "2021082818"}}, {"type": "Feature", "geometry": {"type": "LineString", "coordinates": [[-86.4, 25.6], [-87.6, 26.6], [-89.1, 27.6], [-90.0, 28.5], [-91.0, 29.1], [-91.6, 29.6], [-92.0, 30.1], [-92.0, 30.9], [-92.0, 31.6], [-91.6, 32.2], [-91.1, 32.9], [-90.3, 33.8], [-89.5, 34.5], [-88.8, 35.3], [-87.8, 35.7], [-86.6, 36.5], [-85.5, 36.9], [-84.5, 37.3], [-84.1, 37.3], [-84.0, 37.1]]}, "properties": {"model": "UE18", "label": "ECMWF Ens 18", "kind": "ensemble", "group": "ensemble", "cycle": "2021082818"}}, {"type": "Feature", "geometry": {"type": "LineString", "coordinates": [[-86.8, 25.5], [-87.7, 26.3], [-88.8, 27.5], [-89.9, 28.7], [-90.9, 29.3], [-91.6, 29.7], [-92.3, 30.5], [-92.8, 31.1], [-92.8, 31.3], [-92.2, 31.7], [-91.6, 32.6], [-90.8, 33.6], [-89.6, 34.4], [-88.3, 35.2], [-87.1, 36.0], [-85.8, 36.7], [-84.3, 37.5], [-82.5, 38.2], [-82.6, 38.3]]}, "properties": {"model": "UE19", "label": "ECMWF Ens 19", "kind": "ensemble", "group": "ensemble", "cycle": "2021082818"}}, {"type": "Feature", "geometry": {"type": "LineString", "coordinates": [[-86.3, 25.8], [-87.4, 26.8], [-88.3, 27.6], [-89.4, 28.5], [-90.0, 28.9], [-90.6, 29.4], [-91.0, 29.9], [-91.0, 30.4], [-90.6, 31.1], [-90.3, 32.0], [-89.9, 32.7], [-88.9, 33.6], [-88.0, 34.5], [-87.1, 35.2], [-86.3, 35.8], [-85.0, 36.3], [-84.1, 36.4], [-82.8, 36.3], [-81.8, 35.6]]}, "properties": {"model": "UE20", "label": "ECMWF Ens 20", "kind": "ensemble", "group": "ensemble", "cycle": "2021082818"}}, {"type": "Feature", "geometry": {"type": "LineString", "coordinates": [[-86.4, 25.5], [-87.8, 26.6], [-88.8, 27.6], [-89.9, 28.3], [-90.6, 28.8], [-90.9, 29.4], [-91.5, 30.3], [-91.9, 31.1], [-92.0, 31.6], [-91.7, 32.5], [-91.4, 33.2], [-90.8, 33.9], [-89.9, 34.5], [-88.5, 35.2], [-87.2, 36.0], [-86.1, 36.9], [-85.2, 37.3], [-84.1, 37.3], [-83.2, 37.4], [-82.7, 37.4]]}, "properties": {"model": "UE21", "label": "ECMWF Ens 21", "kind": "ensemble", "group": "ensemble", "cycle": "2021082818"}}, {"type": "Feature", "geometry": {"type": "LineString", "coordinates": [[-86.4, 25.9], [-87.5, 26.9], [-88.6, 27.9], [-89.8, 28.7], [-90.6, 29.1], [-91.0, 29.6], [-91.5, 30.4], [-91.7, 31.1], [-91.9, 31.7], [-91.4, 32.0], [-90.9, 32.4], [-89.9, 33.0], [-88.9, 33.7], [-88.0, 34.7], [-87.4, 35.2], [-86.3, 36.0], [-85.4, 36.3], [-84.1, 36.4], [-83.2, 37.1], [-82.5, 37.4]]}, "properties": {"model": "UE22", "label": "ECMWF Ens 22", "kind": "ensemble", "group": "ensemble", "cycle": "2021082818"}}, {"type": "Feature", "geometry": {"type": "LineString", "coordinates": [[-86.4, 25.5], [-87.5, 26.6], [-88.6, 27.5], [-89.7, 28.5], [-90.6, 29.4], [-91.4, 30.1], [-91.9, 30.6], [-92.0, 31.6], [-92.0, 32.3], [-91.7, 33.0], [-91.1, 33.7], [-89.9, 34.7], [-88.9, 35.6], [-86.9, 36.8], [-85.8, 37.5], [-83.9, 38.1], [-82.7, 38.6], [-81.3, 38.6], [-78.6, 39.8], [-77.7, 39.4], [-75.3, 40.1], [-73.4, 40.4]]}, "properties": {"model": "UE23", "label": "ECMWF Ens 23", "kind": "ensemble", "group": "ensemble", "cycle": "2021082818"}}, {"type": "Feature", "geometry": {"type": "LineString", "coordinates": [[-86.7, 25.5], [-87.8, 26.7], [-89.1, 27.7], [-90.2, 28.5], [-91.3, 29.1], [-92.0, 29.5], [-92.6, 29.8], [-92.4, 30.3], [-92.3, 30.8], [-91.8, 31.5], [-91.1, 32.4], [-90.0, 33.3], [-88.9, 34.0], [-87.2, 35.0], [-86.3, 35.8], [-85.5, 36.5], [-85.1, 36.5], [-84.7, 36.0]]}, "properties": {"model": "UE24", "label": "ECMWF Ens 24", "kind": "ensemble", "group": "ensemble", "cycle": "2021082818"}}, {"type": "Feature", "geometry": {"type": "LineString", "coordinates": [[-86.6, 25.5], [-87.5, 26.6], [-88.6, 27.7], [-89.7, 28.6], [-90.8, 29.2], [-91.6, 29.8], [-92.3, 30.3], [-92.7, 30.9], [-92.8, 31.3], [-92.2, 31.9], [-91.7, 32.6], [-91.1, 33.3], [-90.3, 33.7], [-89.4, 34.3], [-88.6, 34.8], [-87.2, 35.4], [-86.2, 35.1], [-84.7, 35.8], [-82.7, 36.4], [-83.2, 34.7]]}, "properties": {"model": "UE25", "label": "ECMWF Ens 25", "kind": "ensemble", "group": "ensemble", "cycle": "2021082818"}}, {"type": "Feature", "geometry": {"type": "LineString", "coordinates": [[-86.8, 25.6], [-87.8, 26.6], [-88.9, 27.6], [-90.0, 28.7], [-90.9, 29.5], [-91.4, 30.0], [-91.7, 30.6], [-91.9, 31.5], [-92.3, 32.0], [-91.9, 32.3], [-91.4, 32.8], [-90.6, 33.4], [-89.6, 33.7], [-88.5, 34.4], [-87.1, 35.1], [-86.0, 36.0], [-84.9, 36.4], [-82.4, 36.5], [-81.1, 38.2], [-79.7, 37.6]]}, "properties": {"model": "UE26", "label": "ECMWF Ens 26", "kind": "ensemble", "group": "ensemble", "cycle": "2021082818"}}, {"type": "Feature", "geometry": {"type": "LineString", "coordinates": [[-86.8, 25.7], [-87.8, 26.9], [-89.2, 27.9], [-90.3, 28.7], [-91.4, 29.3], [-91.7, 29.8], [-92.0, 30.5], [-92.2, 31.4], [-92.3, 32.2], [-92.2, 32.8], [-91.4, 33.2], [-90.5, 34.1], [-89.7, 34.7], [-88.5, 35.5], [-87.7, 36.0], [-86.9, 36.0]]}, "properties": {"model": "UE27", "label": "ECMWF Ens 27", "kind": "ensemble", "group": "ensemble", "cycle": "2021082818"}}, {"type": "Feature", "geometry": {"type": "LineString", "coordinates": [[-86.9, 25.5], [-87.7, 26.6], [-88.8, 27.7], [-90.0, 28.6], [-90.9, 29.2], [-91.5, 29.8], [-92.0, 30.5], [-92.2, 31.3], [-92.3, 32.1], [-92.0, 32.5], [-91.4, 33.1], [-90.6, 33.9], [-89.5, 34.6], [-88.6, 35.4], [-87.5, 36.0], [-86.6, 36.6], [-85.3, 37.0], [-84.3, 37.5], [-83.3, 37.7], [-82.8, 37.5]]}, "properties": {"model": "UE28", "label": "ECMWF Ens 28", "kind": "ensemble", "group": "ensemble", "cycle": "2021082818"}}, {"type": "Feature", "geometry": {"type": "LineString", "coordinates": [[-86.4, 25.5], [-87.5, 26.6], [-88.8, 27.6], [-89.8, 28.5], [-90.8, 29.2], [-91.5, 29.8], [-92.1, 30.4], [-92.2, 31.3], [-92.3, 31.9], [-91.9, 32.5], [-91.5, 33.3], [-90.6, 34.1], [-89.9, 34.5], [-88.6, 35.3], [-87.8, 36.0], [-87.0, 36.4], [-86.1, 36.4], [-85.0, 36.7], [-84.7, 36.4], [-84.1, 36.6], [-84.6, 36.5], [-85.1, 36.6], [-86.3, 36.6]]}, "properties": {"model": "UE29", "label": "ECMWF Ens 29", "kind": "ensemble", "group": "ensemble", "cycle": "2021082818"}}, {"type": "Feature", "geometry": {"type": "LineString", "coordinates": [[-86.9, 25.6], [-88.0, 26.8], [-89.4, 27.6], [-90.5, 28.3], [-91.4, 28.9], [-92.0, 29.4], [-92.5, 30.0], [-92.8, 30.8], [-92.8, 31.5], [-92.8, 32.2], [-92.3, 32.8], [-91.6, 33.4], [-90.6, 34.1], [-89.4, 34.7], [-88.6, 35.3], [-87.2, 35.8], [-86.4, 36.0], [-85.4, 36.4], [-84.7, 36.2], [-83.3, 35.9]]}, "properties": {"model": "UE30", "label": "ECMWF Ens 30", "kind": "ensemble", "group": "ensemble", "cycle": "2021082818"}}, {"type": "Feature", "geometry": {"type": "LineString", "coordinates": [[-86.6, 25.4], [-87.7, 26.4], [-88.9, 27.2], [-90.2, 27.9], [-91.2, 28.5], [-91.9, 28.9], [-92.3, 29.5], [-92.6, 30.2], [-92.8, 30.8], [-92.3, 31.6], [-91.9, 32.4], [-91.2, 33.2], [-90.3, 33.9], [-89.2, 34.7], [-88.1, 35.2], [-86.9, 36.0], [-86.2, 36.0], [-84.9, 36.4], [-84.1, 36.8], [-83.6, 37.0]]}, "properties": {"model": "UE31", "label": "ECMWF Ens 31", "kind": "ensemble", "group": "ensemble", "cycle": "2021082818"}}, {"type": "Feature", "geometry": {"type": "LineString", "coordinates": [[-86.4, 25.4], [-87.7, 26.6], [-88.9, 27.4], [-90.1, 28.1], [-91.1, 28.6], [-91.9, 29.1], [-92.5, 29.5], [-92.6, 30.2], [-92.8, 30.8], [-92.7, 31.3], [-92.6, 31.5], [-91.9, 31.9], [-91.1, 32.5], [-90.3, 33.2], [-89.7, 33.8], [-89.0, 33.9], [-88.2, 34.1], [-87.7, 34.4], [-86.9, 34.9], [-86.3, 35.5], [-86.6, 35.4], [-86.1, 35.0], [-85.8, 35.0], [-86.1, 35.2], [-86.9, 34.5], [-87.2, 34.3], [-88.0, 34.2], [-87.8, 33.9]]}, "properties": {"model": "UE32", "label": "ECMWF Ens 32", "kind": "ensemble", "group": "ensemble", "cycle": "2021082818"}}, {"type": "Feature", "geometry": {"type": "LineString", "coordinates": [[-86.4, 25.5], [-87.7, 26.6], [-88.9, 27.7], [-90.0, 28.5], [-90.8, 29.0], [-91.4, 29.7], [-92.1, 30.4], [-92.5, 31.1], [-92.9, 31.6], [-92.8, 32.0], [-92.2, 32.4], [-91.7, 33.0], [-91.1, 32.9], [-90.0, 33.2], [-89.4, 33.5], [-88.8, 33.6], [-88.7, 33.2], [-88.5, 32.8], [-88.3, 32.6], [-87.8, 32.6], [-87.7, 32.9], [-87.5, 32.6], [-88.4, 33.0], [-88.8, 33.0]]}, "properties": {"model": "UE33", "label": "ECMWF Ens 33", "kind": "ensemble", "group": "ensemble", "cycle": "2021082818"}}, {"type": "Feature", "geometry": {"type": "LineString", "coordinates": [[-86.4, 25.5], [-87.5, 26.3], [-88.6, 27.2], [-89.5, 28.1], [-90.3, 28.5], [-90.8, 29.4], [-91.4, 30.1], [-91.6, 30.9], [-91.7, 31.7], [-91.4, 32.5], [-90.8, 33.2], [-89.8, 33.9], [-88.9, 34.8], [-88.0, 35.6], [-86.9, 36.3], [-85.5, 37.1], [-84.0, 37.7], [-83.4, 37.9], [-82.5, 38.1], [-82.1, 38.3]]}, "properties": {"model": "UE34", "label": "ECMWF Ens 34", "kind": "ensemble", "group": "ensemble", "cycle": "2021082818"}}, {"type": "Feature", "geometry": {"type": "LineString", "coordinates": [[-86.3, 25.6], [-87.5, 26.7], [-88.6, 27.7], [-89.7, 28.5], [-90.6, 29.1], [-91.2, 29.8], [-91.7, 30.2], [-91.9, 31.0], [-92.2, 31.5], [-91.7, 32.2], [-91.2, 32.8], [-90.3, 33.6], [-89.6, 34.5], [-88.8, 35.2], [-88.1, 35.6], [-87.3, 36.0], [-86.8, 36.0], [-86.3, 35.7], [-85.6, 35.6], [-85.5, 35.3]]}, "properties": {"model": "UE35", "label": "ECMWF Ens 35", "kind": "ensemble", "group": "ensemble", "cycle": "2021082818"}}, {"type": "Feature", "geometry": {"type": "LineString", "coordinates": [[-87.0, 25.3], [-88.2, 26.0], [-89.3, 26.7], [-90.1, 27.4], [-90.7, 28.2], [-91.2, 28.9], [-91.6, 29.6], [-91.6, 30.6], [-91.8, 31.6], [-91.7, 32.2], [-91.7, 32.6], [-91.1, 33.0], [-90.1, 33.7], [-89.0, 34.6], [-88.2, 35.5], [-87.3, 36.6], [-86.4, 36.9], [-84.9, 37.4], [-84.1, 38.1], [-84.6, 38.2], [-85.6, 37.1], [-86.0, 36.2], [-86.8, 35.5], [-87.6, 34.8], [-88.0, 34.5], [-88.2, 34.2], [-89.0, 34.1], [-90.0, 34.5], [-91.3, 34.5], [-92.3, 34.3], [-94.3, 33.5]]}, "properties": {"model": "AP02", "label": "GEFS 02", "kind": "ensemble", "group": "ensemble", "cycle": "2021082818"}}, {"type": "Feature", "geometry": {"type": "LineString", "coordinates": [[-86.7, 25.3], [-87.6, 26.4], [-89.2, 27.4], [-90.3, 28.3], [-91.1, 29.2], [-91.5, 29.9], [-91.7, 30.7], [-91.6, 31.4], [-91.3, 31.8], [-90.6, 32.2], [-90.1, 32.6], [-89.1, 33.2], [-88.4, 33.9], [-87.3, 34.1], [-86.3, 34.8], [-84.9, 35.4], [-82.8, 36.1]]}, "properties": {"model": "AP05", "label": "GEFS 05", "kind": "ensemble", "group": "ensemble", "cycle": "2021082818"}}, {"type": "Feature", "geometry": {"type": "LineString", "coordinates": [[-86.7, 25.4], [-87.8, 26.4], [-89.3, 27.4], [-90.3, 28.4], [-91.0, 29.3], [-91.6, 30.3], [-91.9, 31.1], [-91.6, 32.0], [-91.2, 33.0], [-90.4, 34.0], [-89.5, 34.9], [-87.9, 36.1], [-86.7, 36.7], [-84.9, 37.3], [-82.5, 38.2], [-79.7, 39.5], [-77.5, 40.2], [-75.6, 40.9], [-74.2, 41.1], [-71.3, 42.1], [-68.2, 43.7], [-65.4, 45.7], [-63.4, 47.3], [-61.6, 48.8], [-60.4, 49.7], [-58.6, 50.2], [-54.3, 52.5], [-50.4, 54.2], [-47.5, 55.9], [-43.8, 56.9], [-40.2, 57.9], [-35.6, 58.7], [-33.0, 59.4]]}, "properties": {"model": "AP09", "label": "GEFS 09", "kind": "ensemble", "group": "ensemble", "cycle": "2021082818"}}, {"type": "Feature", "geometry": {"type": "LineString", "coordinates": [[-86.5, 25.4], [-87.5, 26.6], [-88.7, 27.5], [-89.7, 28.3], [-90.4, 28.9], [-90.9, 29.7], [-91.5, 30.5], [-91.7, 31.4], [-91.9, 32.2], [-91.5, 33.0], [-91.2, 33.8], [-90.4, 34.6], [-89.7, 35.2], [-88.6, 35.7], [-87.6, 36.2], [-86.6, 36.4], [-85.8, 36.2], [-85.2, 35.4], [-84.6, 34.7], [-84.2, 34.7], [-84.4, 34.1], [-85.1, 33.9], [-86.1, 33.9], [-88.1, 34.0]]}, "properties": {"model": "AP10", "label": "GEFS 10", "kind": "ensemble", "group": "ensemble", "cycle": "2021082818"}}, {"type": "Feature", "geometry": {"type": "LineString", "coordinates": [[-86.8, 25.4], [-87.8, 26.5], [-88.9, 27.4], [-90.0, 28.1], [-90.8, 28.6], [-91.3, 29.3], [-91.6, 29.9], [-91.7, 30.8], [-91.5, 31.6], [-91.2, 32.3], [-91.1, 32.8], [-90.6, 33.2], [-89.3, 33.9], [-87.9, 34.9], [-86.7, 35.9], [-84.8, 37.0], [-82.5, 38.1], [-82.3, 38.1], [-82.6, 37.7], [-83.5, 36.9], [-84.7, 35.4], [-85.8, 34.8], [-87.4, 34.6], [-88.6, 34.6], [-89.5, 34.8], [-90.0, 34.6], [-90.6, 35.7]]}, "properties": {"model": "AP11", "label": "GEFS 11", "kind": "ensemble", "group": "ensemble", "cycle": "2021082818"}}, {"type": "Feature", "geometry": {"type": "LineString", "coordinates": [[-86.7, 25.6], [-87.9, 26.6], [-89.0, 27.4], [-89.9, 28.2], [-90.7, 28.8], [-91.1, 29.5], [-91.5, 30.2], [-91.4, 31.0], [-91.1, 31.9], [-90.8, 32.7], [-90.8, 33.4], [-90.1, 34.2], [-89.2, 34.9], [-87.9, 36.2], [-87.1, 37.1], [-85.3, 38.1], [-83.1, 39.8], [-82.9, 39.4], [-83.2, 39.4], [-84.4, 38.9], [-85.3, 38.0], [-85.9, 37.5], [-86.6, 37.3], [-87.3, 37.8], [-87.7, 38.3], [-87.9, 38.6], [-87.3, 39.2]]}, "properties": {"model": "AP12", "label": "GEFS 12", "kind": "ensemble", "group": "ensemble", "cycle": "2021082818"}}, {"type": "Feature", "geometry": {"type": "LineString", "coordinates": [[-87.0, 25.5], [-88.1, 26.5], [-89.3, 27.4], [-90.0, 28.4], [-90.7, 29.2], [-91.1, 30.1], [-91.5, 30.9], [-91.5, 32.1], [-91.4, 33.0], [-91.2, 33.7], [-91.0, 34.3], [-90.0, 35.1], [-88.7, 36.2], [-86.5, 37.6], [-85.1, 38.0], [-82.5, 39.3], [-81.0, 40.0], [-79.9, 40.0], [-78.4, 40.1], [-76.1, 40.8]]}, "properties": {"model": "AP16", "label": "GEFS 16", "kind": "ensemble", "group": "ensemble", "cycle": "2021082818"}}, {"type": "Feature", "geometry": {"type": "LineString", "coordinates": [[-86.9, 25.3], [-88.0, 26.5], [-89.4, 27.5], [-90.4, 28.4], [-91.3, 29.2], [-91.9, 30.1], [-92.4, 30.9], [-92.4, 31.8], [-92.1, 32.8], [-91.6, 33.5], [-91.2, 34.1], [-89.9, 34.8], [-88.3, 35.6], [-86.4, 36.6], [-84.3, 37.5], [-80.8, 38.7], [-77.0, 39.4], [-73.6, 40.4], [-69.5, 41.8], [-64.1, 43.9], [-59.9, 46.0], [-57.2, 46.9], [-54.8, 47.3], [-50.5, 48.0], [-46.6, 48.4], [-43.1, 48.8], [-40.9, 48.8], [-38.1, 49.3], [-34.5, 50.4]]}, "properties": {"model": "AP17", "label": "GEFS 17", "kind": "ensemble", "group": "ensemble", "cycle": "2021082818"}}, {"type": "Feature", "geometry": {"type": "LineString", "coordinates": [[-86.5, 25.1], [-87.2, 26.2], [-88.2, 27.4], [-88.7, 28.3], [-89.2, 29.2], [-89.5, 30.1], [-89.9, 30.8], [-89.7, 31.5], [-89.4, 32.2], [-88.7, 33.2], [-88.4, 34.2], [-87.9, 35.1], [-86.9, 36.0], [-85.3, 37.3], [-83.4, 38.5], [-81.8, 39.6], [-79.7, 40.8], [-78.3, 40.4], [-76.8, 39.4], [-75.2, 39.7], [-73.5, 40.0], [-72.2, 39.8], [-71.9, 39.4], [-71.5, 39.3], [-70.4, 39.7]]}, "properties": {"model": "AP19", "label": "GEFS 19", "kind": "ensemble", "group": "ensemble", "cycle": "2021082818"}}, {"type": "Feature", "geometry": {"type": "LineString", "coordinates": [[-86.7, 25.4], [-87.8, 26.3], [-89.1, 27.5], [-90.1, 28.5], [-90.9, 29.3], [-91.2, 30.1], [-91.5, 30.9], [-91.6, 31.8], [-91.5, 32.5], [-91.0, 33.1], [-90.7, 33.8], [-90.0, 34.8], [-89.5, 35.6], [-88.6, 35.8], [-87.9, 35.8], [-87.2, 36.7], [-86.0, 36.7]]}, "properties": {"model": "AP20", "label": "GEFS 20", "kind": "ensemble", "group": "ensemble", "cycle": "2021082818"}}, {"type": "Feature", "geometry": {"type": "LineString", "coordinates": [[-86.7, 25.6], [-87.7, 26.7], [-88.7, 27.7], [-89.3, 28.6], [-89.9, 29.4], [-90.2, 30.1], [-90.6, 30.9], [-90.7, 31.5], [-90.5, 32.4], [-90.1, 33.4], [-90.2, 34.1], [-89.5, 34.8], [-88.6, 35.6], [-87.2, 36.6], [-86.3, 37.3], [-84.2, 37.9], [-81.7, 39.2], [-80.3, 39.3], [-79.8, 38.4], [-80.0, 37.0], [-79.1, 36.3], [-77.5, 34.6], [-74.9, 34.5], [-73.2, 35.7], [-72.4, 36.2], [-71.3, 36.5], [-69.8, 37.0], [-68.4, 37.4], [-66.9, 37.0], [-64.7, 37.0], [-62.3, 38.0], [-59.7, 38.8], [-57.1, 39.6]]}, "properties": {"model": "AP24", "label": "GEFS 24", "kind": "ensemble", "group": "ensemble", "cycle": "2021082818"}}, {"type": "Feature", "geometry": {"type": "LineString", "coordinates": [[-86.6, 25.4], [-87.6, 26.5], [-88.9, 27.4], [-89.6, 28.2], [-90.2, 29.1], [-90.5, 30.0], [-90.8, 30.8], [-90.6, 31.6], [-90.2, 32.4], [-89.6, 33.3], [-89.3, 33.9], [-88.3, 34.4], [-86.9, 35.3], [-85.2, 36.4], [-83.0, 37.8], [-80.8, 39.0], [-77.9, 40.2], [-75.8, 40.7], [-71.9, 41.9], [-67.3, 44.0], [-63.4, 47.0], [-60.3, 48.6], [-57.5, 50.1], [-54.2, 51.8], [-51.3, 53.3], [-48.1, 55.0], [-45.7, 56.3], [-43.4, 57.1], [-40.0, 58.4], [-37.0, 61.0], [-35.2, 63.3], [-32.4, 65.9], [-29.7, 66.0]]}, "properties": {"model": "AP26", "label": "GEFS 26", "kind": "ensemble", "group": "ensemble", "cycle": "2021082818"}}, {"type": "Feature", "geometry": {"type": "LineString", "coordinates": [[-86.9, 25.4], [-88.3, 26.2], [-89.7, 27.1], [-90.7, 27.9], [-91.6, 28.7], [-92.3, 29.6], [-92.9, 30.4], [-93.3, 31.4], [-93.2, 32.4], [-92.7, 33.3], [-91.9, 33.9], [-90.8, 34.6], [-89.4, 35.4], [-87.7, 36.0], [-86.2, 36.6], [-84.7, 37.3], [-83.4, 37.4], [-82.6, 36.8], [-81.3, 35.5], [-81.0, 35.1], [-80.4, 35.2], [-80.8, 35.3], [-81.6, 34.6], [-83.2, 33.6], [-85.2, 32.0], [-86.3, 31.8], [-87.4, 31.7], [-88.8, 31.2], [-90.0, 31.2], [-91.0, 31.2], [-92.0, 31.7], [-94.0, 31.4]]}, "properties": {"model": "AP30", "label": "GEFS 30", "kind": "ensemble", "group": "ensemble", "cycle": "2021082818"}}, {"type": "Feature", "geometry": {"type": "LineString", "coordinates": [[-86.6, 25.6], [-88.7, 27.6], [-90.3, 29.4], [-91.1, 31.2], [-90.8, 33.0], [-89.4, 34.7], [-87.0, 36.3], [-83.1, 37.4], [-78.4, 38.3], [-73.7, 38.8], [-67.7, 40.8], [-62.2, 43.9], [-58.3, 46.0], [-54.4, 48.1], [-50.5, 50.7]]}, "properties": {"model": "CMCI", "label": "CMC (interpolated)", "kind": "physics", "group": "deterministic", "cycle": "2021082818"}}, {"type": "Feature", "geometry": {"type": "LineString", "coordinates": [[-86.6, 25.6], [-87.8, 26.7], [-89.0, 27.3], [-89.5, 28.3], [-90.2, 29.1], [-90.8, 29.9], [-91.2, 30.7], [-91.3, 31.9], [-91.3, 32.4], [-90.8, 33.3], [-90.4, 34.2], [-89.2, 35.1], [-87.8, 35.4], [-85.9, 35.7], [-83.5, 36.4], [-82.4, 37.1], [-80.4, 37.3], [-77.8, 37.5], [-76.1, 38.2], [-74.8, 38.4], [-74.3, 38.2]]}, "properties": {"model": "COTC", "label": "COAMPS-TC (interpolated)", "kind": "physics", "group": "deterministic", "cycle": "2021082818"}}, {"type": "Feature", "geometry": {"type": "LineString", "coordinates": [[-86.5, 25.5], [-87.7, 26.6], [-88.9, 27.4], [-89.6, 28.2], [-90.5, 29.0], [-91.1, 29.7], [-91.7, 30.2], [-92.0, 30.9], [-91.9, 31.5], [-91.4, 32.3], [-91.0, 33.1], [-89.9, 33.9], [-88.9, 34.6], [-87.7, 35.2], [-86.7, 35.8], [-85.5, 36.3], [-83.9, 36.6], [-82.3, 37.4], [-81.5, 37.8], [-80.9, 37.8], [-81.0, 37.2], [-81.0, 36.4], [-81.5, 35.8], [-82.1, 34.8], [-81.9, 34.4], [-82.6, 34.5], [-83.7, 34.2], [-85.3, 34.7], [-87.7, 35.8], [-88.0, 35.8], [-88.2, 36.4]]}, "properties": {"model": "NVGM", "label": "NAVGEM", "kind": "physics", "group": "deterministic", "cycle": "2021082818"}}, {"type": "Feature", "geometry": {"type": "LineString", "coordinates": [[-86.6, 25.6], [-88.6, 27.5], [-90.3, 29.1], [-91.2, 30.6], [-91.1, 32.2], [-90.2, 33.9], [-88.3, 35.5], [-85.7, 36.9], [-82.6, 37.9], [-79.4, 38.6], [-76.6, 39.0], [-73.1, 39.5], [-61.8, 42.1], [-57.7, 42.7], [-53.2, 44.1]]}, "properties": {"model": "TVCA", "label": "Consensus", "kind": "consensus", "group": "consensus", "cycle": "2021082818"}}, {"type": "Feature", "geometry": {"type": "LineString", "coordinates": [[-86.6, 25.6], [-88.6, 27.5], [-90.3, 29.1], [-91.2, 30.6], [-91.1, 32.2], [-90.2, 33.9], [-88.3, 35.5], [-85.7, 36.9], [-82.6, 37.9], [-79.4, 38.6], [-76.6, 39.0], [-73.1, 39.5], [-61.8, 42.1], [-57.7, 42.7], [-53.2, 44.1]]}, "properties": {"model": "TVCN", "label": "TVCN Consensus", "kind": "consensus", "group": "consensus", "cycle": "2021082818"}}, {"type": "Feature", "geometry": {"type": "LineString", "coordinates": [[-84.7, 23.5], [-86.9, 25.4], [-88.9, 27.0], [-90.6, 28.4], [-91.4, 29.7], [-91.4, 31.4], [-90.7, 33.3], [-89.2, 34.9], [-86.9, 36.2], [-83.6, 37.2], [-80.3, 37.6], [-78.1, 36.6], [-76.6, 35.5], [-75.6, 34.9], [-75.8, 33.5]]}, "properties": {"model": "EMXI", "label": "ECMWF", "kind": "physics", "group": "deterministic", "cycle": "2021082806"}}, {"type": "Feature", "geometry": {"type": "LineString", "coordinates": [[-86.6, 25.6], [-88.6, 27.5], [-90.3, 29.1], [-91.1, 30.6], [-90.9, 32.3], [-89.8, 34.1], [-87.7, 35.8], [-84.6, 37.3], [-80.5, 38.5], [-75.6, 39.5], [-71.3, 40.0], [-67.0, 40.9], [-61.8, 42.1], [-57.7, 42.7], [-53.2, 44.1]]}, "properties": {"model": "GFEX", "label": "GFS Ensemble Mean", "kind": "consensus", "group": "consensus", "cycle": "2021082818"}}, {"type": "Feature", "geometry": {"type": "LineString", "coordinates": [[-86.6, 25.6], [-87.0, 26.2], [-88.6, 27.5], [-90.4, 29.1], [-91.3, 30.5], [-91.2, 32.2], [-90.1, 34.0], [-88.1, 35.7], [-82.5, 38.0]]}, "properties": {"model": "OFCL", "label": "Official", "kind": "official", "group": "official", "cycle": "2021082818"}}, {"type": "Feature", "geometry": {"type": "LineString", "coordinates": [[-86.6, 25.6], [-88.6, 27.5], [-90.4, 29.0], [-91.4, 30.4], [-91.6, 31.8], [-90.8, 33.3], [-89.2, 35.0], [-87.6, 36.3], [-85.9, 36.9], [-84.3, 37.0], [-82.7, 37.2]]}, "properties": {"model": "EGRI", "label": "UKMET (interpolated)", "kind": "physics", "group": "deterministic", "cycle": "2021082818"}}]}