{"type": "FeatureCollection", "features": [{"type": "Feature", "properties": {"shapefile": "al092021-010_5day_lin", "STORMNAME": "Ida", "STORMTYPE": "HU", "ADVDATE": "400 PM CDT Sat Aug 28 2021", "ADVISNUM": "10", "STORMNUM": 9, "FCSTPRD": 120, "BASIN": "AL"}, "geometry": {"type": "LineString", "coordinates": [[-87.0, 26.2], [-88.6, 27.5], [-90.4, 29.1], [-91.3, 30.5], [-91.2, 32.2], [-90.1, 34.0], [-88.1, 35.7], [-82.5, 38.0]]}}, {"type": "Feature", "properties": {"shapefile": "al092021-010_5day_pts", "ADVDATE": "400 PM CDT Sat Aug 28 2021", "ADVISNUM": "10", "BASIN": "AL", "DATELBL": "4:00 PM Sat", "DVLBL": "H", "FCSTPRD": 120, "FLDATELBL": "2021-08-28 1:00 PM Sat CDT", "GUST": 110, "LAT": 26, "LON": -87, "MAXWIND": 90, "MSLP": 976, "SSNUM": 2, "STORMNAME": "Hurricane Ida", "STORMNUM": 9, "STORMSRC": "Tropical Cyclone", "STORMTYPE": "HU", "TCDVLP": "Hurricane", "TAU": 0, "TCDIR": 320, "TCSPD": 14, "TIMEZONE": "CDT", "VALIDTIME": "28/1800"}, "geometry": {"type": "Point", "coordinates": [-87.0, 26.2]}}, {"type": "Feature", "properties": {"shapefile": "al092021-010_5day_pts", "ADVDATE": "400 PM CDT Sat Aug 28 2021", "ADVISNUM": "10", "BASIN": "AL", "DATELBL": "1:00 AM Sun", "DVLBL": "M", "FCSTPRD": 120, "FLDATELBL": "2021-08-29 1:00 AM Sun CDT", "GUST": 135, "LAT": 27, "LON": -88, "MAXWIND": 110, "MSLP": 9999, "SSNUM": 3, "STORMNAME": "Hurricane Ida", "STORMNUM": 9, "STORMSRC": "Tropical Cyclone", "STORMTYPE": "MH", "TCDVLP": "Major Hurricane", "TAU": 12, "TCDIR": 9999, "TCSPD": 9999, "TIMEZONE": "CDT", "VALIDTIME": "29/0600"}, "geometry": {"type": "Point", "coordinates": [-88.6, 27.5]}}, {"type": "Feature", "properties": {"shapefile": "al092021-010_5day_pts", "ADVDATE": "400 PM CDT Sat Aug 28 2021", "ADVISNUM": "10", "BASIN": "AL", "DATELBL": "1:00 PM Sun", "DVLBL": "M", "FCSTPRD": 120, "FLDATELBL": "2021-08-29 1:00 PM Sun CDT", "GUST": 140, "LAT": 29, "LON": -90, "MAXWIND": 115, "MSLP": 9999, "SSNUM": 4, "STORMNAME": "Hurricane Ida", "STORMNUM": 9, "STORMSRC": "Tropical Cyclone", "STORMTYPE": "MH", "TCDVLP": "Major Hurricane", "TAU": 24, "TCDIR": 9999, "TCSPD": 9999, "TIMEZONE": "CDT", "VALIDTIME": "29/1800"}, "geometry": {"type": "Point", "coordinates": [-90.4, 29.1]}}, {"type": "Feature", "properties": {"shapefile": "al092021-010_5day_pts", "ADVDATE": "400 PM CDT Sat Aug 28 2021", "ADVISNUM": "10", "BASIN": "AL", "DATELBL": "1:00 AM Mon", "DVLBL": "H", "FCSTPRD": 120, "FLDATELBL": "2021-08-30 1:00 AM Mon CDT", "GUST": 80, "LAT": 30, "LON": -91, "MAXWIND": 65, "MSLP": 9999, "SSNUM": 1, "STORMNAME": "Hurricane Ida", "STORMNUM": 9, "STORMSRC": "Tropical Cyclone", "STORMTYPE": "HU", "TCDVLP": "Hurricane", "TAU": 36, "TCDIR": 9999, "TCSPD": 9999, "TIMEZONE": "CDT", "VALIDTIME": "30/0600"}, "geometry": {"type": "Point", "coordinates": [-91.3, 30.5]}}, {"type": "Feature", "properties": {"shapefile": "al092021-010_5day_pts", "ADVDATE": "400 PM CDT Sat Aug 28 2021", "ADVISNUM": "10", "BASIN": "AL", "DATELBL": "1:00 PM Mon", "DVLBL": "S", "FCSTPRD": 120, "FLDATELBL": "2021-08-30 1:00 PM Mon CDT", "GUST": 45, "LAT": 32, "LON": -91, "MAXWIND": 35, "MSLP": 9999, "SSNUM": 0, "STORMNAME": "Hurricane Ida", "STORMNUM": 9, "STORMSRC": "Tropical Cyclone", "STORMTYPE": "TS", "TCDVLP": "Tropical Storm", "TAU": 48, "TCDIR": 9999, "TCSPD": 9999, "TIMEZONE": "CDT", "VALIDTIME": "30/1800"}, "geometry": {"type": "Point", "coordinates": [-91.2, 32.2]}}, {"type": "Feature", "properties": {"shapefile": "al092021-010_5day_pts", "ADVDATE": "400 PM CDT Sat Aug 28 2021", "ADVISNUM": "10", "BASIN": "AL", "DATELBL": "1:00 AM Tue", "DVLBL": "D", "FCSTPRD": 120, "FLDATELBL": "2021-08-31 1:00 AM Tue CDT", "GUST": 35, "LAT": 34, "LON": -90, "MAXWIND": 25, "MSLP": 9999, "SSNUM": 0, "STORMNAME": "Hurricane Ida", "STORMNUM": 9, "STORMSRC": "Tropical Cyclone", "STORMTYPE": "TD", "TCDVLP": "Tropical Depression", "TAU": 60, "TCDIR": 9999, "TCSPD": 9999, "TIMEZONE": "CDT", "VALIDTIME": "31/0600"}, "geometry": {"type": "Point", "coordinates": [-90.1, 34.0]}}, {"type": "Feature", "properties": {"shapefile": "al092021-010_5day_pts", "ADVDATE": "400 PM CDT Sat Aug 28 2021", "ADVISNUM": "10", "BASIN": "AL", "DATELBL": "1:00 PM Tue", "DVLBL": "D", "FCSTPRD": 120, "FLDATELBL": "2021-08-31 1:00 PM Tue CDT", "GUST": 30, "LAT": 35, "LON": -88, "MAXWIND": 20, "MSLP": 9999, "SSNUM": 0, "STORMNAME": "Hurricane Ida", "STORMNUM": 9, "STORMSRC": "Tropical Cyclone", "STORMTYPE": "TD", "TCDVLP": "Tropical Depression", "TAU": 72, "TCDIR": 9999, "TCSPD": 9999, "TIMEZONE": "CDT", "VALIDTIME": "31/1800"}, "geometry": {"type": "Point", "coordinates": [-88.1, 35.7]}}, {"type": "Feature", "properties": {"shapefile": "al092021-010_5day_pts", "ADVDATE": "400 PM CDT Sat Aug 28 2021", "ADVISNUM": "10", "BASIN": "AL", "DATELBL": "1:00 PM Wed", "DVLBL": "D", "FCSTPRD": 120, "FLDATELBL": "2021-09-01 1:00 PM Wed CDT", "GUST": 30, "LAT": 38, "LON": -82, "MAXWIND": 20, "MSLP": 9999, "SSNUM": 0, "STORMNAME": "Hurricane Ida", "STORMNUM": 9, "STORMSRC": "Post-Tropical Cyclone", "STORMTYPE": "STD", "TCDVLP": "Subtropical Depression", "TAU": 96, "TCDIR": 9999, "TCSPD": 9999, "TIMEZONE": "CDT", "VALIDTIME": "01/1800"}, "geometry": {"type": "Point", "coordinates": [-82.5, 38.0]}}]}