{"type": "FeatureCollection", "features": [{"type": "Feature", "properties": {"shapefile": "al092021_2021082821_initialradii", "RADII": 34, "STORMID": "al092021", "BASIN": "al", "STORMNUM": 9, "ADVNUM": "10", "VALIDTIME": "2021082821", "SYNOPTIME": "2021082818", "TIMEZONE": "UTC", "TAU": 0, "NE": 110, "SE": 100, "SW": 70, "NW": 100}, "geometry": {"type": "Polygon", "coordinates": [[[-86.9825134, 27.9459324], [-86.9479752, 27.9472351], [-86.9133835, 27.9479942], [-86.8787384, 27.9482117], [-86.8440552, 27.9478836], [-86.8093491, 27.9470081], [-86.7746353, 27.9455853], [-86.7399139, 27.943615], [-86.7052078, 27.9410973], [-86.670517, 27.9380322], [-86.6358719, 27.9344196], [-86.6012573, 27.9302597], [-86.5667038, 27.9255466], [-86.5322113, 27.9202919], [-86.4978027, 27.914484], [-86.4634705, 27.9081345], [-86.429245, 27.9012356], [-86.3951263, 27.8937931], [-86.3611374, 27.8858089], [-86.3272934, 27.8772812], [-86.2935791, 27.8682156], [-86.260025, 27.8586102], [-86.2266388, 27.8484669], [-86.1934128, 27.8377914], [-86.1603928, 27.8265839], [-86.1275711, 27.8148479], [-86.0949554, 27.8025837], [-86.0625763, 27.7897968], [-86.0304108, 27.7764893], [-85.9985046, 27.7626648], [-85.966835, 27.7483234], [-85.9354553, 27.7334747], [-85.904335, 27.7181168], [-85.8735046, 27.7022572], [-85.8429718, 27.6858997], [-85.8127441, 27.6690464], [-85.7828293, 27.6517067], [-85.7532349, 27.6338787], [-85.7239838, 27.6155682], [-85.6950836, 27.5967846], [-85.6665344, 27.577528], [-85.6385193, 27.5576668], [-85.6112366, 27.5370655], [-85.5846786, 27.5157452], [-85.558876, 27.4937248], [-85.5338516, 27.4710121], [-85.5096283, 27.4476318], [-85.4862213, 27.4236012], [-85.4636383, 27.3989353], [-85.4419098, 27.3736572], [-85.4208832, 27.3479271], [-85.4004059, 27.3218937], [-85.3804626, 27.2955742], [-85.3610611, 27.2689705], [-85.3422394, 27.2420959], [-85.3239517, 27.2149544], [-85.3062439, 27.1875591], [-85.2891006, 27.1599159], [-85.2725296, 27.13204], [-85.2565384, 27.1039371], [-85.2411194, 27.0756149], [-85.2262726, 27.0470829], [-85.2120209, 27.0183582], [-85.1983643, 26.989439], [-85.1852875, 26.9603386], [-85.1728134, 26.9310703], [-85.1609192, 26.9016399], [-85.1496277, 26.8720608], [-85.1389389, 26.8423367], [-85.1288528, 26.812479], [-85.1193619, 26.7825012], [-85.1104813, 26.7524109], [-85.1022034, 26.7222118], [-85.0945282, 26.691925], [-85.0874557, 26.6615524], [-85.0810013, 26.6311054], [-85.0751419, 26.6005917], [-85.0698929, 26.5700245], [-85.0652466, 26.5394096], [-85.0612259, 26.5087585], [-85.0577927, 26.4780807], [-85.0549698, 26.4473877], [-85.052742, 26.4166889], [-85.0511169, 26.3859863], [-85.0501022, 26.3553009], [-85.0497055, 26.3246326], [-85.0498886, 26.2939968], [-85.0506744, 26.2633991], [-85.0520401, 26.2328548], [-85.0540161, 26.2023659], [-85.056572, 26.1719418], [-85.0597229, 26.1415958], [-85.0634537, 26.1113377], [-85.0677795, 26.0811729], [-85.07267, 26.0511131], [-85.0781479, 26.0211658], [-85.084198, 25.9913425], [-85.0908051, 25.9616489], [-85.0979919, 25.9320984], [-85.1057358, 25.9026928], [-85.1140366, 25.8734436], [-85.1228943, 25.8443623], [-85.1322937, 25.8154545], [-85.1422653, 25.7867298], [-85.1527557, 25.7581959], [-85.1637878, 25.7298603], [-85.1753464, 25.7017326], [-85.1874313, 25.6738205], [-85.2000504, 25.6461353], [-85.2131729, 25.6186771], [-85.2268066, 25.5914631], [-85.2409439, 25.5644932], [-85.2555847, 25.5377808], [-85.2707214, 25.5113297], [-85.2863464, 25.4851475], [-85.3024445, 25.4592438], [-85.3190231, 25.4336205], [-85.3360672, 25.4082928], [-85.353569, 25.3832626], [-85.3715439, 25.3585377], [-85.389946, 25.3341274], [-85.4087906, 25.3100338], [-85.4280777, 25.2862644], [-85.4478073, 25.2628288], [-85.4679489, 25.2397346], [-85.4885101, 25.2169838], [-85.5094757, 25.1945801], [-85.5308304, 25.1725368], [-85.5525818, 25.1508522], [-85.574707, 25.1295376], [-85.5972214, 25.1085949], [-85.6202545, 25.0881844], [-85.6439667, 25.0684586], [-85.6683197, 25.0494385], [-85.6932983, 25.0311317], [-85.718895, 25.0135574], [-85.7450638, 24.9967251], [-85.7717972, 24.9806519], [-85.7990799, 24.9653492], [-85.8268814, 24.9508286], [-85.8550262, 24.9369545], [-85.8833466, 24.9235802], [-85.9118347, 24.9107113], [-85.9404831, 24.8983479], [-85.9692612, 24.886488], [-85.9981613, 24.8751354], [-86.0271912, 24.8642902], [-86.0563278, 24.8539524], [-86.0855713, 24.8441238], [-86.1148911, 24.8348026], [-86.1442871, 24.8259888], [-86.1737671, 24.8176804], [-86.2032852, 24.8098812], [-86.232872, 24.8025856], [-86.2624817, 24.7957973], [-86.2921219, 24.7895145], [-86.3217697, 24.7837315], [-86.3514328, 24.7784538], [-86.3810806, 24.7736759], [-86.4107285, 24.7693977], [-86.4403381, 24.7656174], [-86.4699173, 24.7623291], [-86.4994583, 24.7595329], [-86.5289459, 24.7572308], [-86.5583725, 24.7554169], [-86.5877075, 24.7540855], [-86.6169739, 24.7532387], [-86.6461487, 24.7528687], [-86.6752167, 24.7529755], [-86.7041779, 24.7535591], [-86.7330093, 24.7546101], [-86.7617188, 24.7561264], [-86.7902908, 24.7581081], [-86.8187103, 24.7605457], [-86.8469849, 24.7634354], [-86.8750916, 24.7667789], [-86.9030228, 24.7705688], [-86.9307709, 24.7748032], [-86.9583282, 24.7794704], [-86.9856873, 24.7845707], [-87.0128479, 24.7901001], [-87.0397949, 24.796051], [-87.0665131, 24.8024216], [-87.0930023, 24.8092041], [-87.1192551, 24.8163929], [-87.1452637, 24.8239822], [-87.1710129, 24.8319721], [-87.1965103, 24.8403492], [-87.2217407, 24.8491116], [-87.2466965, 24.8582535], [-87.2713699, 24.8677673], [-87.2957458, 24.8776474], [-87.3198471, 24.8878899], [-87.3436356, 24.898489], [-87.3671188, 24.9094315], [-87.3902893, 24.9207172], [-87.4131317, 24.9323387], [-87.4356537, 24.9442863], [-87.4578552, 24.9565582], [-87.4797134, 24.9691429], [-87.501236, 24.9820385], [-87.5224152, 24.9952335], [-87.5432434, 25.0087242], [-87.5637054, 25.022501], [-87.5838089, 25.0365562], [-87.6035461, 25.0508842], [-87.6229095, 25.0654774], [-87.6418915, 25.0803299], [-87.6605072, 25.0954323], [-87.6787415, 25.1107769], [-87.6965866, 25.126358], [-87.714035, 25.1421661], [-87.7311096, 25.1581955], [-87.7477722, 25.1744423], [-87.7640305, 25.1908913], [-87.779892, 25.2075348], [-87.7953415, 25.224371], [-87.8103867, 25.2413864], [-87.8250122, 25.2585831], [-87.8392334, 25.275938], [-87.853035, 25.2934532], [-87.8669052, 25.310688], [-87.8813477, 25.3272171], [-87.8963928, 25.3430653], [-87.9120789, 25.3582573], [-87.928421, 25.372818], [-87.9454575, 25.3867722], [-87.9632111, 25.4001484], [-87.9817123, 25.4129696], [-88.0009918, 25.4252663], [-88.0205688, 25.4375], [-88.0399857, 25.4501133], [-88.0592346, 25.4631042], [-88.0782852, 25.4764709], [-88.0971603, 25.4902115], [-88.1158447, 25.504324], [-88.1342926, 25.5188026], [-88.1525269, 25.5336494], [-88.1705399, 25.5488625], [-88.1883163, 25.5644321], [-88.2058411, 25.5803642], [-88.223114, 25.596653], [-88.2401276, 25.6132908], [-88.2568665, 25.6302776], [-88.2733307, 25.6476154], [-88.2895126, 25.6652908], [-88.3053894, 25.6833038], [-88.3209686, 25.7016525], [-88.336235, 25.7203293], [-88.3511734, 25.7393284], [-88.365799, 25.7586536], [-88.3800812, 25.7782936], [-88.3940125, 25.7982426], [-88.4076157, 25.8185024], [-88.4208374, 25.8390617], [-88.4336929, 25.8599186], [-88.4461823, 25.8810673], [-88.4582825, 25.902504], [-88.4700012, 25.9242172], [-88.4813232, 25.9462051], [-88.4922256, 25.968462], [-88.5027313, 25.9909801], [-88.5128174, 26.0137558], [-88.5224762, 26.0367813], [-88.5317001, 26.0600491], [-88.5404892, 26.0835514], [-88.5488281, 26.1072884], [-88.5567093, 26.1312466], [-88.5641327, 26.1554203], [-88.571106, 26.1798019], [-88.5775986, 26.2043877], [-88.5836105, 26.2291679], [-88.5891495, 26.2541332], [-88.5941925, 26.2792778], [-88.5987473, 26.3045959], [-88.6027985, 26.3300743], [-88.6063461, 26.3557129], [-88.6093826, 26.3814945], [-88.6119003, 26.4074173], [-88.6138992, 26.4334698], [-88.6153793, 26.4596462], [-88.6163254, 26.4859352], [-88.6167374, 26.5123329], [-88.6166153, 26.538826], [-88.6159515, 26.5654068], [-88.6147461, 26.5920658], [-88.6129913, 26.6187992], [-88.6106796, 26.6455917], [-88.6078033, 26.6724358], [-88.6043777, 26.6993237], [-88.6003876, 26.7262459], [-88.5958328, 26.753191], [-88.5907135, 26.7801456], [-88.585022, 26.8071117], [-88.5787582, 26.8340721], [-88.5719299, 26.8610191], [-88.5645065, 26.8879433], [-88.5565109, 26.9148331], [-88.5479431, 26.9416809], [-88.5388031, 26.9684753], [-88.5290756, 26.9952068], [-88.5187683, 27.0218678], [-88.5078659, 27.0484428], [-88.4963989, 27.0749264], [-88.4843445, 27.1013088], [-88.4717102, 27.1275768], [-88.4584808, 27.1537228], [-88.4446869, 27.1797352], [-88.4302979, 27.2056084], [-88.4153366, 27.2313251], [-88.3998032, 27.2568779], [-88.3835144, 27.2821159], [-88.3663483, 27.3068733], [-88.3482895, 27.3311272], [-88.329361, 27.3548622], [-88.3095856, 27.3780556], [-88.2889786, 27.4006901], [-88.2675476, 27.4227486], [-88.2453232, 27.4442081], [-88.22229, 27.4650555], [-88.1986694, 27.4854164], [-88.1746063, 27.5054188], [-88.150116, 27.5250645], [-88.125206, 27.5443478], [-88.099884, 27.5632534], [-88.0741577, 27.5817795], [-88.048027, 27.5999165], [-88.0215149, 27.6176624], [-87.994606, 27.635006], [-87.9673233, 27.6519413], [-87.9396744, 27.6684647], [-87.9116669, 27.6845703], [-87.8833084, 27.7002487], [-87.8545914, 27.7154961], [-87.8255463, 27.7303066], [-87.7961731, 27.7446728], [-87.7664795, 27.7585907], [-87.7364807, 27.7720547], [-87.7061691, 27.7850571], [-87.6755676, 27.7975979], [-87.6446838, 27.8096657], [-87.613533, 27.8212605], [-87.5821152, 27.8323746], [-87.5504379, 27.8430099], [-87.5185165, 27.8531494], [-87.4863586, 27.8628006], [-87.4539566, 27.871954], [-87.4213638, 27.8806057], [-87.3885574, 27.888752], [-87.3555527, 27.896389], [-87.3223495, 27.9035168], [-87.2889862, 27.9101257], [-87.2554626, 27.9162159], [-87.2217636, 27.9217892], [-87.1879425, 27.9268322], [-87.1539688, 27.9313488], [-87.1198959, 27.9353352], [-87.0856857, 27.9387894], [-87.051384, 27.9417076], [-87.0169907, 27.944088], [-86.9825134, 27.9459324]]]}}, {"type": "Feature", "properties": {"shapefile": "al092021_2021082821_initialradii", "RADII": 50, "STORMID": "al092021", "BASIN": "al", "STORMNUM": 9, "ADVNUM": "10", "VALIDTIME": "2021082821", "SYNOPTIME": "2021082818", "TIMEZONE": "UTC", "TAU": 0, "NE": 50, "SE": 40, "SW": 20, "NW": 40}, "geometry": {"type": "Polygon", "coordinates": [[[-86.9924316, 26.9487896], [-86.9777222, 26.9504013], [-86.9629364, 26.9517822], [-86.9480972, 26.9529305], [-86.933197, 26.9538441], [-86.918251, 26.9545212], [-86.9032593, 26.9549599], [-86.8882217, 26.9551582], [-86.8731461, 26.9551182], [-86.8580399, 26.9548397], [-86.8429108, 26.9543152], [-86.8277512, 26.9535484], [-86.8125763, 26.9525375], [-86.7973938, 26.9512844], [-86.782196, 26.9497814], [-86.7669907, 26.9480362], [-86.7517929, 26.9460411], [-86.7366028, 26.9438], [-86.7214279, 26.9413109], [-86.7062683, 26.9385757], [-86.6911316, 26.9355888], [-86.6760178, 26.9323559], [-86.6609421, 26.9288769], [-86.6459122, 26.9251442], [-86.6309052, 26.9211655], [-86.6159592, 26.9169388], [-86.6010666, 26.912468], [-86.5862427, 26.9077454], [-86.5714798, 26.9027786], [-86.5567856, 26.897562], [-86.5421524, 26.8921032], [-86.5276031, 26.8863983], [-86.5131531, 26.8804493], [-86.4987717, 26.8742599], [-86.4844894, 26.8678226], [-86.470314, 26.8611488], [-86.4562531, 26.8542309], [-86.4422913, 26.8470764], [-86.4284439, 26.8396835], [-86.4147186, 26.832056], [-86.401123, 26.8241959], [-86.3878174, 26.8159561], [-86.3749847, 26.8072071], [-86.3626404, 26.7979622], [-86.3508148, 26.788229], [-86.3395004, 26.7780228], [-86.3287125, 26.7673607], [-86.3184891, 26.7562542], [-86.308815, 26.7447147], [-86.2997284, 26.7327633], [-86.2910614, 26.7205486], [-86.2826614, 26.7082291], [-86.2745209, 26.6958008], [-86.266655, 26.6832733], [-86.2590637, 26.6706543], [-86.2517319, 26.6579399], [-86.2446594, 26.6451435], [-86.2378769, 26.632267], [-86.2313614, 26.6193104], [-86.2251282, 26.6062832], [-86.2191544, 26.5931873], [-86.2134628, 26.5800285], [-86.208046, 26.5668125], [-86.2029114, 26.553545], [-86.1980515, 26.5402222], [-86.1934509, 26.5268593], [-86.1891479, 26.5134525], [-86.1851196, 26.5000134], [-86.181366, 26.4865398], [-86.177887, 26.4730434], [-86.174675, 26.4595242], [-86.1717529, 26.4459858], [-86.1690979, 26.4324341], [-86.1667175, 26.4188747], [-86.1646271, 26.4053116], [-86.1628036, 26.3917503], [-86.1612549, 26.378191], [-86.1599731, 26.3646431], [-86.1589584, 26.3511086], [-86.1582184, 26.3375931], [-86.1577454, 26.3240986], [-86.1575394, 26.3106289], [-86.1576157, 26.2971897], [-86.1579437, 26.2837887], [-86.1585388, 26.2704239], [-86.1594009, 26.2571049], [-86.1605301, 26.2438335], [-86.1619034, 26.2306137], [-86.1635437, 26.2174473], [-86.1654358, 26.2043419], [-86.1675797, 26.1913052], [-86.1699829, 26.1783333], [-86.1726379, 26.1654301], [-86.1755371, 26.1526051], [-86.1786728, 26.1398582], [-86.1820526, 26.1271935], [-86.1856766, 26.1146202], [-86.1895447, 26.1021347], [-86.1936417, 26.0897427], [-86.1979752, 26.0774479], [-86.2025452, 26.065258], [-86.2073364, 26.0531693], [-86.2123642, 26.0411911], [-86.2176056, 26.0293217], [-86.223053, 26.0175686], [-86.2287292, 26.0059357], [-86.2346191, 25.9944229], [-86.2407227, 25.983036], [-86.2470398, 25.9717751], [-86.2535477, 25.9606438], [-86.2602615, 25.9496498], [-86.2671814, 25.9387913], [-86.274292, 25.9280739], [-86.2815857, 25.9174957], [-86.2890778, 25.9070644], [-86.2967529, 25.8967819], [-86.3046036, 25.8866482], [-86.3126373, 25.876667], [-86.3208389, 25.8668423], [-86.329216, 25.8571739], [-86.3377609, 25.8476696], [-86.3464661, 25.8383255], [-86.3553314, 25.8291492], [-86.3643494, 25.820137], [-86.3735275, 25.8112926], [-86.382843, 25.8026218], [-86.3923035, 25.7941227], [-86.4019089, 25.7858009], [-86.4116516, 25.7776527], [-86.421524, 25.7696838], [-86.4315262, 25.7618942], [-86.4417343, 25.7543659], [-86.4522171, 25.7471676], [-86.4629593, 25.7403126], [-86.4739685, 25.7338028], [-86.4852142, 25.727644], [-86.4966965, 25.7218418], [-86.5084076, 25.7164078], [-86.5203171, 25.711338], [-86.5324478, 25.7066422], [-86.5446777, 25.7022533], [-86.5569458, 25.6980972], [-86.5692291, 25.6941757], [-86.5815201, 25.6904812], [-86.5938339, 25.6870193], [-86.6061554, 25.6837883], [-86.6184769, 25.6807823], [-86.6307907, 25.678009], [-86.6430969, 25.6754627], [-86.6553726, 25.6731377], [-86.6676559, 25.6710415], [-86.6799011, 25.6691666], [-86.6921158, 25.6675167], [-86.7043076, 25.6660843], [-86.7164536, 25.6648712], [-86.7285538, 25.6638775], [-86.7406082, 25.6630974], [-86.7526016, 25.6625309], [-86.7645416, 25.662178], [-86.7764282, 25.6620312], [-86.7882385, 25.662096], [-86.7999878, 25.662365], [-86.8116531, 25.6628418], [-86.8232422, 25.663517], [-86.8347473, 25.6643906], [-86.8461609, 25.6654568], [-86.8574905, 25.6667213], [-86.8687286, 25.6681786], [-86.8798523, 25.6698227], [-86.8908844, 25.6716537], [-86.9018097, 25.6736698], [-86.9126282, 25.6758633], [-86.9233093, 25.678236], [-86.9338837, 25.6807861], [-86.9443512, 25.683506], [-86.9546814, 25.6863956], [-86.9648819, 25.6894493], [-86.9749527, 25.6926651], [-86.9848938, 25.6960411], [-86.9946823, 25.6995735], [-87.0043411, 25.7032604], [-87.013855, 25.7070942], [-87.0232239, 25.7110786], [-87.0324402, 25.7152023], [-87.0415039, 25.7194653], [-87.050415, 25.7238655], [-87.0591736, 25.7283955], [-87.0677643, 25.7330551], [-87.0761948, 25.7378387], [-87.084465, 25.7427464], [-87.0925674, 25.7477722], [-87.100502, 25.7529087], [-87.1082687, 25.7581558], [-87.11586, 25.7635117], [-87.1232834, 25.7689705], [-87.1305237, 25.7745247], [-87.1375961, 25.7801762], [-87.1444778, 25.7859192], [-87.1511917, 25.791748], [-87.1577148, 25.7976608], [-87.1640625, 25.8036518], [-87.1702271, 25.8097172], [-87.1762009, 25.8158588], [-87.1819916, 25.8220634], [-87.1875992, 25.8283329], [-87.1930237, 25.8346634], [-87.1982574, 25.8410473], [-87.2032928, 25.8474865], [-87.2081528, 25.8539696], [-87.2128143, 25.8605003], [-87.2172928, 25.8670712], [-87.2215881, 25.8736763], [-87.2256851, 25.8803139], [-87.2295914, 25.8869801], [-87.2333145, 25.8936691], [-87.2368469, 25.9003811], [-87.2401962, 25.9071083], [-87.2433548, 25.9138489], [-87.2463074, 25.9205971], [-87.2490997, 25.9273491], [-87.2517014, 25.9341049], [-87.2544327, 25.9405708], [-87.2576523, 25.9464664], [-87.2613831, 25.9518127], [-87.2656174, 25.956625], [-87.2704239, 25.9609241], [-87.2757874, 25.9647255], [-87.2817612, 25.9680519], [-87.2883301, 25.9709187], [-87.2955322, 25.9733543], [-87.3030624, 25.9756603], [-87.310585, 25.9781342], [-87.3181, 25.9807758], [-87.3256149, 25.9835854], [-87.3331146, 25.9865665], [-87.3405914, 25.9897156], [-87.348053, 25.9930344], [-87.3554916, 25.9965248], [-87.3628845, 26.0001812], [-87.3702545, 26.0040092], [-87.3775864, 26.008009], [-87.3848724, 26.0121803], [-87.3921127, 26.0165195], [-87.399292, 26.0210323], [-87.4064255, 26.0257111], [-87.4134979, 26.0305614], [-87.4205017, 26.0355759], [-87.4274368, 26.0407619], [-87.4342957, 26.0461121], [-87.4410782, 26.05163], [-87.4477768, 26.0573177], [-87.4543839, 26.0631657], [-87.460907, 26.0691776], [-87.4673386, 26.0753555], [-87.4736633, 26.0816898], [-87.4798813, 26.0881863], [-87.4859924, 26.0948429], [-87.4919815, 26.1016579], [-87.4978638, 26.1086254], [-87.503624, 26.1157494], [-87.5092545, 26.1230259], [-87.5147552, 26.1304512], [-87.520134, 26.1380234], [-87.5253601, 26.1457443], [-87.5304489, 26.1536121], [-87.5353928, 26.1616192], [-87.5401764, 26.1697693], [-87.5448074, 26.1780567], [-87.5492935, 26.1864796], [-87.5536118, 26.195034], [-87.5577621, 26.203722], [-87.5617371, 26.2125359], [-87.5655365, 26.2214756], [-87.5691757, 26.2305374], [-87.5726166, 26.2397194], [-87.575882, 26.2490158], [-87.5789566, 26.2584305], [-87.5818405, 26.267952], [-87.5845261, 26.2775803], [-87.5870132, 26.2873154], [-87.5893021, 26.2971497], [-87.5913849, 26.3070831], [-87.5932541, 26.317112], [-87.5949249, 26.3272305], [-87.5963821, 26.3374329], [-87.5976028, 26.347723], [-87.5986176, 26.3580875], [-87.5994034, 26.3685341], [-87.5999756, 26.3790512], [-87.6003113, 26.3896351], [-87.6004257, 26.4002857], [-87.600296, 26.4109936], [-87.5999374, 26.4217587], [-87.5993347, 26.4325771], [-87.5984879, 26.4434433], [-87.5974121, 26.4543533], [-87.5960922, 26.4652977], [-87.5945206, 26.476284], [-87.5926971, 26.4873009], [-87.5906296, 26.4983425], [-87.5883102, 26.5094051], [-87.5857315, 26.5204849], [-87.5829086, 26.5315781], [-87.5798264, 26.5426788], [-87.5764923, 26.5537853], [-87.5728912, 26.564888], [-87.5690384, 26.5759888], [-87.5649261, 26.5870781], [-87.5605545, 26.5981522], [-87.5559235, 26.6092072], [-87.5510178, 26.6202354], [-87.5457687, 26.6311607], [-87.5401077, 26.6419029], [-87.5340271, 26.6524525], [-87.5275421, 26.6627979], [-87.5206528, 26.6729317], [-87.5133667, 26.6828403], [-87.5056915, 26.6925182], [-87.4976273, 26.7019577], [-87.4891891, 26.7111473], [-87.4804688, 26.7201481], [-87.4715347, 26.7290344], [-87.46241, 26.7378006], [-87.4530792, 26.7464371], [-87.4435501, 26.7549477], [-87.4338226, 26.7633266], [-87.4239044, 26.7715702], [-87.4137878, 26.7796745], [-87.4034958, 26.7876377], [-87.393013, 26.7954559], [-87.3823547, 26.8031235], [-87.3714981, 26.8106403], [-87.3604736, 26.8180008], [-87.3492737, 26.8252029], [-87.3378983, 26.8322372], [-87.3263474, 26.8391113], [-87.3146362, 26.8458157], [-87.3027573, 26.8523464], [-87.2907181, 26.8587036], [-87.2785263, 26.8648815], [-87.2661743, 26.870882], [-87.2536774, 26.8766956], [-87.2410278, 26.8823242], [-87.2282333, 26.887764], [-87.2153015, 26.893013], [-87.2022324, 26.8980637], [-87.1890182, 26.9029179], [-87.1756897, 26.9075699], [-87.1622391, 26.9120235], [-87.1486588, 26.9162693], [-87.134964, 26.920311], [-87.1211548, 26.9241409], [-87.1072311, 26.9277573], [-87.0932083, 26.93116], [-87.0790787, 26.9343433], [-87.0648575, 26.9373093], [-87.0505447, 26.9400558], [-87.0361328, 26.9425793], [-87.0216446, 26.9448757], [-87.0070724, 26.9469471], [-86.9924316, 26.9487896]]]}}, {"type": "Feature", "properties": {"shapefile": "al092021_2021082821_initialradii", "RADII": 64, "STORMID": "al092021", "BASIN": "al", "STORMNUM": 9, "ADVNUM": "10", "VALIDTIME": "2021082821", "SYNOPTIME": "2021082818", "TIMEZONE": "UTC", "TAU": 0, "NE": 25, "SE": 20, "SW": 10, "NW": 20}, "geometry": {"type": "Polygon", "coordinates": [[[-86.9962463, 26.5743961], [-86.9889069, 26.5752029], [-86.9815369, 26.5758934], [-86.974144, 26.5764694], [-86.966713, 26.5769272], [-86.959259, 26.5772667], [-86.9517975, 26.5774899], [-86.9443054, 26.5775928], [-86.9367905, 26.5775757], [-86.9292603, 26.5774403], [-86.9217224, 26.5771828], [-86.9141541, 26.5768013], [-86.9065933, 26.5763016], [-86.899025, 26.5756798], [-86.891449, 26.574934], [-86.8838806, 26.5740662], [-86.8763123, 26.5730762], [-86.8687363, 26.5719624], [-86.8611679, 26.5707264], [-86.8536072, 26.5693645], [-86.8460617, 26.5678787], [-86.8385315, 26.5662708], [-86.8310242, 26.564537], [-86.8235245, 26.5626831], [-86.81604, 26.5607052], [-86.8085785, 26.5586014], [-86.8011627, 26.5563736], [-86.7937698, 26.5540237], [-86.7863998, 26.5515518], [-86.779068, 26.5489559], [-86.771759, 26.546236], [-86.7645111, 26.543396], [-86.7572937, 26.540432], [-86.7501221, 26.5373497], [-86.7430038, 26.5341454], [-86.7359238, 26.5308208], [-86.7289047, 26.5273781], [-86.7219391, 26.5238113], [-86.7150192, 26.5201302], [-86.708168, 26.5163307], [-86.7013702, 26.512413], [-86.6947327, 26.5083084], [-86.688324, 26.5039482], [-86.6821594, 26.4993362], [-86.676239, 26.4944839], [-86.6705704, 26.4893913], [-86.6651917, 26.4840736], [-86.6600647, 26.4785328], [-86.6552353, 26.4727745], [-86.6506729, 26.4668064], [-86.6463318, 26.4607124], [-86.642128, 26.4545612], [-86.6380463, 26.4483566], [-86.6341019, 26.4421043], [-86.6302872, 26.4358025], [-86.6266174, 26.4294567], [-86.6230698, 26.423069], [-86.6196594, 26.4166393], [-86.6163864, 26.4101715], [-86.6132507, 26.4036655], [-86.6102524, 26.3971252], [-86.6073914, 26.3905544], [-86.60466, 26.3839531], [-86.6020813, 26.3773232], [-86.5996246, 26.3706703], [-86.5973053, 26.3639927], [-86.5951233, 26.357296], [-86.5930939, 26.3505821], [-86.5911942, 26.3438511], [-86.5894394, 26.3371067], [-86.5877991, 26.3303528], [-86.586319, 26.3235874], [-86.5849686, 26.3168163], [-86.5837631, 26.3100395], [-86.5826874, 26.3032608], [-86.5817566, 26.296484], [-86.5809555, 26.2897072], [-86.5802917, 26.2829342], [-86.5797577, 26.2761669], [-86.5793686, 26.2694111], [-86.5791092, 26.2626629], [-86.5789795, 26.255928], [-86.5789871, 26.2492104], [-86.5791245, 26.2425079], [-86.5793991, 26.2358246], [-86.5798035, 26.2291641], [-86.5803528, 26.2225266], [-86.5810089, 26.2159157], [-86.5818024, 26.2093277], [-86.5827255, 26.202774], [-86.5837708, 26.1962528], [-86.5849609, 26.189764], [-86.5862579, 26.1833076], [-86.5876846, 26.1768894], [-86.589241, 26.1705112], [-86.5909119, 26.1641769], [-86.5926971, 26.1578846], [-86.5945969, 26.1516342], [-86.5966339, 26.1454334], [-86.5987854, 26.1392784], [-86.6010437, 26.1331768], [-86.6034241, 26.1271286], [-86.6059189, 26.1211319], [-86.6085205, 26.1151905], [-86.6112366, 26.1093044], [-86.6140518, 26.1034794], [-86.6169739, 26.0977154], [-86.620018, 26.0920143], [-86.6231537, 26.0863762], [-86.6264038, 26.0808029], [-86.6297455, 26.0752983], [-86.633194, 26.0698624], [-86.6367416, 26.0644913], [-86.6403656, 26.0591946], [-86.644104, 26.0539684], [-86.6479187, 26.0488186], [-86.6518326, 26.0437393], [-86.6558456, 26.0387402], [-86.6599426, 26.0338192], [-86.6641235, 26.0289745], [-86.6683807, 26.0242138], [-86.6727295, 26.0195312], [-86.6771545, 26.0149307], [-86.6816635, 26.0104141], [-86.6862411, 26.0059834], [-86.6908951, 26.0016403], [-86.6956406, 25.9973831], [-86.7004242, 25.9932098], [-86.7052994, 25.9891281], [-86.7102356, 25.9851322], [-86.7152405, 25.9812298], [-86.7203369, 25.9774532], [-86.7255783, 25.9738426], [-86.730957, 25.9704056], [-86.7364731, 25.9671402], [-86.7420959, 25.9640522], [-86.7478409, 25.9611416], [-86.7537003, 25.9584122], [-86.7596664, 25.9558678], [-86.7657394, 25.9535122], [-86.7718658, 25.9513073], [-86.7779999, 25.9492188], [-86.7841568, 25.9472485], [-86.7903214, 25.9453945], [-86.7964783, 25.943655], [-86.8026505, 25.942028], [-86.808815, 25.9405193], [-86.8149948, 25.9391232], [-86.8211517, 25.9378414], [-86.8273087, 25.9366722], [-86.8334579, 25.9356155], [-86.839592, 25.9346733], [-86.8457184, 25.9338417], [-86.8518295, 25.9331188], [-86.8579102, 25.9325047], [-86.8639755, 25.9320011], [-86.8700027, 25.9316063], [-86.8760223, 25.9313183], [-86.8820114, 25.9311371], [-86.8879623, 25.9310627], [-86.8938904, 25.9310875], [-86.899765, 25.931221], [-86.9056168, 25.9314518], [-86.9114304, 25.9317856], [-86.9171982, 25.9322186], [-86.9229126, 25.9327507], [-86.9285889, 25.933382], [-86.9342194, 25.9341049], [-86.9397964, 25.9349251], [-86.9453278, 25.9358387], [-86.9508057, 25.936842], [-86.9562149, 25.9379368], [-86.9615707, 25.9391251], [-86.9668732, 25.9403954], [-86.9721069, 25.9417553], [-86.9772873, 25.9431992], [-86.9824066, 25.9447269], [-86.9874573, 25.9463348], [-86.9924316, 25.9480247], [-86.997345, 25.949791], [-87.0021744, 25.9516335], [-87.0069351, 25.9535503], [-87.0116348, 25.9555416], [-87.0162582, 25.9576035], [-87.0207977, 25.959734], [-87.0252609, 25.961935], [-87.0296478, 25.964201], [-87.0339661, 25.9665337], [-87.0381775, 25.9689274], [-87.0423279, 25.9713821], [-87.0463791, 25.973896], [-87.050354, 25.9764652], [-87.0542374, 25.9790878], [-87.0580444, 25.9817677], [-87.0617599, 25.9845009], [-87.0653915, 25.987278], [-87.0689163, 25.9901047], [-87.0723648, 25.9929771], [-87.0757294, 25.9958916], [-87.0789948, 25.9988499], [-87.0821686, 26.0018482], [-87.0852509, 26.0048847], [-87.0882492, 26.0079575], [-87.0911484, 26.0110626], [-87.093956, 26.0141983], [-87.0966568, 26.0173645], [-87.0992813, 26.0205612], [-87.1018066, 26.0237808], [-87.1042328, 26.0270252], [-87.1065521, 26.0302925], [-87.1087952, 26.033577], [-87.110939, 26.0368824], [-87.112999, 26.0402031], [-87.1149521, 26.0435371], [-87.116806, 26.0468826], [-87.1185684, 26.0502396], [-87.1202393, 26.0536041], [-87.1218185, 26.0569744], [-87.1233063, 26.0603504], [-87.1246948, 26.0637283], [-87.1259995, 26.0671082], [-87.1273575, 26.0703411], [-87.1289673, 26.0732918], [-87.1308289, 26.0759659], [-87.1329651, 26.0783749], [-87.1353607, 26.0805264], [-87.1380386, 26.082428], [-87.1410217, 26.084095], [-87.1443176, 26.0855331], [-87.1479187, 26.0867538], [-87.15168, 26.0879097], [-87.1554413, 26.0891495], [-87.1592102, 26.0904751], [-87.1629639, 26.0918846], [-87.1667099, 26.09338], [-87.1704559, 26.0949574], [-87.1741791, 26.0966225], [-87.1779022, 26.0983715], [-87.1816025, 26.1002045], [-87.1852875, 26.1021252], [-87.1889496, 26.1041317], [-87.1925964, 26.1062183], [-87.1962128, 26.1083927], [-87.1998062, 26.1106529], [-87.2033691, 26.1129971], [-87.2069016, 26.1154251], [-87.2104034, 26.117939], [-87.2138672, 26.1205368], [-87.2173004, 26.1232185], [-87.2206802, 26.1259842], [-87.2240295, 26.1288319], [-87.2273254, 26.1317635], [-87.2305832, 26.1347733], [-87.2337952, 26.137867], [-87.2369537, 26.1410389], [-87.2400589, 26.1442928], [-87.2431107, 26.147625], [-87.246109, 26.1510372], [-87.2490387, 26.1545277], [-87.251915, 26.1580944], [-87.2547226, 26.1617374], [-87.2574692, 26.1654568], [-87.2601395, 26.1692467], [-87.2627411, 26.1731129], [-87.2652817, 26.1770515], [-87.267746, 26.181057], [-87.270134, 26.1851387], [-87.272438, 26.1892853], [-87.2746582, 26.1935005], [-87.2768097, 26.1977825], [-87.2788696, 26.2021294], [-87.2808533, 26.206543], [-87.2827454, 26.2110157], [-87.2845612, 26.2155495], [-87.2862549, 26.2201443], [-87.2878723, 26.2247944], [-87.2893982, 26.2295036], [-87.2908401, 26.234272], [-87.2921677, 26.2390881], [-87.293396, 26.2439575], [-87.2945328, 26.2488785], [-87.2955627, 26.2538471], [-87.2964859, 26.2588615], [-87.2973099, 26.2639217], [-87.2980118, 26.2690239], [-87.2986145, 26.2741718], [-87.2991028, 26.279356], [-87.2994995, 26.2845783], [-87.2997665, 26.2898388], [-87.2999268, 26.2951317], [-87.2999573, 26.3004551], [-87.299881, 26.305809], [-87.299675, 26.3111935], [-87.2993622, 26.3165989], [-87.2989273, 26.3220329], [-87.298378, 26.327486], [-87.2977066, 26.3329601], [-87.2969055, 26.3384495], [-87.2959824, 26.343956], [-87.2949371, 26.349474], [-87.2937698, 26.3550034], [-87.2924576, 26.3605404], [-87.2910461, 26.3660831], [-87.2894897, 26.3716335], [-87.2878036, 26.377182], [-87.2859955, 26.3827286], [-87.2840576, 26.3882771], [-87.2819977, 26.3938179], [-87.2798004, 26.3993492], [-87.2774734, 26.404871], [-87.2750015, 26.4103813], [-87.2723694, 26.4158401], [-87.2695389, 26.4212074], [-87.2664948, 26.4264755], [-87.2632523, 26.4316444], [-87.2597961, 26.4367046], [-87.2561493, 26.4416542], [-87.2523041, 26.4464874], [-87.2482834, 26.4511986], [-87.2440491, 26.4557877], [-87.2397003, 26.4602795], [-87.2352371, 26.4647141], [-87.2306671, 26.4690895], [-87.2260056, 26.4733963], [-87.2212448, 26.4776459], [-87.2163773, 26.4818268], [-87.2114334, 26.4859409], [-87.2063828, 26.4899883], [-87.2012405, 26.4939632], [-87.1960068, 26.4978638], [-87.1906738, 26.5016899], [-87.1852646, 26.5054398], [-87.1797638, 26.5091133], [-87.1741714, 26.5127068], [-87.1684875, 26.5162201], [-87.1627197, 26.5196495], [-87.1568756, 26.522995], [-87.1509552, 26.5262527], [-87.1449432, 26.5294266], [-87.1388702, 26.5325108], [-87.1327057, 26.5355053], [-87.1264648, 26.5384064], [-87.1201553, 26.541214], [-87.1137695, 26.5439301], [-87.1073227, 26.5465469], [-87.1008072, 26.5490685], [-87.094223, 26.5514927], [-87.0875778, 26.5538158], [-87.0808716, 26.5560379], [-87.0740967, 26.558157], [-87.067276, 26.560173], [-87.0603943, 26.5620842], [-87.0534439, 26.5638924], [-87.0464554, 26.5655899], [-87.0394211, 26.5671806], [-87.0323257, 26.5686588], [-87.0251923, 26.5700321], [-87.018013, 26.5712929], [-87.0107956, 26.5724411], [-87.00354, 26.5734768], [-86.9962463, 26.5743961]]]}}]}