{
  "type": "FeatureCollection",
  "features": [
    {
      "type": "Feature",
      "geometry": {
        "type": "Polygon",
        "coordinates": [
          [
            [-85.3, 24.7],
            [-86.2, 25.4],
            [-87.1, 26.3],
            [-89.1, 27.9],
            [-91.2, 29.4],
            [-89.8, 30.6],
            [-87.9, 28.9],
            [-86.5, 27.1],
            [-85.6, 26.0],
            [-84.7, 25.3],
            [-85.3, 24.7]
          ]
        ]
      },
      "properties": {
        "shapefile": "al992026-014_5day_pgn",
        "STORMID": "AL992026",
        "STORMNAME": "SOLENE",
        "ADVISNUM": "14",
        "ADVDATE": "2026-07-22T21:00:00Z"
      }
    }
  ]
}
