{
  "type": "FeatureCollection",
  "features": [
    {
      "type": "Feature",
      "geometry": {
        "type": "LineString",
        "coordinates": [
          [-85.0, 25.0],
          [-85.9, 25.8],
          [-86.8, 26.7],
          [-88.7, 28.3],
          [-90.5, 30.0]
        ]
      },
      "properties": { "model": "OFCL", "label": "Official", "kind": "official", "cycle": "2026072212" }
    },
    {
      "type": "Feature",
      "geometry": {
        "type": "LineString",
        "coordinates": [
          [-85.0, 25.0],
          [-85.85, 25.77],
          [-86.65, 26.6],
          [-88.45, 28.1],
          [-90.15, 29.7]
        ]
      },
      "properties": { "model": "AVNO", "label": "GFS", "kind": "physics", "cycle": "2026072212" }
    },
    {
      "type": "Feature",
      "geometry": {
        "type": "LineString",
        "coordinates": [
          [-85.0, 25.0],
          [-85.95, 25.83],
          [-86.95, 26.8],
          [-88.9, 28.45],
          [-90.8, 30.25]
        ]
      },
      "properties": { "model": "EMXI", "label": "ECMWF", "kind": "physics", "cycle": "2026072212" }
    },
    {
      "type": "Feature",
      "geometry": {
        "type": "LineString",
        "coordinates": [
          [-85.0, 25.0],
          [-85.92, 25.82],
          [-86.85, 26.75],
          [-88.8, 28.38],
          [-90.65, 30.1]
        ]
      },
      "properties": { "model": "HFSA", "label": "HAFS-A", "kind": "physics", "cycle": "2026072212" }
    },
    {
      "type": "Feature",
      "geometry": {
        "type": "LineString",
        "coordinates": [
          [-85.0, 25.0],
          [-85.88, 25.78],
          [-86.74, 26.65],
          [-88.58, 28.22],
          [-90.32, 29.88]
        ]
      },
      "properties": { "model": "HFSB", "label": "HAFS-B", "kind": "physics", "cycle": "2026072212" }
    },
    {
      "type": "Feature",
      "geometry": {
        "type": "LineString",
        "coordinates": [
          [-85.0, 25.0],
          [-85.82, 25.75],
          [-86.6, 26.55],
          [-88.35, 28.05],
          [-90.0, 29.65]
        ]
      },
      "properties": { "model": "EGRR", "label": "UKMET", "kind": "physics", "cycle": "2026072212" }
    },
    {
      "type": "Feature",
      "geometry": {
        "type": "LineString",
        "coordinates": [
          [-85.0, 25.0],
          [-85.91, 25.81],
          [-86.82, 26.72],
          [-88.73, 28.32],
          [-90.55, 30.03]
        ]
      },
      "properties": { "model": "TVCA", "label": "Consensus", "kind": "consensus", "cycle": "2026072212" }
    },
    {
      "type": "Feature",
      "geometry": {
        "type": "LineString",
        "coordinates": [
          [-85.0, 25.0],
          [-85.93, 25.82],
          [-86.88, 26.76],
          [-88.85, 28.4],
          [-90.7, 30.15]
        ]
      },
      "properties": { "model": "AIFS", "label": "AIFS (ECMWF)", "kind": "ai", "cycle": "2026072212" }
    },
    {
      "type": "Feature",
      "geometry": {
        "type": "LineString",
        "coordinates": [
          [-85.0, 25.0],
          [-85.87, 25.78],
          [-86.72, 26.64],
          [-88.55, 28.22],
          [-90.28, 29.9]
        ]
      },
      "properties": { "model": "DMWL", "label": "DeepMind WL", "kind": "ai", "cycle": "2026072212" }
    }
  ]
}
