{
  "type": "FeatureCollection",
  "features": [
    {
      "type": "Feature",
      "geometry": {
        "type": "Polygon",
        "coordinates": [
          [
            [-81.6, 23.6],
            [-82.0, 23.9],
            [-82.4, 24.3],
            [-82.7, 24.7],
            [-82.4, 24.9],
            [-82.0, 24.6],
            [-81.7, 24.2],
            [-81.4, 23.9],
            [-81.6, 23.6]
          ]
        ]
      },
      "properties": {
        "shapefile": "al982026-006_5day_pgn",
        "STORMID": "AL982026",
        "STORMNAME": "TOBIAS",
        "ADVISNUM": "6",
        "ADVDATE": "2026-07-22T21:00:00Z"
      }
    }
  ]
}
