{
  "type": "FeatureCollection",
  "features": [
    {
      "type": "Feature",
      "geometry": {
        "type": "LineString",
        "coordinates": [
          [-85.0, 25.0],
          [-85.9, 25.8],
          [-86.8, 26.7],
          [-88.7, 28.3],
          [-90.5, 30.0]
        ]
      },
      "properties": {
        "shapefile": "al992026-014_5day_lin",
        "STORMNAME": "SOLENE",
        "ADVISNUM": "14"
      }
    },
    {
      "type": "Feature",
      "geometry": { "type": "Point", "coordinates": [-85.0, 25.0] },
      "properties": {
        "shapefile": "al992026-014_5day_pts",
        "TAU": 0,
        "MAXWIND": 105,
        "category": "2",
        "validTime": "2026-07-22T21:00:00Z",
        "label": "NOW"
      }
    },
    {
      "type": "Feature",
      "geometry": { "type": "Point", "coordinates": [-85.9, 25.8] },
      "properties": {
        "shapefile": "al992026-014_5day_pts",
        "TAU": 12,
        "MAXWIND": 110,
        "category": "2",
        "validTime": "2026-07-23T09:00:00Z",
        "label": "WED 4A"
      }
    },
    {
      "type": "Feature",
      "geometry": { "type": "Point", "coordinates": [-86.8, 26.7] },
      "properties": {
        "shapefile": "al992026-014_5day_pts",
        "TAU": 24,
        "MAXWIND": 105,
        "category": "2",
        "validTime": "2026-07-23T21:00:00Z",
        "label": "WED 4P"
      }
    },
    {
      "type": "Feature",
      "geometry": { "type": "Point", "coordinates": [-88.7, 28.3] },
      "properties": {
        "shapefile": "al992026-014_5day_pts",
        "TAU": 48,
        "MAXWIND": 95,
        "category": "1",
        "validTime": "2026-07-24T21:00:00Z",
        "label": "THU 4P"
      }
    },
    {
      "type": "Feature",
      "geometry": { "type": "Point", "coordinates": [-90.5, 30.0] },
      "properties": {
        "shapefile": "al992026-014_5day_pts",
        "TAU": 72,
        "MAXWIND": 50,
        "category": "TS",
        "validTime": "2026-07-25T21:00:00Z",
        "label": "FRI 4P"
      }
    }
  ]
}
