{
  "type": "FeatureCollection",
  "features": [
    {
      "type": "Feature",
      "geometry": {
        "type": "LineString",
        "coordinates": [
          [-89.96, 29.23],
          [-90.03, 29.6],
          [-90.1, 29.9],
          [-90.07, 30.03],
          [-89.85, 30.1],
          [-89.68, 30.17]
        ]
      },
      "properties": {
        "shapefile": "al992026_ww_wwlin",
        "TCWW": "HU",
        "label": "Hurricane Warning",
        "areaDesc": "Orleans, Jefferson, Plaquemines, St. Bernard"
      }
    },
    {
      "type": "Feature",
      "geometry": {
        "type": "LineString",
        "coordinates": [
          [-90.15, 30.15],
          [-90.0, 30.2],
          [-89.75, 30.25],
          [-89.4, 30.3],
          [-89.1, 30.35],
          [-88.85, 30.38]
        ]
      },
      "properties": {
        "shapefile": "al992026_ww_wwlin",
        "TCWW": "SS",
        "label": "Storm Surge Warning",
        "areaDesc": "Lake Pontchartrain, Lake Borgne, MS coast"
      }
    },
    {
      "type": "Feature",
      "geometry": {
        "type": "LineString",
        "coordinates": [
          [-90.2, 30.35],
          [-90.0, 30.5],
          [-89.85, 30.6],
          [-89.7, 30.7]
        ]
      },
      "properties": {
        "shapefile": "al992026_ww_wwlin",
        "TCWW": "TR",
        "label": "Tropical Storm Warning",
        "areaDesc": "St. Tammany, Tangipahoa"
      }
    }
  ]
}
