{"type": "FeatureCollection", "features": [{"type": "Feature", "properties": {"shapefile": "al022026-016_5day_pgn", "STORMNAME": "Bertha", "STORMTYPE": "TS", "ADVDATE": "400 AM CDT Thu Jul 23 2026", "ADVISNUM": "16", "STORMNUM": 2, "FCSTPRD": 120, "BASIN": "AL"}, "geometry": {"type": "Polygon", "coordinates": [[[-100.26865, 27.69824], [-100.25223, 27.69607], [-100.24355, 27.69519], [-100.22504, 27.69415], [-100.19496, 27.69354], [-100.17385, 27.69345], [-100.15231, 27.69345], [-100.13058, 27.69345], [-100.10886, 27.69345], [-100.08714, 27.69345], [-100.06541, 27.69345], [-100.04369, 27.69345], [-100.02206, 27.69354], [-100.00069, 27.69389], [-99.97974, 27.69467], [-99.96975, 27.69554], [-99.94985, 27.69737], [-99.92101, 27.70111], [-99.90259, 27.70442], [-99.88443, 27.70799], [-99.86636, 27.71165], [-99.84819, 27.71521], [-99.83916, 27.71704], [-99.81205, 27.72252], [-99.80318, 27.72453], [-99.7766, 27.73053], [-99.76791, 27.73271], [-99.75043, 27.73697], [-99.73297, 27.74124], [-99.70665, 27.74751], [-99.6977, 27.74942], [-99.67085, 27.75517], [-99.65269, 27.75873], [-99.63454, 27.7623], [-99.61655, 27.76604], [-99.59873, 27.76996], [-99.58996, 27.77205], [-99.56363, 27.77831], [-99.55493, 27.78049], [-99.53748, 27.78476], [-99.51992, 27.78893], [-99.49333, 27.79494], [-99.4843, 27.79677], [-99.45718, 27.80225], [-99.43903, 27.80582], [-99.42104, 27.80956], [-99.41219, 27.81156], [-99.39445, 27.81557], [-99.3769, 27.81974], [-99.35944, 27.82401], [-99.33328, 27.83045], [-99.31564, 27.83454], [-99.29784, 27.83846], [-99.27985, 27.8422], [-99.26169, 27.84577], [-99.24353, 27.84934], [-99.22554, 27.85308], [-99.20773, 27.857], [-99.19009, 27.86109], [-99.17262, 27.86536], [-99.16393, 27.86753], [-99.13779, 27.87397], [-99.12015, 27.87806], [-99.10234, 27.88198], [-99.09329, 27.88381], [-99.06618, 27.88929], [-99.04802, 27.89286], [-99.03004, 27.8966], [-99.02117, 27.89861], [-99.00345, 27.90261], [-98.98589, 27.90679], [-98.96843, 27.91105], [-98.95097, 27.91532], [-98.92464, 27.92158], [-98.90683, 27.9255], [-98.88884, 27.92924], [-98.87068, 27.93281], [-98.85252, 27.93638], [-98.83453, 27.94012], [-98.81673, 27.94404], [-98.80795, 27.94613], [-98.78162, 27.95239], [-98.77293, 27.95457], [-98.74677, 27.96101], [-98.72913, 27.9651], [-98.72018, 27.96702], [-98.69333, 27.97276], [-98.67517, 27.97633], [-98.65701, 27.9799], [-98.63904, 27.98364], [-98.63017, 27.98564], [-98.60358, 27.99165], [-98.59489, 27.99382], [-98.57742, 27.99809], [-98.55127, 28.00453], [-98.5424, 28.00653], [-98.52469, 28.01054], [-98.49783, 28.01628], [-98.47967, 28.01985], [-98.46152, 28.02341], [-98.44353, 28.02716], [-98.42572, 28.03107], [-98.40808, 28.03517], [-98.39061, 28.03943], [-98.38193, 28.04161], [-98.36446, 28.04587], [-98.33813, 28.05214], [-98.32032, 28.05606], [-98.30234, 28.0598], [-98.29321, 28.06154], [-98.26601, 28.06693], [-98.24803, 28.07068], [-98.23916, 28.07268], [-98.21257, 28.07869], [-98.20389, 28.08086], [-98.17773, 28.0873], [-98.16026, 28.09157], [-98.15141, 28.09357], [-98.13368, 28.09757], [-98.10683, 28.10332], [-98.08867, 28.10689], [-98.07964, 28.10872], [-98.05252, 28.1142], [-98.03471, 28.11811], [-98.01707, 28.12221], [-98.00838, 28.12438], [-97.98222, 28.13082], [-97.97345, 28.13291], [-97.9559, 28.13709], [-97.93818, 28.14109], [-97.91132, 28.14684], [-97.89317, 28.15041], [-97.87502, 28.15397], [-97.86597, 28.1558], [-97.83886, 28.16129], [-97.82079, 28.16494], [-97.80271, 28.1686], [-97.78455, 28.17216], [-97.76639, 28.17573], [-97.74841, 28.17948], [-97.73059, 28.18339], [-97.72182, 28.18548], [-97.6955, 28.19175], [-97.68681, 28.19392], [-97.66934, 28.19819], [-97.64301, 28.20446], [-97.63406, 28.20637], [-97.60721, 28.21212], [-97.58905, 28.21568], [-97.57089, 28.21925], [-97.55281, 28.22291], [-97.53474, 28.22656], [-97.50764, 28.23205], [-97.4986, 28.23388], [-97.48044, 28.23745], [-97.46228, 28.24101], [-97.4442, 28.24467], [-97.42613, 28.24833], [-97.40807, 28.25198], [-97.38998, 28.25564], [-97.37182, 28.2592], [-97.35367, 28.26277], [-97.33568, 28.26651], [-97.32681, 28.26852], [-97.3091, 28.27252], [-97.29153, 28.2767], [-97.26538, 28.28314], [-97.25661, 28.28523], [-97.23029, 28.2915], [-97.21247, 28.29541], [-97.19449, 28.29916], [-97.18536, 28.3009], [-97.15816, 28.30629], [-97.14009, 28.30994], [-97.12193, 28.31351], [-97.1036, 28.31691], [-97.08509, 28.32013], [-97.07562, 28.32152], [-97.04738, 28.32587], [-97.03809, 28.32744], [-97.01011, 28.33205], [-96.99178, 28.33545], [-96.97362, 28.33902], [-96.95554, 28.34267], [-96.93737, 28.34624], [-96.91922, 28.34981], [-96.90123, 28.35355], [-96.89236, 28.35555], [-96.87465, 28.35956], [-96.84831, 28.36583], [-96.83963, 28.368], [-96.82216, 28.37227], [-96.80461, 28.37645], [-96.77802, 28.38245], [-96.76004, 28.38619], [-96.74187, 28.38976], [-96.72371, 28.39333], [-96.70564, 28.39698], [-96.68757, 28.40064], [-96.6695, 28.4043], [-96.65143, 28.40795], [-96.63326, 28.41152], [-96.6151, 28.41509], [-96.588, 28.42057], [-96.57896, 28.4224], [-96.56089, 28.42606], [-96.54282, 28.42971], [-96.52464, 28.43328], [-96.50648, 28.43685], [-96.4885, 28.44059], [-96.47069, 28.44451], [-96.45305, 28.4486], [-96.43559, 28.45286], [-96.41821, 28.45721], [-96.40074, 28.46148], [-96.3831, 28.46557], [-96.37415, 28.46749], [-96.34731, 28.47323], [-96.32915, 28.4768], [-96.31099, 28.48037], [-96.29292, 28.48402], [-96.27483, 28.48768], [-96.25677, 28.49134], [-96.23869, 28.49499], [-96.22054, 28.49856], [-96.20238, 28.50213], [-96.18439, 28.50587], [-96.16658, 28.50979], [-96.1578, 28.51188], [-96.14024, 28.51606], [-96.12278, 28.52032], [-96.09663, 28.52676], [-96.07899, 28.53085], [-96.06117, 28.53477], [-96.04318, 28.53851], [-96.02502, 28.54208], [-96.00687, 28.54565], [-95.99783, 28.54748], [-95.97072, 28.55296], [-95.96169, 28.55479], [-95.93458, 28.56027], [-95.92545, 28.56201], [-95.89825, 28.56741], [-95.88019, 28.57106], [-95.86211, 28.57472], [-95.84404, 28.57838], [-95.82596, 28.58203], [-95.8078, 28.5856], [-95.78964, 28.58916], [-95.77158, 28.59282], [-95.75349, 28.59648], [-95.73543, 28.60014], [-95.71735, 28.60379], [-95.69919, 28.60736], [-95.68103, 28.61092], [-95.66305, 28.61467], [-95.65419, 28.61667], [-95.63646, 28.62067], [-95.61013, 28.62694], [-95.59276, 28.63129], [-95.58398, 28.63338], [-95.55757, 28.63956], [-95.53949, 28.64322], [-95.52107, 28.64653], [-95.5023, 28.64949], [-95.48337, 28.65227], [-95.46459, 28.65523], [-95.44608, 28.65845], [-95.42775, 28.66184], [-95.40959, 28.66541], [-95.39151, 28.66907], [-95.37335, 28.67264], [-95.35519, 28.6762], [-95.3372, 28.67995], [-95.32834, 28.68195], [-95.30176, 28.68796], [-95.29306, 28.69013], [-95.26692, 28.69657], [-95.24945, 28.70084], [-95.23174, 28.70484], [-95.21365, 28.7085], [-95.19524, 28.7118], [-95.17646, 28.71476], [-95.15752, 28.71755], [-95.13875, 28.7205], [-95.12025, 28.72373], [-95.10191, 28.72712], [-95.08376, 28.73069], [-95.06568, 28.73435], [-95.0384, 28.73965], [-95.02936, 28.74148], [-95.01129, 28.74514], [-94.99313, 28.74871], [-94.97479, 28.7521], [-94.95628, 28.75533], [-94.93751, 28.75828], [-94.92804, 28.75967], [-94.8998, 28.76403], [-94.8813, 28.76725], [-94.87209, 28.7689], [-94.84445, 28.77386], [-94.82595, 28.77708], [-94.80718, 28.78004], [-94.78824, 28.78283], [-94.77894, 28.7844], [-94.75096, 28.78901], [-94.73254, 28.79232], [-94.72333, 28.79397], [-94.69562, 28.79884], [-94.67685, 28.8018], [-94.66737, 28.8032], [-94.63914, 28.80755], [-94.62063, 28.81077], [-94.6022, 28.81408], [-94.58369, 28.8173], [-94.56494, 28.82026], [-94.54573, 28.82278], [-94.52618, 28.82495], [-94.50664, 28.82713], [-94.48743, 28.82965], [-94.46866, 28.83261], [-94.45015, 28.83583], [-94.43164, 28.83905], [-94.41287, 28.84201], [-94.39368, 28.84454], [-94.37412, 28.84671], [-94.35457, 28.84889], [-94.33536, 28.85141], [-94.3166, 28.85437], [-94.29809, 28.85759], [-94.27959, 28.86081], [-94.26073, 28.86369], [-94.24126, 28.86595], [-94.23119, 28.86673], [-94.20113, 28.86926], [-94.18114, 28.871], [-94.16168, 28.87326], [-94.14282, 28.87613], [-94.12431, 28.87935], [-94.10581, 28.88257], [-94.08695, 28.88545], [-94.0674, 28.88762], [-94.04706, 28.88901], [-94.02612, 28.8898], [-94.01535, 28.88988], [-93.99389, 28.89014], [-93.96139, 28.89023], [-93.93967, 28.89023], [-93.91795, 28.89023], [-93.89622, 28.89023], [-93.8745, 28.89023], [-93.85278, 28.89023], [-93.83105, 28.89023], [-93.80933, 28.89023], [-93.78761, 28.89023], [-93.76589, 28.89023], [-93.74416, 28.89023], [-93.72245, 28.89023], [-93.70073, 28.89023], [-93.679, 28.89023], [-93.65728, 28.89023], [-93.63555, 28.89023], [-93.61383, 28.89023], [-93.59211, 28.89023], [-93.57039, 28.89023], [-93.54867, 28.89023], [-93.52702, 28.89014], [-93.50565, 28.8898], [-93.49506, 28.88954], [-93.46439, 28.88762], [-93.45439, 28.88675], [-93.42598, 28.88258], [-93.41667, 28.88101], [-93.38896, 28.87613], [-93.37967, 28.87456], [-93.35056, 28.87108], [-93.33031, 28.8696], [-93.32005, 28.86899], [-93.28912, 28.86734], [-93.27887, 28.86673], [-93.24933, 28.86369], [-93.23976, 28.86238], [-93.21197, 28.85759], [-93.19346, 28.85437], [-93.18416, 28.8528], [-93.15514, 28.84924], [-93.13515, 28.8475], [-93.115, 28.84593], [-93.09502, 28.84419], [-93.07555, 28.84193], [-93.06599, 28.84062], [-93.0474, 28.83749], [-93.02898, 28.83418], [-93.01039, 28.83105], [-92.99144, 28.82826], [-92.97197, 28.826], [-92.95234, 28.82391], [-92.9234, 28.82026], [-92.91393, 28.81886], [-92.89534, 28.81573], [-92.86762, 28.81085], [-92.85832, 28.80929], [-92.82965, 28.80537], [-92.8101, 28.8032], [-92.79054, 28.80102], [-92.77135, 28.7985], [-92.76187, 28.7971], [-92.73407, 28.79232], [-92.71556, 28.78909], [-92.70627, 28.78753], [-92.67725, 28.78396], [-92.65726, 28.78222], [-92.6371, 28.78065], [-92.62703, 28.77987], [-92.59766, 28.77665], [-92.58809, 28.77534], [-92.5695, 28.77221], [-92.55109, 28.7689], [-92.52293, 28.76446], [-92.50337, 28.76229], [-92.48313, 28.76081], [-92.46254, 28.75967], [-92.45219, 28.75915], [-92.4217, 28.75707], [-92.40216, 28.75489], [-92.3833, 28.75201], [-92.36479, 28.7488], [-92.34629, 28.74557], [-92.33699, 28.74401], [-92.30788, 28.74053], [-92.29787, 28.73965], [-92.2666, 28.73835], [-92.24522, 28.738], [-92.22368, 28.738], [-92.2023, 28.73835], [-92.18137, 28.73913], [-92.16104, 28.74052], [-92.14156, 28.74279], [-92.13253, 28.74462], [-92.11446, 28.74827], [-92.09726, 28.7528], [-92.08092, 28.75819], [-92.05754, 28.76742], [-92.04295, 28.77456], [-92.02895, 28.7823], [-92.00888, 28.79484], [-92.00255, 28.79937], [-91.98421, 28.81364], [-91.97856, 28.81886], [-91.96248, 28.8354], [-91.95275, 28.84741], [-91.93947, 28.86673], [-91.93521, 28.87335], [-91.92348, 28.89424], [-91.91974, 28.90137], [-91.91296, 28.91635], [-91.9068, 28.93175], [-91.90167, 28.94785], [-91.89532, 28.98223], [-91.89436, 28.99042], [-91.89436, 28.99851], [-91.89532, 29.01583], [-91.89785, 29.03298], [-91.90166, 29.04986], [-91.90905, 29.07476], [-91.91209, 29.08259], [-91.91827, 29.09817], [-91.92834, 29.12071], [-91.93616, 29.13464], [-91.94911, 29.15431], [-91.95397, 29.16031], [-91.96414, 29.17189], [-91.98056, 29.18808], [-91.99255, 29.19783], [-91.99889, 29.20235], [-92.01845, 29.21541], [-92.02531, 29.21941], [-92.0466, 29.23073], [-92.05398, 29.23421], [-92.07666, 29.24413], [-92.09265, 29.24988], [-92.11759, 29.25754], [-92.13462, 29.26224], [-92.15192, 29.26667], [-92.1693, 29.27103], [-92.18666, 29.27538], [-92.20404, 29.27973], [-92.21273, 29.28191], [-92.23011, 29.28626], [-92.24748, 29.29061], [-92.27356, 29.29714], [-92.28224, 29.29931], [-92.30822, 29.30593], [-92.31683, 29.30819], [-92.33386, 29.31289], [-92.35072, 29.31777], [-92.37556, 29.32552], [-92.38373, 29.32821], [-92.40007, 29.33361], [-92.4164, 29.339], [-92.4409, 29.3471], [-92.44907, 29.3498], [-92.47418, 29.35728], [-92.48262, 29.35972], [-92.49965, 29.36442], [-92.51685, 29.36895], [-92.53405, 29.37347], [-92.55952, 29.38061], [-92.56795, 29.38305], [-92.58463, 29.3881], [-92.60912, 29.39619], [-92.61729, 29.39889], [-92.63362, 29.40428], [-92.64996, 29.40968], [-92.66612, 29.41525], [-92.68246, 29.42065], [-92.70697, 29.42874], [-92.71513, 29.43144], [-92.73129, 29.43701], [-92.7558, 29.44511], [-92.76396, 29.44781], [-92.7803, 29.4532], [-92.80463, 29.46147], [-92.81279, 29.46417], [-92.8373, 29.47226], [-92.84547, 29.47496], [-92.8698, 29.48323], [-92.87796, 29.48593], [-92.90247, 29.49402], [-92.91063, 29.49672], [-92.92697, 29.50212], [-92.94365, 29.50716], [-92.96051, 29.51204], [-92.98614, 29.519], [-92.99474, 29.52126], [-93.01195, 29.52579], [-93.02898, 29.53049], [-93.04584, 29.53536], [-93.07077, 29.54302], [-93.08737, 29.54816], [-93.10414, 29.55312], [-93.12108, 29.55791], [-93.1382, 29.56252], [-93.1468, 29.56478], [-93.17287, 29.57131], [-93.19025, 29.57566], [-93.19894, 29.57784], [-93.21632, 29.58219], [-93.24239, 29.58872], [-93.25984, 29.59298], [-93.26862, 29.59507], [-93.29529, 29.60099], [-93.30424, 29.60291], [-93.32232, 29.60656], [-93.34056, 29.61004], [-93.36758, 29.61561], [-93.37654, 29.61753], [-93.40304, 29.62362], [-93.4205, 29.62789], [-93.42918, 29.63006], [-93.44658, 29.63441], [-93.47307, 29.64051], [-93.48202, 29.64242], [-93.50027, 29.6459], [-93.51886, 29.64904], [-93.53781, 29.65182], [-93.55675, 29.65461], [-93.57535, 29.65774], [-93.59377, 29.66105], [-93.62148, 29.66592], [-93.63078, 29.66749], [-93.64972, 29.67028], [-93.679, 29.67358], [-93.69855, 29.67575], [-93.70828, 29.67689], [-93.72723, 29.67967], [-93.74582, 29.68281], [-93.76424, 29.68612], [-93.78284, 29.68925], [-93.80195, 29.69186], [-93.82194, 29.6936], [-93.85278, 29.69534], [-93.86312, 29.69586], [-93.88364, 29.69708], [-93.91318, 29.70013], [-93.92274, 29.70143], [-93.95053, 29.70622], [-93.96904, 29.70944], [-93.9879, 29.71231], [-94.00745, 29.71449], [-94.01744, 29.71536], [-94.04872, 29.71667], [-94.07009, 29.71701], [-94.09174, 29.7171], [-94.11337, 29.71719], [-94.13474, 29.71754], [-94.15569, 29.71832], [-94.16603, 29.71884], [-94.19556, 29.72189], [-94.21442, 29.72476], [-94.22371, 29.72633], [-94.25143, 29.7312], [-94.27029, 29.73407], [-94.27985, 29.73538], [-94.31017, 29.73764], [-94.33112, 29.73843], [-94.35249, 29.73877], [-94.37412, 29.73886], [-94.39585, 29.73886], [-94.41756, 29.73886], [-94.43929, 29.73886], [-94.46101, 29.73886], [-94.48273, 29.73886], [-94.50446, 29.73886], [-94.52618, 29.73886], [-94.5479, 29.73886], [-94.56963, 29.73886], [-94.59135, 29.73886], [-94.61308, 29.73886], [-94.63479, 29.73886], [-94.65651, 29.73886], [-94.67824, 29.73886], [-94.69996, 29.73886], [-94.72169, 29.73886], [-94.74341, 29.73886], [-94.76513, 29.73886], [-94.78685, 29.73886], [-94.80857, 29.73886], [-94.8303, 29.73886], [-94.85201, 29.73886], [-94.87374, 29.73886], [-94.89546, 29.73886], [-94.91718, 29.73886], [-94.93891, 29.73886], [-94.96063, 29.73886], [-94.98236, 29.73886], [-95.00408, 29.73886], [-95.02579, 29.73886], [-95.04752, 29.73886], [-95.06925, 29.73886], [-95.09097, 29.73886], [-95.11269, 29.73886], [-95.13441, 29.73886], [-95.15614, 29.73886], [-95.17786, 29.73886], [-95.19958, 29.73886], [-95.22131, 29.73886], [-95.24302, 29.73886], [-95.26475, 29.73886], [-95.28648, 29.73886], [-95.30819, 29.73886], [-95.32991, 29.73886], [-95.35164, 29.73886], [-95.37336, 29.73886], [-95.39508, 29.73886], [-95.41681, 29.73886], [-95.43853, 29.73886], [-95.46024, 29.73886], [-95.48189, 29.73877], [-95.49249, 29.73851], [-95.5242, 29.73764], [-95.54453, 29.73625], [-95.56409, 29.73408], [-95.57338, 29.73251], [-95.60145, 29.72798], [-95.61995, 29.72476], [-95.62952, 29.72345], [-95.65836, 29.71971], [-95.67869, 29.71832], [-95.69963, 29.71754], [-95.7104, 29.71745], [-95.74264, 29.7171], [-95.76436, 29.7171], [-95.78609, 29.7171], [-95.80781, 29.7171], [-95.82954, 29.7171], [-95.85126, 29.7171], [-95.87298, 29.7171], [-95.8947, 29.7171], [-95.91634, 29.71701], [-95.93771, 29.71667], [-95.94805, 29.71614], [-95.97897, 29.71449], [-95.99854, 29.71231], [-96.01739, 29.70944], [-96.0359, 29.70622], [-96.0544, 29.703], [-96.07326, 29.70013], [-96.0928, 29.69795], [-96.11314, 29.69656], [-96.13408, 29.69578], [-96.15546, 29.69543], [-96.16631, 29.69543], [-96.19881, 29.69534], [-96.22054, 29.69534], [-96.24226, 29.69534], [-96.26398, 29.69534], [-96.27476, 29.69525], [-96.30699, 29.6949], [-96.32793, 29.69412], [-96.34827, 29.69273], [-96.36781, 29.69055], [-96.38667, 29.68768], [-96.40518, 29.68446], [-96.42369, 29.68124], [-96.43324, 29.67994], [-96.46208, 29.67619], [-96.47243, 29.67567], [-96.50336, 29.67402], [-96.51414, 29.67393], [-96.54638, 29.67358], [-96.55724, 29.67358], [-96.57896, 29.67358], [-96.60069, 29.67358], [-96.62241, 29.67358], [-96.64404, 29.67349], [-96.67627, 29.67315], [-96.6972, 29.67236], [-96.7072, 29.67149], [-96.7371, 29.66879], [-96.75595, 29.66592], [-96.77446, 29.6627], [-96.79297, 29.65948], [-96.81182, 29.65661], [-96.83138, 29.65443], [-96.8517, 29.65304], [-96.87263, 29.65226], [-96.89402, 29.65191], [-96.91566, 29.65182], [-96.93738, 29.65182], [-96.95911, 29.65182], [-96.98083, 29.65182], [-97.00246, 29.65173], [-97.02383, 29.65139], [-97.04478, 29.6506], [-97.06511, 29.64921], [-97.08466, 29.64704], [-97.11281, 29.6426], [-97.12202, 29.64094], [-97.14053, 29.63772], [-97.15009, 29.63642], [-97.17894, 29.63268], [-97.19926, 29.63128], [-97.22021, 29.6305], [-97.23099, 29.63041], [-97.26314, 29.62997], [-97.2845, 29.62963], [-97.30544, 29.62885], [-97.31544, 29.62798], [-97.34532, 29.62528], [-97.36418, 29.62241], [-97.38269, 29.61918], [-97.39198, 29.61762], [-97.42005, 29.61309], [-97.43961, 29.61092], [-97.45993, 29.60952], [-97.48088, 29.60874], [-97.50217, 29.6083], [-97.52345, 29.60787], [-97.54439, 29.60709], [-97.55438, 29.60622], [-97.58427, 29.60352], [-97.60313, 29.60065], [-97.62164, 29.59742], [-97.64014, 29.5942], [-97.659, 29.59133], [-97.67856, 29.58915], [-97.69888, 29.58776], [-97.71973, 29.58689], [-97.74077, 29.58619], [-97.76161, 29.58533], [-97.77161, 29.58446], [-97.8015, 29.58176], [-97.81081, 29.58019], [-97.83887, 29.57566], [-97.85738, 29.57244], [-97.87622, 29.56957], [-97.89578, 29.56739], [-97.91611, 29.566], [-97.92662, 29.56565], [-97.95799, 29.56443], [-97.97884, 29.56356], [-97.98883, 29.56269], [-98.00873, 29.56087], [-98.03758, 29.55712], [-98.05609, 29.5539], [-98.0746, 29.55068], [-98.09344, 29.54781], [-98.11301, 29.54563], [-98.13325, 29.54415], [-98.15384, 29.54302], [-98.17444, 29.54189], [-98.18443, 29.54102], [-98.21423, 29.53823], [-98.23309, 29.53536], [-98.25159, 29.53214], [-98.2701, 29.52892], [-98.28896, 29.52605], [-98.3085, 29.52387], [-98.32875, 29.52239], [-98.34935, 29.52126], [-98.36993, 29.52013], [-98.39018, 29.51865], [-98.39974, 29.51735], [-98.42859, 29.5136], [-98.44709, 29.51038], [-98.4656, 29.50716], [-98.48445, 29.50429], [-98.50401, 29.50211], [-98.51427, 29.5015], [-98.54485, 29.4995], [-98.56544, 29.49837], [-98.58569, 29.49689], [-98.60522, 29.49472], [-98.62408, 29.49184], [-98.64259, 29.48862], [-98.67039, 29.48384], [-98.67995, 29.48253], [-98.69951, 29.48035], [-98.71976, 29.47887], [-98.74035, 29.47775], [-98.75061, 29.47713], [-98.78119, 29.47513], [-98.80074, 29.47296], [-98.81959, 29.47009], [-98.83809, 29.46686], [-98.8566, 29.46364], [-98.87545, 29.46077], [-98.88536, 29.45981], [-98.91491, 29.45677], [-98.93507, 29.4552], [-98.95506, 29.45346], [-98.97452, 29.4512], [-98.98381, 29.44963], [-99.01188, 29.4451], [-99.03038, 29.44188], [-99.04924, 29.43901], [-99.06879, 29.43684], [-99.07904, 29.43623], [-99.10963, 29.43423], [-99.11988, 29.43362], [-99.15047, 29.43161], [-99.17002, 29.42944], [-99.18887, 29.42657], [-99.20738, 29.42334], [-99.22589, 29.42012], [-99.24474, 29.41725], [-99.26421, 29.41499], [-99.28419, 29.41325], [-99.30435, 29.41168], [-99.32433, 29.40994], [-99.3438, 29.40768], [-99.36266, 29.40481], [-99.37186, 29.40315], [-99.39967, 29.39836], [-99.41852, 29.39549], [-99.43808, 29.39331], [-99.45832, 29.39183], [-99.47891, 29.39071], [-99.48917, 29.39009], [-99.51974, 29.3881], [-99.53931, 29.38592], [-99.55815, 29.38305], [-99.57667, 29.37983], [-99.59517, 29.3766], [-99.61402, 29.37373], [-99.63358, 29.37156], [-99.65382, 29.37008], [-99.67442, 29.36895], [-99.69501, 29.36782], [-99.71526, 29.36634], [-99.7348, 29.36416], [-99.76295, 29.35972], [-99.77216, 29.35807], [-99.79067, 29.35484], [-99.80023, 29.35354], [-99.82909, 29.3498], [-99.84933, 29.34832], [-99.86992, 29.34719], [-99.89052, 29.34606], [-99.91076, 29.34458], [-99.9303, 29.3424], [-99.94916, 29.33953], [-99.96767, 29.33631], [-99.98617, 29.33308], [-100.00503, 29.33021], [-100.02458, 29.32804], [-100.04483, 29.32656], [-100.06542, 29.32543], [-100.07568, 29.32482], [-100.09601, 29.32343], [-100.12581, 29.32064], [-100.14466, 29.31777], [-100.17238, 29.31289], [-100.18167, 29.31133], [-100.20044, 29.30836], [-100.21965, 29.30584], [-100.2392, 29.30367], [-100.25874, 29.30149], [-100.27795, 29.29897], [-100.29664, 29.29592], [-100.3148, 29.29235], [-100.32357, 29.29026], [-100.35867, 29.28191], [-100.36728, 29.27964], [-100.37579, 29.27729], [-100.39282, 29.27259], [-100.40959, 29.26763], [-100.42603, 29.26232], [-100.44218, 29.25675], [-100.4659, 29.24788], [-100.48137, 29.24161], [-100.49666, 29.23517], [-100.50439, 29.23203], [-100.52741, 29.22246], [-100.54254, 29.21585], [-100.55739, 29.20897], [-100.5719, 29.20175], [-100.57885, 29.19783], [-100.59979, 29.18617], [-100.61352, 29.17816], [-100.62725, 29.17015], [-100.64107, 29.16223], [-100.6548, 29.15422], [-100.66818, 29.14587], [-100.68113, 29.13707], [-100.69354, 29.12776], [-100.70546, 29.11793], [-100.71709, 29.10783], [-100.72874, 29.09773], [-100.74055, 29.08781], [-100.75889, 29.07354], [-100.76515, 29.06892], [-100.78374, 29.05491], [-100.78973, 29.05004], [-100.80702, 29.03472], [-100.81745, 29.0234], [-100.83188, 29.00521], [-100.83656, 28.99903], [-100.85039, 28.98023], [-100.85499, 28.97396], [-100.86438, 28.96161], [-100.87393, 28.94942], [-100.87862, 28.94324], [-100.89253, 28.92453], [-100.89705, 28.91817], [-100.90599, 28.90538], [-100.91911, 28.88588], [-100.92763, 28.87265], [-100.93579, 28.85907], [-100.95057, 28.83035], [-100.95091, 28.8307], [-100.95752, 28.81555], [-100.96935, 28.78387], [-100.97229, 28.77595], [-100.97507, 28.76786], [-100.98045, 28.75149], [-100.98584, 28.73513], [-100.99123, 28.71877], [-100.99628, 28.70206], [-101.00114, 28.68517], [-101.00583, 28.66811], [-101.01035, 28.65088], [-101.01469, 28.63347], [-101.01886, 28.61589], [-101.02269, 28.59796], [-101.02599, 28.57951], [-101.02946, 28.55035], [-101.03078, 28.53007], [-101.0312, 28.50944], [-101.03076, 28.48881], [-101.02946, 28.46853], [-101.02815, 28.45896], [-101.02443, 28.43006], [-101.02112, 28.41161], [-101.01929, 28.40255], [-101.01573, 28.38437], [-101.01035, 28.35712], [-101.00844, 28.34816], [-101.00462, 28.33023], [-100.99611, 28.29524], [-100.99585, 28.2955], [-100.99072, 28.27887], [-100.98524, 28.2626], [-100.97925, 28.24684], [-100.9729, 28.23144], [-100.9663, 28.21629], [-100.95596, 28.19401], [-100.95231, 28.18679], [-100.94144, 28.16503], [-100.93771, 28.15789], [-100.93006, 28.14379], [-100.91833, 28.1229], [-100.91008, 28.10941], [-100.90164, 28.09609], [-100.89305, 28.08295], [-100.88426, 28.06998], [-100.87975, 28.06363], [-100.8661, 28.04465], [-100.85168, 28.02646], [-100.84657, 28.02072], [-100.83101, 28.00366], [-100.82562, 27.99817], [-100.81485, 27.98721], [-100.80399, 27.97633], [-100.78773, 27.95996], [-100.78226, 27.95457], [-100.7714, 27.94369], [-100.75507, 27.92741], [-100.74959, 27.92202], [-100.73283, 27.90617], [-100.7271, 27.90104], [-100.71535, 27.89103], [-100.70319, 27.88146], [-100.68433, 27.86771], [-100.6779, 27.86327], [-100.65184, 27.84586], [-100.65184, 27.84586], [-100.63854, 27.83741], [-100.6183, 27.82505], [-100.61135, 27.82114], [-100.59015, 27.80974], [-100.58302, 27.806], [-100.56869, 27.7986], [-100.54689, 27.7878], [-100.53246, 27.78049], [-100.52524, 27.77684], [-100.50326, 27.76622], [-100.49579, 27.76283], [-100.47302, 27.75299], [-100.44878, 27.74463], [-100.44052, 27.74202], [-100.41506, 27.73488], [-100.39777, 27.73044], [-100.38908, 27.72827], [-100.36319, 27.72174], [-100.35477, 27.71956], [-100.33, 27.71304], [-100.32219, 27.71086], [-100.31471, 27.70877], [-100.29942, 27.70477], [-100.26865, 27.69824]]]}}]}