{"type": "FeatureCollection", "features": [{"type": "Feature", "geometry": {"type": "LineString", "coordinates": [[-91.7, 28.9], [-92.2, 29.0], [-94.1, 29.3], [-97.0, 29.0], [-100.1, 28.5]]}, "properties": {"model": "OFCL", "label": "Official", "kind": "official", "cycle": "2026072306"}}, {"type": "Feature", "geometry": {"type": "LineString", "coordinates": [[-90.4, 29.2], [-91.6, 28.7], [-92.6, 28.6], [-93.7, 29.1], [-95.4, 29.3], [-97.7, 28.6], [-99.9, 26.9], [-101.7, 26.7], [-103.7, 26.1], [-104.9, 26.2]]}, "properties": {"model": "AVNO", "label": "GFS", "kind": "physics", "cycle": "2026072300"}}, {"type": "Feature", "geometry": {"type": "LineString", "coordinates": [[-90.8, 29.4], [-92.8, 28.1], [-94.6, 27.9], [-95.7, 27.8], [-97.6, 27.7], [-99.5, 27.6], [-100.9, 27.0], [-102.5, 26.6], [-104.5, 26.4], [-106.4, 26.3], [-109.3, 25.8], [-110.7, 25.8], [-111.4, 26.2], [-111.9, 27.0], [-112.6, 26.7]]}, "properties": {"model": "HFSA", "label": "HAFS-A", "kind": "physics", "cycle": "2026072300"}}, {"type": "Feature", "geometry": {"type": "LineString", "coordinates": [[-90.5, 29.5], [-92.8, 28.3], [-94.3, 27.7], [-95.4, 27.8], [-97.2, 27.9], [-99.3, 27.9], [-101.0, 27.4], [-102.9, 26.5], [-104.5, 26.1], [-106.5, 26.4]]}, "properties": {"model": "HFSB", "label": "HAFS-B", "kind": "physics", "cycle": "2026072300"}}]}