{"type": "FeatureCollection", "features": [{"type": "Feature", "properties": {"shapefile": "al022026-016_5day_lin", "STORMNAME": "Bertha", "STORMTYPE": "TS", "ADVDATE": "400 AM CDT Thu Jul 23 2026", "ADVISNUM": "16", "STORMNUM": 2, "FCSTPRD": 120, "BASIN": "AL"}, "geometry": {"type": "LineString", "coordinates": [[-92.2, 29.0], [-94.1, 29.3], [-97.0, 29.0], [-100.1, 28.5]]}}, {"type": "Feature", "properties": {"shapefile": "al022026-016_5day_pts", "ADVDATE": "400 AM CDT Thu Jul 23 2026", "ADVISNUM": "16", "BASIN": "AL", "DATELBL": "4:00 AM Thu", "DVLBL": "S", "FCSTPRD": 120, "FLDATELBL": "2026-07-23 1:00 AM Thu CDT", "GUST": 50, "LAT": 29, "LON": -92, "MAXWIND": 40, "MSLP": 1003, "SSNUM": 0, "STORMNAME": "Tropical Storm Bertha", "STORMNUM": 2, "STORMSRC": "Tropical Cyclone", "STORMTYPE": "TS", "TCDVLP": "Tropical Storm", "TAU": 0, "TCDIR": 270, "TCSPD": 11, "TIMEZONE": "CDT", "VALIDTIME": "23/0600"}, "geometry": {"type": "Point", "coordinates": [-92.2, 29.0]}}, {"type": "Feature", "properties": {"shapefile": "al022026-016_5day_pts", "ADVDATE": "400 AM CDT Thu Jul 23 2026", "ADVISNUM": "16", "BASIN": "AL", "DATELBL": "1:00 PM Thu", "DVLBL": "S", "FCSTPRD": 120, "FLDATELBL": "2026-07-23 1:00 PM Thu CDT", "GUST": 50, "LAT": 29, "LON": -94, "MAXWIND": 40, "MSLP": 9999, "SSNUM": 0, "STORMNAME": "Tropical Storm Bertha", "STORMNUM": 2, "STORMSRC": "Tropical Cyclone", "STORMTYPE": "TS", "TCDVLP": "Tropical Storm", "TAU": 12, "TCDIR": 9999, "TCSPD": 9999, "TIMEZONE": "CDT", "VALIDTIME": "23/1800"}, "geometry": {"type": "Point", "coordinates": [-94.1, 29.3]}}, {"type": "Feature", "properties": {"shapefile": "al022026-016_5day_pts", "ADVDATE": "400 AM CDT Thu Jul 23 2026", "ADVISNUM": "16", "BASIN": "AL", "DATELBL": "1:00 AM Fri", "DVLBL": "D", "FCSTPRD": 120, "FLDATELBL": "2026-07-24 1:00 AM Fri CDT", "GUST": 40, "LAT": 29, "LON": -97, "MAXWIND": 30, "MSLP": 9999, "SSNUM": 0, "STORMNAME": "Tropical Storm Bertha", "STORMNUM": 2, "STORMSRC": "Tropical Cyclone", "STORMTYPE": "TD", "TCDVLP": "Tropical Depression", "TAU": 24, "TCDIR": 9999, "TCSPD": 9999, "TIMEZONE": "CDT", "VALIDTIME": "24/0600"}, "geometry": {"type": "Point", "coordinates": [-97.0, 29.0]}}, {"type": "Feature", "properties": {"shapefile": "al022026-016_5day_pts", "ADVDATE": "400 AM CDT Thu Jul 23 2026", "ADVISNUM": "16", "BASIN": "AL", "DATELBL": "1:00 PM Fri", "DVLBL": "D", "FCSTPRD": 120, "FLDATELBL": "2026-07-24 1:00 PM Fri CDT", "GUST": 30, "LAT": 28, "LON": -100, "MAXWIND": 20, "MSLP": 9999, "SSNUM": 0, "STORMNAME": "Tropical Storm Bertha", "STORMNUM": 2, "STORMSRC": "Post-Tropical Cyclone", "STORMTYPE": "STD", "TCDVLP": "Subtropical Depression", "TAU": 36, "TCDIR": 9999, "TCSPD": 9999, "TIMEZONE": "CDT", "VALIDTIME": "24/1800"}, "geometry": {"type": "Point", "coordinates": [-100.1, 28.5]}}]}