{"type": "FeatureCollection", "features": [{"type": "Feature", "properties": {"shapefile": "al022026-016_ww_wwlin", "STORMNAME": "Bertha", "STORMTYPE": "TS", "ADVDATE": "400 AM CDT Thu Jul 23 2026", "ADVISNUM": "16", "STORMNUM": 2, "FCSTPRD": 120, "BASIN": "AL", "TCWW": "TWR"}, "geometry": {"type": "LineString", "coordinates": [[-95.6, 28.77], [-95.33, 28.93], [-95.13, 29.07], [-94.76, 29.38], [-94.39, 29.54], [-93.84, 29.69], [-93.3, 29.78], [-92.61, 29.59], [-92.04, 29.59], [-91.87, 29.72], [-91.29, 29.48], [-90.4, 29.27]]}}]}