{"type": "FeatureCollection", "features": [{"type": "Feature", "properties": {"shapefile": "al092021-015_5day_pgn", "STORMNAME": "Ida", "STORMTYPE": "HU", "ADVDATE": "400 PM CDT Sun Aug 29 2021", "ADVISNUM": "15", "STORMNUM": 9, "FCSTPRD": 120, "BASIN": "AL"}, "geometry": {"type": "Polygon", "coordinates": [[[-90.67262, 29.25341], [-90.6414, 29.24908], [-90.60793, 29.2477], [-90.57273, 29.24909], [-90.53737, 29.25341], [-90.50285, 29.26067], [-90.47008, 29.27069], [-90.42557, 29.29091], [-90.39969, 29.30819], [-90.37656, 29.32824], [-90.35655, 29.3514], [-90.33205, 29.39167], [-90.31911, 29.42191], [-90.3091, 29.45509], [-90.30186, 29.49069], [-90.29755, 29.52819], [-90.29617, 29.56691], [-90.29738, 29.60579], [-90.30099, 29.64399], [-90.30652, 29.68132], [-90.3129, 29.71813], [-90.31929, 29.75494], [-90.32515, 29.79227], [-90.33015, 29.83046], [-90.33447, 29.86935], [-90.33878, 29.90823], [-90.34378, 29.94643], [-90.34966, 29.98375], [-90.35603, 30.02057], [-90.36243, 30.05738], [-90.36812, 30.09488], [-90.37242, 30.13377], [-90.37518, 30.17421], [-90.37673, 30.21586], [-90.37743, 30.25837], [-90.3776, 30.3014], [-90.3776, 30.34461], [-90.3776, 30.38781], [-90.3776, 30.43102], [-90.3776, 30.47422], [-90.3776, 30.51743], [-90.3776, 30.56064], [-90.37743, 30.60367], [-90.37674, 30.64618], [-90.37518, 30.68784], [-90.37243, 30.72828], [-90.36812, 30.76716], [-90.36243, 30.80466], [-90.35603, 30.84147], [-90.34964, 30.87828], [-90.34379, 30.91562], [-90.33878, 30.95381], [-90.33447, 30.99269], [-90.33015, 31.03158], [-90.32515, 31.06977], [-90.31929, 31.1071], [-90.31273, 31.14374], [-90.30566, 31.17986], [-90.29842, 31.21581], [-90.29134, 31.25193], [-90.28426, 31.28805], [-90.27684, 31.32382], [-90.26908, 31.35925], [-90.26097, 31.39433], [-90.25252, 31.42907], [-90.2439, 31.46363], [-90.23527, 31.4982], [-90.22664, 31.53276], [-90.21802, 31.56733], [-90.20939, 31.60189], [-90.20059, 31.63628], [-90.19144, 31.67033], [-90.18196, 31.70403], [-90.17195, 31.73721], [-90.16107, 31.76953], [-90.14952, 31.80116], [-90.13744, 31.83226], [-90.1245, 31.86251], [-90.11087, 31.89206], [-90.09707, 31.92144], [-90.08292, 31.95048], [-90.06827, 31.97899], [-90.05342, 32.00734], [-90.03807, 32.03516], [-90.02168, 32.06195], [-90.00443, 32.08787], [-89.99563, 32.10065], [-89.96785, 32.13764], [-89.94904, 32.16201], [-89.93059, 32.18672], [-89.91229, 32.21161], [-89.89401, 32.2365], [-89.88487, 32.24894], [-89.85657, 32.28541], [-89.83673, 32.30873], [-89.82655, 32.32014], [-89.80585, 32.34261], [-89.77376, 32.37527], [-89.76306, 32.38616], [-89.73062, 32.41848], [-89.71992, 32.42937], [-89.69818, 32.4508], [-89.67679, 32.47257], [-89.65506, 32.494], [-89.63366, 32.51578], [-89.61192, 32.53721], [-89.59053, 32.55898], [-89.56879, 32.58041], [-89.54739, 32.60219], [-89.52567, 32.62362], [-89.50426, 32.64539], [-89.48253, 32.66682], [-89.46114, 32.6886], [-89.43939, 32.71003], [-89.40645, 32.74183], [-89.39523, 32.7522], [-89.37245, 32.77259], [-89.34865, 32.79195], [-89.32416, 32.81062], [-89.2993, 32.82893], [-89.27446, 32.84725], [-89.24997, 32.86592], [-89.22615, 32.88527], [-89.20303, 32.90532], [-89.17992, 32.92537], [-89.1568, 32.94541], [-89.13298, 32.96478], [-89.1085, 32.98344], [-89.08365, 33.00175], [-89.05881, 33.02007], [-89.0343, 33.03874], [-89.0105, 33.05809], [-88.98737, 33.07814], [-88.96426, 33.09819], [-88.94113, 33.11823], [-88.91734, 33.1376], [-88.89284, 33.15626], [-88.86765, 33.17423], [-88.84211, 33.19186], [-88.81623, 33.20914], [-88.79035, 33.22643], [-88.76447, 33.24371], [-88.73894, 33.26134], [-88.71375, 33.27931], [-88.6889, 33.29763], [-88.6644, 33.31629], [-88.64026, 33.3353], [-88.61576, 33.35397], [-88.59091, 33.37228], [-88.56572, 33.39026], [-88.54018, 33.40789], [-88.51431, 33.42517], [-88.48843, 33.44245], [-88.46255, 33.45973], [-88.43667, 33.47701], [-88.41079, 33.4943], [-88.38491, 33.51158], [-88.35903, 33.52886], [-88.33315, 33.54614], [-88.30727, 33.56342], [-88.28139, 33.58071], [-88.25552, 33.59799], [-88.22964, 33.61527], [-88.20375, 33.63255], [-88.17787, 33.64983], [-88.15199, 33.66712], [-88.12611, 33.6844], [-88.10023, 33.70168], [-88.07436, 33.71896], [-88.04848, 33.73624], [-88.0226, 33.75353], [-87.99672, 33.77081], [-87.97084, 33.78809], [-87.94496, 33.80538], [-87.91908, 33.82266], [-87.8932, 33.83994], [-87.86732, 33.85722], [-87.8411, 33.87416], [-87.81453, 33.89075], [-87.78761, 33.907], [-87.76001, 33.92255], [-87.73172, 33.93742], [-87.70343, 33.95228], [-87.67513, 33.96714], [-87.64684, 33.98201], [-87.61922, 33.99756], [-87.59231, 34.0138], [-87.56575, 34.03039], [-87.53918, 34.04698], [-87.5126, 34.06358], [-87.48569, 34.07982], [-87.45809, 34.09538], [-87.42979, 34.11024], [-87.4015, 34.1251], [-87.3732, 34.13997], [-87.34491, 34.15483], [-87.31731, 34.17038], [-87.29039, 34.18663], [-87.26382, 34.20322], [-87.23726, 34.21981], [-87.21069, 34.2364], [-87.18378, 34.25264], [-87.15617, 34.2682], [-87.12787, 34.28306], [-87.09958, 34.29792], [-87.07095, 34.31244], [-87.04196, 34.32661], [-87.01332, 34.34113], [-86.98468, 34.35565], [-86.97018, 34.36273], [-86.92706, 34.38433], [-86.89842, 34.39885], [-86.86943, 34.41302], [-86.84079, 34.42754], [-86.81216, 34.44205], [-86.78317, 34.45623], [-86.75452, 34.47074], [-86.72589, 34.48526], [-86.6969, 34.49943], [-86.66826, 34.51395], [-86.63963, 34.52847], [-86.61064, 34.54264], [-86.582, 34.55716], [-86.55336, 34.57167], [-86.52438, 34.58584], [-86.49573, 34.60036], [-86.4671, 34.61488], [-86.43811, 34.62905], [-86.40947, 34.64356], [-86.38084, 34.65808], [-86.35185, 34.67226], [-86.32321, 34.68678], [-86.29457, 34.70129], [-86.2799, 34.7082], [-86.25057, 34.72203], [-86.22107, 34.73568], [-86.19087, 34.74864], [-86.15999, 34.76092], [-86.12912, 34.77319], [-86.09823, 34.78545], [-86.06735, 34.79773], [-86.03716, 34.81069], [-85.993, 34.83125], [-85.96332, 34.84473], [-85.93399, 34.85856], [-85.90431, 34.87204], [-85.88896, 34.87826], [-85.84254, 34.89658], [-85.82719, 34.9028], [-85.79631, 34.91507], [-85.76526, 34.92717], [-85.73454, 34.93961], [-85.70418, 34.9524], [-85.67347, 34.96484], [-85.62688, 34.98299], [-85.61153, 34.98921], [-85.58065, 35.00148], [-85.54959, 35.01358], [-85.51888, 35.02602], [-85.48851, 35.03881], [-85.45781, 35.05125], [-85.42675, 35.06335], [-85.39587, 35.07563], [-85.36499, 35.0879], [-85.33393, 35.09999], [-85.28803, 35.11884], [-85.27286, 35.12523], [-85.24214, 35.13767], [-85.21109, 35.14977], [-85.18021, 35.16204], [-85.14933, 35.17431], [-85.11827, 35.18641], [-85.07237, 35.20524], [-85.05719, 35.21164], [-85.02649, 35.22408], [-84.9799, 35.24223], [-84.96455, 35.24845], [-84.93367, 35.26072], [-84.90262, 35.27282], [-84.8719, 35.28526], [-84.84154, 35.29805], [-84.81084, 35.31049], [-84.7796, 35.32242], [-84.7482, 35.33417], [-84.71646, 35.34557], [-84.6842, 35.35646], [-84.65193, 35.36735], [-84.62019, 35.37876], [-84.58879, 35.39051], [-84.55756, 35.40244], [-84.52685, 35.41488], [-84.49649, 35.42767], [-84.45026, 35.44616], [-84.43456, 35.45203], [-84.40315, 35.46378], [-84.3714, 35.47519], [-84.33914, 35.48608], [-84.3067, 35.49679], [-84.27444, 35.50768], [-84.24217, 35.51857], [-84.20974, 35.52928], [-84.17747, 35.54017], [-84.14574, 35.55158], [-84.11433, 35.56333], [-84.06758, 35.58131], [-84.0524, 35.5877], [-84.00685, 35.60688], [-83.99132, 35.61293], [-83.9444, 35.63073], [-83.9287, 35.6366], [-83.89696, 35.64801], [-83.84847, 35.66425], [-83.83226, 35.66961], [-83.8, 35.6805], [-83.76773, 35.69139], [-83.73529, 35.70211], [-83.70287, 35.71282], [-83.65456, 35.72924], [-83.63834, 35.7346], [-83.6059, 35.74531], [-83.57364, 35.7562], [-83.54189, 35.7676], [-83.51049, 35.77936], [-83.47926, 35.79128], [-83.43336, 35.81012], [-83.41818, 35.81651], [-83.38747, 35.82896], [-83.35625, 35.84088], [-83.32485, 35.85264], [-83.29311, 35.86404], [-83.26084, 35.87493], [-83.22841, 35.88564], [-83.19614, 35.89653], [-83.16388, 35.90742], [-83.13145, 35.91813], [-83.09901, 35.92885], [-83.06675, 35.93974], [-83.01827, 35.95599], [-83.00205, 35.96134], [-82.96962, 35.97205], [-82.93736, 35.98295], [-82.90509, 35.99384], [-82.87266, 36.00455], [-82.84023, 36.01527], [-82.80796, 36.02615], [-82.7757, 36.03704], [-82.74326, 36.04775], [-82.71083, 36.05846], [-82.67857, 36.06936], [-82.6463, 36.08024], [-82.61387, 36.09096], [-82.58144, 36.10168], [-82.54917, 36.11256], [-82.51691, 36.12345], [-82.48447, 36.13416], [-82.45204, 36.14487], [-82.41978, 36.15577], [-82.38751, 36.16666], [-82.35508, 36.17737], [-82.32265, 36.18809], [-82.29038, 36.19897], [-82.25812, 36.20986], [-82.20947, 36.22593], [-82.17703, 36.23665], [-82.16099, 36.24218], [-82.12872, 36.25306], [-82.09629, 36.26378], [-82.06385, 36.2745], [-82.03159, 36.28538], [-81.99932, 36.29627], [-81.95067, 36.31234], [-81.93446, 36.3177], [-81.88615, 36.33412], [-81.86993, 36.33948], [-81.83749, 36.35019], [-81.78883, 36.36626], [-81.7728, 36.37179], [-81.74052, 36.38268], [-81.70809, 36.39339], [-81.67566, 36.40411], [-81.6434, 36.415], [-81.61113, 36.42588], [-81.5787, 36.4366], [-81.54626, 36.44732], [-81.51401, 36.4582], [-81.48174, 36.46909], [-81.43308, 36.48516], [-81.41687, 36.49052], [-81.38461, 36.50141], [-81.35234, 36.5123], [-81.31991, 36.52301], [-81.28748, 36.53373], [-81.25504, 36.54444], [-81.22226, 36.55481], [-81.18896, 36.56466], [-81.15532, 36.57417], [-81.12134, 36.58333], [-81.08717, 36.59231], [-81.05319, 36.60147], [-81.01954, 36.61098], [-80.98624, 36.62083], [-80.95346, 36.6312], [-80.92103, 36.64191], [-80.88859, 36.65263], [-80.85616, 36.66334], [-80.82389, 36.67423], [-80.79163, 36.68512], [-80.75919, 36.69584], [-80.72676, 36.70655], [-80.67845, 36.72297], [-80.66223, 36.72832], [-80.6298, 36.73904], [-80.59737, 36.74976], [-80.56493, 36.76047], [-80.53215, 36.77084], [-80.49885, 36.78069], [-80.46521, 36.79019], [-80.43122, 36.79935], [-80.39706, 36.80834], [-80.36308, 36.8175], [-80.32944, 36.827], [-80.29613, 36.83686], [-80.26335, 36.84723], [-80.23092, 36.85794], [-80.19849, 36.86866], [-80.16605, 36.87937], [-80.13378, 36.89026], [-80.10152, 36.90115], [-80.06909, 36.91187], [-80.03665, 36.92258], [-80.00421, 36.9333], [-79.97144, 36.94366], [-79.93814, 36.95351], [-79.9045, 36.96302], [-79.87051, 36.97218], [-79.83618, 36.981], [-79.80167, 36.98964], [-79.76717, 36.99828], [-79.73265, 37.00692], [-79.69815, 37.01556], [-79.66364, 37.0242], [-79.62897, 37.03267], [-79.59395, 37.04079], [-79.55858, 37.04857], [-79.52287, 37.056], [-79.4868, 37.06308], [-79.45074, 37.07017], [-79.41504, 37.0776], [-79.37967, 37.08538], [-79.34464, 37.0935], [-79.30997, 37.10197], [-79.27545, 37.11061], [-79.24078, 37.11908], [-79.20575, 37.1272], [-79.17038, 37.13498], [-79.13468, 37.14241], [-79.09862, 37.14949], [-79.06256, 37.15658], [-79.02686, 37.16401], [-78.99149, 37.17179], [-78.95645, 37.17991], [-78.92178, 37.18838], [-78.88727, 37.19702], [-78.8526, 37.20549], [-78.81757, 37.21361], [-78.7822, 37.22139], [-78.74649, 37.22882], [-78.71043, 37.2359], [-78.67438, 37.24299], [-78.63867, 37.25042], [-78.60329, 37.2582], [-78.56827, 37.26632], [-78.5336, 37.27479], [-78.49908, 37.28343], [-78.46458, 37.29207], [-78.43008, 37.30071], [-78.39557, 37.30935], [-78.36106, 37.31799], [-78.32655, 37.32664], [-78.29188, 37.33511], [-78.25685, 37.34323], [-78.2215, 37.35101], [-78.18578, 37.35844], [-78.14971, 37.36552], [-78.11366, 37.3726], [-78.07794, 37.38004], [-78.04258, 37.38781], [-78.00755, 37.39594], [-77.95563, 37.40873], [-77.93837, 37.41305], [-77.90369, 37.42152], [-77.86867, 37.42964], [-77.83331, 37.43742], [-77.79759, 37.44485], [-77.76153, 37.45193], [-77.72546, 37.45901], [-77.68976, 37.46645], [-77.6544, 37.47422], [-77.61937, 37.48235], [-77.58469, 37.49082], [-77.55019, 37.49946], [-77.51569, 37.5081], [-77.48118, 37.51674], [-77.44667, 37.52538], [-77.41217, 37.53402], [-77.37766, 37.54266], [-77.34299, 37.55113], [-77.30797, 37.55926], [-77.27259, 37.56703], [-77.23688, 37.57446], [-77.20082, 37.58155], [-77.16476, 37.58864], [-77.12904, 37.59607], [-77.09367, 37.60384], [-77.05865, 37.61197], [-77.02397, 37.62044], [-76.98947, 37.62907], [-76.95496, 37.63772], [-76.92046, 37.64635], [-76.88596, 37.655], [-76.85144, 37.66364], [-76.81694, 37.67228], [-76.78226, 37.68075], [-76.74724, 37.68887], [-76.71188, 37.69665], [-76.67616, 37.70408], [-76.64011, 37.71117], [-76.60404, 37.71825], [-76.56833, 37.72569], [-76.53296, 37.73346], [-76.49794, 37.74158], [-76.46326, 37.75005], [-76.42876, 37.75869], [-76.39426, 37.76733], [-76.35974, 37.77597], [-76.32524, 37.78461], [-76.29074, 37.79326], [-76.25623, 37.8019], [-76.22156, 37.81037], [-76.18652, 37.81849], [-76.15115, 37.82627], [-76.11545, 37.8337], [-76.07939, 37.84079], [-76.04333, 37.84787], [-76.00763, 37.8553], [-75.97225, 37.86308], [-75.93723, 37.8712], [-75.90256, 37.87967], [-75.86804, 37.88831], [-75.83354, 37.89695], [-75.79903, 37.90559], [-75.76453, 37.91424], [-75.73002, 37.92287], [-75.69551, 37.93151], [-75.66101, 37.94016], [-75.6265, 37.9488], [-75.592, 37.95744], [-75.5575, 37.96608], [-75.52299, 37.97472], [-75.48831, 37.98319], [-75.45329, 37.99131], [-75.41792, 37.99909], [-75.3822, 38.00652], [-75.34615, 38.01361], [-75.31009, 38.02069], [-75.27438, 38.02812], [-75.23901, 38.0359], [-75.20399, 38.04402], [-75.16931, 38.05249], [-75.1348, 38.06113], [-75.1003, 38.06977], [-75.0658, 38.07841], [-75.03129, 38.08706], [-74.99678, 38.0957], [-74.96228, 38.10434], [-74.92777, 38.11298], [-74.89326, 38.12162], [-74.85876, 38.13026], [-74.82426, 38.1389], [-74.78975, 38.14754], [-74.75507, 38.15601], [-74.72005, 38.16413], [-74.68468, 38.17191], [-74.64897, 38.17934], [-74.6129, 38.18643], [-74.57684, 38.19351], [-74.54114, 38.20094], [-74.50577, 38.20872], [-74.47073, 38.21684], [-74.43607, 38.22531], [-74.40155, 38.23396], [-74.36705, 38.2426], [-74.33255, 38.25124], [-74.29803, 38.25988], [-74.26353, 38.26852], [-74.22903, 38.27716], [-74.17728, 38.29012], [-74.16002, 38.29444], [-74.12552, 38.30309], [-74.091, 38.31172], [-74.0565, 38.32037], [-74.022, 38.329], [-73.98749, 38.33765], [-73.95299, 38.34629], [-73.91849, 38.35493], [-73.88397, 38.36357], [-73.84947, 38.37221], [-73.81497, 38.38085], [-73.78046, 38.38949], [-73.74596, 38.39813], [-73.71145, 38.40678], [-73.67694, 38.41542], [-73.64244, 38.42406], [-73.60793, 38.4327], [-73.57343, 38.44134], [-73.53893, 38.44998], [-73.50424, 38.45845], [-73.46922, 38.46657], [-73.43385, 38.47435], [-73.39813, 38.48178], [-73.36208, 38.48886], [-73.32602, 38.49595], [-73.29031, 38.50338], [-73.25494, 38.51116], [-73.21992, 38.51928], [-73.18524, 38.52776], [-73.15073, 38.53639], [-73.11623, 38.54504], [-73.08173, 38.55367], [-73.04722, 38.56232], [-73.01271, 38.57096], [-72.97821, 38.5796], [-72.9437, 38.58824], [-72.90919, 38.59688], [-72.87469, 38.60552], [-72.84019, 38.61416], [-72.80568, 38.6228], [-72.77118, 38.63145], [-72.73667, 38.64009], [-72.70216, 38.64873], [-72.66766, 38.65737], [-72.63316, 38.66601], [-72.59865, 38.67465], [-72.56415, 38.68329], [-72.52964, 38.69193], [-72.49513, 38.70058], [-72.46063, 38.70922], [-72.42612, 38.71786], [-72.39162, 38.7265], [-72.3571, 38.73514], [-72.3226, 38.74378], [-72.28809, 38.75243], [-72.25359, 38.76107], [-72.20184, 38.77402], [-72.18459, 38.77834], [-72.15007, 38.78699], [-72.11574, 38.7958], [-72.06485, 38.80963], [-72.04811, 38.81446], [-72.01482, 38.82432], [-71.98186, 38.83452], [-71.94891, 38.84471], [-71.9156, 38.85456], [-71.88197, 38.86407], [-71.84798, 38.87323], [-71.81364, 38.88204], [-71.77914, 38.89068], [-71.74463, 38.89932], [-71.71013, 38.90797], [-71.67563, 38.91661], [-71.64111, 38.92525], [-71.60661, 38.93389], [-71.57211, 38.94253], [-71.5376, 38.95116], [-71.5031, 38.95981], [-71.4686, 38.96845], [-71.43408, 38.97709], [-71.39958, 38.98573], [-71.36508, 38.99438], [-71.33057, 39.00301], [-71.29607, 39.01165], [-71.26157, 39.0203], [-71.22705, 39.02894], [-71.19255, 39.03758], [-71.15805, 39.04622], [-71.12354, 39.05486], [-71.08904, 39.0635], [-71.05453, 39.07214], [-71.02002, 39.08079], [-70.98551, 39.08943], [-70.951, 39.09807], [-70.9165, 39.10671], [-70.882, 39.11535], [-70.84749, 39.12399], [-70.81299, 39.13263], [-70.77848, 39.14127], [-70.74397, 39.14991], [-70.70947, 39.15855], [-70.67496, 39.1672], [-70.64046, 39.17583], [-70.60612, 39.18465], [-70.57214, 39.19381], [-70.5385, 39.20332], [-70.5052, 39.21317], [-70.45586, 39.22855], [-70.43929, 39.23356], [-70.406, 39.24341], [-70.37234, 39.25291], [-70.33836, 39.26208], [-70.30403, 39.27089], [-70.26953, 39.27953], [-70.23502, 39.28817], [-70.20052, 39.29681], [-70.16602, 39.30545], [-70.13168, 39.31426], [-70.09769, 39.32343], [-70.06406, 39.33293], [-70.03075, 39.34278], [-69.9978, 39.35298], [-69.96484, 39.36317], [-69.93155, 39.37302], [-69.8979, 39.38253], [-69.86391, 39.39169], [-69.82958, 39.40051], [-69.79507, 39.40915], [-69.76057, 39.41779], [-69.72606, 39.42643], [-69.69156, 39.43507], [-69.65723, 39.44389], [-69.62323, 39.45305], [-69.58959, 39.46255], [-69.55629, 39.4724], [-69.52335, 39.48259], [-69.47383, 39.49781], [-69.45709, 39.50265], [-69.42345, 39.51215], [-69.38947, 39.52131], [-69.3553, 39.5303], [-69.32132, 39.53946], [-69.28767, 39.54896], [-69.25438, 39.55881], [-69.22142, 39.56901], [-69.18847, 39.5792], [-69.15517, 39.58906], [-69.12153, 39.59856], [-69.08754, 39.60772], [-69.05338, 39.61671], [-69.01939, 39.62587], [-68.98575, 39.63537], [-68.95245, 39.64523], [-68.90311, 39.66061], [-68.88655, 39.66562], [-68.85326, 39.67547], [-68.8027, 39.68964], [-68.78562, 39.69413], [-68.75146, 39.70312], [-68.71747, 39.71228], [-68.68383, 39.72178], [-68.65053, 39.73164], [-68.61758, 39.74184], [-68.58463, 39.75203], [-68.55132, 39.76188], [-68.51768, 39.77139], [-68.48369, 39.78055], [-68.44953, 39.78953], [-68.41554, 39.79869], [-68.3819, 39.8082], [-68.3486, 39.81805], [-68.31583, 39.82842], [-68.28339, 39.83913], [-68.25095, 39.84985], [-68.21852, 39.86056], [-68.18608, 39.87128], [-68.15331, 39.88165], [-68.12, 39.89149], [-68.08636, 39.901], [-68.05238, 39.91016], [-68.01822, 39.91914], [-67.98423, 39.92831], [-67.95059, 39.93781], [-67.91728, 39.94766], [-67.88434, 39.95786], [-67.85138, 39.96806], [-67.81808, 39.97791], [-67.78444, 39.98741], [-67.75045, 39.99657], [-67.71629, 40.00556], [-67.68231, 40.01472], [-67.64866, 40.02422], [-67.61537, 40.03407], [-67.58258, 40.04444], [-67.55016, 40.05516], [-67.51772, 40.06587], [-67.48528, 40.07659], [-67.45284, 40.0873], [-67.42006, 40.09767], [-67.38676, 40.10752], [-67.35312, 40.11703], [-67.31913, 40.12619], [-67.28497, 40.13517], [-67.25098, 40.14433], [-67.21734, 40.15384], [-67.18404, 40.16369], [-67.15126, 40.17406], [-67.1026, 40.19013], [-67.08639, 40.19549], [-67.05396, 40.2062], [-67.02152, 40.21692], [-66.98875, 40.22729], [-66.95544, 40.23714], [-66.9218, 40.24664], [-66.88782, 40.2558], [-66.85365, 40.26479], [-66.81967, 40.27395], [-66.78603, 40.28345], [-66.75273, 40.2933], [-66.71995, 40.30367], [-66.68752, 40.31439], [-66.65508, 40.32511], [-66.62263, 40.33582], [-66.57399, 40.35189], [-66.55742, 40.3569], [-66.52412, 40.36675], [-66.49049, 40.37626], [-66.4565, 40.38542], [-66.42234, 40.39441], [-66.38835, 40.40356], [-66.35471, 40.41307], [-66.32141, 40.42292], [-66.28845, 40.43312], [-66.2555, 40.44331], [-66.2222, 40.45317], [-66.18857, 40.46267], [-66.15457, 40.47183], [-66.12041, 40.48082], [-66.08643, 40.48997], [-66.05278, 40.49949], [-66.01949, 40.50933], [-65.98653, 40.51953], [-65.95357, 40.52972], [-65.92028, 40.53958], [-65.88663, 40.54909], [-65.85265, 40.55824], [-65.81849, 40.56723], [-65.7845, 40.57639], [-65.75086, 40.5859], [-65.71756, 40.59575], [-65.68478, 40.60612], [-65.65234, 40.61683], [-65.61991, 40.62755], [-65.58748, 40.63827], [-65.55504, 40.64898], [-65.52226, 40.65935], [-65.48896, 40.6692], [-65.45532, 40.6787], [-65.42133, 40.68787], [-65.38718, 40.69685], [-65.35319, 40.70601], [-65.31955, 40.71552], [-65.28624, 40.72536], [-65.25346, 40.73574], [-65.22102, 40.74645], [-65.1886, 40.75716], [-65.15616, 40.76788], [-65.12389, 40.77877], [-65.09163, 40.78965], [-65.0592, 40.80037], [-65.02693, 40.81126], [-64.99519, 40.82267], [-64.96379, 40.83442], [-64.93256, 40.84634], [-64.90185, 40.85879], [-64.87149, 40.87157], [-64.84077, 40.88402], [-64.80972, 40.89611], [-64.77884, 40.90839], [-64.74796, 40.92065], [-64.71707, 40.93292], [-64.67204, 40.95262], [-64.65738, 40.95953], [-64.62804, 40.97336], [-64.58475, 40.99479], [-64.55611, 41.00931], [-64.52711, 41.02348], [-64.49847, 41.038], [-64.46984, 41.05252], [-64.44086, 41.06668], [-64.41222, 41.0812], [-64.38358, 41.09572], [-64.35459, 41.10989], [-64.32596, 41.1244], [-64.29732, 41.13892], [-64.26833, 41.1531], [-64.23969, 41.16761], [-64.2114, 41.18248], [-64.18311, 41.19734], [-64.1555, 41.21289], [-64.12859, 41.22914], [-64.10202, 41.24573], [-64.07579, 41.26266], [-64.04991, 41.27995], [-64.02403, 41.29723], [-63.99815, 41.31451], [-63.97227, 41.33179], [-63.94639, 41.34908], [-63.92051, 41.36636], [-63.89463, 41.38364], [-63.86876, 41.40092], [-63.84287, 41.41821], [-63.81699, 41.43549], [-63.79111, 41.45277], [-63.76559, 41.4704], [-63.74039, 41.48838], [-63.70399, 41.51672], [-63.68053, 41.53642], [-63.66897, 41.54644], [-63.64585, 41.56649], [-63.62273, 41.58654], [-63.59892, 41.6059], [-63.57442, 41.62456], [-63.54958, 41.64288], [-63.52474, 41.6612], [-63.50024, 41.67986], [-63.47643, 41.69922], [-63.44244, 41.72998], [-63.42036, 41.75107], [-63.40948, 41.76178], [-63.37705, 41.7941], [-63.35548, 41.8157], [-63.33392, 41.8373], [-63.31236, 41.8589], [-63.29079, 41.88051], [-63.26922, 41.90211], [-63.24766, 41.92371], [-63.22609, 41.94532], [-63.21522, 41.95603], [-63.19383, 41.97781], [-63.17243, 41.99958], [-63.14156, 42.03345], [-63.12171, 42.05679], [-63.10273, 42.08098], [-63.08427, 42.10569], [-63.06599, 42.13058], [-63.0477, 42.15547], [-63.02924, 42.18018], [-63.01043, 42.20455], [-62.99163, 42.22892], [-62.97317, 42.25363], [-62.95488, 42.27852], [-62.93659, 42.30341], [-62.9183, 42.32829], [-62.89985, 42.353], [-62.88103, 42.37737], [-62.8624, 42.40191], [-62.84446, 42.42715], [-62.82721, 42.45307], [-62.81082, 42.47986], [-62.79546, 42.50768], [-62.78062, 42.53603], [-62.76596, 42.56454], [-62.75164, 42.5934], [-62.73732, 42.62226], [-62.72283, 42.65096], [-62.70851, 42.67982], [-62.69419, 42.70868], [-62.6797, 42.73737], [-62.66538, 42.76622], [-62.65106, 42.79508], [-62.63656, 42.82378], [-62.62242, 42.85281], [-62.60862, 42.88219], [-62.59499, 42.91174], [-62.58205, 42.94198], [-62.56997, 42.97309], [-62.55824, 43.00454], [-62.54685, 43.03635], [-62.53598, 43.06866], [-62.52528, 43.10115], [-62.51442, 43.13347], [-62.50354, 43.16579], [-62.49285, 43.19828], [-62.48215, 43.23077], [-62.47146, 43.26326], [-62.46128, 43.29627], [-62.45213, 43.33031], [-62.44402, 43.3654], [-62.43695, 43.40152], [-62.43091, 43.43867], [-62.42539, 43.47636], [-62.41952, 43.51368], [-62.41314, 43.5505], [-62.40659, 43.58713], [-62.4002, 43.62394], [-62.39451, 43.66145], [-62.3902, 43.70033], [-62.38744, 43.74077], [-62.38589, 43.78242], [-62.38519, 43.82494], [-62.38502, 43.86796], [-62.38502, 43.91117], [-62.38519, 43.95421], [-62.38588, 43.99672], [-62.38743, 44.03837], [-62.39019, 44.07881], [-62.39451, 44.1177], [-62.4002, 44.1552], [-62.40658, 44.19201], [-62.41314, 44.22865], [-62.41952, 44.26546], [-62.42539, 44.30279], [-62.43091, 44.34047], [-62.43695, 44.37762], [-62.44402, 44.41374], [-62.45213, 44.44883], [-62.46127, 44.48287], [-62.47145, 44.51588], [-62.48215, 44.54837], [-62.49285, 44.58086], [-62.50354, 44.61335], [-62.51442, 44.64567], [-62.52528, 44.67799], [-62.53598, 44.71048], [-62.54685, 44.74279], [-62.55824, 44.77459], [-62.56997, 44.80605], [-62.58205, 44.83715], [-62.59499, 44.8674], [-62.60862, 44.89695], [-62.62242, 44.92633], [-62.63657, 44.95536], [-62.65106, 44.98405], [-62.66538, 45.01292], [-62.6797, 45.04178], [-62.69437, 45.07029], [-62.7092, 45.09863], [-62.72438, 45.12663], [-62.73249, 45.14011], [-62.75664, 45.18073], [-62.77338, 45.20717], [-62.79046, 45.23326], [-62.80771, 45.25919], [-62.82496, 45.28511], [-62.84222, 45.31104], [-62.85947, 45.33696], [-62.87672, 45.36288], [-62.89415, 45.38863], [-62.91192, 45.41404], [-62.93021, 45.43892], [-62.94918, 45.46312], [-62.96902, 45.48645], [-62.98956, 45.50909], [-63.01043, 45.53138], [-63.03131, 45.55368], [-63.05183, 45.57632], [-63.07168, 45.59965], [-63.09066, 45.62384], [-63.10912, 45.64855], [-63.1274, 45.67345], [-63.14586, 45.69815], [-63.16484, 45.72235], [-63.18468, 45.74568], [-63.20539, 45.76815], [-63.22695, 45.78975], [-63.24938, 45.81049], [-63.27267, 45.83036], [-63.29683, 45.84937], [-63.33392, 45.87703], [-63.34634, 45.88618], [-63.38326, 45.91401], [-63.39516, 45.92369], [-63.41846, 45.94357], [-63.44106, 45.96413], [-63.46331, 45.98504], [-63.48557, 46.00595], [-63.50817, 46.02652], [-63.53146, 46.04639], [-63.55562, 46.06541], [-63.59271, 46.09306], [-63.61755, 46.11137], [-63.62997, 46.12054], [-63.65465, 46.13903], [-63.69105, 46.16737], [-63.71555, 46.18604], [-63.72797, 46.19519], [-63.76559, 46.22233], [-63.77835, 46.23114], [-63.80406, 46.2486], [-63.84322, 46.27418], [-63.86979, 46.29077], [-63.89671, 46.30701], [-63.91034, 46.31496], [-63.95157, 46.33847], [-63.9652, 46.34642], [-64.00574, 46.37061], [-64.01903, 46.37891], [-64.04559, 46.3955], [-64.07216, 46.41209], [-64.11237, 46.43663], [-64.13997, 46.45218], [-64.15411, 46.45961], [-64.19656, 46.48191], [-64.2252, 46.49643], [-64.25418, 46.5106], [-64.26851, 46.51786], [-64.31146, 46.53963], [-64.3408, 46.55346], [-64.37012, 46.56728], [-64.3998, 46.58076], [-64.43051, 46.5932], [-64.46156, 46.6053], [-64.47691, 46.61152], [-64.52332, 46.62984], [-64.55404, 46.64228], [-64.58371, 46.65577], [-64.59837, 46.66268], [-64.64272, 46.68307], [-64.67204, 46.6969], [-64.70172, 46.71038], [-64.71708, 46.7166], [-64.76383, 46.73457], [-64.79523, 46.74632], [-64.82732, 46.75739], [-64.85976, 46.7681], [-64.89219, 46.77882], [-64.92427, 46.78988], [-64.95671, 46.80059], [-64.98915, 46.8113], [-65.02159, 46.82202], [-65.0699, 46.83844], [-65.08612, 46.8438], [-65.11855, 46.85452], [-65.15099, 46.86523], [-65.18341, 46.87594], [-65.21654, 46.88596], [-65.26692, 46.90031], [-65.3009, 46.90947], [-65.31799, 46.91396], [-65.36992, 46.92675], [-65.40495, 46.93488], [-65.44031, 46.94265], [-65.47601, 46.95008], [-65.51208, 46.95717], [-65.5302, 46.96062], [-65.58402, 46.97151], [-65.60197, 46.97514], [-65.6558, 46.98603], [-65.67374, 46.98966], [-65.72774, 47.00037], [-65.76379, 47.00746], [-65.79968, 47.01472], [-65.83574, 47.0218], [-65.85385, 47.02526], [-65.90889, 47.03494], [-65.94616, 47.04081], [-65.98376, 47.04635], [-66.02104, 47.05222], [-66.05779, 47.05862], [-66.09436, 47.06519], [-66.13111, 47.07158], [-66.14957, 47.07469], [-66.20737, 47.0816], [-66.24757, 47.08454], [-66.28845, 47.08679], [-66.32935, 47.08903], [-66.36954, 47.09197], [-66.40836, 47.09629], [-66.4458, 47.102], [-66.48254, 47.10839], [-66.5193, 47.11478], [-66.53775, 47.1179], [-66.59555, 47.12481], [-66.63593, 47.12758], [-66.67751, 47.12914], [-66.71994, 47.12982], [-66.7629, 47.12999], [-66.80604, 47.12999], [-66.84917, 47.12999], [-66.8923, 47.12999], [-66.93543, 47.12999], [-66.97856, 47.12999], [-67.02169, 47.12999], [-67.06483, 47.12999], [-67.10796, 47.12999], [-67.15108, 47.12999], [-67.19422, 47.12999], [-67.23735, 47.12999], [-67.2803, 47.12982], [-67.32275, 47.12913], [-67.36433, 47.12757], [-67.40471, 47.12481], [-67.44353, 47.12049], [-67.48097, 47.11478], [-67.51772, 47.10839], [-67.55446, 47.10199], [-67.5919, 47.09629], [-67.63071, 47.09197], [-67.67092, 47.08904], [-67.71181, 47.08679], [-67.75269, 47.08454], [-67.79289, 47.0816], [-67.83171, 47.07728], [-67.86916, 47.07158], [-67.9059, 47.06518], [-67.94247, 47.05862], [-67.97922, 47.05222], [-68.01649, 47.04635], [-68.05411, 47.04081], [-68.09137, 47.03494], [-68.12811, 47.02854], [-68.16452, 47.0218], [-68.20058, 47.01472], [-68.23646, 47.00746], [-68.27251, 47.00037], [-68.32652, 46.98966], [-68.34446, 46.98603], [-68.38035, 46.97878], [-68.41624, 46.97151], [-68.45212, 46.96426], [-68.48817, 46.95717], [-68.52423, 46.95008], [-68.55995, 46.94265], [-68.59532, 46.93488], [-68.63034, 46.92675], [-68.68227, 46.91396], [-68.69936, 46.90947], [-68.73334, 46.90031], [-68.76698, 46.8908], [-68.80028, 46.88095], [-68.83306, 46.87058], [-68.86549, 46.85987], [-68.89793, 46.84915], [-68.94658, 46.83308], [-68.96263, 46.82755], [-69.01111, 46.8113], [-69.02733, 46.80595], [-69.07597, 46.78987], [-69.09203, 46.78434], [-69.1405, 46.7681], [-69.15672, 46.76274], [-69.20503, 46.74632], [-69.23643, 46.73457], [-69.25213, 46.72869], [-69.28319, 46.7166], [-69.31339, 46.70364], [-69.34288, 46.68998], [-69.38722, 46.66959], [-69.40189, 46.66268], [-69.44623, 46.64228], [-69.46158, 46.63606], [-69.49246, 46.62379], [-69.5387, 46.6053], [-69.56975, 46.5932], [-69.58511, 46.58698], [-69.63014, 46.56728], [-69.64481, 46.56037], [-69.6888, 46.53963], [-69.71744, 46.52511], [-69.74608, 46.51059], [-69.77506, 46.49642], [-69.80371, 46.48191], [-69.832, 46.46704], [-69.86029, 46.45218], [-69.88789, 46.43663], [-69.92809, 46.41209], [-69.94138, 46.40379], [-69.96794, 46.3872], [-69.99452, 46.37061], [-70.02143, 46.35437], [-70.04869, 46.33846], [-70.07629, 46.32291], [-70.10355, 46.30701], [-70.14375, 46.28247], [-70.15704, 46.27417], [-70.18326, 46.25724], [-70.20914, 46.23996], [-70.23467, 46.22233], [-70.27228, 46.1952], [-70.2847, 46.18604], [-70.3092, 46.16737], [-70.33336, 46.14836], [-70.37028, 46.12054], [-70.3827, 46.11137], [-70.40788, 46.0934], [-70.43343, 46.07578], [-70.4593, 46.05849], [-70.48518, 46.04121], [-70.51106, 46.02393], [-70.5366, 46.00629], [-70.5742, 45.97916], [-70.58662, 45.97001], [-70.61113, 45.95134], [-70.63528, 45.93233], [-70.6722, 45.90451], [-70.68462, 45.89535], [-70.70982, 45.87737], [-70.74829, 45.8511], [-70.76123, 45.84246], [-70.78711, 45.82518], [-70.81299, 45.8079], [-70.83852, 45.79027], [-70.86371, 45.7723], [-70.88855, 45.75397], [-70.92514, 45.72581], [-70.93721, 45.7163], [-70.96171, 45.69764], [-70.98656, 45.67932], [-71.0114, 45.661], [-71.04866, 45.63352], [-71.06109, 45.62436], [-71.08559, 45.6057], [-71.10974, 45.58669], [-71.13424, 45.56802], [-71.15908, 45.5497], [-71.18392, 45.53138], [-71.20877, 45.51306], [-71.23361, 45.49474], [-71.25812, 45.47608], [-71.29452, 45.44774], [-71.30676, 45.43841], [-71.3316, 45.42009], [-71.35645, 45.40177], [-71.38129, 45.38345], [-71.40614, 45.36513], [-71.44272, 45.33696], [-71.45479, 45.32745], [-71.47929, 45.30879], [-71.51656, 45.28131], [-71.52898, 45.27215], [-71.55382, 45.25383], [-71.57867, 45.23551], [-71.60316, 45.21684], [-71.62732, 45.19784], [-71.65182, 45.17918], [-71.67667, 45.16085], [-71.70151, 45.14253], [-71.73877, 45.11505], [-71.75119, 45.1059], [-71.7757, 45.08723], [-71.8121, 45.05888], [-71.82434, 45.04955], [-71.84919, 45.03123], [-71.87402, 45.01291], [-71.89887, 44.99459], [-71.93596, 44.96695], [-71.9603, 44.9481], [-71.97237, 44.9386], [-72.00929, 44.91078], [-72.02172, 44.90162], [-72.04655, 44.8833], [-72.0714, 44.86498], [-72.1085, 44.83733], [-72.12074, 44.828], [-72.1449, 44.80898], [-72.1694, 44.79032], [-72.20683, 44.76302], [-72.21942, 44.75403], [-72.24496, 44.7364], [-72.27084, 44.71912], [-72.29672, 44.70184], [-72.33537, 44.67574], [-72.34814, 44.66692], [-72.37332, 44.64895], [-72.39816, 44.63063], [-72.43475, 44.60246], [-72.44682, 44.59296], [-72.47131, 44.5743], [-72.49616, 44.55598], [-72.53343, 44.5285], [-72.55827, 44.51018], [-72.57069, 44.50101], [-72.5952, 44.48235], [-72.61935, 44.46334], [-72.65627, 44.43552], [-72.66869, 44.42636], [-72.69389, 44.40839], [-72.71942, 44.39075], [-72.7453, 44.37347], [-72.77118, 44.35619], [-72.79706, 44.33891], [-72.82294, 44.32162], [-72.84882, 44.30434], [-72.87469, 44.28706], [-72.90057, 44.26978], [-72.93922, 44.24368], [-72.96458, 44.22588], [-72.97717, 44.2169], [-73.01427, 44.18925], [-73.02652, 44.17991], [-73.05066, 44.1609], [-73.07516, 44.14224], [-73.10001, 44.12392], [-73.13797, 44.09713], [-73.15073, 44.08832], [-73.17661, 44.07104], [-73.20249, 44.05375], [-73.22837, 44.03647], [-73.26719, 44.01054], [-73.28013, 44.0019], [-73.30601, 43.98462], [-73.34551, 43.95939], [-73.3588, 43.95109], [-73.38572, 43.93484], [-73.41298, 43.91895], [-73.44058, 43.90339], [-73.46783, 43.88749], [-73.49475, 43.87125], [-73.52132, 43.85466], [-73.54755, 43.83772], [-73.58636, 43.8118], [-73.61224, 43.79452], [-73.62518, 43.78587], [-73.65106, 43.76859], [-73.67729, 43.75166], [-73.70386, 43.73506], [-73.73077, 43.71882], [-73.75803, 43.70293], [-73.78564, 43.68737], [-73.8129, 43.67146], [-73.83981, 43.65522], [-73.86638, 43.63863], [-73.89294, 43.62204], [-73.91951, 43.60545], [-73.94643, 43.5892], [-73.97369, 43.5733], [-74.0013, 43.55775], [-74.02856, 43.54185], [-74.05547, 43.5256], [-74.08205, 43.50902], [-74.12189, 43.48413], [-74.13518, 43.47583], [-74.16209, 43.45959], [-74.1897, 43.44403], [-74.21799, 43.42917], [-74.24628, 43.41431], [-74.27458, 43.39944], [-74.30287, 43.38458], [-74.33047, 43.36903], [-74.35739, 43.35278], [-74.38396, 43.3362], [-74.42381, 43.31131], [-74.4371, 43.30301], [-74.46402, 43.28677], [-74.49162, 43.27121], [-74.51991, 43.25635], [-74.5482, 43.24149], [-74.57685, 43.22697], [-74.60583, 43.2128], [-74.63448, 43.19828], [-74.66311, 43.18376], [-74.6921, 43.16959], [-74.72073, 43.15508], [-74.74937, 43.14056], [-74.77837, 43.12639], [-74.80701, 43.11187], [-74.83564, 43.09735], [-74.86462, 43.08318], [-74.89326, 43.06866], [-74.9219, 43.05414], [-74.93639, 43.04705], [-74.97952, 43.02546], [-75.00816, 43.01094], [-75.03716, 42.99677], [-75.0658, 42.98225], [-75.09443, 42.96773], [-75.12341, 42.95356], [-75.15205, 42.93904], [-75.18069, 42.92453], [-75.19536, 42.91761], [-75.22469, 42.90379], [-75.25418, 42.89014], [-75.29974, 42.87095], [-75.31526, 42.86491], [-75.34615, 42.85263], [-75.37703, 42.84036], [-75.40791, 42.82809], [-75.43811, 42.81513], [-75.48227, 42.79457], [-75.5116, 42.78074], [-75.54025, 42.76622], [-75.56888, 42.75171], [-75.59786, 42.73753], [-75.6265, 42.72302], [-75.65514, 42.7085], [-75.66963, 42.70141], [-75.71277, 42.67981], [-75.7414, 42.66529], [-75.75607, 42.65839], [-75.7854, 42.64455], [-75.81491, 42.63091], [-75.84509, 42.61794], [-75.87598, 42.60567], [-75.90686, 42.5934], [-75.93774, 42.58113], [-75.96863, 42.56886], [-75.99883, 42.5559], [-76.02832, 42.54224], [-76.07233, 42.52151], [-76.10095, 42.50699], [-76.12959, 42.49247], [-76.14426, 42.48556], [-76.1736, 42.47173], [-76.21793, 42.45134], [-76.23328, 42.44512], [-76.26416, 42.43285], [-76.29504, 42.42058], [-76.32593, 42.40831], [-76.35681, 42.39604], [-76.38701, 42.38307], [-76.43118, 42.36251], [-76.46051, 42.34869], [-76.48914, 42.33417], [-76.51778, 42.31965], [-76.54712, 42.30583], [-76.56178, 42.29891], [-76.60612, 42.27852], [-76.62147, 42.2723], [-76.65236, 42.26003], [-76.68324, 42.24776], [-76.71412, 42.23549], [-76.76035, 42.217], [-76.77519, 42.21025], [-76.8047, 42.1966], [-76.8342, 42.18295], [-76.87836, 42.16238], [-76.8932, 42.15564], [-76.93875, 42.13646], [-76.95428, 42.13041], [-76.98515, 42.11813], [-77.01604, 42.10587], [-77.04692, 42.0936], [-77.07712, 42.08064], [-77.10661, 42.06699], [-77.13612, 42.05333], [-77.18028, 42.03277], [-77.20996, 42.01928], [-77.22531, 42.01306], [-77.2562, 42.00079], [-77.28708, 41.98852], [-77.31797, 41.97625], [-77.34885, 41.96398], [-77.37904, 41.95102], [-77.4232, 41.93045], [-77.45288, 41.91698], [-77.46754, 41.91006], [-77.49704, 41.89641], [-77.52724, 41.88345], [-77.55812, 41.87118], [-77.60436, 41.85268], [-77.61989, 41.84663], [-77.65076, 41.83437], [-77.68096, 41.8214], [-77.71046, 41.80775], [-77.73996, 41.7941], [-77.76946, 41.78045], [-77.81381, 41.76005], [-77.82916, 41.75383], [-77.86004, 41.74156], [-77.89093, 41.72929], [-77.92181, 41.71702], [-77.96805, 41.69853], [-77.98288, 41.69179], [-78.01238, 41.67814], [-78.04189, 41.66448], [-78.0714, 41.65083], [-78.10089, 41.63718], [-78.13107, 41.62421], [-78.17749, 41.6059], [-78.19284, 41.59967], [-78.23926, 41.58135], [-78.25461, 41.57513], [-78.28481, 41.56217], [-78.31432, 41.54852], [-78.34381, 41.53487], [-78.37331, 41.52121], [-78.40282, 41.50756], [-78.43301, 41.4946], [-78.46389, 41.48233], [-78.49478, 41.47005], [-78.52566, 41.45779], [-78.55654, 41.44551], [-78.58673, 41.43256], [-78.61624, 41.4189], [-78.66057, 41.39851], [-78.68991, 41.38468], [-78.70474, 41.37794], [-78.73492, 41.36498], [-78.78134, 41.34666], [-78.79669, 41.34044], [-78.82758, 41.32817], [-78.87382, 41.30968], [-78.88866, 41.30293], [-78.93282, 41.28237], [-78.94766, 41.27563], [-78.97717, 41.26198], [-79.00666, 41.24832], [-79.03686, 41.23536], [-79.06774, 41.22309], [-79.11398, 41.2046], [-79.1295, 41.19855], [-79.16039, 41.18628], [-79.19058, 41.17332], [-79.23474, 41.15276], [-79.26442, 41.13927], [-79.27908, 41.13236], [-79.32343, 41.11197], [-79.33878, 41.10574], [-79.36966, 41.09347], [-79.40054, 41.0812], [-79.43142, 41.06893], [-79.46231, 41.05666], [-79.49249, 41.0437], [-79.522, 41.03005], [-79.55151, 41.0164], [-79.58101, 41.00275], [-79.6105, 40.98909], [-79.65605, 40.96991], [-79.67159, 40.96386], [-79.71782, 40.94537], [-79.74887, 40.93327], [-79.76422, 40.92705], [-79.79443, 40.91409], [-79.82393, 40.90043], [-79.85326, 40.88661], [-79.89656, 40.86518], [-79.92519, 40.85066], [-79.93987, 40.84375], [-79.96919, 40.82993], [-79.99869, 40.81627], [-80.02888, 40.80331], [-80.05977, 40.79104], [-80.09065, 40.77876], [-80.12154, 40.76649], [-80.1524, 40.75423], [-80.18261, 40.74126], [-80.21211, 40.72761], [-80.2561, 40.70687], [-80.28475, 40.69236], [-80.31339, 40.67784], [-80.32805, 40.67093], [-80.35738, 40.6571], [-80.40172, 40.63671], [-80.41708, 40.63049], [-80.44795, 40.61822], [-80.4942, 40.59972], [-80.50972, 40.59367], [-80.5406, 40.58141], [-80.5708, 40.56844], [-80.6003, 40.55479], [-80.62962, 40.54096], [-80.67294, 40.51953], [-80.70157, 40.50502], [-80.73056, 40.49084], [-80.7592, 40.47633], [-80.78784, 40.46181], [-80.81683, 40.44764], [-80.84546, 40.43312], [-80.8741, 40.41861], [-80.88876, 40.41169], [-80.91811, 40.39787], [-80.96243, 40.37747], [-80.97778, 40.37125], [-81.00867, 40.35898], [-81.03955, 40.34671], [-81.07043, 40.33443], [-81.10132, 40.32217], [-81.13152, 40.3092], [-81.17568, 40.28864], [-81.19035, 40.28173], [-81.23364, 40.2603], [-81.26228, 40.24578], [-81.29128, 40.23161], [-81.31992, 40.21709], [-81.34855, 40.20257], [-81.37754, 40.1884], [-81.40617, 40.17389], [-81.43481, 40.15937], [-81.46381, 40.1452], [-81.49243, 40.13068], [-81.52108, 40.11617], [-81.55006, 40.10199], [-81.5787, 40.08748], [-81.60735, 40.07296], [-81.63633, 40.05879], [-81.66496, 40.04427], [-81.69361, 40.02975], [-81.70827, 40.02284], [-81.7376, 40.00901], [-81.78194, 39.98862], [-81.79729, 39.9824], [-81.82818, 39.97013], [-81.85905, 39.95786], [-81.88994, 39.94559], [-81.921, 39.93349], [-81.96689, 39.91466], [-81.98207, 39.90826], [-82.01278, 39.89582], [-82.04384, 39.88372], [-82.07472, 39.87144], [-82.10561, 39.85918], [-82.13647, 39.84691], [-82.16668, 39.83395], [-82.21085, 39.81338], [-82.22551, 39.80647], [-82.26881, 39.78504], [-82.29745, 39.77052], [-82.32678, 39.7567], [-82.34145, 39.74979], [-82.37094, 39.73613], [-82.40114, 39.72317], [-82.43202, 39.7109], [-82.46291, 39.69862], [-82.50931, 39.68031], [-82.52466, 39.67409], [-82.55486, 39.66112], [-82.58437, 39.64747], [-82.62836, 39.62673], [-82.657, 39.61221], [-82.68563, 39.5977], [-82.71497, 39.58387], [-82.72963, 39.57696], [-82.75912, 39.56331], [-82.78933, 39.55035], [-82.82021, 39.53807], [-82.85109, 39.5258], [-82.8975, 39.50748], [-82.91286, 39.50126], [-82.95789, 39.48156], [-82.97255, 39.47465], [-83.00188, 39.46082], [-83.04519, 39.43939], [-83.07382, 39.42487], [-83.10281, 39.4107], [-83.13145, 39.39619], [-83.16009, 39.38167], [-83.18907, 39.3675], [-83.21771, 39.35298], [-83.24635, 39.33846], [-83.27534, 39.32429], [-83.30398, 39.30978], [-83.33262, 39.29525], [-83.3616, 39.28109], [-83.39024, 39.26657], [-83.41888, 39.25205], [-83.44788, 39.23788], [-83.4765, 39.22336], [-83.50514, 39.20885], [-83.53413, 39.19468], [-83.56277, 39.18016], [-83.57709, 39.1729], [-83.62039, 39.15147], [-83.64903, 39.13696], [-83.67767, 39.12243], [-83.70667, 39.10826], [-83.73529, 39.09375], [-83.76393, 39.07923], [-83.79292, 39.06506], [-83.80725, 39.0578], [-83.8502, 39.03603], [-83.87919, 39.02185], [-83.90782, 39.00734], [-83.93647, 38.99282], [-83.96545, 38.97865], [-83.99408, 38.96413], [-84.02238, 38.94927], [-84.05067, 38.93441], [-84.07828, 38.91885], [-84.10519, 38.9026], [-84.13176, 38.88601], [-84.15833, 38.86942], [-84.18491, 38.85283], [-84.21182, 38.83659], [-84.23943, 38.82104], [-84.26772, 38.80618], [-84.29601, 38.79131], [-84.32465, 38.77679], [-84.33914, 38.76971], [-84.38228, 38.7481], [-84.41057, 38.73324], [-84.43886, 38.71838], [-84.46647, 38.70282], [-84.49338, 38.68658], [-84.51996, 38.66999], [-84.54652, 38.6534], [-84.57309, 38.6368], [-84.60001, 38.62056], [-84.62761, 38.605], [-84.6559, 38.59014], [-84.6842, 38.57528], [-84.71284, 38.56076], [-84.74182, 38.54659], [-84.77046, 38.53207], [-84.79875, 38.51721], [-84.82705, 38.50235], [-84.85465, 38.48679], [-84.88156, 38.47055], [-84.90814, 38.45395], [-84.9347, 38.43736], [-84.96127, 38.42077], [-84.98819, 38.40453], [-85.01579, 38.38897], [-85.04408, 38.37411], [-85.07239, 38.35925], [-85.10102, 38.34473], [-85.11552, 38.33765], [-85.15865, 38.31604], [-85.18694, 38.30118], [-85.21523, 38.28632], [-85.24284, 38.27077], [-85.26975, 38.25452], [-85.29633, 38.23793], [-85.32289, 38.22134], [-85.34946, 38.20475], [-85.37637, 38.1885], [-85.40398, 38.17295], [-85.43227, 38.15808], [-85.44643, 38.15065], [-85.48921, 38.12871], [-85.5037, 38.12162], [-85.54684, 38.10002], [-85.57513, 38.08516], [-85.60342, 38.07029], [-85.63103, 38.05474], [-85.65794, 38.03849], [-85.68451, 38.0219], [-85.71107, 38.00531], [-85.73766, 37.98872], [-85.76457, 37.97248], [-85.79218, 37.95692], [-85.82047, 37.94206], [-85.84875, 37.9272], [-85.87706, 37.91233], [-85.90535, 37.89747], [-85.93296, 37.88192], [-85.95988, 37.86567], [-85.98643, 37.84908], [-86.013, 37.83249], [-86.03958, 37.8159], [-86.06649, 37.79965], [-86.09409, 37.7841], [-86.12239, 37.76923], [-86.15068, 37.75437], [-86.17899, 37.73951], [-86.20728, 37.72465], [-86.23488, 37.70909], [-86.2618, 37.69285], [-86.28836, 37.67625], [-86.31493, 37.65967], [-86.34149, 37.64307], [-86.36841, 37.62683], [-86.39566, 37.61093], [-86.42328, 37.59538], [-86.45054, 37.57948], [-86.47746, 37.56323], [-86.50401, 37.54664], [-86.53059, 37.53005], [-86.55716, 37.51346], [-86.58408, 37.49722], [-86.61133, 37.48131], [-86.63893, 37.46576], [-86.6662, 37.44986], [-86.69312, 37.43361], [-86.71967, 37.41702], [-86.7459, 37.40009], [-86.77177, 37.3828], [-86.79766, 37.36552], [-86.82354, 37.34824], [-86.84942, 37.33096], [-86.87564, 37.31402], [-86.90221, 37.29743], [-86.92913, 37.28119], [-86.95639, 37.26528], [-86.98399, 37.24973], [-87.01125, 37.23383], [-87.03816, 37.21758], [-87.06473, 37.20099], [-87.09095, 37.18406], [-87.11683, 37.16678], [-87.14272, 37.1495], [-87.16859, 37.13221], [-87.19447, 37.11493], [-87.22034, 37.09765], [-87.24622, 37.08037], [-87.27211, 37.06309], [-87.29798, 37.0458], [-87.32386, 37.02852], [-87.34974, 37.01124], [-87.37562, 36.99396], [-87.4015, 36.97668], [-87.42738, 36.95939], [-87.45325, 36.94211], [-87.47913, 36.92483], [-87.50501, 36.90755], [-87.5309, 36.89027], [-87.55678, 36.87298], [-87.58266, 36.8557], [-87.60854, 36.83842], [-87.63441, 36.82113], [-87.66029, 36.80385], [-87.68617, 36.78657], [-87.71205, 36.76929], [-87.73793, 36.75201], [-87.76381, 36.73472], [-87.78935, 36.71709], [-87.81454, 36.69912], [-87.83938, 36.6808], [-87.86388, 36.66214], [-87.88803, 36.64312], [-87.91252, 36.62446], [-87.93737, 36.60614], [-87.96256, 36.58816], [-87.9881, 36.57053], [-88.01398, 36.55325], [-88.03986, 36.53597], [-88.06573, 36.51869], [-88.09127, 36.50106], [-88.11646, 36.48309], [-88.1413, 36.46477], [-88.1658, 36.4461], [-88.18996, 36.42709], [-88.21446, 36.40843], [-88.2393, 36.39011], [-88.26414, 36.37179], [-88.28899, 36.35347], [-88.31384, 36.33515], [-88.33833, 36.31649], [-88.36249, 36.29748], [-88.38699, 36.27881], [-88.41183, 36.2605], [-88.43668, 36.24218], [-88.46152, 36.22386], [-88.48636, 36.20554], [-88.51086, 36.18687], [-88.53502, 36.16786], [-88.55951, 36.1492], [-88.58435, 36.13088], [-88.60921, 36.11256], [-88.63403, 36.09424], [-88.65854, 36.07558], [-88.68234, 36.05622], [-88.70547, 36.03617], [-88.72859, 36.01613], [-88.75171, 35.99608], [-88.77551, 35.97672], [-88.80001, 35.95806], [-88.82486, 35.93974], [-88.8497, 35.92142], [-88.87421, 35.90275], [-88.89801, 35.8834], [-88.92078, 35.863], [-88.94321, 35.84227], [-88.9653, 35.82118], [-88.98773, 35.80044], [-89.0105, 35.78005], [-89.03432, 35.76069], [-89.0588, 35.74203], [-89.08365, 35.72371], [-89.10849, 35.70539], [-89.133, 35.68672], [-89.1568, 35.66737], [-89.17957, 35.64698], [-89.202, 35.62624], [-89.22374, 35.6048], [-89.24548, 35.58337], [-89.26688, 35.5616], [-89.2886, 35.54017], [-89.31035, 35.51874], [-89.33278, 35.498], [-89.35555, 35.47761], [-89.37936, 35.45825], [-89.40385, 35.43959], [-89.42871, 35.42127], [-89.45355, 35.40295], [-89.47804, 35.38428], [-89.50186, 35.36493], [-89.52463, 35.34454], [-89.54706, 35.3238], [-89.56879, 35.30237], [-89.59053, 35.28094], [-89.6228, 35.24845], [-89.63367, 35.23773], [-89.65506, 35.21596], [-89.67679, 35.19453], [-89.69819, 35.17275], [-89.71992, 35.15132], [-89.74132, 35.12955], [-89.76306, 35.10812], [-89.78445, 35.08634], [-89.80618, 35.06491], [-89.83846, 35.03242], [-89.84932, 35.02171], [-89.87071, 34.99993], [-89.89246, 34.9785], [-89.91385, 34.95672], [-89.93558, 34.93529], [-89.95698, 34.91351], [-89.97871, 34.89209], [-90.00011, 34.87031], [-90.02185, 34.84888], [-90.04324, 34.82711], [-90.06464, 34.80533], [-90.08534, 34.78286], [-90.1057, 34.76005], [-90.12502, 34.7362], [-90.14365, 34.71166], [-90.16194, 34.68677], [-90.18024, 34.66189], [-90.19885, 34.63734], [-90.21819, 34.61349], [-90.23854, 34.59068], [-90.25925, 34.56821], [-90.28064, 34.54644], [-90.30203, 34.52467], [-90.32343, 34.50289], [-90.34413, 34.48042], [-90.36449, 34.45761], [-90.38381, 34.43376], [-90.40244, 34.40922], [-90.42073, 34.38433], [-90.43903, 34.35945], [-90.45765, 34.33491], [-90.47698, 34.31106], [-90.49699, 34.2879], [-90.51701, 34.26474], [-90.53702, 34.24158], [-90.55634, 34.21774], [-90.58412, 34.18075], [-90.59326, 34.1683], [-90.61155, 34.14342], [-90.62984, 34.11853], [-90.64848, 34.09399], [-90.66746, 34.0698], [-90.68609, 34.04525], [-90.70438, 34.02037], [-90.72266, 33.99548], [-90.74095, 33.9706], [-90.75924, 33.94571], [-90.77788, 33.92117], [-90.79685, 33.89698], [-90.81548, 33.87243], [-90.84274, 33.83493], [-90.85172, 33.82231], [-90.87793, 33.78378], [-90.89519, 33.75785], [-90.91245, 33.73193], [-90.92107, 33.71896], [-90.94695, 33.68008], [-90.9642, 33.65416], [-90.98128, 33.62806], [-90.99801, 33.60162], [-91.0144, 33.57483], [-91.03027, 33.54753], [-91.03804, 33.5337], [-91.0603, 33.49119], [-91.06772, 33.47702], [-91.08997, 33.4345], [-91.10515, 33.40651], [-91.12103, 33.3792], [-91.13741, 33.35241], [-91.15398, 33.3258], [-91.17054, 33.29918], [-91.18692, 33.2724], [-91.19504, 33.25891], [-91.21782, 33.21692], [-91.23213, 33.18806], [-91.24593, 33.15868], [-91.25887, 33.12843], [-91.27112, 33.0975], [-91.27716, 33.08194], [-91.29562, 33.03563], [-91.30769, 33.00452], [-91.32011, 32.97376], [-91.33289, 32.94334], [-91.34531, 32.91258], [-91.35721, 32.8813], [-91.36895, 32.84985], [-91.38034, 32.81804], [-91.3912, 32.78573], [-91.4019, 32.75323], [-91.41277, 32.72092], [-91.42364, 32.6886], [-91.43433, 32.65611], [-91.44503, 32.62362], [-91.45573, 32.59113], [-91.46591, 32.55812], [-91.47523, 32.52425], [-91.48385, 32.48969], [-91.49179, 32.45443], [-91.49903, 32.41848], [-91.5061, 32.38236], [-91.51335, 32.34641], [-91.52043, 32.3103], [-91.52698, 32.27365], [-91.53267, 32.23615], [-91.53697, 32.19727], [-91.53992, 32.157], [-91.54217, 32.11604], [-91.5444, 32.07508], [-91.54734, 32.03481], [-91.55165, 31.99593], [-91.55734, 31.95843], [-91.56357, 31.92179], [-91.56924, 31.88567], [-91.57339, 31.84972], [-91.57494, 31.8136], [-91.57339, 31.77748], [-91.56924, 31.74153], [-91.56355, 31.70541], [-91.55734, 31.66877], [-91.55164, 31.63127], [-91.54733, 31.59238], [-91.54458, 31.55195], [-91.54303, 31.5103], [-91.54234, 31.46778], [-91.54199, 31.42492], [-91.54131, 31.38241], [-91.53975, 31.34076], [-91.53699, 31.30032], [-91.53268, 31.26143], [-91.52698, 31.22393], [-91.5206, 31.18712], [-91.51405, 31.15048], [-91.50766, 31.11367], [-91.5018, 31.07634], [-91.49628, 31.03867], [-91.49042, 31.00134], [-91.48402, 30.96453], [-91.47729, 30.92806], [-91.47021, 30.89194], [-91.46298, 30.856], [-91.4559, 30.81987], [-91.44882, 30.78375], [-91.44158, 30.74781], [-91.43433, 30.71186], [-91.42709, 30.67591], [-91.41984, 30.63997], [-91.41277, 30.60384], [-91.40553, 30.5679], [-91.39759, 30.53264], [-91.38896, 30.49808], [-91.37965, 30.4642], [-91.36946, 30.43119], [-91.35876, 30.3987], [-91.34807, 30.36621], [-91.3372, 30.33389], [-91.32582, 30.30209], [-91.31409, 30.27064], [-91.30201, 30.23953], [-91.28907, 30.20929], [-91.27544, 30.17974], [-91.2618, 30.15018], [-91.24818, 30.12063], [-91.23454, 30.09108], [-91.22144, 30.06101], [-91.20866, 30.03059], [-91.19556, 30.00052], [-91.18193, 29.97097], [-91.1676, 29.9421], [-91.15243, 29.91411], [-91.13673, 29.88663], [-91.12085, 29.85932], [-91.10515, 29.83184], [-91.08997, 29.80385], [-91.07513, 29.77551], [-91.06047, 29.74699], [-91.04614, 29.71813], [-91.03183, 29.68927], [-91.01733, 29.66058], [-91.00302, 29.63172], [-90.98869, 29.60286], [-90.9742, 29.57417], [-90.95988, 29.5453], [-90.94556, 29.51645], [-90.9309, 29.48793], [-90.91606, 29.45959], [-90.90072, 29.43176], [-90.88416, 29.40515], [-90.8662, 29.37991], [-90.8367, 29.34483], [-90.81461, 29.32444], [-90.79132, 29.30612], [-90.76717, 29.28987], [-90.7287, 29.27052], [-90.71576, 29.26499], [-90.67262, 29.25341]]]}}]}