{"type": "FeatureCollection", "features": [{"type": "Feature", "geometry": {"type": "LineString", "coordinates": [[-90.7, 29.9], [-91.0, 30.5], [-90.8, 31.4], [-90.7, 32.4], [-90.1, 33.3], [-89.6, 34.0], [-88.7, 34.5], [-87.9, 35.2], [-86.0, 36.0], [-83.9, 36.5], [-82.1, 37.4], [-80.2, 38.0], [-78.3, 38.3], [-76.0, 38.9], [-74.3, 39.3], [-71.7, 39.7], [-68.2, 41.1], [-64.8, 42.6], [-61.6, 44.7], [-60.5, 45.3], [-59.5, 45.4], [-58.0, 46.3], [-57.0, 47.3], [-55.7, 47.8], [-53.4, 48.4], [-50.6, 49.6], [-47.6, 52.3], [-45.5, 53.9], [-44.0, 55.4], [-41.3, 56.7], [-39.5, 57.1], [-36.6, 58.4], [-31.9, 60.2], [-28.4, 62.6], [-27.6, 63.6], [-25.8, 64.5], [-25.7, 66.3], [-28.0, 67.0], [-29.7, 66.3], [-27.7, 65.3], [-22.6, 66.3]]}, "properties": {"model": "CMC", "label": "CMC", "kind": "physics", "group": "deterministic", "cycle": "2021083000"}}, {"type": "Feature", "geometry": {"type": "LineString", "coordinates": [[-90.7, 29.8], [-91.2, 30.6], [-91.3, 31.3], [-90.9, 32.0], [-90.4, 33.1], [-90.0, 33.9], [-88.9, 34.5], [-87.8, 35.2], [-86.3, 35.8], [-85.1, 36.4], [-83.6, 37.3], [-82.1, 38.1], [-80.7, 38.8], [-79.5, 38.4], [-77.9, 38.4], [-77.5, 39.1], [-77.4, 39.0], [-78.1, 37.8], [-78.0, 37.9], [-78.0, 38.0], [-78.3, 37.8]]}, "properties": {"model": "AP01", "label": "GEFS 01", "kind": "ensemble", "group": "ensemble", "cycle": "2021083000"}}, {"type": "Feature", "geometry": {"type": "LineString", "coordinates": [[-90.6, 29.7], [-90.7, 30.5], [-91.1, 31.3], [-91.1, 31.8], [-90.4, 32.6], [-89.8, 33.5], [-88.9, 34.1], [-88.1, 34.4], [-86.7, 34.8], [-84.3, 35.7], [-81.8, 36.8], [-79.9, 38.0], [-78.5, 38.0]]}, "properties": {"model": "AP03", "label": "GEFS 03", "kind": "ensemble", "group": "ensemble", "cycle": "2021083000"}}, {"type": "Feature", "geometry": {"type": "LineString", "coordinates": [[-90.5, 30.1], [-90.9, 31.1], [-90.8, 32.2], [-90.4, 32.9], [-89.4, 34.0], [-88.5, 35.3], [-87.3, 36.1], [-85.5, 37.1], [-83.7, 37.8], [-81.2, 39.5], [-78.6, 40.8], [-76.9, 41.6], [-75.4, 42.2], [-72.8, 43.4], [-69.5, 45.0], [-66.2, 46.6], [-63.1, 48.5], [-60.6, 49.7], [-58.7, 50.2], [-53.8, 51.6], [-49.7, 52.1], [-46.3, 52.5], [-43.1, 53.0], [-38.9, 53.7], [-33.4, 55.8], [-31.1, 58.3], [-29.2, 60.8], [-28.2, 63.9], [-29.1, 65.5], [-31.6, 66.2], [-34.3, 66.2]]}, "properties": {"model": "AP04", "label": "GEFS 04", "kind": "ensemble", "group": "ensemble", "cycle": "2021083000"}}, {"type": "Feature", "geometry": {"type": "LineString", "coordinates": [[-90.4, 29.9], [-90.9, 30.7], [-90.8, 31.6], [-90.6, 32.2], [-89.8, 33.1], [-89.2, 33.8], [-88.3, 34.3], [-87.1, 34.9], [-85.9, 35.7], [-84.9, 36.7], [-82.8, 38.0], [-81.7, 38.8], [-81.0, 38.8], [-79.0, 39.4], [-76.9, 40.1], [-74.9, 40.7], [-73.1, 41.3]]}, "properties": {"model": "AP06", "label": "GEFS 06", "kind": "ensemble", "group": "ensemble", "cycle": "2021083000"}}, {"type": "Feature", "geometry": {"type": "LineString", "coordinates": [[-91.0, 29.7], [-91.5, 30.4], [-91.8, 31.2], [-92.0, 31.8], [-91.7, 32.4], [-91.2, 33.2], [-90.5, 33.9], [-89.5, 34.5], [-88.1, 35.1], [-87.3, 35.5], [-85.0, 36.7], [-83.2, 37.3], [-81.7, 37.4], [-80.2, 37.7], [-78.9, 37.0], [-76.8, 37.4]]}, "properties": {"model": "AP07", "label": "GEFS 07", "kind": "ensemble", "group": "ensemble", "cycle": "2021083000"}}, {"type": "Feature", "geometry": {"type": "LineString", "coordinates": [[-90.7, 29.6], [-90.9, 30.4], [-91.1, 31.4], [-90.9, 32.1], [-90.5, 32.9], [-90.0, 33.4], [-89.0, 34.1], [-88.2, 34.3], [-86.2, 35.5], [-83.7, 37.4], [-81.1, 39.1], [-78.9, 40.2], [-77.3, 40.3], [-75.1, 40.9], [-73.6, 41.2], [-70.3, 42.5], [-66.7, 45.1], [-62.7, 47.6], [-60.4, 49.3], [-59.8, 49.8], [-58.4, 49.5], [-56.3, 50.0], [-53.6, 50.5], [-51.7, 51.1], [-50.2, 51.9], [-46.7, 53.4], [-42.5, 55.2], [-36.8, 57.5], [-33.6, 59.4], [-30.8, 61.1], [-28.7, 63.1], [-26.2, 64.6], [-24.9, 66.2]]}, "properties": {"model": "AP08", "label": "GEFS 08", "kind": "ensemble", "group": "ensemble", "cycle": "2021083000"}}, {"type": "Feature", "geometry": {"type": "LineString", "coordinates": [[-90.7, 29.6], [-90.9, 30.2], [-90.9, 31.3], [-90.9, 31.9], [-90.2, 32.7], [-90.1, 33.6], [-89.6, 34.0], [-88.9, 34.0], [-87.7, 34.5], [-86.4, 35.6], [-84.8, 36.7], [-83.3, 37.2], [-81.0, 37.4], [-78.4, 38.2], [-76.8, 39.0], [-75.2, 39.5], [-71.9, 40.3], [-68.7, 42.5], [-66.8, 43.8], [-64.5, 44.9], [-63.3, 46.1]]}, "properties": {"model": "AP13", "label": "GEFS 13", "kind": "ensemble", "group": "ensemble", "cycle": "2021083000"}}, {"type": "Feature", "geometry": {"type": "LineString", "coordinates": [[-90.6, 29.9], [-91.1, 30.8], [-91.1, 31.4], [-90.8, 32.0], [-90.1, 33.1], [-90.0, 34.1], [-89.3, 34.5], [-88.3, 34.9], [-86.8, 36.0], [-85.9, 36.6], [-84.7, 37.4], [-82.4, 38.7], [-81.3, 38.9], [-79.5, 38.2], [-79.0, 37.7], [-78.9, 36.2], [-77.9, 35.3], [-77.6, 35.3]]}, "properties": {"model": "AP14", "label": "GEFS 14", "kind": "ensemble", "group": "ensemble", "cycle": "2021083000"}}, {"type": "Feature", "geometry": {"type": "LineString", "coordinates": [[-90.7, 29.9], [-91.1, 30.7], [-91.1, 31.6], [-91.0, 32.4], [-90.4, 33.2], [-90.0, 34.0], [-88.9, 34.3], [-87.7, 34.6], [-86.2, 35.1], [-84.9, 36.0], [-83.3, 36.7], [-81.5, 36.8], [-78.9, 37.8], [-77.5, 38.7], [-77.5, 38.0]]}, "properties": {"model": "AP15", "label": "GEFS 15", "kind": "ensemble", "group": "ensemble", "cycle": "2021083000"}}, {"type": "Feature", "geometry": {"type": "LineString", "coordinates": [[-90.7, 29.7], [-91.1, 30.7], [-91.4, 31.7], [-91.4, 32.4], [-90.8, 33.3], [-90.3, 34.2], [-89.3, 34.7], [-87.6, 35.2], [-86.1, 35.8], [-84.9, 36.3], [-82.5, 37.5], [-79.9, 38.9], [-78.1, 39.4], [-76.5, 40.3], [-74.6, 40.9], [-73.1, 41.3], [-71.9, 41.3], [-68.9, 42.7], [-66.7, 44.2]]}, "properties": {"model": "AP18", "label": "GEFS 18", "kind": "ensemble", "group": "ensemble", "cycle": "2021083000"}}, {"type": "Feature", "geometry": {"type": "LineString", "coordinates": [[-90.6, 29.7], [-91.0, 30.5], [-91.1, 31.4], [-91.0, 32.1], [-90.6, 32.9], [-90.3, 33.4], [-89.3, 33.9], [-88.2, 34.8], [-86.9, 35.7], [-85.8, 36.2], [-84.1, 36.8], [-81.4, 38.5], [-79.7, 38.7], [-78.5, 39.1], [-77.6, 38.9], [-76.6, 38.5], [-76.2, 37.9], [-76.2, 37.4], [-76.9, 36.5], [-76.7, 35.8], [-76.8, 35.5], [-77.8, 35.0], [-78.7, 34.5], [-79.1, 34.2], [-79.5, 34.0], [-79.8, 33.8], [-79.9, 34.4], [-80.1, 34.6], [-79.3, 34.8]]}, "properties": {"model": "AP21", "label": "GEFS 21", "kind": "ensemble", "group": "ensemble", "cycle": "2021083000"}}, {"type": "Feature", "geometry": {"type": "LineString", "coordinates": [[-90.7, 29.8], [-91.0, 30.6], [-91.0, 31.4], [-90.7, 32.2], [-90.1, 33.1], [-89.7, 33.9], [-89.1, 34.5], [-88.2, 34.9], [-87.0, 35.3], [-86.2, 35.7], [-85.4, 36.0], [-84.2, 36.3], [-82.2, 37.1], [-80.7, 38.9], [-79.8, 38.9], [-79.8, 37.3], [-79.7, 36.4], [-79.4, 36.0], [-79.9, 35.9]]}, "properties": {"model": "AP22", "label": "GEFS 22", "kind": "ensemble", "group": "ensemble", "cycle": "2021083000"}}, {"type": "Feature", "geometry": {"type": "LineString", "coordinates": [[-90.7, 30.0], [-91.1, 30.9], [-91.1, 31.7], [-90.7, 32.5], [-90.1, 33.5], [-89.6, 34.3], [-88.7, 34.9], [-87.7, 35.4], [-86.6, 35.7], [-84.7, 37.0], [-81.9, 37.9], [-79.9, 38.6], [-78.2, 38.9], [-76.3, 39.4], [-74.2, 40.5], [-70.7, 42.5], [-66.7, 44.9], [-64.8, 46.7], [-63.6, 47.5], [-62.2, 48.4], [-60.3, 49.0], [-57.8, 49.4], [-54.7, 50.4], [-53.1, 50.6], [-49.4, 50.5], [-45.2, 51.2], [-41.3, 52.8], [-37.1, 54.4]]}, "properties": {"model": "AP23", "label": "GEFS 23", "kind": "ensemble", "group": "ensemble", "cycle": "2021083000"}}, {"type": "Feature", "geometry": {"type": "LineString", "coordinates": [[-90.6, 29.9], [-91.1, 30.7], [-91.1, 31.6], [-91.1, 32.4], [-90.6, 33.3], [-90.2, 33.9], [-89.2, 34.5], [-88.6, 34.8], [-87.2, 35.0], [-86.1, 35.7], [-84.3, 36.2]]}, "properties": {"model": "AP25", "label": "GEFS 25", "kind": "ensemble", "group": "ensemble", "cycle": "2021083000"}}, {"type": "Feature", "geometry": {"type": "LineString", "coordinates": [[-90.6, 29.9], [-91.0, 30.8], [-91.1, 31.6], [-91.1, 32.3], [-90.7, 33.2], [-90.6, 34.0], [-90.1, 34.7], [-89.4, 34.9], [-87.4, 35.4], [-86.2, 36.8], [-85.2, 36.9]]}, "properties": {"model": "AP27", "label": "GEFS 27", "kind": "ensemble", "group": "ensemble", "cycle": "2021083000"}}, {"type": "Feature", "geometry": {"type": "LineString", "coordinates": [[-90.7, 29.8], [-90.9, 30.6], [-91.0, 31.4], [-90.9, 32.2], [-90.6, 33.0], [-90.2, 33.5], [-89.1, 34.0], [-88.2, 34.2], [-86.9, 34.4], [-85.8, 34.4], [-84.3, 34.6], [-83.1, 34.7], [-82.0, 34.3], [-80.5, 34.7], [-77.6, 36.3], [-75.8, 37.7], [-74.8, 37.6], [-75.0, 36.6], [-74.6, 36.2], [-73.8, 35.9], [-74.1, 34.9], [-75.0, 33.9], [-75.3, 33.6], [-75.4, 33.6], [-75.5, 33.8], [-75.4, 34.2], [-74.6, 35.0], [-73.3, 35.8], [-71.0, 37.4], [-68.4, 39.7], [-66.2, 41.8], [-62.5, 42.8], [-59.4, 43.6]]}, "properties": {"model": "AP28", "label": "GEFS 28", "kind": "ensemble", "group": "ensemble", "cycle": "2021083000"}}, {"type": "Feature", "geometry": {"type": "LineString", "coordinates": [[-90.5, 30.0], [-91.0, 31.0], [-90.9, 31.8], [-90.9, 32.6], [-90.2, 33.4], [-89.8, 34.1], [-89.0, 34.3], [-88.1, 34.6], [-87.1, 34.7], [-86.5, 34.8], [-85.6, 34.9], [-84.4, 34.7], [-82.6, 35.6]]}, "properties": {"model": "AP29", "label": "GEFS 29", "kind": "ensemble", "group": "ensemble", "cycle": "2021083000"}}, {"type": "Feature", "geometry": {"type": "LineString", "coordinates": [[-90.6, 29.8], [-90.9, 30.7], [-90.8, 31.5], [-90.5, 32.5], [-90.0, 33.2], [-89.3, 33.8], [-88.2, 34.5], [-87.3, 35.0], [-86.1, 35.3], [-85.4, 35.6], [-83.6, 36.4], [-80.9, 38.1], [-78.8, 38.7], [-76.7, 39.4], [-74.3, 40.2], [-71.7, 41.1], [-70.3, 40.7], [-67.5, 42.3], [-63.4, 44.4], [-60.2, 46.5], [-58.7, 47.3], [-57.3, 47.7], [-57.2, 47.1], [-57.2, 46.8], [-56.8, 45.6], [-54.4, 44.9], [-51.5, 44.4], [-47.2, 44.8], [-45.0, 46.5], [-42.6, 46.2], [-41.1, 45.1], [-41.0, 43.9], [-39.8, 43.5], [-38.9, 43.2], [-38.4, 43.0], [-38.2, 42.5], [-37.7, 43.2], [-37.3, 44.0], [-36.8, 45.2]]}, "properties": {"model": "AVNO", "label": "GFS", "kind": "physics", "group": "deterministic", "cycle": "2021083000"}}, {"type": "Feature", "geometry": {"type": "LineString", "coordinates": [[-90.6, 29.9], [-91.1, 30.6], [-91.0, 31.7], [-90.8, 32.4], [-90.3, 33.1], [-89.7, 34.2], [-88.5, 35.1], [-87.2, 35.6], [-85.4, 36.3], [-83.8, 36.9], [-81.4, 38.3], [-79.0, 38.5], [-76.5, 39.0], [-75.0, 39.5], [-72.9, 40.6], [-70.3, 41.5], [-67.7, 42.5], [-65.7, 43.8], [-64.2, 45.0], [-63.3, 46.0], [-62.7, 46.3], [-62.4, 45.9]]}, "properties": {"model": "CTCX", "label": "COAMPS-TC", "kind": "physics", "group": "deterministic", "cycle": "2021083000"}}, {"type": "Feature", "geometry": {"type": "LineString", "coordinates": [[-90.4, 29.7], [-91.1, 31.2], [-90.5, 32.8], [-88.7, 34.2], [-86.1, 35.4], [-82.9, 37.1], [-79.1, 38.2], [-76.4, 39.2], [-74.7, 38.6], [-74.0, 39.3], [-74.3, 40.1], [-75.7, 37.6], [-71.9, 39.7]]}, "properties": {"model": "EGRR", "label": "UKMET", "kind": "physics", "group": "deterministic", "cycle": "2021083000"}}, {"type": "Feature", "geometry": {"type": "LineString", "coordinates": [[-90.6, 29.9], [-90.8, 31.4], [-90.1, 33.0], [-88.5, 34.4], [-86.0, 35.9], [-82.8, 37.4], [-79.2, 38.5], [-75.8, 38.8], [-73.0, 39.4], [-71.4, 40.0], [-69.9, 40.6], [-68.5, 40.9], [-66.3, 41.1], [-63.4, 41.2], [-61.2, 41.3]]}, "properties": {"model": "HCCA", "label": "HFIP Corrected Consensus", "kind": "consensus", "group": "consensus", "cycle": "2021083000"}}, {"type": "Feature", "geometry": {"type": "LineString", "coordinates": [[-90.6, 29.9], [-90.7, 30.3], [-91.0, 30.8], [-91.2, 31.1], [-91.1, 31.4], [-90.8, 31.7], [-90.6, 32.1], [-90.4, 32.7], [-90.2, 33.2], [-90.2, 33.6], [-90.1, 33.7], [-89.7, 33.8], [-89.0, 34.1], [-88.2, 34.6], [-87.8, 35.1], [-87.2, 35.3], [-86.8, 35.4], [-86.3, 35.4], [-85.8, 35.6], [-85.2, 35.8], [-84.3, 36.7], [-82.4, 38.2], [-81.4, 38.2], [-80.9, 38.1], [-80.0, 38.0], [-79.1, 38.0], [-78.3, 37.9], [-78.2, 37.8], [-78.4, 37.6], [-78.5, 37.1], [-78.2, 36.6], [-78.5, 35.9], [-78.9, 35.0], [-80.0, 34.0], [-80.9, 33.6], [-81.9, 33.1]]}, "properties": {"model": "HMON", "label": "HMON", "kind": "physics", "group": "deterministic", "cycle": "2021083000"}}, {"type": "Feature", "geometry": {"type": "LineString", "coordinates": [[-90.6, 29.9], [-91.0, 30.7], [-90.9, 31.5], [-90.7, 32.4], [-90.4, 33.1], [-89.8, 33.7], [-88.7, 34.4], [-87.7, 35.0], [-86.6, 35.5], [-85.7, 35.9], [-84.3, 36.4], [-82.9, 37.5], [-81.6, 38.5], [-81.0, 38.9], [-81.5, 38.1], [-82.1, 37.0], [-82.7, 35.7], [-83.6, 34.0], [-83.7, 33.2], [-84.4, 32.8], [-85.1, 32.4], [-85.9, 32.3]]}, "properties": {"model": "HWRF", "label": "HWRF", "kind": "physics", "group": "deterministic", "cycle": "2021083000"}}, {"type": "Feature", "geometry": {"type": "LineString", "coordinates": [[-90.4, 29.7], [-90.9, 30.6], [-91.1, 31.3], [-90.9, 31.9], [-90.4, 32.7], [-90.0, 33.4], [-88.8, 34.1], [-87.8, 34.9], [-86.4, 35.6], [-85.2, 36.1], [-83.6, 36.8], [-81.6, 38.0], [-79.3, 38.4], [-79.1, 37.7], [-77.2, 38.5], [-75.3, 38.6], [-74.1, 38.9], [-73.9, 38.0], [-73.4, 38.2], [-73.1, 38.4], [-72.9, 38.3], [-73.4, 38.1], [-73.4, 38.0], [-73.6, 37.9], [-73.2, 37.7], [-72.6, 38.0], [-71.7, 38.6], [-70.3, 39.4], [-68.3, 40.7], [-65.6, 42.6], [-62.4, 44.0], [-59.6, 46.4], [-56.9, 48.2]]}, "properties": {"model": "UE00", "label": "ECMWF Ens 00", "kind": "ensemble", "group": "ensemble", "cycle": "2021083000"}}, {"type": "Feature", "geometry": {"type": "LineString", "coordinates": [[-90.6, 29.6], [-90.8, 30.2], [-91.1, 31.0], [-91.0, 31.7], [-90.5, 32.6], [-90.3, 33.4], [-89.5, 33.7], [-88.5, 34.1], [-87.4, 34.9], [-86.3, 35.3], [-84.7, 36.2], [-82.4, 37.4], [-81.0, 37.9], [-77.6, 38.6], [-73.5, 40.1], [-70.8, 41.3], [-69.0, 42.0], [-67.1, 42.8], [-66.0, 43.9], [-64.7, 44.6], [-64.2, 44.5], [-63.3, 44.8], [-61.3, 45.4], [-59.9, 46.2], [-57.5, 47.1], [-54.3, 48.0], [-52.1, 50.6], [-48.9, 52.5], [-48.6, 53.6], [-47.8, 54.3]]}, "properties": {"model": "UE01", "label": "ECMWF Ens 01", "kind": "ensemble", "group": "ensemble", "cycle": "2021083000"}}, {"type": "Feature", "geometry": {"type": "LineString", "coordinates": [[-90.6, 29.8], [-90.8, 30.4], [-90.8, 31.4], [-90.5, 32.2], [-90.2, 33.0], [-89.1, 33.6], [-88.3, 34.5], [-87.4, 34.9], [-85.7, 35.6], [-84.3, 36.4], [-82.4, 37.4], [-80.7, 38.1], [-77.5, 38.8], [-75.4, 39.2], [-73.0, 40.0]]}, "properties": {"model": "UE02", "label": "ECMWF Ens 02", "kind": "ensemble", "group": "ensemble", "cycle": "2021083000"}}, {"type": "Feature", "geometry": {"type": "LineString", "coordinates": [[-90.5, 29.6], [-90.9, 30.3], [-91.0, 31.0], [-91.0, 31.8], [-90.5, 32.6], [-90.0, 33.4], [-88.9, 33.8], [-88.0, 34.5], [-86.9, 35.2], [-86.0, 35.6], [-84.7, 36.3], [-83.5, 36.6], [-79.9, 37.4], [-77.7, 39.2], [-75.5, 40.0], [-73.1, 41.0], [-72.3, 40.0], [-72.0, 40.1], [-70.9, 39.8], [-69.8, 39.8], [-68.3, 40.1], [-67.5, 40.4], [-67.6, 40.4], [-67.4, 38.5], [-67.5, 39.0], [-68.4, 37.7], [-68.1, 37.7], [-67.4, 37.5], [-65.9, 37.6]]}, "properties": {"model": "UE03", "label": "ECMWF Ens 03", "kind": "ensemble", "group": "ensemble", "cycle": "2021083000"}}, {"type": "Feature", "geometry": {"type": "LineString", "coordinates": [[-90.3, 29.7], [-90.6, 30.3], [-90.9, 31.1], [-91.1, 31.6], [-90.6, 32.3], [-90.2, 33.0], [-89.4, 33.7], [-88.6, 34.3], [-87.1, 35.3], [-85.2, 36.4], [-83.8, 37.2], [-82.2, 38.0], [-80.8, 38.5], [-79.2, 37.8]]}, "properties": {"model": "UE04", "label": "ECMWF Ens 04", "kind": "ensemble", "group": "ensemble", "cycle": "2021083000"}}, {"type": "Feature", "geometry": {"type": "LineString", "coordinates": [[-90.6, 29.6], [-90.9, 30.4], [-90.9, 31.2], [-91.1, 31.9], [-90.6, 32.8], [-90.0, 33.6], [-88.8, 34.3], [-87.6, 35.2], [-86.4, 35.8], [-85.2, 35.8], [-82.7, 36.3], [-81.2, 36.1], [-78.8, 37.2], [-75.4, 39.3], [-74.4, 39.3]]}, "properties": {"model": "UE05", "label": "ECMWF Ens 05", "kind": "ensemble", "group": "ensemble", "cycle": "2021083000"}}, {"type": "Feature", "geometry": {"type": "LineString", "coordinates": [[-90.6, 30.0], [-90.9, 30.9], [-91.1, 31.8], [-91.1, 32.6], [-90.3, 33.4], [-89.5, 34.3], [-88.0, 35.0], [-86.6, 35.6], [-85.0, 36.3], [-83.8, 36.6], [-81.9, 37.7], [-79.8, 37.4], [-77.5, 38.6], [-76.3, 39.3], [-73.2, 41.3], [-72.6, 40.2], [-71.0, 40.7], [-69.1, 42.8], [-67.4, 44.2], [-67.4, 44.5], [-66.7, 44.9], [-66.1, 44.6], [-63.5, 48.2], [-61.8, 46.5], [-59.7, 47.3], [-54.0, 50.7], [-53.3, 51.1], [-52.3, 50.9], [-50.6, 51.0], [-48.7, 51.4], [-46.2, 51.6], [-44.5, 52.1], [-43.0, 52.5]]}, "properties": {"model": "UE06", "label": "ECMWF Ens 06", "kind": "ensemble", "group": "ensemble", "cycle": "2021083000"}}, {"type": "Feature", "geometry": {"type": "LineString", "coordinates": [[-90.5, 29.9], [-90.8, 30.7], [-90.9, 31.6], [-90.8, 32.4], [-90.4, 33.1], [-89.7, 33.6], [-88.6, 34.2], [-87.2, 34.7], [-85.0, 35.6], [-82.9, 36.2], [-80.8, 37.1], [-79.6, 37.6], [-78.1, 38.1], [-76.4, 38.0]]}, "properties": {"model": "UE07", "label": "ECMWF Ens 07", "kind": "ensemble", "group": "ensemble", "cycle": "2021083000"}}, {"type": "Feature", "geometry": {"type": "LineString", "coordinates": [[-90.6, 29.8], [-91.0, 30.5], [-91.2, 31.4], [-91.1, 32.1], [-90.8, 32.8], [-90.3, 33.3], [-89.4, 33.8], [-88.0, 34.2], [-86.4, 34.7], [-84.9, 35.3], [-83.0, 36.2], [-81.8, 35.7], [-79.8, 37.1], [-78.0, 37.7], [-77.0, 38.1], [-76.5, 37.7], [-74.0, 38.1], [-73.0, 38.6], [-71.6, 38.9], [-70.9, 39.8], [-71.4, 40.3], [-72.0, 40.7], [-72.9, 40.5], [-73.3, 40.1], [-72.8, 39.9], [-71.9, 40.3], [-70.6, 40.9], [-69.5, 41.8], [-68.0, 42.5], [-66.1, 43.5], [-64.2, 44.9]]}, "properties": {"model": "UE08", "label": "ECMWF Ens 08", "kind": "ensemble", "group": "ensemble", "cycle": "2021083000"}}, {"type": "Feature", "geometry": {"type": "LineString", "coordinates": [[-90.3, 29.7], [-90.6, 30.5], [-90.8, 31.1], [-90.6, 31.9], [-90.0, 32.8], [-89.5, 33.4], [-88.3, 34.3], [-87.5, 35.1], [-86.1, 35.3], [-84.9, 36.8], [-83.0, 38.1], [-81.3, 39.2], [-78.8, 39.4], [-76.2, 40.7], [-74.9, 40.5], [-73.8, 40.0], [-72.3, 40.7]]}, "properties": {"model": "UE09", "label": "ECMWF Ens 09", "kind": "ensemble", "group": "ensemble", "cycle": "2021083000"}}, {"type": "Feature", "geometry": {"type": "LineString", "coordinates": [[-90.5, 29.8], [-90.8, 30.6], [-91.2, 31.5], [-91.1, 32.0], [-90.5, 32.8], [-89.7, 33.4], [-88.4, 34.3], [-87.7, 35.0], [-86.3, 36.0], [-85.0, 36.6], [-82.9, 37.4], [-80.5, 39.1], [-77.6, 39.4], [-73.7, 40.7], [-69.3, 42.4], [-66.4, 43.3], [-63.9, 44.8], [-61.8, 46.2], [-59.9, 48.0], [-59.7, 48.4], [-58.9, 48.9], [-55.2, 50.3]]}, "properties": {"model": "UE10", "label": "ECMWF Ens 10", "kind": "ensemble", "group": "ensemble", "cycle": "2021083000"}}, {"type": "Feature", "geometry": {"type": "LineString", "coordinates": [[-90.6, 29.6], [-90.9, 30.3], [-91.0, 31.0], [-90.6, 31.6], [-90.2, 32.4], [-89.7, 33.0], [-88.6, 33.8], [-87.4, 34.5], [-86.3, 35.1], [-85.0, 35.4], [-83.2, 36.4], [-81.5, 37.5], [-79.3, 37.5], [-77.1, 38.4], [-76.0, 38.0], [-75.5, 37.0], [-73.9, 36.8], [-72.0, 37.9], [-70.6, 39.0], [-68.6, 41.2], [-68.9, 43.1], [-69.2, 43.7], [-70.3, 43.8]]}, "properties": {"model": "UE11", "label": "ECMWF Ens 11", "kind": "ensemble", "group": "ensemble", "cycle": "2021083000"}}, {"type": "Feature", "geometry": {"type": "LineString", "coordinates": [[-90.6, 29.8], [-91.1, 30.6], [-91.2, 31.3], [-91.2, 32.0], [-90.9, 32.8], [-90.6, 33.5], [-89.5, 34.1], [-88.6, 34.5], [-87.5, 35.6], [-87.1, 35.7], [-85.7, 35.6], [-83.4, 37.3], [-82.3, 37.7], [-80.3, 38.9], [-79.6, 37.6]]}, "properties": {"model": "UE12", "label": "ECMWF Ens 12", "kind": "ensemble", "group": "ensemble", "cycle": "2021083000"}}, {"type": "Feature", "geometry": {"type": "LineString", "coordinates": [[-90.4, 29.6], [-90.8, 30.4], [-91.1, 31.2], [-91.1, 31.9], [-90.6, 32.6], [-90.0, 33.2], [-89.1, 33.8], [-88.0, 34.1], [-86.7, 35.1], [-85.6, 36.0], [-84.3, 36.6], [-83.1, 37.2], [-81.6, 37.5], [-79.8, 37.1]]}, "properties": {"model": "UE13", "label": "ECMWF Ens 13", "kind": "ensemble", "group": "ensemble", "cycle": "2021083000"}}, {"type": "Feature", "geometry": {"type": "LineString", "coordinates": [[-90.5, 29.6], [-90.8, 30.2], [-90.9, 31.1], [-90.8, 31.9], [-90.6, 32.8], [-89.9, 33.6], [-88.9, 34.3], [-87.8, 35.3], [-86.5, 36.0], [-84.7, 36.7], [-82.5, 37.7], [-81.4, 38.5], [-78.6, 38.7], [-76.1, 38.3], [-72.0, 40.9], [-68.5, 42.4], [-66.5, 44.0], [-66.3, 44.6], [-66.1, 45.2], [-64.7, 46.9], [-64.1, 47.4], [-64.1, 47.8], [-64.4, 48.1], [-62.9, 47.5]]}, "properties": {"model": "UE14", "label": "ECMWF Ens 14", "kind": "ensemble", "group": "ensemble", "cycle": "2021083000"}}, {"type": "Feature", "geometry": {"type": "LineString", "coordinates": [[-90.3, 29.9], [-90.8, 30.7], [-91.0, 31.5], [-90.8, 32.1], [-90.3, 33.0], [-89.6, 33.7], [-88.6, 34.6], [-87.7, 35.0], [-86.4, 35.3], [-84.7, 35.8], [-83.2, 36.5], [-81.3, 37.7], [-79.7, 37.6], [-77.1, 38.8], [-75.2, 40.1], [-74.0, 40.3], [-73.6, 39.4], [-72.6, 39.7]]}, "properties": {"model": "UE15", "label": "ECMWF Ens 15", "kind": "ensemble", "group": "ensemble", "cycle": "2021083000"}}, {"type": "Feature", "geometry": {"type": "LineString", "coordinates": [[-90.5, 29.6], [-90.7, 30.4], [-90.9, 31.3], [-90.8, 31.9], [-90.3, 32.7], [-89.7, 33.5], [-88.3, 34.0], [-87.2, 34.5], [-85.8, 35.4], [-84.4, 36.1], [-83.0, 37.4], [-81.8, 38.0], [-80.4, 38.6], [-78.8, 38.3], [-77.1, 39.2], [-75.2, 39.9]]}, "properties": {"model": "UE16", "label": "ECMWF Ens 16", "kind": "ensemble", "group": "ensemble", "cycle": "2021083000"}}, {"type": "Feature", "geometry": {"type": "LineString", "coordinates": [[-90.4, 29.9], [-90.9, 30.5], [-91.2, 31.0], [-90.8, 31.7], [-90.3, 32.8], [-89.9, 33.6], [-88.8, 34.3], [-87.5, 35.3], [-86.3, 36.0], [-84.9, 36.9], [-83.5, 37.1], [-81.3, 38.2], [-78.8, 39.2], [-77.3, 39.9], [-76.0, 40.1], [-74.5, 40.3], [-73.1, 40.3], [-72.3, 40.7], [-71.6, 40.7], [-70.0, 42.7], [-70.0, 42.6], [-69.5, 42.6], [-68.6, 42.8]]}, "properties": {"model": "UE17", "label": "ECMWF Ens 17", "kind": "ensemble", "group": "ensemble", "cycle": "2021083000"}}, {"type": "Feature", "geometry": {"type": "LineString", "coordinates": [[-90.6, 29.7], [-90.8, 30.4], [-90.8, 31.2], [-90.6, 32.0], [-90.0, 33.0], [-89.5, 34.1], [-88.3, 35.0], [-87.2, 35.8], [-85.7, 36.8], [-84.1, 37.5], [-82.1, 38.4], [-80.3, 39.0], [-77.9, 38.7], [-75.3, 39.0], [-73.3, 39.1]]}, "properties": {"model": "UE18", "label": "ECMWF Ens 18", "kind": "ensemble", "group": "ensemble", "cycle": "2021083000"}}, {"type": "Feature", "geometry": {"type": "LineString", "coordinates": [[-90.5, 29.8], [-90.6, 30.4], [-90.6, 31.4], [-90.5, 32.2], [-90.2, 32.8], [-89.9, 33.7], [-89.1, 34.3], [-87.7, 35.3], [-85.8, 36.3], [-84.9, 37.4], [-83.7, 38.2], [-82.2, 38.9], [-81.8, 38.8], [-78.6, 38.2]]}, "properties": {"model": "UE19", "label": "ECMWF Ens 19", "kind": "ensemble", "group": "ensemble", "cycle": "2021083000"}}, {"type": "Feature", "geometry": {"type": "LineString", "coordinates": [[-90.4, 29.9], [-90.8, 30.4], [-90.5, 31.1], [-90.0, 32.1], [-89.9, 33.1], [-89.1, 33.7], [-87.9, 34.7], [-87.2, 35.5], [-85.7, 36.3], [-84.3, 36.8], [-82.5, 37.7], [-80.4, 38.8], [-78.3, 39.4], [-77.0, 39.0], [-75.1, 39.0], [-73.4, 39.7], [-71.8, 40.5], [-69.8, 42.4], [-69.4, 43.7], [-69.6, 45.3], [-69.9, 45.6], [-70.1, 45.8], [-69.2, 45.7], [-68.1, 46.4]]}, "properties": {"model": "UE20", "label": "ECMWF Ens 20", "kind": "ensemble", "group": "ensemble", "cycle": "2021083000"}}, {"type": "Feature", "geometry": {"type": "LineString", "coordinates": [[-90.6, 29.8], [-90.8, 30.4], [-90.8, 31.2], [-90.9, 32.1], [-90.6, 32.8], [-90.2, 33.6], [-89.5, 34.4], [-88.8, 34.8], [-88.1, 35.4], [-87.4, 35.8], [-86.4, 35.9], [-85.6, 35.7], [-84.9, 35.6], [-83.3, 36.0], [-83.2, 34.7], [-83.3, 34.5], [-82.4, 33.8]]}, "properties": {"model": "UE21", "label": "ECMWF Ens 21", "kind": "ensemble", "group": "ensemble", "cycle": "2021083000"}}, {"type": "Feature", "geometry": {"type": "LineString", "coordinates": [[-90.4, 30.0], [-90.8, 30.8], [-90.8, 31.5], [-90.6, 32.2], [-89.7, 33.2], [-88.9, 34.2], [-87.7, 34.7], [-86.3, 35.8], [-84.7, 36.7], [-83.5, 37.0], [-82.3, 36.8], [-81.2, 38.2], [-79.6, 37.2], [-78.1, 38.1], [-77.5, 38.3], [-77.2, 38.1], [-76.4, 38.5]]}, "properties": {"model": "UE22", "label": "ECMWF Ens 22", "kind": "ensemble", "group": "ensemble", "cycle": "2021083000"}}, {"type": "Feature", "geometry": {"type": "LineString", "coordinates": [[-90.7, 30.1], [-91.2, 30.7], [-91.1, 31.7], [-90.8, 32.4], [-90.0, 33.3], [-89.5, 34.2], [-88.3, 35.2], [-87.1, 36.0], [-85.5, 36.5], [-83.5, 37.1], [-81.5, 37.8], [-79.6, 37.6], [-77.1, 39.1], [-75.3, 39.2], [-73.2, 39.4], [-72.3, 39.3], [-71.2, 39.2], [-68.9, 40.3], [-67.2, 41.8], [-66.9, 42.8], [-67.2, 43.1], [-68.1, 43.1], [-68.1, 38.3]]}, "properties": {"model": "UE23", "label": "ECMWF Ens 23", "kind": "ensemble", "group": "ensemble", "cycle": "2021083000"}}, {"type": "Feature", "geometry": {"type": "LineString", "coordinates": [[-90.6, 29.8], [-90.8, 30.4], [-90.6, 31.3], [-90.5, 32.1], [-90.1, 33.0], [-89.4, 33.7], [-88.1, 34.5], [-86.7, 35.1], [-84.9, 35.9], [-83.7, 36.5], [-81.3, 38.2], [-80.4, 38.8], [-77.9, 39.0], [-76.4, 39.3], [-76.4, 39.3], [-75.4, 39.6], [-74.6, 39.6], [-73.5, 39.7], [-73.1, 40.6], [-73.3, 41.8], [-74.4, 43.3]]}, "properties": {"model": "UE24", "label": "ECMWF Ens 24", "kind": "ensemble", "group": "ensemble", "cycle": "2021083000"}}, {"type": "Feature", "geometry": {"type": "LineString", "coordinates": [[-90.5, 29.8], [-90.8, 30.4], [-90.8, 31.3], [-90.8, 32.1], [-90.3, 32.8], [-89.7, 33.5], [-88.6, 34.4], [-88.0, 35.2], [-87.1, 35.8], [-86.1, 35.8], [-84.6, 36.0], [-83.3, 36.5], [-81.3, 38.1], [-78.8, 39.0]]}, "properties": {"model": "UE25", "label": "ECMWF Ens 25", "kind": "ensemble", "group": "ensemble", "cycle": "2021083000"}}, {"type": "Feature", "geometry": {"type": "LineString", "coordinates": [[-90.6, 30.0], [-90.8, 30.6], [-90.8, 31.5], [-90.8, 32.3], [-90.4, 33.0], [-89.7, 33.8], [-88.4, 34.4], [-87.5, 35.3], [-86.3, 35.8], [-85.4, 35.9], [-83.1, 36.4], [-81.8, 37.6], [-78.8, 38.3], [-77.4, 38.9], [-76.7, 39.0], [-75.9, 38.6], [-74.0, 38.7], [-73.7, 38.5], [-73.2, 38.3], [-71.9, 38.7], [-70.1, 40.4], [-71.7, 42.7], [-71.9, 44.0], [-72.0, 44.8]]}, "properties": {"model": "UE26", "label": "ECMWF Ens 26", "kind": "ensemble", "group": "ensemble", "cycle": "2021083000"}}, {"type": "Feature", "geometry": {"type": "LineString", "coordinates": [[-90.6, 29.8], [-90.8, 30.4], [-90.6, 31.1], [-90.3, 32.1], [-90.3, 33.2], [-89.9, 33.9], [-88.5, 34.6], [-87.7, 35.4], [-86.4, 35.5], [-85.2, 35.7], [-83.4, 37.1], [-81.6, 37.9], [-79.6, 37.6], [-78.2, 38.5], [-76.3, 39.2], [-75.4, 38.6], [-73.8, 38.6]]}, "properties": {"model": "UE27", "label": "ECMWF Ens 27", "kind": "ensemble", "group": "ensemble", "cycle": "2021083000"}}, {"type": "Feature", "geometry": {"type": "LineString", "coordinates": [[-90.5, 29.9], [-90.8, 30.7], [-90.9, 31.6], [-90.8, 32.6], [-90.5, 33.5], [-89.7, 34.0], [-88.3, 34.9], [-87.1, 35.8], [-86.0, 36.2], [-84.4, 36.6], [-83.0, 37.3], [-80.9, 38.1], [-79.6, 37.3], [-77.1, 38.6]]}, "properties": {"model": "UE28", "label": "ECMWF Ens 28", "kind": "ensemble", "group": "ensemble", "cycle": "2021083000"}}, {"type": "Feature", "geometry": {"type": "LineString", "coordinates": [[-90.6, 30.0], [-91.0, 30.6], [-90.9, 31.3], [-90.9, 31.9], [-90.5, 32.5], [-89.7, 33.0], [-88.6, 33.7], [-87.5, 34.3], [-86.1, 35.6], [-85.2, 36.6], [-83.8, 37.6], [-82.7, 38.0], [-80.7, 38.5], [-78.2, 39.7], [-76.8, 39.5], [-73.4, 40.7], [-70.1, 42.4], [-68.1, 43.5], [-66.9, 44.6], [-63.8, 46.4], [-63.8, 46.9], [-62.6, 47.4], [-61.9, 48.0], [-60.5, 48.1], [-58.2, 48.2], [-54.8, 48.6], [-50.9, 52.4]]}, "properties": {"model": "UE29", "label": "ECMWF Ens 29", "kind": "ensemble", "group": "ensemble", "cycle": "2021083000"}}, {"type": "Feature", "geometry": {"type": "LineString", "coordinates": [[-90.9, 29.9], [-91.2, 30.6], [-91.3, 31.3], [-91.1, 32.1], [-90.8, 32.8], [-90.0, 33.5], [-88.9, 34.2], [-87.7, 34.7], [-86.3, 35.5], [-85.1, 35.8], [-82.8, 36.3], [-82.5, 36.5], [-81.3, 36.0], [-80.7, 35.6]]}, "properties": {"model": "UE30", "label": "ECMWF Ens 30", "kind": "ensemble", "group": "ensemble", "cycle": "2021083000"}}, {"type": "Feature", "geometry": {"type": "LineString", "coordinates": [[-90.8, 29.6], [-91.0, 30.2], [-91.1, 30.9], [-90.8, 31.6], [-90.2, 32.6], [-89.4, 33.6], [-88.3, 34.5], [-87.2, 35.4], [-86.0, 36.1], [-84.7, 36.4], [-83.5, 36.6], [-81.3, 37.5]]}, "properties": {"model": "UE31", "label": "ECMWF Ens 31", "kind": "ensemble", "group": "ensemble", "cycle": "2021083000"}}, {"type": "Feature", "geometry": {"type": "LineString", "coordinates": [[-90.7, 29.6], [-91.1, 30.4], [-91.3, 31.2], [-91.1, 31.8], [-90.5, 32.6], [-89.7, 33.4], [-88.8, 34.3], [-87.6, 34.9], [-86.3, 35.9], [-85.1, 36.8], [-83.3, 37.8], [-82.1, 38.5], [-79.0, 39.3], [-78.8, 39.3], [-77.7, 39.3], [-76.8, 39.0]]}, "properties": {"model": "UE32", "label": "ECMWF Ens 32", "kind": "ensemble", "group": "ensemble", "cycle": "2021083000"}}, {"type": "Feature", "geometry": {"type": "LineString", "coordinates": [[-90.5, 30.1], [-90.8, 30.8], [-90.9, 31.5], [-91.1, 32.2], [-90.9, 32.8], [-90.6, 33.2], [-89.4, 34.0], [-88.5, 34.7], [-87.5, 35.5], [-86.9, 35.9], [-86.1, 36.2], [-85.5, 36.2], [-84.7, 36.4], [-84.6, 36.2], [-83.5, 36.6], [-82.6, 36.4]]}, "properties": {"model": "UE33", "label": "ECMWF Ens 33", "kind": "ensemble", "group": "ensemble", "cycle": "2021083000"}}, {"type": "Feature", "geometry": {"type": "LineString", "coordinates": [[-90.3, 29.8], [-90.8, 30.4], [-90.8, 31.2], [-90.6, 31.9], [-90.1, 32.6], [-89.1, 33.6], [-88.0, 34.7], [-87.0, 35.8], [-85.8, 36.4], [-84.4, 36.6], [-82.6, 37.3], [-81.2, 38.1], [-78.8, 37.4], [-76.2, 39.0], [-74.2, 39.0]]}, "properties": {"model": "UE34", "label": "ECMWF Ens 34", "kind": "ensemble", "group": "ensemble", "cycle": "2021083000"}}, {"type": "Feature", "geometry": {"type": "LineString", "coordinates": [[-90.6, 29.8], [-90.9, 30.5], [-91.0, 31.3], [-90.8, 32.1], [-90.3, 32.9], [-89.7, 33.8], [-88.6, 34.5], [-87.5, 35.4], [-86.3, 36.1], [-85.2, 36.4], [-83.5, 37.1], [-81.6, 38.0], [-78.8, 39.0], [-77.7, 39.2], [-76.8, 39.0], [-75.6, 39.1], [-74.4, 39.6], [-74.2, 39.2], [-74.3, 39.9], [-75.1, 40.3], [-75.9, 40.1], [-76.8, 39.7]]}, "properties": {"model": "UE35", "label": "ECMWF Ens 35", "kind": "ensemble", "group": "ensemble", "cycle": "2021083000"}}, {"type": "Feature", "geometry": {"type": "LineString", "coordinates": [[-90.5, 29.9], [-90.9, 30.7], [-90.7, 31.7], [-90.5, 32.4], [-89.7, 33.4], [-89.4, 34.3], [-88.8, 34.8], [-87.9, 35.0], [-86.6, 35.3], [-84.9, 36.5], [-82.8, 37.8], [-81.0, 39.4], [-79.1, 39.6], [-77.3, 38.6], [-76.2, 39.0], [-76.3, 38.3], [-75.8, 36.5], [-75.2, 37.0], [-75.6, 37.2], [-77.0, 37.2], [-78.2, 36.8], [-80.0, 36.1], [-82.3, 36.2], [-83.3, 37.4], [-83.6, 38.2], [-83.7, 39.2]]}, "properties": {"model": "AP02", "label": "GEFS 02", "kind": "ensemble", "group": "ensemble", "cycle": "2021083000"}}, {"type": "Feature", "geometry": {"type": "LineString", "coordinates": [[-90.8, 29.9], [-91.1, 30.8], [-91.1, 31.7], [-90.9, 32.2], [-90.0, 33.0], [-89.1, 34.3], [-88.1, 35.3], [-87.1, 35.4], [-85.4, 35.5]]}, "properties": {"model": "AP05", "label": "GEFS 05", "kind": "ensemble", "group": "ensemble", "cycle": "2021083000"}}, {"type": "Feature", "geometry": {"type": "LineString", "coordinates": [[-90.8, 30.0], [-91.1, 30.8], [-91.2, 31.7], [-91.0, 32.3], [-90.5, 33.1], [-89.7, 33.6], [-88.2, 34.3], [-86.9, 35.1], [-85.6, 35.7], [-84.1, 36.3], [-82.2, 37.2], [-80.7, 37.6], [-79.0, 37.6], [-77.6, 37.6], [-76.9, 36.9], [-76.4, 35.5], [-75.3, 35.4], [-74.6, 35.0], [-74.0, 34.3], [-72.9, 34.0], [-71.7, 34.7], [-70.9, 35.7], [-70.9, 36.3], [-71.1, 36.7], [-70.6, 36.5], [-70.6, 37.3], [-70.3, 38.1], [-70.4, 38.4], [-69.9, 38.3], [-68.6, 37.5], [-66.9, 37.6], [-65.4, 37.7]]}, "properties": {"model": "AP09", "label": "GEFS 09", "kind": "ensemble", "group": "ensemble", "cycle": "2021083000"}}, {"type": "Feature", "geometry": {"type": "LineString", "coordinates": [[-90.8, 29.8], [-91.1, 30.7], [-91.3, 31.6], [-91.2, 32.5], [-90.8, 33.4], [-90.3, 34.0], [-89.2, 34.7], [-88.2, 35.5], [-86.7, 36.3], [-85.8, 36.5], [-83.9, 37.3], [-82.1, 37.9], [-80.2, 38.5]]}, "properties": {"model": "AP10", "label": "GEFS 10", "kind": "ensemble", "group": "ensemble", "cycle": "2021083000"}}, {"type": "Feature", "geometry": {"type": "LineString", "coordinates": [[-90.5, 29.8], [-90.7, 30.6], [-90.7, 31.3], [-90.4, 32.0], [-89.9, 33.2], [-89.7, 34.0], [-88.9, 34.2], [-87.7, 34.6], [-86.4, 35.5], [-85.8, 36.0], [-84.8, 36.6], [-83.2, 37.2], [-81.6, 37.1], [-79.7, 38.9], [-76.2, 40.7], [-72.1, 42.2], [-68.2, 43.6], [-66.5, 44.3], [-64.6, 45.5]]}, "properties": {"model": "AP11", "label": "GEFS 11", "kind": "ensemble", "group": "ensemble", "cycle": "2021083000"}}, {"type": "Feature", "geometry": {"type": "LineString", "coordinates": [[-90.6, 29.9], [-90.9, 31.1], [-91.1, 31.9], [-90.6, 32.7], [-89.9, 33.7], [-89.2, 34.5], [-88.0, 35.2], [-86.9, 35.6], [-84.8, 36.3], [-82.4, 38.0], [-80.4, 38.4], [-78.1, 38.7], [-75.7, 39.8], [-74.5, 40.0], [-72.9, 40.6], [-69.7, 42.4], [-67.4, 43.6], [-66.3, 44.5], [-65.2, 45.5], [-64.5, 46.5], [-63.3, 46.9], [-62.3, 47.3], [-61.0, 48.0], [-60.3, 48.2], [-59.3, 48.1], [-57.5, 48.2], [-52.7, 49.6], [-47.9, 50.9], [-41.7, 53.5]]}, "properties": {"model": "AP12", "label": "GEFS 12", "kind": "ensemble", "group": "ensemble", "cycle": "2021083000"}}, {"type": "Feature", "geometry": {"type": "LineString", "coordinates": [[-90.7, 29.8], [-91.1, 30.7], [-90.9, 31.5], [-90.6, 32.6], [-90.2, 33.5], [-89.8, 34.1], [-88.7, 34.6], [-87.6, 35.1], [-86.0, 35.9], [-84.8, 36.5], [-83.3, 37.3], [-81.5, 38.5], [-80.2, 39.1], [-79.5, 38.2], [-79.3, 37.3], [-79.3, 36.6], [-79.5, 35.6], [-79.4, 35.0], [-78.7, 35.0], [-78.4, 34.8], [-77.9, 34.7], [-78.1, 34.5], [-78.5, 34.5], [-78.7, 34.2], [-78.9, 34.0], [-79.2, 34.0], [-79.1, 34.0], [-78.6, 33.6], [-77.7, 32.9]]}, "properties": {"model": "AP16", "label": "GEFS 16", "kind": "ensemble", "group": "ensemble", "cycle": "2021083000"}}, {"type": "Feature", "geometry": {"type": "LineString", "coordinates": [[-90.4, 29.9], [-90.9, 30.6], [-90.9, 31.4], [-90.5, 32.1], [-89.7, 33.3], [-89.1, 34.1], [-88.2, 34.6], [-86.7, 35.2], [-85.3, 35.8], [-83.2, 37.2], [-80.7, 38.7], [-78.6, 39.7], [-77.2, 39.9], [-74.7, 40.7], [-71.8, 41.8], [-69.1, 43.1], [-66.5, 44.6], [-63.1, 46.8], [-60.2, 48.3], [-59.0, 48.7], [-57.5, 48.3], [-55.1, 48.5], [-50.6, 49.4], [-46.4, 50.1]]}, "properties": {"model": "AP17", "label": "GEFS 17", "kind": "ensemble", "group": "ensemble", "cycle": "2021083000"}}, {"type": "Feature", "geometry": {"type": "LineString", "coordinates": [[-90.4, 29.8], [-90.6, 30.6], [-90.7, 31.5], [-90.6, 32.2], [-90.1, 33.2], [-89.8, 34.1], [-89.0, 34.5], [-87.8, 35.0], [-86.2, 36.0], [-85.2, 36.9], [-83.8, 38.0], [-82.2, 38.8], [-81.5, 39.2], [-80.7, 38.9], [-80.3, 38.6], [-80.7, 37.3], [-80.4, 36.4], [-81.5, 35.4], [-82.4, 33.7], [-82.1, 33.7], [-82.5, 33.9], [-83.6, 34.9], [-85.2, 35.9], [-86.8, 36.0], [-87.7, 36.0], [-88.5, 36.4], [-88.6, 36.6], [-88.3, 36.5]]}, "properties": {"model": "AP19", "label": "GEFS 19", "kind": "ensemble", "group": "ensemble", "cycle": "2021083000"}}, {"type": "Feature", "geometry": {"type": "LineString", "coordinates": [[-90.5, 29.9], [-90.8, 30.7], [-90.9, 31.6], [-90.7, 32.2], [-90.1, 33.2], [-89.8, 34.0], [-88.9, 34.7], [-87.8, 35.0], [-86.4, 35.5], [-85.1, 36.3], [-82.9, 37.4]]}, "properties": {"model": "AP20", "label": "GEFS 20", "kind": "ensemble", "group": "ensemble", "cycle": "2021083000"}}, {"type": "Feature", "geometry": {"type": "LineString", "coordinates": [[-90.2, 30.1], [-90.7, 31.1], [-90.8, 32.0], [-90.5, 33.0], [-90.2, 34.2], [-89.9, 34.7], [-88.6, 35.1], [-87.1, 35.9], [-85.4, 37.4], [-83.6, 38.0], [-81.2, 39.5], [-79.4, 40.0], [-77.5, 40.8], [-75.4, 40.7], [-73.6, 41.0]]}, "properties": {"model": "AP24", "label": "GEFS 24", "kind": "ensemble", "group": "ensemble", "cycle": "2021083000"}}, {"type": "Feature", "geometry": {"type": "LineString", "coordinates": [[-90.9, 29.9], [-91.1, 30.8], [-91.1, 31.9], [-91.1, 32.8], [-90.7, 33.6], [-90.2, 33.9], [-88.7, 34.7], [-87.2, 35.6], [-85.6, 36.3], [-83.8, 37.2], [-81.6, 38.2], [-79.6, 38.5], [-76.9, 39.5], [-75.6, 40.2], [-74.5, 40.5], [-72.7, 41.4], [-70.6, 43.2], [-70.0, 44.3], [-69.5, 45.7], [-70.0, 47.1], [-70.0, 47.3], [-71.0, 47.0], [-70.7, 47.3]]}, "properties": {"model": "AP26", "label": "GEFS 26", "kind": "ensemble", "group": "ensemble", "cycle": "2021083000"}}, {"type": "Feature", "geometry": {"type": "LineString", "coordinates": [[-90.7, 29.8], [-91.1, 30.8], [-91.0, 31.6], [-90.9, 32.4], [-90.4, 33.2], [-90.2, 33.8], [-89.6, 34.2], [-88.7, 34.5], [-87.3, 35.7], [-86.2, 36.9], [-83.8, 38.1], [-82.1, 39.1], [-80.9, 39.4], [-79.5, 39.6], [-77.7, 40.4], [-77.0, 40.4], [-77.1, 40.6]]}, "properties": {"model": "AP30", "label": "GEFS 30", "kind": "ensemble", "group": "ensemble", "cycle": "2021083000"}}, {"type": "Feature", "geometry": {"type": "LineString", "coordinates": [[-90.3, 29.2], [-90.9, 30.7], [-90.7, 32.5], [-89.4, 34.2], [-87.1, 35.9], [-83.5, 37.3], [-79.2, 38.5], [-74.5, 39.7], [-69.6, 41.8], [-66.7, 44.2], [-65.4, 45.9], [-63.9, 46.2], [-60.8, 47.1], [-57.2, 49.8], [-53.5, 52.4]]}, "properties": {"model": "CMCI", "label": "CMC (interpolated)", "kind": "physics", "group": "deterministic", "cycle": "2021082918"}}, {"type": "Feature", "geometry": {"type": "LineString", "coordinates": [[-90.6, 29.9], [-90.9, 30.3], [-90.2, 31.1], [-90.0, 32.0], [-89.5, 32.9], [-88.9, 33.8], [-88.4, 34.5], [-87.0, 34.6], [-85.3, 35.4], [-83.7, 36.4], [-82.0, 37.2], [-80.0, 37.7], [-77.3, 38.1], [-76.0, 38.5], [-75.3, 38.1], [-74.2, 37.9], [-73.6, 37.5], [-73.1, 36.9], [-72.6, 36.8], [-72.6, 36.4], [-73.0, 36.0]]}, "properties": {"model": "COTC", "label": "COAMPS-TC (interpolated)", "kind": "physics", "group": "deterministic", "cycle": "2021083000"}}, {"type": "Feature", "geometry": {"type": "LineString", "coordinates": [[-90.6, 29.6], [-90.8, 30.1], [-90.4, 30.9], [-90.4, 31.7], [-90.0, 32.4], [-89.7, 33.2], [-89.0, 33.8], [-88.2, 34.2], [-87.2, 34.7], [-86.3, 35.2], [-85.2, 35.6], [-83.7, 35.8], [-82.2, 36.5], [-81.5, 37.0], [-81.0, 36.5], [-81.3, 35.6], [-82.4, 34.5], [-83.7, 33.6], [-84.5, 33.1], [-85.3, 32.6], [-85.6, 32.2], [-86.2, 32.3], [-86.3, 32.5], [-86.5, 32.7], [-86.8, 32.7], [-87.0, 33.0], [-87.1, 33.3], [-87.3, 33.4], [-87.8, 33.4], [-88.0, 33.5], [-87.9, 33.3]]}, "properties": {"model": "NVGM", "label": "NAVGEM", "kind": "physics", "group": "deterministic", "cycle": "2021083000"}}, {"type": "Feature", "geometry": {"type": "LineString", "coordinates": [[-90.6, 29.9], [-90.8, 31.4], [-90.2, 33.1], [-88.7, 34.5], [-86.3, 35.9], [-83.1, 37.3], [-79.5, 38.5], [-76.4, 38.9], [-73.6, 39.2], [-71.2, 39.5], [-69.7, 39.6], [-64.3, 42.0], [-64.4, 40.5], [-61.5, 40.8], [-57.6, 40.9]]}, "properties": {"model": "TVCA", "label": "Consensus", "kind": "consensus", "group": "consensus", "cycle": "2021083000"}}, {"type": "Feature", "geometry": {"type": "LineString", "coordinates": [[-90.6, 29.9], [-90.8, 31.4], [-90.2, 33.1], [-88.7, 34.5], [-86.3, 35.9], [-83.1, 37.3], [-79.5, 38.5], [-76.4, 38.9], [-73.6, 39.2], [-71.2, 39.5], [-69.7, 39.6], [-64.3, 42.0], [-64.4, 40.5], [-61.5, 40.8], [-57.6, 40.9]]}, "properties": {"model": "TVCN", "label": "TVCN Consensus", "kind": "consensus", "group": "consensus", "cycle": "2021083000"}}, {"type": "Feature", "geometry": {"type": "LineString", "coordinates": [[-88.7, 27.6], [-90.3, 29.0], [-91.0, 30.3], [-90.7, 31.8], [-89.7, 33.4], [-87.7, 35.0], [-85.0, 36.3], [-81.5, 37.5], [-77.7, 38.6], [-74.0, 39.4], [-71.1, 40.0], [-68.8, 40.6], [-66.4, 41.0], [-62.9, 42.1], [-57.7, 44.9]]}, "properties": {"model": "EMXI", "label": "ECMWF", "kind": "physics", "group": "deterministic", "cycle": "2021082906"}}, {"type": "Feature", "geometry": {"type": "LineString", "coordinates": [[-90.6, 29.9], [-90.8, 31.4], [-90.2, 33.1], [-88.8, 34.3], [-86.4, 35.6], [-83.3, 37.2], [-79.3, 38.6], [-75.4, 39.3], [-71.3, 40.1], [-67.1, 41.0], [-64.1, 41.5], [-61.7, 41.3], [-59.7, 41.0], [-56.5, 41.0], [-51.9, 41.0]]}, "properties": {"model": "GFEX", "label": "GFS Ensemble Mean", "kind": "consensus", "group": "consensus", "cycle": "2021083000"}}, {"type": "Feature", "geometry": {"type": "LineString", "coordinates": [[-90.6, 29.9], [-90.7, 30.3], [-90.8, 31.5], [-90.1, 33.0], [-88.5, 34.6], [-85.9, 36.1], [-82.5, 37.5], [-78.8, 38.9], [-72.5, 40.0], [-67.9, 40.7]]}, "properties": {"model": "OFCL", "label": "Official", "kind": "official", "group": "official", "cycle": "2021083000"}}, {"type": "Feature", "geometry": {"type": "LineString", "coordinates": [[-90.3, 29.2], [-91.0, 30.5], [-91.1, 32.1], [-90.1, 33.5], [-88.3, 35.0], [-85.9, 36.4], [-82.7, 37.9], [-79.3, 38.9], [-75.9, 40.0]]}, "properties": {"model": "EGRI", "label": "UKMET (interpolated)", "kind": "physics", "group": "deterministic", "cycle": "2021082918"}}]}