{"type": "FeatureCollection", "features": [{"type": "Feature", "properties": {"shapefile": "al092021-015_5day_lin", "STORMNAME": "Ida", "STORMTYPE": "HU", "ADVDATE": "400 PM CDT Sun Aug 29 2021", "ADVISNUM": "15", "STORMNUM": 9, "FCSTPRD": 120, "BASIN": "AL"}, "geometry": {"type": "LineString", "coordinates": [[-90.6, 29.5], [-90.9, 30.7], [-90.7, 32.4], [-89.4, 34.0], [-87.2, 35.6], [-84.2, 37.1], [-80.5, 38.6], [-72.5, 41.3], [-67.0, 43.8]]}}, {"type": "Feature", "properties": {"shapefile": "al092021-015_5day_pts", "ADVDATE": "400 PM CDT Sun Aug 29 2021", "ADVISNUM": "15", "BASIN": "AL", "DATELBL": "4:00 PM Sun", "DVLBL": "M", "FCSTPRD": 120, "FLDATELBL": "2021-08-29 1:00 PM Sun CDT", "GUST": 140, "LAT": 29, "LON": -90, "MAXWIND": 115, "MSLP": 938, "SSNUM": 4, "STORMNAME": "Hurricane Ida", "STORMNUM": 9, "STORMSRC": "Tropical Cyclone", "STORMTYPE": "MH", "TCDVLP": "Major Hurricane", "TAU": 0, "TCDIR": 325, "TCSPD": 9, "TIMEZONE": "CDT", "VALIDTIME": "29/1800"}, "geometry": {"type": "Point", "coordinates": [-90.6, 29.5]}}, {"type": "Feature", "properties": {"shapefile": "al092021-015_5day_pts", "ADVDATE": "400 PM CDT Sun Aug 29 2021", "ADVISNUM": "15", "BASIN": "AL", "DATELBL": "1:00 AM Mon", "DVLBL": "H", "FCSTPRD": 120, "FLDATELBL": "2021-08-30 1:00 AM Mon CDT", "GUST": 90, "LAT": 30, "LON": -90, "MAXWIND": 65, "MSLP": 9999, "SSNUM": 1, "STORMNAME": "Hurricane Ida", "STORMNUM": 9, "STORMSRC": "Tropical Cyclone", "STORMTYPE": "HU", "TCDVLP": "Hurricane", "TAU": 12, "TCDIR": 9999, "TCSPD": 9999, "TIMEZONE": "CDT", "VALIDTIME": "30/0600"}, "geometry": {"type": "Point", "coordinates": [-90.9, 30.7]}}, {"type": "Feature", "properties": {"shapefile": "al092021-015_5day_pts", "ADVDATE": "400 PM CDT Sun Aug 29 2021", "ADVISNUM": "15", "BASIN": "AL", "DATELBL": "1:00 PM Mon", "DVLBL": "S", "FCSTPRD": 120, "FLDATELBL": "2021-08-30 1:00 PM Mon CDT", "GUST": 50, "LAT": 32, "LON": -90, "MAXWIND": 35, "MSLP": 9999, "SSNUM": 0, "STORMNAME": "Hurricane Ida", "STORMNUM": 9, "STORMSRC": "Tropical Cyclone", "STORMTYPE": "TS", "TCDVLP": "Tropical Storm", "TAU": 24, "TCDIR": 9999, "TCSPD": 9999, "TIMEZONE": "CDT", "VALIDTIME": "30/1800"}, "geometry": {"type": "Point", "coordinates": [-90.7, 32.4]}}, {"type": "Feature", "properties": {"shapefile": "al092021-015_5day_pts", "ADVDATE": "400 PM CDT Sun Aug 29 2021", "ADVISNUM": "15", "BASIN": "AL", "DATELBL": "1:00 AM Tue", "DVLBL": "D", "FCSTPRD": 120, "FLDATELBL": "2021-08-31 1:00 AM Tue CDT", "GUST": 40, "LAT": 34, "LON": -89, "MAXWIND": 25, "MSLP": 9999, "SSNUM": 0, "STORMNAME": "Hurricane Ida", "STORMNUM": 9, "STORMSRC": "Tropical Cyclone", "STORMTYPE": "TD", "TCDVLP": "Tropical Depression", "TAU": 36, "TCDIR": 9999, "TCSPD": 9999, "TIMEZONE": "CDT", "VALIDTIME": "31/0600"}, "geometry": {"type": "Point", "coordinates": [-89.4, 34.0]}}, {"type": "Feature", "properties": {"shapefile": "al092021-015_5day_pts", "ADVDATE": "400 PM CDT Sun Aug 29 2021", "ADVISNUM": "15", "BASIN": "AL", "DATELBL": "1:00 PM Tue", "DVLBL": "D", "FCSTPRD": 120, "FLDATELBL": "2021-08-31 1:00 PM Tue CDT", "GUST": 35, "LAT": 35, "LON": -87, "MAXWIND": 25, "MSLP": 9999, "SSNUM": 0, "STORMNAME": "Hurricane Ida", "STORMNUM": 9, "STORMSRC": "Tropical Cyclone", "STORMTYPE": "TD", "TCDVLP": "Tropical Depression", "TAU": 48, "TCDIR": 9999, "TCSPD": 9999, "TIMEZONE": "CDT", "VALIDTIME": "31/1800"}, "geometry": {"type": "Point", "coordinates": [-87.2, 35.6]}}, {"type": "Feature", "properties": {"shapefile": "al092021-015_5day_pts", "ADVDATE": "400 PM CDT Sun Aug 29 2021", "ADVISNUM": "15", "BASIN": "AL", "DATELBL": "1:00 AM Wed", "DVLBL": "D", "FCSTPRD": 120, "FLDATELBL": "2021-09-01 1:00 AM Wed CDT", "GUST": 30, "LAT": 37, "LON": -84, "MAXWIND": 20, "MSLP": 9999, "SSNUM": 0, "STORMNAME": "Hurricane Ida", "STORMNUM": 9, "STORMSRC": "Post-Tropical Cyclone", "STORMTYPE": "STD", "TCDVLP": "Subtropical Depression", "TAU": 60, "TCDIR": 9999, "TCSPD": 9999, "TIMEZONE": "CDT", "VALIDTIME": "01/0600"}, "geometry": {"type": "Point", "coordinates": [-84.2, 37.1]}}, {"type": "Feature", "properties": {"shapefile": "al092021-015_5day_pts", "ADVDATE": "400 PM CDT Sun Aug 29 2021", "ADVISNUM": "15", "BASIN": "AL", "DATELBL": "1:00 PM Wed", "DVLBL": "D", "FCSTPRD": 120, "FLDATELBL": "2021-09-01 1:00 PM Wed CDT", "GUST": 30, "LAT": 38, "LON": -80, "MAXWIND": 20, "MSLP": 9999, "SSNUM": 0, "STORMNAME": "Hurricane Ida", "STORMNUM": 9, "STORMSRC": "Post-Tropical Cyclone", "STORMTYPE": "STD", "TCDVLP": "Subtropical Depression", "TAU": 72, "TCDIR": 9999, "TCSPD": 9999, "TIMEZONE": "CDT", "VALIDTIME": "01/1800"}, "geometry": {"type": "Point", "coordinates": [-80.5, 38.6]}}, {"type": "Feature", "properties": {"shapefile": "al092021-015_5day_pts", "ADVDATE": "400 PM CDT Sun Aug 29 2021", "ADVISNUM": "15", "BASIN": "AL", "DATELBL": "1:00 PM Thu", "DVLBL": "D", "FCSTPRD": 120, "FLDATELBL": "2021-09-02 1:00 PM Thu CDT", "GUST": 40, "LAT": 41, "LON": -72, "MAXWIND": 30, "MSLP": 9999, "SSNUM": 0, "STORMNAME": "Hurricane Ida", "STORMNUM": 9, "STORMSRC": "Post-Tropical Cyclone", "STORMTYPE": "STD", "TCDVLP": "Subtropical Depression", "TAU": 96, "TCDIR": 9999, "TCSPD": 9999, "TIMEZONE": "CDT", "VALIDTIME": "02/1800"}, "geometry": {"type": "Point", "coordinates": [-72.5, 41.3]}}, {"type": "Feature", "properties": {"shapefile": "al092021-015_5day_pts", "ADVDATE": "400 PM CDT Sun Aug 29 2021", "ADVISNUM": "15", "BASIN": "AL", "DATELBL": "1:00 PM Fri", "DVLBL": "S", "FCSTPRD": 120, "FLDATELBL": "2021-09-03 1:00 PM Fri CDT", "GUST": 45, "LAT": 43, "LON": -67, "MAXWIND": 35, "MSLP": 9999, "SSNUM": 0, "STORMNAME": "Hurricane Ida", "STORMNUM": 9, "STORMSRC": "Post-Tropical Cyclone", "STORMTYPE": "STS", "TCDVLP": "Subtropical Storm", "TAU": 120, "TCDIR": 9999, "TCSPD": 9999, "TIMEZONE": "CDT", "VALIDTIME": "03/1800"}, "geometry": {"type": "Point", "coordinates": [-67.0, 43.8]}}]}