{"type": "FeatureCollection", "features": [{"type": "Feature", "properties": {"shapefile": "2021083000_wsp64knt120hr_5km", "PERCENTAGE": "<5%"}, "geometry": {"type": "MultiPolygon", "coordinates": [[[[-91.9546844092564, 30.401186836899853], [-91.9546844092564, 30.805790325481045], [-91.90972846608071, 30.805790325481045], [-91.90972846608071, 31.075525984535172], [-91.86477252290501, 31.075525984535172], [-91.86477252290501, 31.210393814062236], [-91.81981657972932, 31.210393814062236], [-91.77486063655363, 31.480129473116364], [-91.72990469337793, 31.480129473116364], [-91.68494875020224, 31.659953245819114], [-91.59503686385085, 31.7049091889948], [-91.59503686385085, 31.794821075346178], [-91.50512497749946, 31.839777018521865], [-91.50512497749946, 31.92968890487324], [-91.46016903432377, 31.92968890487324], [-91.46016903432377, 31.97464484804893], [-91.41521309114808, 31.97464484804893], [-91.41521309114808, 32.01960079122462], [-91.37025714797238, 32.01960079122462], [-91.280345261621, 32.154468620751686], [-91.1904333752696, 32.199424563927366], [-91.1904333752696, 32.24438050710306], [-91.10052148891822, 32.24438050710306], [-91.05556554574252, 32.33429239345443], [-90.96565365939114, 32.33429239345443], [-90.92069771621544, 32.42420427980581], [-90.83078582986406, 32.42420427980581], [-90.83078582986406, 32.4691602229815], [-90.74087394351267, 32.4691602229815], [-90.74087394351267, 32.51411616615718], [-90.60600611398559, 32.51411616615718], [-90.60600611398559, 32.559072109332874], [-90.38122639810712, 32.559072109332874], [-90.38122639810712, 32.51411616615718], [-90.24635856858004, 32.51411616615718], [-90.24635856858004, 32.4691602229815], [-90.20140262540434, 32.4691602229815], [-90.20140262540434, 32.42420427980581], [-90.06653479587726, 32.33429239345443], [-90.06653479587726, 32.24438050710306], [-89.97662290952587, 32.199424563927366], [-89.97662290952587, 32.10951267757599], [-89.93166696635018, 32.10951267757599], [-89.93166696635018, 32.01960079122462], [-89.84175507999879, 31.97464484804893], [-89.84175507999879, 31.884732961697555], [-89.7518431936474, 31.839777018521865], [-89.70688725047171, 31.659953245819114], [-89.61697536412032, 31.614997302643427], [-89.61697536412032, 31.52508541629205], [-89.57201942094463, 31.52508541629205], [-89.57201942094463, 31.435173529940677], [-89.52706347776893, 31.435173529940677], [-89.52706347776893, 31.3452616435893], [-89.48210753459324, 31.3452616435893], [-89.48210753459324, 31.255349757237923], [-89.43715159141755, 31.255349757237923], [-89.43715159141755, 31.16543787088655], [-89.39219564824185, 31.16543787088655], [-89.39219564824185, 31.030570041359486], [-89.34723970506616, 31.030570041359486], [-89.34723970506616, 30.850746268656735], [-89.30228376189046, 30.850746268656735], [-89.30228376189046, 30.221363064197103], [-89.34723970506616, 30.221363064197103], [-89.34723970506616, 30.041539291494352], [-89.39219564824185, 30.041539291494352], [-89.39219564824185, 29.90667146196729], [-89.43715159141755, 29.90667146196729], [-89.43715159141755, 29.81675957561591], [-89.48210753459324, 29.81675957561591], [-89.48210753459324, 29.726847689264538], [-89.52706347776893, 29.726847689264538], [-89.52706347776893, 29.63693580291316], [-89.57201942094463, 29.63693580291316], [-89.57201942094463, 29.547023916561784], [-89.61697536412032, 29.547023916561784], [-89.61697536412032, 29.502067973386097], [-89.66193130729602, 29.502067973386097], [-89.66193130729602, 29.45711203021041], [-89.70688725047171, 29.45711203021041], [-89.70688725047171, 29.412156087034724], [-89.7518431936474, 29.412156087034724], [-89.7518431936474, 29.367200143859034], [-89.88671102317448, 29.27728825750766], [-89.88671102317448, 29.23233231433197], [-90.06653479587726, 29.187376371156283], [-90.06653479587726, 29.142420427980596], [-90.15644668222865, 29.142420427980596], [-90.15644668222865, 29.097464484804906], [-90.29131451175573, 29.097464484804906], [-90.29131451175573, 29.05250854162922], [-90.74087394351267, 29.05250854162922], [-90.74087394351267, 29.097464484804906], [-90.92069771621544, 29.097464484804906], [-90.92069771621544, 29.142420427980596], [-91.05556554574252, 29.142420427980596], [-91.05556554574252, 29.187376371156283], [-91.14547743209391, 29.187376371156283], [-91.1904333752696, 29.27728825750766], [-91.280345261621, 29.27728825750766], [-91.280345261621, 29.322244200683347], [-91.32530120479669, 29.322244200683347], [-91.32530120479669, 29.367200143859034], [-91.37025714797238, 29.367200143859034], [-91.37025714797238, 29.412156087034724], [-91.41521309114808, 29.412156087034724], [-91.41521309114808, 29.45711203021041], [-91.46016903432377, 29.45711203021041], [-91.46016903432377, 29.502067973386097], [-91.50512497749946, 29.502067973386097], [-91.50512497749946, 29.547023916561784], [-91.63999280702654, 29.63693580291316], [-91.63999280702654, 29.726847689264538], [-91.72990469337793, 29.771803632440225], [-91.72990469337793, 29.861715518791602], [-91.77486063655363, 29.861715518791602], [-91.77486063655363, 29.951627405142975], [-91.81981657972932, 29.951627405142975], [-91.81981657972932, 30.08649523467004], [-91.86477252290501, 30.08649523467004], [-91.86477252290501, 30.221363064197103], [-91.90972846608071, 30.221363064197103], [-91.90972846608071, 30.401186836899853], [-91.9546844092564, 30.401186836899853]], [[-91.63999280702654, 30.401186836899853], [-91.59503686385085, 30.401186836899853], [-91.59503686385085, 30.221363064197103], [-91.55008092067516, 30.221363064197103], [-91.55008092067516, 30.131451177845726], [-91.50512497749946, 30.131451177845726], [-91.50512497749946, 30.041539291494352], [-91.46016903432377, 30.041539291494352], [-91.41521309114808, 29.861715518791602], [-91.32530120479669, 29.81675957561591], [-91.32530120479669, 29.726847689264538], [-91.280345261621, 29.726847689264538], [-91.1904333752696, 29.591979859737474], [-91.10052148891822, 29.591979859737474], [-91.05556554574252, 29.502067973386097], [-90.87574177303975, 29.45711203021041], [-90.87574177303975, 29.412156087034724], [-90.78582988668836, 29.412156087034724], [-90.78582988668836, 29.367200143859034], [-90.29131451175573, 29.367200143859034], [-90.29131451175573, 29.412156087034724], [-90.20140262540434, 29.412156087034724], [-90.20140262540434, 29.45711203021041], [-90.02157885270157, 29.502067973386097], [-90.02157885270157, 29.547023916561784], [-89.88671102317448, 29.63693580291316], [-89.88671102317448, 29.726847689264538], [-89.7967991368231, 29.771803632440225], [-89.7967991368231, 29.861715518791602], [-89.7518431936474, 29.861715518791602], [-89.7518431936474, 29.951627405142975], [-89.70688725047171, 29.951627405142975], [-89.70688725047171, 30.041539291494352], [-89.66193130729602, 30.041539291494352], [-89.66193130729602, 30.221363064197103], [-89.61697536412032, 30.221363064197103], [-89.61697536412032, 30.805790325481045], [-89.66193130729602, 30.805790325481045], [-89.66193130729602, 30.94065815500811], [-89.70688725047171, 30.94065815500811], [-89.70688725047171, 31.075525984535172], [-89.7518431936474, 31.075525984535172], [-89.7967991368231, 31.255349757237923], [-89.88671102317448, 31.300305700413613], [-89.88671102317448, 31.390217586764987], [-89.97662290952587, 31.435173529940677], [-89.97662290952587, 31.52508541629205], [-90.02157885270157, 31.52508541629205], [-90.11149073905295, 31.659953245819114], [-90.20140262540434, 31.659953245819114], [-90.24635856858004, 31.74986513217049], [-90.33627045493142, 31.74986513217049], [-90.33627045493142, 31.794821075346178], [-90.42618234128281, 31.794821075346178], [-90.42618234128281, 31.839777018521865], [-90.74087394351267, 31.839777018521865], [-90.74087394351267, 31.794821075346178], [-90.87574177303975, 31.794821075346178], [-90.87574177303975, 31.74986513217049], [-90.96565365939114, 31.74986513217049], [-90.96565365939114, 31.7049091889948], [-91.14547743209391, 31.659953245819114], [-91.14547743209391, 31.614997302643427], [-91.1904333752696, 31.614997302643427], [-91.1904333752696, 31.570041359467737], [-91.2353893184453, 31.570041359467737], [-91.2353893184453, 31.52508541629205], [-91.280345261621, 31.52508541629205], [-91.280345261621, 31.480129473116364], [-91.41521309114808, 31.390217586764987], [-91.41521309114808, 31.300305700413613], [-91.46016903432377, 31.300305700413613], [-91.46016903432377, 31.210393814062236], [-91.50512497749946, 31.210393814062236], [-91.50512497749946, 31.075525984535172], [-91.55008092067516, 31.075525984535172], [-91.55008092067516, 30.94065815500811], [-91.59503686385085, 30.94065815500811], [-91.59503686385085, 30.760834382305358], [-91.63999280702654, 30.760834382305358], [-91.63999280702654, 30.401186836899853]]]]}}, {"type": "Feature", "properties": {"shapefile": "2021083000_wsp64knt120hr_5km", "PERCENTAGE": "5-10%"}, "geometry": {"type": "MultiPolygon", "coordinates": [[[[-91.63999280702654, 30.401186836899853], [-91.63999280702654, 30.760834382305358], [-91.59503686385085, 30.760834382305358], [-91.59503686385085, 30.94065815500811], [-91.55008092067516, 30.94065815500811], [-91.55008092067516, 31.075525984535172], [-91.50512497749946, 31.075525984535172], [-91.50512497749946, 31.210393814062236], [-91.46016903432377, 31.210393814062236], [-91.41521309114808, 31.390217586764987], [-91.37025714797238, 31.390217586764987], [-91.37025714797238, 31.435173529940677], [-91.32530120479669, 31.435173529940677], [-91.32530120479669, 31.480129473116364], [-91.280345261621, 31.480129473116364], [-91.280345261621, 31.52508541629205], [-91.2353893184453, 31.52508541629205], [-91.14547743209391, 31.659953245819114], [-90.96565365939114, 31.7049091889948], [-90.96565365939114, 31.74986513217049], [-90.87574177303975, 31.74986513217049], [-90.87574177303975, 31.794821075346178], [-90.74087394351267, 31.794821075346178], [-90.74087394351267, 31.839777018521865], [-90.42618234128281, 31.839777018521865], [-90.42618234128281, 31.794821075346178], [-90.24635856858004, 31.74986513217049], [-90.20140262540434, 31.659953245819114], [-90.11149073905295, 31.659953245819114], [-90.11149073905295, 31.614997302643427], [-89.97662290952587, 31.52508541629205], [-89.97662290952587, 31.435173529940677], [-89.88671102317448, 31.390217586764987], [-89.88671102317448, 31.300305700413613], [-89.7967991368231, 31.255349757237923], [-89.7967991368231, 31.16543787088655], [-89.7518431936474, 31.16543787088655], [-89.7518431936474, 31.075525984535172], [-89.70688725047171, 31.075525984535172], [-89.70688725047171, 30.94065815500811], [-89.66193130729602, 30.94065815500811], [-89.66193130729602, 30.805790325481045], [-89.61697536412032, 30.805790325481045], [-89.61697536412032, 30.221363064197103], [-89.66193130729602, 30.221363064197103], [-89.66193130729602, 30.041539291494352], [-89.70688725047171, 30.041539291494352], [-89.70688725047171, 29.951627405142975], [-89.7518431936474, 29.951627405142975], [-89.7967991368231, 29.771803632440225], [-89.88671102317448, 29.726847689264538], [-89.88671102317448, 29.63693580291316], [-89.93166696635018, 29.63693580291316], [-90.02157885270157, 29.502067973386097], [-90.11149073905295, 29.502067973386097], [-90.11149073905295, 29.45711203021041], [-90.29131451175573, 29.412156087034724], [-90.29131451175573, 29.367200143859034], [-90.78582988668836, 29.367200143859034], [-90.78582988668836, 29.412156087034724], [-90.87574177303975, 29.412156087034724], [-90.87574177303975, 29.45711203021041], [-91.05556554574252, 29.502067973386097], [-91.10052148891822, 29.591979859737474], [-91.1904333752696, 29.591979859737474], [-91.1904333752696, 29.63693580291316], [-91.32530120479669, 29.726847689264538], [-91.32530120479669, 29.81675957561591], [-91.41521309114808, 29.861715518791602], [-91.41521309114808, 29.951627405142975], [-91.46016903432377, 29.951627405142975], [-91.46016903432377, 30.041539291494352], [-91.50512497749946, 30.041539291494352], [-91.50512497749946, 30.131451177845726], [-91.55008092067516, 30.131451177845726], [-91.55008092067516, 30.221363064197103], [-91.59503686385085, 30.221363064197103], [-91.59503686385085, 30.401186836899853], [-91.63999280702654, 30.401186836899853]], [[-91.46016903432377, 30.356230893724167], [-91.41521309114808, 30.356230893724167], [-91.37025714797238, 30.08649523467004], [-91.280345261621, 30.041539291494352], [-91.2353893184453, 29.861715518791602], [-91.1904333752696, 29.861715518791602], [-91.1904333752696, 29.81675957561591], [-91.14547743209391, 29.81675957561591], [-91.14547743209391, 29.771803632440225], [-91.10052148891822, 29.771803632440225], [-91.01060960256683, 29.63693580291316], [-90.83078582986406, 29.591979859737474], [-90.83078582986406, 29.547023916561784], [-90.74087394351267, 29.547023916561784], [-90.74087394351267, 29.502067973386097], [-90.33627045493142, 29.502067973386097], [-90.33627045493142, 29.547023916561784], [-90.15644668222865, 29.591979859737474], [-90.15644668222865, 29.63693580291316], [-90.11149073905295, 29.63693580291316], [-90.11149073905295, 29.681891746088848], [-90.06653479587726, 29.681891746088848], [-90.06653479587726, 29.726847689264538], [-89.93166696635018, 29.81675957561591], [-89.93166696635018, 29.90667146196729], [-89.88671102317448, 29.90667146196729], [-89.88671102317448, 29.996583348318666], [-89.84175507999879, 29.996583348318666], [-89.84175507999879, 30.131451177845726], [-89.7967991368231, 30.131451177845726], [-89.7967991368231, 30.26631900737279], [-89.7518431936474, 30.26631900737279], [-89.7518431936474, 30.71587843912967], [-89.7967991368231, 30.71587843912967], [-89.84175507999879, 30.985614098183795], [-89.88671102317448, 30.985614098183795], [-89.88671102317448, 31.075525984535172], [-89.93166696635018, 31.075525984535172], [-89.97662290952587, 31.255349757237923], [-90.11149073905295, 31.3452616435893], [-90.11149073905295, 31.435173529940677], [-90.20140262540434, 31.435173529940677], [-90.20140262540434, 31.480129473116364], [-90.24635856858004, 31.480129473116364], [-90.29131451175573, 31.570041359467737], [-90.38122639810712, 31.570041359467737], [-90.38122639810712, 31.614997302643427], [-90.78582988668836, 31.614997302643427], [-90.78582988668836, 31.570041359467737], [-90.92069771621544, 31.570041359467737], [-90.92069771621544, 31.52508541629205], [-91.01060960256683, 31.52508541629205], [-91.01060960256683, 31.480129473116364], [-91.05556554574252, 31.480129473116364], [-91.10052148891822, 31.390217586764987], [-91.1904333752696, 31.390217586764987], [-91.1904333752696, 31.3452616435893], [-91.2353893184453, 31.3452616435893], [-91.2353893184453, 31.255349757237923], [-91.32530120479669, 31.210393814062236], [-91.32530120479669, 31.075525984535172], [-91.37025714797238, 31.075525984535172], [-91.37025714797238, 30.985614098183795], [-91.41521309114808, 30.985614098183795], [-91.41521309114808, 30.850746268656735], [-91.46016903432377, 30.850746268656735], [-91.46016903432377, 30.356230893724167]]]]}}, {"type": "Feature", "properties": {"shapefile": "2021083000_wsp64knt120hr_5km", "PERCENTAGE": "10-20%"}, "geometry": {"type": "MultiPolygon", "coordinates": [[[[-91.46016903432377, 30.356230893724167], [-91.46016903432377, 30.850746268656735], [-91.41521309114808, 30.850746268656735], [-91.41521309114808, 30.985614098183795], [-91.37025714797238, 30.985614098183795], [-91.37025714797238, 31.075525984535172], [-91.32530120479669, 31.075525984535172], [-91.32530120479669, 31.210393814062236], [-91.2353893184453, 31.255349757237923], [-91.2353893184453, 31.3452616435893], [-91.1904333752696, 31.3452616435893], [-91.1904333752696, 31.390217586764987], [-91.10052148891822, 31.390217586764987], [-91.01060960256683, 31.52508541629205], [-90.92069771621544, 31.52508541629205], [-90.92069771621544, 31.570041359467737], [-90.78582988668836, 31.570041359467737], [-90.78582988668836, 31.614997302643427], [-90.38122639810712, 31.614997302643427], [-90.38122639810712, 31.570041359467737], [-90.29131451175573, 31.570041359467737], [-90.20140262540434, 31.435173529940677], [-90.11149073905295, 31.435173529940677], [-90.11149073905295, 31.3452616435893], [-89.97662290952587, 31.255349757237923], [-89.97662290952587, 31.16543787088655], [-89.93166696635018, 31.16543787088655], [-89.93166696635018, 31.075525984535172], [-89.88671102317448, 31.075525984535172], [-89.88671102317448, 30.985614098183795], [-89.84175507999879, 30.985614098183795], [-89.7967991368231, 30.71587843912967], [-89.7518431936474, 30.71587843912967], [-89.7518431936474, 30.26631900737279], [-89.7967991368231, 30.26631900737279], [-89.84175507999879, 29.996583348318666], [-89.88671102317448, 29.996583348318666], [-89.93166696635018, 29.81675957561591], [-89.97662290952587, 29.81675957561591], [-89.97662290952587, 29.771803632440225], [-90.02157885270157, 29.771803632440225], [-90.02157885270157, 29.726847689264538], [-90.06653479587726, 29.726847689264538], [-90.15644668222865, 29.591979859737474], [-90.24635856858004, 29.591979859737474], [-90.24635856858004, 29.547023916561784], [-90.33627045493142, 29.547023916561784], [-90.33627045493142, 29.502067973386097], [-90.74087394351267, 29.502067973386097], [-90.74087394351267, 29.547023916561784], [-90.83078582986406, 29.547023916561784], [-90.83078582986406, 29.591979859737474], [-91.01060960256683, 29.63693580291316], [-91.01060960256683, 29.681891746088848], [-91.05556554574252, 29.681891746088848], [-91.05556554574252, 29.726847689264538], [-91.10052148891822, 29.726847689264538], [-91.10052148891822, 29.771803632440225], [-91.2353893184453, 29.861715518791602], [-91.280345261621, 30.041539291494352], [-91.37025714797238, 30.08649523467004], [-91.41521309114808, 30.356230893724167], [-91.46016903432377, 30.356230893724167]], [[-91.32530120479669, 30.401186836899853], [-91.280345261621, 30.401186836899853], [-91.280345261621, 30.26631900737279], [-91.2353893184453, 30.26631900737279], [-91.2353893184453, 30.131451177845726], [-91.1904333752696, 30.131451177845726], [-91.1904333752696, 30.041539291494352], [-91.10052148891822, 29.996583348318666], [-91.10052148891822, 29.90667146196729], [-91.05556554574252, 29.90667146196729], [-91.05556554574252, 29.861715518791602], [-91.01060960256683, 29.861715518791602], [-91.01060960256683, 29.81675957561591], [-90.96565365939114, 29.81675957561591], [-90.87574177303975, 29.681891746088848], [-90.78582988668836, 29.681891746088848], [-90.78582988668836, 29.63693580291316], [-90.69591800033697, 29.63693580291316], [-90.69591800033697, 29.591979859737474], [-90.33627045493142, 29.591979859737474], [-90.33627045493142, 29.63693580291316], [-90.24635856858004, 29.63693580291316], [-90.24635856858004, 29.681891746088848], [-90.20140262540434, 29.681891746088848], [-90.20140262540434, 29.726847689264538], [-90.15644668222865, 29.726847689264538], [-90.15644668222865, 29.771803632440225], [-90.02157885270157, 29.861715518791602], [-90.02157885270157, 29.951627405142975], [-89.97662290952587, 29.951627405142975], [-89.97662290952587, 30.041539291494352], [-89.93166696635018, 30.041539291494352], [-89.93166696635018, 30.176407121021416], [-89.88671102317448, 30.176407121021416], [-89.88671102317448, 30.760834382305358], [-89.93166696635018, 30.760834382305358], [-89.93166696635018, 30.895702211832422], [-89.97662290952587, 30.895702211832422], [-89.97662290952587, 31.030570041359486], [-90.02157885270157, 31.030570041359486], [-90.02157885270157, 31.12048192771086], [-90.11149073905295, 31.16543787088655], [-90.11149073905295, 31.255349757237923], [-90.15644668222865, 31.255349757237923], [-90.24635856858004, 31.390217586764987], [-90.33627045493142, 31.390217586764987], [-90.33627045493142, 31.435173529940677], [-90.42618234128281, 31.435173529940677], [-90.42618234128281, 31.480129473116364], [-90.69591800033697, 31.480129473116364], [-90.69591800033697, 31.435173529940677], [-90.83078582986406, 31.435173529940677], [-90.83078582986406, 31.390217586764987], [-90.92069771621544, 31.390217586764987], [-90.92069771621544, 31.3452616435893], [-90.96565365939114, 31.3452616435893], [-90.96565365939114, 31.300305700413613], [-91.01060960256683, 31.300305700413613], [-91.01060960256683, 31.255349757237923], [-91.05556554574252, 31.255349757237923], [-91.05556554574252, 31.210393814062236], [-91.1904333752696, 31.12048192771086], [-91.1904333752696, 31.030570041359486], [-91.2353893184453, 31.030570041359486], [-91.2353893184453, 30.895702211832422], [-91.280345261621, 30.895702211832422], [-91.280345261621, 30.760834382305358], [-91.32530120479669, 30.760834382305358], [-91.32530120479669, 30.401186836899853]]]]}}, {"type": "Feature", "properties": {"shapefile": "2021083000_wsp64knt120hr_5km", "PERCENTAGE": "20-30%"}, "geometry": {"type": "MultiPolygon", "coordinates": [[[[-91.32530120479669, 30.401186836899853], [-91.32530120479669, 30.760834382305358], [-91.280345261621, 30.760834382305358], [-91.2353893184453, 31.030570041359486], [-91.1904333752696, 31.030570041359486], [-91.1904333752696, 31.12048192771086], [-91.14547743209391, 31.12048192771086], [-91.14547743209391, 31.16543787088655], [-91.10052148891822, 31.16543787088655], [-91.10052148891822, 31.210393814062236], [-91.05556554574252, 31.210393814062236], [-91.05556554574252, 31.255349757237923], [-91.01060960256683, 31.255349757237923], [-90.92069771621544, 31.390217586764987], [-90.83078582986406, 31.390217586764987], [-90.83078582986406, 31.435173529940677], [-90.69591800033697, 31.435173529940677], [-90.69591800033697, 31.480129473116364], [-90.42618234128281, 31.480129473116364], [-90.42618234128281, 31.435173529940677], [-90.24635856858004, 31.390217586764987], [-90.24635856858004, 31.3452616435893], [-90.11149073905295, 31.255349757237923], [-90.11149073905295, 31.16543787088655], [-90.02157885270157, 31.12048192771086], [-90.02157885270157, 31.030570041359486], [-89.97662290952587, 31.030570041359486], [-89.97662290952587, 30.895702211832422], [-89.93166696635018, 30.895702211832422], [-89.93166696635018, 30.760834382305358], [-89.88671102317448, 30.760834382305358], [-89.88671102317448, 30.176407121021416], [-89.93166696635018, 30.176407121021416], [-89.93166696635018, 30.041539291494352], [-89.97662290952587, 30.041539291494352], [-90.02157885270157, 29.861715518791602], [-90.06653479587726, 29.861715518791602], [-90.06653479587726, 29.81675957561591], [-90.11149073905295, 29.81675957561591], [-90.11149073905295, 29.771803632440225], [-90.15644668222865, 29.771803632440225], [-90.24635856858004, 29.63693580291316], [-90.33627045493142, 29.63693580291316], [-90.33627045493142, 29.591979859737474], [-90.69591800033697, 29.591979859737474], [-90.69591800033697, 29.63693580291316], [-90.87574177303975, 29.681891746088848], [-90.87574177303975, 29.726847689264538], [-90.92069771621544, 29.726847689264538], [-90.92069771621544, 29.771803632440225], [-90.96565365939114, 29.771803632440225], [-90.96565365939114, 29.81675957561591], [-91.10052148891822, 29.90667146196729], [-91.10052148891822, 29.996583348318666], [-91.1904333752696, 30.041539291494352], [-91.1904333752696, 30.131451177845726], [-91.2353893184453, 30.131451177845726], [-91.2353893184453, 30.26631900737279], [-91.280345261621, 30.26631900737279], [-91.280345261621, 30.401186836899853], [-91.32530120479669, 30.401186836899853]], [[-91.1904333752696, 30.356230893724167], [-91.14547743209391, 30.356230893724167], [-91.14547743209391, 30.221363064197103], [-91.10052148891822, 30.221363064197103], [-91.05556554574252, 30.041539291494352], [-90.96565365939114, 29.996583348318666], [-90.96565365939114, 29.90667146196729], [-90.92069771621544, 29.90667146196729], [-90.83078582986406, 29.771803632440225], [-90.65096205716128, 29.726847689264538], [-90.65096205716128, 29.681891746088848], [-90.33627045493142, 29.681891746088848], [-90.33627045493142, 29.726847689264538], [-90.24635856858004, 29.726847689264538], [-90.24635856858004, 29.771803632440225], [-90.11149073905295, 29.861715518791602], [-90.11149073905295, 29.951627405142975], [-90.06653479587726, 29.951627405142975], [-90.06653479587726, 30.041539291494352], [-90.02157885270157, 30.041539291494352], [-90.02157885270157, 30.176407121021416], [-89.97662290952587, 30.176407121021416], [-89.97662290952587, 30.71587843912967], [-90.02157885270157, 30.71587843912967], [-90.06653479587726, 30.985614098183795], [-90.11149073905295, 30.985614098183795], [-90.11149073905295, 31.075525984535172], [-90.20140262540434, 31.12048192771086], [-90.20140262540434, 31.210393814062236], [-90.24635856858004, 31.210393814062236], [-90.29131451175573, 31.300305700413613], [-90.38122639810712, 31.300305700413613], [-90.38122639810712, 31.3452616435893], [-90.74087394351267, 31.3452616435893], [-90.74087394351267, 31.300305700413613], [-90.83078582986406, 31.300305700413613], [-90.83078582986406, 31.255349757237923], [-90.87574177303975, 31.255349757237923], [-90.87574177303975, 31.210393814062236], [-90.92069771621544, 31.210393814062236], [-90.92069771621544, 31.16543787088655], [-91.05556554574252, 31.075525984535172], [-91.05556554574252, 30.985614098183795], [-91.10052148891822, 30.985614098183795], [-91.10052148891822, 30.895702211832422], [-91.14547743209391, 30.895702211832422], [-91.14547743209391, 30.760834382305358], [-91.1904333752696, 30.760834382305358], [-91.1904333752696, 30.356230893724167]]]]}}, {"type": "Feature", "properties": {"shapefile": "2021083000_wsp64knt120hr_5km", "PERCENTAGE": "30-40%"}, "geometry": {"type": "MultiPolygon", "coordinates": [[[[-91.1904333752696, 30.356230893724167], [-91.1904333752696, 30.760834382305358], [-91.14547743209391, 30.760834382305358], [-91.14547743209391, 30.895702211832422], [-91.10052148891822, 30.895702211832422], [-91.05556554574252, 31.075525984535172], [-91.01060960256683, 31.075525984535172], [-91.01060960256683, 31.12048192771086], [-90.96565365939114, 31.12048192771086], [-90.96565365939114, 31.16543787088655], [-90.92069771621544, 31.16543787088655], [-90.83078582986406, 31.300305700413613], [-90.74087394351267, 31.300305700413613], [-90.74087394351267, 31.3452616435893], [-90.38122639810712, 31.3452616435893], [-90.38122639810712, 31.300305700413613], [-90.29131451175573, 31.300305700413613], [-90.29131451175573, 31.255349757237923], [-90.20140262540434, 31.210393814062236], [-90.20140262540434, 31.12048192771086], [-90.15644668222865, 31.12048192771086], [-90.15644668222865, 31.075525984535172], [-90.11149073905295, 31.075525984535172], [-90.11149073905295, 30.985614098183795], [-90.06653479587726, 30.985614098183795], [-90.02157885270157, 30.71587843912967], [-89.97662290952587, 30.71587843912967], [-89.97662290952587, 30.176407121021416], [-90.02157885270157, 30.176407121021416], [-90.02157885270157, 30.041539291494352], [-90.06653479587726, 30.041539291494352], [-90.11149073905295, 29.861715518791602], [-90.15644668222865, 29.861715518791602], [-90.24635856858004, 29.726847689264538], [-90.33627045493142, 29.726847689264538], [-90.33627045493142, 29.681891746088848], [-90.65096205716128, 29.681891746088848], [-90.65096205716128, 29.726847689264538], [-90.83078582986406, 29.771803632440225], [-90.83078582986406, 29.81675957561591], [-90.96565365939114, 29.90667146196729], [-90.96565365939114, 29.996583348318666], [-91.05556554574252, 30.041539291494352], [-91.05556554574252, 30.131451177845726], [-91.10052148891822, 30.131451177845726], [-91.10052148891822, 30.221363064197103], [-91.14547743209391, 30.221363064197103], [-91.14547743209391, 30.356230893724167], [-91.1904333752696, 30.356230893724167]], [[-91.10052148891822, 30.446142780075544], [-91.05556554574252, 30.446142780075544], [-91.05556554574252, 30.31127495054848], [-91.01060960256683, 30.31127495054848], [-91.01060960256683, 30.176407121021416], [-90.96565365939114, 30.176407121021416], [-90.96565365939114, 30.08649523467004], [-90.87574177303975, 30.041539291494352], [-90.87574177303975, 29.951627405142975], [-90.83078582986406, 29.951627405142975], [-90.83078582986406, 29.90667146196729], [-90.78582988668836, 29.90667146196729], [-90.69591800033697, 29.771803632440225], [-90.60600611398559, 29.771803632440225], [-90.60600611398559, 29.726847689264538], [-90.38122639810712, 29.726847689264538], [-90.33627045493142, 29.81675957561591], [-90.24635856858004, 29.81675957561591], [-90.24635856858004, 29.861715518791602], [-90.20140262540434, 29.861715518791602], [-90.20140262540434, 29.951627405142975], [-90.15644668222865, 29.951627405142975], [-90.15644668222865, 30.041539291494352], [-90.11149073905295, 30.041539291494352], [-90.11149073905295, 30.176407121021416], [-90.06653479587726, 30.176407121021416], [-90.06653479587726, 30.71587843912967], [-90.11149073905295, 30.71587843912967], [-90.11149073905295, 30.850746268656735], [-90.15644668222865, 30.850746268656735], [-90.15644668222865, 30.94065815500811], [-90.20140262540434, 30.94065815500811], [-90.24635856858004, 31.12048192771086], [-90.29131451175573, 31.12048192771086], [-90.38122639810712, 31.255349757237923], [-90.4711382844585, 31.255349757237923], [-90.4711382844585, 31.300305700413613], [-90.5160942276342, 31.300305700413613], [-90.5160942276342, 31.255349757237923], [-90.65096205716128, 31.255349757237923], [-90.65096205716128, 31.210393814062236], [-90.74087394351267, 31.210393814062236], [-90.74087394351267, 31.16543787088655], [-90.83078582986406, 31.16543787088655], [-90.83078582986406, 31.12048192771086], [-90.92069771621544, 31.075525984535172], [-90.96565365939114, 30.895702211832422], [-91.01060960256683, 30.895702211832422], [-91.01060960256683, 30.760834382305358], [-91.05556554574252, 30.760834382305358], [-91.05556554574252, 30.625966552778294], [-91.10052148891822, 30.625966552778294], [-91.10052148891822, 30.446142780075544]]]]}}, {"type": "Feature", "properties": {"shapefile": "2021083000_wsp64knt120hr_5km", "PERCENTAGE": "40-50%"}, "geometry": {"type": "MultiPolygon", "coordinates": [[[[-91.10052148891822, 30.446142780075544], [-91.10052148891822, 30.625966552778294], [-91.05556554574252, 30.625966552778294], [-91.01060960256683, 30.895702211832422], [-90.96565365939114, 30.895702211832422], [-90.96565365939114, 30.985614098183795], [-90.92069771621544, 30.985614098183795], [-90.92069771621544, 31.075525984535172], [-90.87574177303975, 31.075525984535172], [-90.83078582986406, 31.16543787088655], [-90.74087394351267, 31.16543787088655], [-90.74087394351267, 31.210393814062236], [-90.65096205716128, 31.210393814062236], [-90.65096205716128, 31.255349757237923], [-90.5160942276342, 31.255349757237923], [-90.5160942276342, 31.300305700413613], [-90.4711382844585, 31.300305700413613], [-90.4711382844585, 31.255349757237923], [-90.38122639810712, 31.255349757237923], [-90.38122639810712, 31.210393814062236], [-90.24635856858004, 31.12048192771086], [-90.24635856858004, 31.030570041359486], [-90.20140262540434, 31.030570041359486], [-90.20140262540434, 30.94065815500811], [-90.15644668222865, 30.94065815500811], [-90.15644668222865, 30.850746268656735], [-90.11149073905295, 30.850746268656735], [-90.11149073905295, 30.71587843912967], [-90.06653479587726, 30.71587843912967], [-90.06653479587726, 30.176407121021416], [-90.11149073905295, 30.176407121021416], [-90.11149073905295, 30.041539291494352], [-90.15644668222865, 30.041539291494352], [-90.15644668222865, 29.951627405142975], [-90.20140262540434, 29.951627405142975], [-90.20140262540434, 29.861715518791602], [-90.24635856858004, 29.861715518791602], [-90.24635856858004, 29.81675957561591], [-90.33627045493142, 29.81675957561591], [-90.33627045493142, 29.861715518791602], [-90.24635856858004, 29.90667146196729], [-90.24635856858004, 29.996583348318666], [-90.20140262540434, 29.996583348318666], [-90.20140262540434, 30.131451177845726], [-90.15644668222865, 30.131451177845726], [-90.15644668222865, 30.71587843912967], [-90.20140262540434, 30.71587843912967], [-90.20140262540434, 30.850746268656735], [-90.24635856858004, 30.850746268656735], [-90.24635856858004, 30.94065815500811], [-90.29131451175573, 30.94065815500811], [-90.29131451175573, 31.030570041359486], [-90.33627045493142, 31.030570041359486], [-90.33627045493142, 31.12048192771086], [-90.38122639810712, 31.12048192771086], [-90.42618234128281, 31.210393814062236], [-90.56105017080989, 31.210393814062236], [-90.56105017080989, 31.16543787088655], [-90.65096205716128, 31.16543787088655], [-90.69591800033697, 31.075525984535172], [-90.78582988668836, 31.075525984535172], [-90.78582988668836, 31.030570041359486], [-90.83078582986406, 31.030570041359486], [-90.83078582986406, 30.895702211832422], [-90.87574177303975, 30.895702211832422], [-90.87574177303975, 30.805790325481045], [-90.92069771621544, 30.805790325481045], [-90.92069771621544, 30.71587843912967], [-90.96565365939114, 30.71587843912967], [-90.96565365939114, 30.581010609602608], [-91.01060960256683, 30.581010609602608], [-91.01060960256683, 30.49109872325123], [-90.96565365939114, 30.49109872325123], [-90.92069771621544, 30.221363064197103], [-90.87574177303975, 30.221363064197103], [-90.83078582986406, 30.041539291494352], [-90.74087394351267, 29.996583348318666], [-90.74087394351267, 29.90667146196729], [-90.69591800033697, 29.90667146196729], [-90.69591800033697, 29.861715518791602], [-90.60600611398559, 29.861715518791602], [-90.60600611398559, 29.81675957561591], [-90.5160942276342, 29.81675957561591], [-90.5160942276342, 29.771803632440225], [-90.42618234128281, 29.771803632440225], [-90.42618234128281, 29.81675957561591], [-90.33627045493142, 29.81675957561591], [-90.33627045493142, 29.771803632440225], [-90.38122639810712, 29.771803632440225], [-90.38122639810712, 29.726847689264538], [-90.60600611398559, 29.726847689264538], [-90.60600611398559, 29.771803632440225], [-90.69591800033697, 29.771803632440225], [-90.69591800033697, 29.81675957561591], [-90.74087394351267, 29.81675957561591], [-90.74087394351267, 29.861715518791602], [-90.87574177303975, 29.951627405142975], [-90.87574177303975, 30.041539291494352], [-90.96565365939114, 30.08649523467004], [-90.96565365939114, 30.176407121021416], [-91.01060960256683, 30.176407121021416], [-91.01060960256683, 30.31127495054848], [-91.05556554574252, 30.31127495054848], [-91.05556554574252, 30.446142780075544], [-91.10052148891822, 30.446142780075544]]]]}}, {"type": "Feature", "properties": {"shapefile": "2021083000_wsp64knt120hr_5km", "PERCENTAGE": "50-60%"}, "geometry": {"type": "MultiPolygon", "coordinates": [[[[-90.60600611398559, 29.81675957561591], [-90.60600611398559, 29.861715518791602], [-90.5160942276342, 29.861715518791602], [-90.5160942276342, 29.81675957561591], [-90.60600611398559, 29.81675957561591]]], [[[-91.01060960256683, 30.49109872325123], [-91.01060960256683, 30.581010609602608], [-90.96565365939114, 30.581010609602608], [-90.96565365939114, 30.71587843912967], [-90.92069771621544, 30.71587843912967], [-90.92069771621544, 30.805790325481045], [-90.87574177303975, 30.805790325481045], [-90.87574177303975, 30.895702211832422], [-90.83078582986406, 30.895702211832422], [-90.83078582986406, 31.030570041359486], [-90.78582988668836, 31.030570041359486], [-90.78582988668836, 31.075525984535172], [-90.69591800033697, 31.075525984535172], [-90.69591800033697, 31.12048192771086], [-90.65096205716128, 31.12048192771086], [-90.65096205716128, 31.16543787088655], [-90.56105017080989, 31.16543787088655], [-90.56105017080989, 31.210393814062236], [-90.42618234128281, 31.210393814062236], [-90.42618234128281, 31.16543787088655], [-90.33627045493142, 31.12048192771086], [-90.33627045493142, 31.030570041359486], [-90.29131451175573, 31.030570041359486], [-90.24635856858004, 30.850746268656735], [-90.20140262540434, 30.850746268656735], [-90.20140262540434, 30.71587843912967], [-90.15644668222865, 30.71587843912967], [-90.15644668222865, 30.131451177845726], [-90.20140262540434, 30.131451177845726], [-90.20140262540434, 29.996583348318666], [-90.24635856858004, 29.996583348318666], [-90.24635856858004, 29.90667146196729], [-90.29131451175573, 29.90667146196729], [-90.33627045493142, 29.81675957561591], [-90.5160942276342, 29.771803632440225], [-90.4711382844585, 29.861715518791602], [-90.38122639810712, 29.861715518791602], [-90.38122639810712, 29.90667146196729], [-90.29131451175573, 29.951627405142975], [-90.29131451175573, 30.041539291494352], [-90.24635856858004, 30.041539291494352], [-90.24635856858004, 30.26631900737279], [-90.20140262540434, 30.26631900737279], [-90.24635856858004, 30.760834382305358], [-90.29131451175573, 30.760834382305358], [-90.29131451175573, 30.895702211832422], [-90.33627045493142, 30.895702211832422], [-90.33627045493142, 30.985614098183795], [-90.38122639810712, 30.985614098183795], [-90.38122639810712, 31.075525984535172], [-90.42618234128281, 31.075525984535172], [-90.42618234128281, 31.12048192771086], [-90.56105017080989, 31.12048192771086], [-90.60600611398559, 31.030570041359486], [-90.69591800033697, 31.030570041359486], [-90.69591800033697, 30.94065815500811], [-90.74087394351267, 30.94065815500811], [-90.74087394351267, 30.850746268656735], [-90.78582988668836, 30.850746268656735], [-90.78582988668836, 30.760834382305358], [-90.83078582986406, 30.760834382305358], [-90.83078582986406, 30.625966552778294], [-90.87574177303975, 30.625966552778294], [-90.87574177303975, 30.401186836899853], [-90.83078582986406, 30.401186836899853], [-90.78582988668836, 30.131451177845726], [-90.74087394351267, 30.131451177845726], [-90.74087394351267, 30.041539291494352], [-90.69591800033697, 30.041539291494352], [-90.69591800033697, 29.951627405142975], [-90.65096205716128, 29.951627405142975], [-90.60600611398559, 29.861715518791602], [-90.69591800033697, 29.861715518791602], [-90.69591800033697, 29.90667146196729], [-90.74087394351267, 29.90667146196729], [-90.74087394351267, 29.996583348318666], [-90.83078582986406, 30.041539291494352], [-90.83078582986406, 30.131451177845726], [-90.87574177303975, 30.131451177845726], [-90.87574177303975, 30.221363064197103], [-90.92069771621544, 30.221363064197103], [-90.92069771621544, 30.356230893724167], [-90.96565365939114, 30.356230893724167], [-90.96565365939114, 30.49109872325123], [-91.01060960256683, 30.49109872325123]]]]}}, {"type": "Feature", "properties": {"shapefile": "2021083000_wsp64knt120hr_5km", "PERCENTAGE": "60-70%"}, "geometry": {"type": "MultiPolygon", "coordinates": [[[[-90.5160942276342, 29.81675957561591], [-90.5160942276342, 29.861715518791602], [-90.4711382844585, 29.861715518791602], [-90.4711382844585, 29.81675957561591], [-90.5160942276342, 29.81675957561591]]], [[[-90.87574177303975, 30.401186836899853], [-90.87574177303975, 30.625966552778294], [-90.83078582986406, 30.625966552778294], [-90.83078582986406, 30.760834382305358], [-90.78582988668836, 30.760834382305358], [-90.78582988668836, 30.850746268656735], [-90.74087394351267, 30.850746268656735], [-90.69591800033697, 31.030570041359486], [-90.60600611398559, 31.030570041359486], [-90.56105017080989, 31.12048192771086], [-90.42618234128281, 31.12048192771086], [-90.42618234128281, 31.075525984535172], [-90.38122639810712, 31.075525984535172], [-90.38122639810712, 30.985614098183795], [-90.33627045493142, 30.985614098183795], [-90.33627045493142, 30.895702211832422], [-90.29131451175573, 30.895702211832422], [-90.29131451175573, 30.760834382305358], [-90.24635856858004, 30.760834382305358], [-90.24635856858004, 30.49109872325123], [-90.20140262540434, 30.49109872325123], [-90.20140262540434, 30.26631900737279], [-90.24635856858004, 30.26631900737279], [-90.24635856858004, 30.041539291494352], [-90.29131451175573, 30.041539291494352], [-90.29131451175573, 29.951627405142975], [-90.33627045493142, 29.951627405142975], [-90.38122639810712, 29.861715518791602], [-90.4711382844585, 29.861715518791602], [-90.4711382844585, 29.90667146196729], [-90.33627045493142, 29.996583348318666], [-90.33627045493142, 30.08649523467004], [-90.29131451175573, 30.08649523467004], [-90.29131451175573, 30.625966552778294], [-90.33627045493142, 30.625966552778294], [-90.33627045493142, 30.760834382305358], [-90.38122639810712, 30.760834382305358], [-90.42618234128281, 31.030570041359486], [-90.56105017080989, 31.030570041359486], [-90.56105017080989, 30.94065815500811], [-90.60600611398559, 30.94065815500811], [-90.60600611398559, 30.850746268656735], [-90.69591800033697, 30.805790325481045], [-90.69591800033697, 30.67092249595398], [-90.74087394351267, 30.67092249595398], [-90.74087394351267, 30.581010609602608], [-90.78582988668836, 30.581010609602608], [-90.78582988668836, 30.446142780075544], [-90.74087394351267, 30.446142780075544], [-90.74087394351267, 30.26631900737279], [-90.69591800033697, 30.26631900737279], [-90.65096205716128, 29.996583348318666], [-90.60600611398559, 29.996583348318666], [-90.5160942276342, 29.861715518791602], [-90.60600611398559, 29.861715518791602], [-90.60600611398559, 29.90667146196729], [-90.69591800033697, 29.951627405142975], [-90.69591800033697, 30.041539291494352], [-90.74087394351267, 30.041539291494352], [-90.74087394351267, 30.131451177845726], [-90.78582988668836, 30.131451177845726], [-90.78582988668836, 30.26631900737279], [-90.83078582986406, 30.26631900737279], [-90.83078582986406, 30.401186836899853], [-90.87574177303975, 30.401186836899853]]]]}}, {"type": "Feature", "properties": {"shapefile": "2021083000_wsp64knt120hr_5km", "PERCENTAGE": "70-80%"}, "geometry": {"type": "MultiPolygon", "coordinates": [[[[-90.56105017080989, 29.90667146196729], [-90.56105017080989, 29.951627405142975], [-90.42618234128281, 29.951627405142975], [-90.4711382844585, 29.861715518791602], [-90.56105017080989, 29.90667146196729]]], [[[-90.42618234128281, 29.951627405142975], [-90.42618234128281, 29.996583348318666], [-90.38122639810712, 29.996583348318666], [-90.38122639810712, 29.951627405142975], [-90.42618234128281, 29.951627405142975]]], [[[-90.78582988668836, 30.446142780075544], [-90.78582988668836, 30.581010609602608], [-90.74087394351267, 30.581010609602608], [-90.74087394351267, 30.67092249595398], [-90.69591800033697, 30.67092249595398], [-90.69591800033697, 30.805790325481045], [-90.60600611398559, 30.850746268656735], [-90.56105017080989, 31.030570041359486], [-90.42618234128281, 31.030570041359486], [-90.42618234128281, 30.895702211832422], [-90.38122639810712, 30.895702211832422], [-90.38122639810712, 30.760834382305358], [-90.33627045493142, 30.760834382305358], [-90.33627045493142, 30.625966552778294], [-90.29131451175573, 30.625966552778294], [-90.29131451175573, 30.08649523467004], [-90.33627045493142, 30.08649523467004], [-90.33627045493142, 29.996583348318666], [-90.38122639810712, 29.996583348318666], [-90.38122639810712, 30.26631900737279], [-90.33627045493142, 30.26631900737279], [-90.33627045493142, 30.446142780075544], [-90.38122639810712, 30.446142780075544], [-90.38122639810712, 30.67092249595398], [-90.42618234128281, 30.67092249595398], [-90.42618234128281, 30.805790325481045], [-90.4711382844585, 30.805790325481045], [-90.4711382844585, 30.895702211832422], [-90.5160942276342, 30.895702211832422], [-90.5160942276342, 30.805790325481045], [-90.56105017080989, 30.805790325481045], [-90.56105017080989, 30.71587843912967], [-90.60600611398559, 30.71587843912967], [-90.60600611398559, 30.625966552778294], [-90.65096205716128, 30.625966552778294], [-90.65096205716128, 30.536054666426917], [-90.69591800033697, 30.536054666426917], [-90.69591800033697, 30.49109872325123], [-90.65096205716128, 30.49109872325123], [-90.65096205716128, 30.221363064197103], [-90.60600611398559, 30.221363064197103], [-90.60600611398559, 30.041539291494352], [-90.56105017080989, 30.041539291494352], [-90.56105017080989, 29.951627405142975], [-90.65096205716128, 29.996583348318666], [-90.65096205716128, 30.131451177845726], [-90.69591800033697, 30.131451177845726], [-90.69591800033697, 30.26631900737279], [-90.74087394351267, 30.26631900737279], [-90.74087394351267, 30.446142780075544], [-90.78582988668836, 30.446142780075544]]]]}}, {"type": "Feature", "properties": {"shapefile": "2021083000_wsp64knt120hr_5km", "PERCENTAGE": "80-90%"}, "geometry": {"type": "MultiPolygon", "coordinates": [[[[-90.69591800033697, 30.49109872325123], [-90.69591800033697, 30.536054666426917], [-90.65096205716128, 30.536054666426917], [-90.65096205716128, 30.625966552778294], [-90.60600611398559, 30.625966552778294], [-90.60600611398559, 30.71587843912967], [-90.56105017080989, 30.71587843912967], [-90.56105017080989, 30.805790325481045], [-90.5160942276342, 30.805790325481045], [-90.5160942276342, 30.895702211832422], [-90.4711382844585, 30.895702211832422], [-90.4711382844585, 30.805790325481045], [-90.42618234128281, 30.805790325481045], [-90.42618234128281, 30.67092249595398], [-90.38122639810712, 30.67092249595398], [-90.38122639810712, 30.446142780075544], [-90.33627045493142, 30.446142780075544], [-90.33627045493142, 30.26631900737279], [-90.38122639810712, 30.26631900737279], [-90.38122639810712, 29.996583348318666], [-90.42618234128281, 29.996583348318666], [-90.42618234128281, 30.625966552778294], [-90.4711382844585, 30.625966552778294], [-90.4711382844585, 30.67092249595398], [-90.56105017080989, 30.625966552778294], [-90.56105017080989, 30.131451177845726], [-90.5160942276342, 30.131451177845726], [-90.5160942276342, 29.996583348318666], [-90.42618234128281, 29.996583348318666], [-90.42618234128281, 29.951627405142975], [-90.56105017080989, 29.951627405142975], [-90.56105017080989, 30.041539291494352], [-90.60600611398559, 30.041539291494352], [-90.60600611398559, 30.221363064197103], [-90.65096205716128, 30.221363064197103], [-90.65096205716128, 30.49109872325123], [-90.69591800033697, 30.49109872325123]]]]}}, {"type": "Feature", "properties": {"shapefile": "2021083000_wsp64knt120hr_5km", "PERCENTAGE": ">90%"}, "geometry": {"type": "MultiPolygon", "coordinates": [[[[-90.56105017080989, 30.131451177845726], [-90.56105017080989, 30.625966552778294], [-90.4711382844585, 30.67092249595398], [-90.4711382844585, 30.625966552778294], [-90.42618234128281, 30.625966552778294], [-90.42618234128281, 29.996583348318666], [-90.5160942276342, 29.996583348318666], [-90.5160942276342, 30.131451177845726], [-90.56105017080989, 30.131451177845726]]]]}}]}