{"type": "FeatureCollection", "features": [{"type": "Feature", "properties": {"shapefile": "2021083000_wsp50knt120hr_5km", "PERCENTAGE": "<5%"}, "geometry": {"type": "MultiPolygon", "coordinates": [[[[-92.31433195466195, 30.131451177845726], [-92.31433195466195, 31.12048192771086], [-92.26937601148626, 31.12048192771086], [-92.26937601148626, 31.480129473116364], [-92.22442006831056, 31.480129473116364], [-92.22442006831056, 31.659953245819114], [-92.17946412513487, 31.659953245819114], [-92.17946412513487, 31.794821075346178], [-92.13450818195918, 31.794821075346178], [-92.13450818195918, 31.92968890487324], [-92.08955223878348, 31.92968890487324], [-92.04459629560779, 32.10951267757599], [-91.9996403524321, 32.10951267757599], [-91.9996403524321, 32.154468620751686], [-91.9546844092564, 32.154468620751686], [-91.9546844092564, 32.24438050710306], [-91.86477252290501, 32.289336450278746], [-91.86477252290501, 32.37924833663012], [-91.72990469337793, 32.4691602229815], [-91.72990469337793, 32.559072109332874], [-91.59503686385085, 32.64898399568425], [-91.59503686385085, 32.73889588203562], [-91.46016903432377, 32.828807768386994], [-91.46016903432377, 32.918719654738375], [-91.32530120479669, 33.00863154108975], [-91.32530120479669, 33.09854342744113], [-91.280345261621, 33.09854342744113], [-91.280345261621, 33.143499370616816], [-91.2353893184453, 33.143499370616816], [-91.2353893184453, 33.1884553137925], [-91.1904333752696, 33.1884553137925], [-91.1904333752696, 33.23341125696819], [-91.14547743209391, 33.23341125696819], [-91.14547743209391, 33.278367200143876], [-91.10052148891822, 33.278367200143876], [-91.10052148891822, 33.32332314331956], [-91.05556554574252, 33.32332314331956], [-91.05556554574252, 33.36827908649525], [-91.01060960256683, 33.36827908649525], [-91.01060960256683, 33.41323502967094], [-90.96565365939114, 33.41323502967094], [-90.87574177303975, 33.548102859198], [-90.78582988668836, 33.548102859198], [-90.78582988668836, 33.59305880237369], [-90.74087394351267, 33.59305880237369], [-90.74087394351267, 33.63801474554938], [-90.65096205716128, 33.63801474554938], [-90.60600611398559, 33.72792663190076], [-90.5160942276342, 33.72792663190076], [-90.5160942276342, 33.772882575076444], [-90.33627045493142, 33.81783851825213], [-90.33627045493142, 33.86279446142782], [-90.15644668222865, 33.907750404603505], [-90.15644668222865, 33.9527063477792], [-90.02157885270157, 33.9527063477792], [-90.02157885270157, 33.997662290954885], [-89.88671102317448, 33.997662290954885], [-89.88671102317448, 34.04261823413057], [-89.57201942094463, 34.04261823413057], [-89.57201942094463, 34.08757417730626], [-88.98759215966061, 34.08757417730626], [-88.98759215966061, 34.04261823413057], [-88.80776838695783, 34.04261823413057], [-88.80776838695783, 33.997662290954885], [-88.71785650060644, 33.997662290954885], [-88.71785650060644, 33.9527063477792], [-88.58298867107936, 33.86279446142782], [-88.58298867107936, 33.36827908649525], [-88.62794461425506, 33.36827908649525], [-88.67290055743075, 33.00863154108975], [-88.71785650060644, 33.00863154108975], [-88.71785650060644, 32.87376371156269], [-88.76281244378214, 32.87376371156269], [-88.76281244378214, 32.73889588203562], [-88.80776838695783, 32.73889588203562], [-88.80776838695783, 32.60402805250856], [-88.85272433013353, 32.60402805250856], [-88.85272433013353, 32.4691602229815], [-88.89768027330922, 32.4691602229815], [-88.89768027330922, 32.33429239345443], [-88.94263621648491, 32.33429239345443], [-88.94263621648491, 32.154468620751686], [-88.98759215966061, 32.154468620751686], [-88.98759215966061, 31.659953245819114], [-88.94263621648491, 31.659953245819114], [-88.94263621648491, 31.480129473116364], [-88.89768027330922, 31.480129473116364], [-88.89768027330922, 31.3452616435893], [-88.85272433013353, 31.3452616435893], [-88.80776838695783, 30.94065815500811], [-88.76281244378214, 30.94065815500811], [-88.76281244378214, 30.67092249595398], [-88.71785650060644, 30.67092249595398], [-88.71785650060644, 29.81675957561591], [-88.76281244378214, 29.81675957561591], [-88.76281244378214, 29.591979859737474], [-88.80776838695783, 29.591979859737474], [-88.85272433013353, 29.322244200683347], [-88.89768027330922, 29.322244200683347], [-88.89768027330922, 29.23233231433197], [-88.94263621648491, 29.23233231433197], [-88.94263621648491, 29.097464484804906], [-89.0325481028363, 29.05250854162922], [-89.0325481028363, 28.962596655277842], [-89.12245998918769, 28.917640712102155], [-89.12245998918769, 28.82772882575078], [-89.16741593236338, 28.82772882575078], [-89.16741593236338, 28.78277288257509], [-89.21237187553908, 28.78277288257509], [-89.30228376189046, 28.647905053048028], [-89.39219564824185, 28.647905053048028], [-89.43715159141755, 28.557993166696654], [-89.52706347776893, 28.557993166696654], [-89.52706347776893, 28.513037223520964], [-89.61697536412032, 28.513037223520964], [-89.61697536412032, 28.468081280345277], [-89.7967991368231, 28.42312533716959], [-89.7967991368231, 28.3781693939939], [-89.97662290952587, 28.3781693939939], [-89.97662290952587, 28.333213450818214], [-90.15644668222865, 28.333213450818214], [-90.15644668222865, 28.288257507642527], [-90.83078582986406, 28.288257507642527], [-90.83078582986406, 28.333213450818214], [-91.01060960256683, 28.333213450818214], [-91.01060960256683, 28.3781693939939], [-91.14547743209391, 28.3781693939939], [-91.14547743209391, 28.42312533716959], [-91.2353893184453, 28.42312533716959], [-91.2353893184453, 28.468081280345277], [-91.37025714797238, 28.468081280345277], [-91.41521309114808, 28.557993166696654], [-91.59503686385085, 28.60294910987234], [-91.59503686385085, 28.647905053048028], [-91.63999280702654, 28.647905053048028], [-91.63999280702654, 28.692860996223715], [-91.68494875020224, 28.692860996223715], [-91.68494875020224, 28.737816939399405], [-91.72990469337793, 28.737816939399405], [-91.72990469337793, 28.78277288257509], [-91.77486063655363, 28.78277288257509], [-91.77486063655363, 28.82772882575078], [-91.90972846608071, 28.917640712102155], [-91.90972846608071, 29.007552598453533], [-91.9546844092564, 29.007552598453533], [-91.9546844092564, 29.097464484804906], [-91.9996403524321, 29.097464484804906], [-91.9996403524321, 29.187376371156283], [-92.04459629560779, 29.187376371156283], [-92.04459629560779, 29.27728825750766], [-92.08955223878348, 29.27728825750766], [-92.08955223878348, 29.367200143859034], [-92.13450818195918, 29.367200143859034], [-92.13450818195918, 29.502067973386097], [-92.17946412513487, 29.502067973386097], [-92.17946412513487, 29.681891746088848], [-92.22442006831056, 29.681891746088848], [-92.22442006831056, 29.861715518791602], [-92.26937601148626, 29.861715518791602], [-92.26937601148626, 30.131451177845726], [-92.31433195466195, 30.131451177845726]], [[-91.9996403524321, 30.131451177845726], [-91.9546844092564, 30.131451177845726], [-91.9546844092564, 29.861715518791602], [-91.90972846608071, 29.861715518791602], [-91.90972846608071, 29.681891746088848], [-91.86477252290501, 29.681891746088848], [-91.86477252290501, 29.547023916561784], [-91.81981657972932, 29.547023916561784], [-91.81981657972932, 29.412156087034724], [-91.77486063655363, 29.412156087034724], [-91.77486063655363, 29.322244200683347], [-91.72990469337793, 29.322244200683347], [-91.68494875020224, 29.142420427980596], [-91.59503686385085, 29.097464484804906], [-91.59503686385085, 29.007552598453533], [-91.55008092067516, 29.007552598453533], [-91.50512497749946, 28.917640712102155], [-91.41521309114808, 28.917640712102155], [-91.37025714797238, 28.82772882575078], [-91.1904333752696, 28.78277288257509], [-91.1904333752696, 28.737816939399405], [-91.10052148891822, 28.737816939399405], [-91.10052148891822, 28.692860996223715], [-90.96565365939114, 28.692860996223715], [-90.96565365939114, 28.647905053048028], [-90.83078582986406, 28.647905053048028], [-90.83078582986406, 28.60294910987234], [-90.15644668222865, 28.60294910987234], [-90.15644668222865, 28.647905053048028], [-89.97662290952587, 28.647905053048028], [-89.97662290952587, 28.692860996223715], [-89.84175507999879, 28.692860996223715], [-89.84175507999879, 28.737816939399405], [-89.7518431936474, 28.737816939399405], [-89.7518431936474, 28.78277288257509], [-89.57201942094463, 28.82772882575078], [-89.57201942094463, 28.87268476892647], [-89.52706347776893, 28.87268476892647], [-89.52706347776893, 28.917640712102155], [-89.48210753459324, 28.917640712102155], [-89.48210753459324, 28.962596655277842], [-89.43715159141755, 28.962596655277842], [-89.43715159141755, 29.007552598453533], [-89.30228376189046, 29.097464484804906], [-89.30228376189046, 29.187376371156283], [-89.25732781871477, 29.187376371156283], [-89.25732781871477, 29.27728825750766], [-89.21237187553908, 29.27728825750766], [-89.21237187553908, 29.367200143859034], [-89.16741593236338, 29.367200143859034], [-89.16741593236338, 29.45711203021041], [-89.12245998918769, 29.45711203021041], [-89.12245998918769, 29.63693580291316], [-89.077504046012, 29.63693580291316], [-89.077504046012, 29.81675957561591], [-89.0325481028363, 29.81675957561591], [-89.0325481028363, 30.536054666426917], [-89.077504046012, 30.536054666426917], [-89.12245998918769, 30.985614098183795], [-89.16741593236338, 30.985614098183795], [-89.16741593236338, 31.12048192771086], [-89.21237187553908, 31.12048192771086], [-89.25732781871477, 31.390217586764987], [-89.30228376189046, 31.390217586764987], [-89.30228376189046, 31.480129473116364], [-89.34723970506616, 31.480129473116364], [-89.34723970506616, 31.570041359467737], [-89.39219564824185, 31.570041359467737], [-89.39219564824185, 31.659953245819114], [-89.43715159141755, 31.659953245819114], [-89.43715159141755, 31.794821075346178], [-89.48210753459324, 31.794821075346178], [-89.48210753459324, 31.884732961697555], [-89.52706347776893, 31.884732961697555], [-89.52706347776893, 32.01960079122462], [-89.57201942094463, 32.01960079122462], [-89.57201942094463, 32.154468620751686], [-89.61697536412032, 32.154468620751686], [-89.61697536412032, 32.33429239345443], [-89.66193130729602, 32.33429239345443], [-89.70688725047171, 32.60402805250856], [-89.7518431936474, 32.60402805250856], [-89.7518431936474, 32.64898399568425], [-89.7967991368231, 32.64898399568425], [-89.88671102317448, 32.783851825211315], [-89.97662290952587, 32.783851825211315], [-89.97662290952587, 32.828807768386994], [-90.38122639810712, 32.828807768386994], [-90.38122639810712, 32.783851825211315], [-90.5160942276342, 32.783851825211315], [-90.5160942276342, 32.73889588203562], [-90.65096205716128, 32.73889588203562], [-90.65096205716128, 32.693939938859934], [-90.74087394351267, 32.693939938859934], [-90.78582988668836, 32.60402805250856], [-90.87574177303975, 32.60402805250856], [-90.87574177303975, 32.559072109332874], [-91.05556554574252, 32.51411616615718], [-91.10052148891822, 32.42420427980581], [-91.1904333752696, 32.42420427980581], [-91.1904333752696, 32.37924833663012], [-91.2353893184453, 32.37924833663012], [-91.2353893184453, 32.33429239345443], [-91.280345261621, 32.33429239345443], [-91.280345261621, 32.289336450278746], [-91.32530120479669, 32.289336450278746], [-91.32530120479669, 32.24438050710306], [-91.37025714797238, 32.24438050710306], [-91.37025714797238, 32.199424563927366], [-91.41521309114808, 32.199424563927366], [-91.46016903432377, 32.10951267757599], [-91.50512497749946, 32.10951267757599], [-91.50512497749946, 32.064556734400306], [-91.63999280702654, 31.97464484804893], [-91.63999280702654, 31.884732961697555], [-91.72990469337793, 31.839777018521865], [-91.72990469337793, 31.74986513217049], [-91.77486063655363, 31.74986513217049], [-91.77486063655363, 31.659953245819114], [-91.81981657972932, 31.659953245819114], [-91.81981657972932, 31.570041359467737], [-91.86477252290501, 31.570041359467737], [-91.86477252290501, 31.435173529940677], [-91.90972846608071, 31.435173529940677], [-91.90972846608071, 31.210393814062236], [-91.9546844092564, 31.210393814062236], [-91.9996403524321, 30.131451177845726]]]]}}, {"type": "Feature", "properties": {"shapefile": "2021083000_wsp50knt120hr_5km", "PERCENTAGE": "5-10%"}, "geometry": {"type": "MultiPolygon", "coordinates": [[[[-91.9996403524321, 30.131451177845726], [-91.9546844092564, 31.210393814062236], [-91.90972846608071, 31.210393814062236], [-91.90972846608071, 31.435173529940677], [-91.86477252290501, 31.435173529940677], [-91.86477252290501, 31.570041359467737], [-91.81981657972932, 31.570041359467737], [-91.81981657972932, 31.659953245819114], [-91.77486063655363, 31.659953245819114], [-91.72990469337793, 31.839777018521865], [-91.63999280702654, 31.884732961697555], [-91.63999280702654, 31.97464484804893], [-91.59503686385085, 31.97464484804893], [-91.59503686385085, 32.01960079122462], [-91.55008092067516, 32.01960079122462], [-91.55008092067516, 32.064556734400306], [-91.50512497749946, 32.064556734400306], [-91.50512497749946, 32.10951267757599], [-91.46016903432377, 32.10951267757599], [-91.46016903432377, 32.154468620751686], [-91.41521309114808, 32.154468620751686], [-91.41521309114808, 32.199424563927366], [-91.37025714797238, 32.199424563927366], [-91.37025714797238, 32.24438050710306], [-91.32530120479669, 32.24438050710306], [-91.32530120479669, 32.289336450278746], [-91.280345261621, 32.289336450278746], [-91.1904333752696, 32.42420427980581], [-91.10052148891822, 32.42420427980581], [-91.05556554574252, 32.51411616615718], [-90.96565365939114, 32.51411616615718], [-90.96565365939114, 32.559072109332874], [-90.78582988668836, 32.60402805250856], [-90.78582988668836, 32.64898399568425], [-90.74087394351267, 32.64898399568425], [-90.74087394351267, 32.693939938859934], [-90.65096205716128, 32.693939938859934], [-90.65096205716128, 32.73889588203562], [-90.5160942276342, 32.73889588203562], [-90.5160942276342, 32.783851825211315], [-90.38122639810712, 32.783851825211315], [-90.38122639810712, 32.828807768386994], [-89.97662290952587, 32.828807768386994], [-89.97662290952587, 32.783851825211315], [-89.88671102317448, 32.783851825211315], [-89.88671102317448, 32.73889588203562], [-89.84175507999879, 32.73889588203562], [-89.84175507999879, 32.693939938859934], [-89.70688725047171, 32.60402805250856], [-89.70688725047171, 32.4691602229815], [-89.66193130729602, 32.4691602229815], [-89.66193130729602, 32.33429239345443], [-89.61697536412032, 32.33429239345443], [-89.61697536412032, 32.154468620751686], [-89.57201942094463, 32.154468620751686], [-89.52706347776893, 31.884732961697555], [-89.48210753459324, 31.884732961697555], [-89.48210753459324, 31.794821075346178], [-89.43715159141755, 31.794821075346178], [-89.43715159141755, 31.659953245819114], [-89.39219564824185, 31.659953245819114], [-89.39219564824185, 31.570041359467737], [-89.34723970506616, 31.570041359467737], [-89.34723970506616, 31.480129473116364], [-89.30228376189046, 31.480129473116364], [-89.30228376189046, 31.390217586764987], [-89.25732781871477, 31.390217586764987], [-89.25732781871477, 31.255349757237923], [-89.21237187553908, 31.255349757237923], [-89.21237187553908, 31.12048192771086], [-89.16741593236338, 31.12048192771086], [-89.16741593236338, 30.985614098183795], [-89.12245998918769, 30.985614098183795], [-89.077504046012, 30.536054666426917], [-89.0325481028363, 30.536054666426917], [-89.0325481028363, 29.81675957561591], [-89.077504046012, 29.81675957561591], [-89.12245998918769, 29.45711203021041], [-89.16741593236338, 29.45711203021041], [-89.16741593236338, 29.367200143859034], [-89.21237187553908, 29.367200143859034], [-89.21237187553908, 29.27728825750766], [-89.25732781871477, 29.27728825750766], [-89.25732781871477, 29.187376371156283], [-89.30228376189046, 29.187376371156283], [-89.30228376189046, 29.097464484804906], [-89.34723970506616, 29.097464484804906], [-89.34723970506616, 29.05250854162922], [-89.39219564824185, 29.05250854162922], [-89.39219564824185, 29.007552598453533], [-89.43715159141755, 29.007552598453533], [-89.43715159141755, 28.962596655277842], [-89.48210753459324, 28.962596655277842], [-89.57201942094463, 28.82772882575078], [-89.7518431936474, 28.78277288257509], [-89.7518431936474, 28.737816939399405], [-89.84175507999879, 28.737816939399405], [-89.84175507999879, 28.692860996223715], [-89.97662290952587, 28.692860996223715], [-89.97662290952587, 28.647905053048028], [-90.15644668222865, 28.647905053048028], [-90.15644668222865, 28.60294910987234], [-90.83078582986406, 28.60294910987234], [-90.83078582986406, 28.647905053048028], [-91.10052148891822, 28.692860996223715], [-91.10052148891822, 28.737816939399405], [-91.1904333752696, 28.737816939399405], [-91.1904333752696, 28.78277288257509], [-91.37025714797238, 28.82772882575078], [-91.41521309114808, 28.917640712102155], [-91.50512497749946, 28.917640712102155], [-91.50512497749946, 28.962596655277842], [-91.59503686385085, 29.007552598453533], [-91.59503686385085, 29.097464484804906], [-91.68494875020224, 29.142420427980596], [-91.68494875020224, 29.23233231433197], [-91.72990469337793, 29.23233231433197], [-91.72990469337793, 29.322244200683347], [-91.77486063655363, 29.322244200683347], [-91.77486063655363, 29.412156087034724], [-91.81981657972932, 29.412156087034724], [-91.86477252290501, 29.681891746088848], [-91.90972846608071, 29.681891746088848], [-91.90972846608071, 29.861715518791602], [-91.9546844092564, 29.861715518791602], [-91.9546844092564, 30.131451177845726], [-91.9996403524321, 30.131451177845726]], [[-91.81981657972932, 29.996583348318666], [-91.77486063655363, 29.996583348318666], [-91.77486063655363, 29.81675957561591], [-91.72990469337793, 29.81675957561591], [-91.72990469337793, 29.63693580291316], [-91.68494875020224, 29.63693580291316], [-91.63999280702654, 29.367200143859034], [-91.59503686385085, 29.367200143859034], [-91.59503686385085, 29.27728825750766], [-91.50512497749946, 29.23233231433197], [-91.50512497749946, 29.142420427980596], [-91.46016903432377, 29.142420427980596], [-91.37025714797238, 29.007552598453533], [-91.280345261621, 29.007552598453533], [-91.2353893184453, 28.917640712102155], [-91.14547743209391, 28.917640712102155], [-91.14547743209391, 28.87268476892647], [-91.01060960256683, 28.87268476892647], [-91.01060960256683, 28.82772882575078], [-90.92069771621544, 28.82772882575078], [-90.92069771621544, 28.78277288257509], [-90.74087394351267, 28.78277288257509], [-90.74087394351267, 28.737816939399405], [-90.24635856858004, 28.737816939399405], [-90.24635856858004, 28.78277288257509], [-90.06653479587726, 28.78277288257509], [-90.06653479587726, 28.82772882575078], [-89.93166696635018, 28.82772882575078], [-89.93166696635018, 28.87268476892647], [-89.7967991368231, 28.87268476892647], [-89.7967991368231, 28.917640712102155], [-89.70688725047171, 28.917640712102155], [-89.66193130729602, 29.007552598453533], [-89.57201942094463, 29.007552598453533], [-89.57201942094463, 29.05250854162922], [-89.48210753459324, 29.097464484804906], [-89.48210753459324, 29.187376371156283], [-89.39219564824185, 29.23233231433197], [-89.39219564824185, 29.322244200683347], [-89.34723970506616, 29.322244200683347], [-89.34723970506616, 29.412156087034724], [-89.30228376189046, 29.412156087034724], [-89.30228376189046, 29.547023916561784], [-89.25732781871477, 29.547023916561784], [-89.25732781871477, 29.726847689264538], [-89.21237187553908, 29.726847689264538], [-89.21237187553908, 29.951627405142975], [-89.16741593236338, 29.951627405142975], [-89.21237187553908, 30.625966552778294], [-89.25732781871477, 30.625966552778294], [-89.25732781871477, 30.850746268656735], [-89.30228376189046, 30.850746268656735], [-89.30228376189046, 30.985614098183795], [-89.34723970506616, 30.985614098183795], [-89.39219564824185, 31.255349757237923], [-89.43715159141755, 31.255349757237923], [-89.43715159141755, 31.3452616435893], [-89.48210753459324, 31.3452616435893], [-89.48210753459324, 31.435173529940677], [-89.52706347776893, 31.435173529940677], [-89.52706347776893, 31.52508541629205], [-89.57201942094463, 31.52508541629205], [-89.57201942094463, 31.614997302643427], [-89.61697536412032, 31.614997302643427], [-89.66193130729602, 31.794821075346178], [-89.70688725047171, 31.794821075346178], [-89.70688725047171, 31.839777018521865], [-89.7518431936474, 31.839777018521865], [-89.7518431936474, 31.92968890487324], [-89.88671102317448, 32.01960079122462], [-89.88671102317448, 32.154468620751686], [-89.93166696635018, 32.154468620751686], [-89.93166696635018, 32.24438050710306], [-89.97662290952587, 32.24438050710306], [-90.06653479587726, 32.37924833663012], [-90.20140262540434, 32.37924833663012], [-90.20140262540434, 32.42420427980581], [-90.60600611398559, 32.42420427980581], [-90.60600611398559, 32.37924833663012], [-90.69591800033697, 32.37924833663012], [-90.69591800033697, 32.33429239345443], [-90.87574177303975, 32.33429239345443], [-90.87574177303975, 32.289336450278746], [-90.96565365939114, 32.289336450278746], [-90.96565365939114, 32.24438050710306], [-91.14547743209391, 32.199424563927366], [-91.1904333752696, 32.10951267757599], [-91.2353893184453, 32.10951267757599], [-91.2353893184453, 32.064556734400306], [-91.280345261621, 32.064556734400306], [-91.280345261621, 32.01960079122462], [-91.32530120479669, 32.01960079122462], [-91.32530120479669, 31.97464484804893], [-91.37025714797238, 31.97464484804893], [-91.37025714797238, 31.92968890487324], [-91.41521309114808, 31.92968890487324], [-91.41521309114808, 31.884732961697555], [-91.55008092067516, 31.794821075346178], [-91.55008092067516, 31.7049091889948], [-91.59503686385085, 31.7049091889948], [-91.59503686385085, 31.614997302643427], [-91.63999280702654, 31.614997302643427], [-91.63999280702654, 31.52508541629205], [-91.68494875020224, 31.52508541629205], [-91.68494875020224, 31.435173529940677], [-91.72990469337793, 31.435173529940677], [-91.72990469337793, 31.255349757237923], [-91.77486063655363, 31.255349757237923], [-91.77486063655363, 30.985614098183795], [-91.81981657972932, 30.985614098183795], [-91.81981657972932, 29.996583348318666]]]]}}, {"type": "Feature", "properties": {"shapefile": "2021083000_wsp50knt120hr_5km", "PERCENTAGE": "10-20%"}, "geometry": {"type": "MultiPolygon", "coordinates": [[[[-91.81981657972932, 29.996583348318666], [-91.81981657972932, 30.985614098183795], [-91.77486063655363, 30.985614098183795], [-91.77486063655363, 31.255349757237923], [-91.72990469337793, 31.255349757237923], [-91.72990469337793, 31.435173529940677], [-91.68494875020224, 31.435173529940677], [-91.68494875020224, 31.52508541629205], [-91.63999280702654, 31.52508541629205], [-91.63999280702654, 31.614997302643427], [-91.59503686385085, 31.614997302643427], [-91.55008092067516, 31.794821075346178], [-91.50512497749946, 31.794821075346178], [-91.50512497749946, 31.839777018521865], [-91.46016903432377, 31.839777018521865], [-91.46016903432377, 31.884732961697555], [-91.41521309114808, 31.884732961697555], [-91.41521309114808, 31.92968890487324], [-91.37025714797238, 31.92968890487324], [-91.37025714797238, 31.97464484804893], [-91.32530120479669, 31.97464484804893], [-91.32530120479669, 32.01960079122462], [-91.280345261621, 32.01960079122462], [-91.280345261621, 32.064556734400306], [-91.2353893184453, 32.064556734400306], [-91.14547743209391, 32.199424563927366], [-91.05556554574252, 32.199424563927366], [-91.05556554574252, 32.24438050710306], [-90.96565365939114, 32.24438050710306], [-90.96565365939114, 32.289336450278746], [-90.87574177303975, 32.289336450278746], [-90.87574177303975, 32.33429239345443], [-90.69591800033697, 32.33429239345443], [-90.69591800033697, 32.37924833663012], [-90.60600611398559, 32.37924833663012], [-90.60600611398559, 32.42420427980581], [-90.20140262540434, 32.42420427980581], [-90.20140262540434, 32.37924833663012], [-90.06653479587726, 32.37924833663012], [-90.06653479587726, 32.33429239345443], [-89.93166696635018, 32.24438050710306], [-89.93166696635018, 32.154468620751686], [-89.88671102317448, 32.154468620751686], [-89.88671102317448, 32.01960079122462], [-89.84175507999879, 32.01960079122462], [-89.84175507999879, 31.97464484804893], [-89.7518431936474, 31.92968890487324], [-89.7518431936474, 31.839777018521865], [-89.66193130729602, 31.794821075346178], [-89.66193130729602, 31.7049091889948], [-89.61697536412032, 31.7049091889948], [-89.61697536412032, 31.614997302643427], [-89.57201942094463, 31.614997302643427], [-89.57201942094463, 31.52508541629205], [-89.52706347776893, 31.52508541629205], [-89.52706347776893, 31.435173529940677], [-89.48210753459324, 31.435173529940677], [-89.48210753459324, 31.3452616435893], [-89.43715159141755, 31.3452616435893], [-89.43715159141755, 31.255349757237923], [-89.39219564824185, 31.255349757237923], [-89.39219564824185, 31.12048192771086], [-89.34723970506616, 31.12048192771086], [-89.34723970506616, 30.985614098183795], [-89.30228376189046, 30.985614098183795], [-89.30228376189046, 30.850746268656735], [-89.25732781871477, 30.850746268656735], [-89.25732781871477, 30.625966552778294], [-89.21237187553908, 30.625966552778294], [-89.16741593236338, 29.951627405142975], [-89.21237187553908, 29.951627405142975], [-89.21237187553908, 29.726847689264538], [-89.25732781871477, 29.726847689264538], [-89.25732781871477, 29.547023916561784], [-89.30228376189046, 29.547023916561784], [-89.30228376189046, 29.412156087034724], [-89.34723970506616, 29.412156087034724], [-89.39219564824185, 29.23233231433197], [-89.48210753459324, 29.187376371156283], [-89.48210753459324, 29.097464484804906], [-89.52706347776893, 29.097464484804906], [-89.57201942094463, 29.007552598453533], [-89.66193130729602, 29.007552598453533], [-89.70688725047171, 28.917640712102155], [-89.7967991368231, 28.917640712102155], [-89.7967991368231, 28.87268476892647], [-89.93166696635018, 28.87268476892647], [-89.93166696635018, 28.82772882575078], [-90.06653479587726, 28.82772882575078], [-90.06653479587726, 28.78277288257509], [-90.24635856858004, 28.78277288257509], [-90.24635856858004, 28.737816939399405], [-90.74087394351267, 28.737816939399405], [-90.74087394351267, 28.78277288257509], [-90.92069771621544, 28.78277288257509], [-90.92069771621544, 28.82772882575078], [-91.01060960256683, 28.82772882575078], [-91.01060960256683, 28.87268476892647], [-91.14547743209391, 28.87268476892647], [-91.14547743209391, 28.917640712102155], [-91.2353893184453, 28.917640712102155], [-91.280345261621, 29.007552598453533], [-91.37025714797238, 29.007552598453533], [-91.37025714797238, 29.05250854162922], [-91.50512497749946, 29.142420427980596], [-91.50512497749946, 29.23233231433197], [-91.55008092067516, 29.23233231433197], [-91.55008092067516, 29.27728825750766], [-91.59503686385085, 29.27728825750766], [-91.59503686385085, 29.367200143859034], [-91.63999280702654, 29.367200143859034], [-91.63999280702654, 29.502067973386097], [-91.68494875020224, 29.502067973386097], [-91.68494875020224, 29.63693580291316], [-91.72990469337793, 29.63693580291316], [-91.72990469337793, 29.81675957561591], [-91.77486063655363, 29.81675957561591], [-91.77486063655363, 29.996583348318666], [-91.81981657972932, 29.996583348318666]], [[-91.68494875020224, 29.951627405142975], [-91.63999280702654, 29.951627405142975], [-91.63999280702654, 29.726847689264538], [-91.59503686385085, 29.726847689264538], [-91.59503686385085, 29.591979859737474], [-91.55008092067516, 29.591979859737474], [-91.55008092067516, 29.45711203021041], [-91.50512497749946, 29.45711203021041], [-91.46016903432377, 29.27728825750766], [-91.41521309114808, 29.27728825750766], [-91.41521309114808, 29.23233231433197], [-91.37025714797238, 29.23233231433197], [-91.37025714797238, 29.187376371156283], [-91.32530120479669, 29.187376371156283], [-91.2353893184453, 29.05250854162922], [-91.05556554574252, 29.007552598453533], [-91.05556554574252, 28.962596655277842], [-90.96565365939114, 28.962596655277842], [-90.96565365939114, 28.917640712102155], [-90.78582988668836, 28.917640712102155], [-90.78582988668836, 28.87268476892647], [-90.20140262540434, 28.87268476892647], [-90.20140262540434, 28.917640712102155], [-90.02157885270157, 28.917640712102155], [-90.02157885270157, 28.962596655277842], [-89.88671102317448, 28.962596655277842], [-89.88671102317448, 29.007552598453533], [-89.7967991368231, 29.007552598453533], [-89.7518431936474, 29.097464484804906], [-89.66193130729602, 29.097464484804906], [-89.66193130729602, 29.142420427980596], [-89.52706347776893, 29.23233231433197], [-89.52706347776893, 29.322244200683347], [-89.48210753459324, 29.322244200683347], [-89.48210753459324, 29.412156087034724], [-89.43715159141755, 29.412156087034724], [-89.43715159141755, 29.502067973386097], [-89.39219564824185, 29.502067973386097], [-89.39219564824185, 29.63693580291316], [-89.34723970506616, 29.63693580291316], [-89.34723970506616, 29.861715518791602], [-89.30228376189046, 29.861715518791602], [-89.30228376189046, 30.401186836899853], [-89.34723970506616, 30.401186836899853], [-89.34723970506616, 30.67092249595398], [-89.39219564824185, 30.67092249595398], [-89.39219564824185, 30.850746268656735], [-89.43715159141755, 30.850746268656735], [-89.43715159141755, 30.985614098183795], [-89.48210753459324, 30.985614098183795], [-89.48210753459324, 31.075525984535172], [-89.52706347776893, 31.075525984535172], [-89.52706347776893, 31.16543787088655], [-89.57201942094463, 31.16543787088655], [-89.57201942094463, 31.300305700413613], [-89.66193130729602, 31.3452616435893], [-89.66193130729602, 31.435173529940677], [-89.70688725047171, 31.435173529940677], [-89.7518431936474, 31.614997302643427], [-89.84175507999879, 31.659953245819114], [-89.84175507999879, 31.74986513217049], [-89.97662290952587, 31.839777018521865], [-89.97662290952587, 31.92968890487324], [-90.02157885270157, 31.92968890487324], [-90.06653479587726, 32.01960079122462], [-90.15644668222865, 32.01960079122462], [-90.15644668222865, 32.064556734400306], [-90.20140262540434, 32.064556734400306], [-90.20140262540434, 32.10951267757599], [-90.29131451175573, 32.10951267757599], [-90.29131451175573, 32.154468620751686], [-90.78582988668836, 32.154468620751686], [-90.78582988668836, 32.10951267757599], [-90.92069771621544, 32.10951267757599], [-90.92069771621544, 32.064556734400306], [-91.10052148891822, 32.01960079122462], [-91.10052148891822, 31.97464484804893], [-91.14547743209391, 31.97464484804893], [-91.14547743209391, 31.92968890487324], [-91.1904333752696, 31.92968890487324], [-91.1904333752696, 31.884732961697555], [-91.2353893184453, 31.884732961697555], [-91.2353893184453, 31.839777018521865], [-91.280345261621, 31.839777018521865], [-91.280345261621, 31.794821075346178], [-91.32530120479669, 31.794821075346178], [-91.32530120479669, 31.74986513217049], [-91.46016903432377, 31.659953245819114], [-91.46016903432377, 31.570041359467737], [-91.50512497749946, 31.570041359467737], [-91.50512497749946, 31.480129473116364], [-91.55008092067516, 31.480129473116364], [-91.55008092067516, 31.3452616435893], [-91.59503686385085, 31.3452616435893], [-91.59503686385085, 31.210393814062236], [-91.63999280702654, 31.210393814062236], [-91.63999280702654, 30.985614098183795], [-91.68494875020224, 30.985614098183795], [-91.68494875020224, 29.951627405142975]]]]}}, {"type": "Feature", "properties": {"shapefile": "2021083000_wsp50knt120hr_5km", "PERCENTAGE": "20-30%"}, "geometry": {"type": "MultiPolygon", "coordinates": [[[[-91.68494875020224, 29.951627405142975], [-91.68494875020224, 30.985614098183795], [-91.63999280702654, 30.985614098183795], [-91.63999280702654, 31.210393814062236], [-91.59503686385085, 31.210393814062236], [-91.59503686385085, 31.3452616435893], [-91.55008092067516, 31.3452616435893], [-91.55008092067516, 31.480129473116364], [-91.50512497749946, 31.480129473116364], [-91.46016903432377, 31.659953245819114], [-91.41521309114808, 31.659953245819114], [-91.41521309114808, 31.7049091889948], [-91.37025714797238, 31.7049091889948], [-91.37025714797238, 31.74986513217049], [-91.32530120479669, 31.74986513217049], [-91.32530120479669, 31.794821075346178], [-91.280345261621, 31.794821075346178], [-91.280345261621, 31.839777018521865], [-91.2353893184453, 31.839777018521865], [-91.2353893184453, 31.884732961697555], [-91.10052148891822, 31.97464484804893], [-91.10052148891822, 32.01960079122462], [-91.01060960256683, 32.01960079122462], [-91.01060960256683, 32.064556734400306], [-90.92069771621544, 32.064556734400306], [-90.92069771621544, 32.10951267757599], [-90.78582988668836, 32.10951267757599], [-90.78582988668836, 32.154468620751686], [-90.29131451175573, 32.154468620751686], [-90.29131451175573, 32.10951267757599], [-90.20140262540434, 32.10951267757599], [-90.15644668222865, 32.01960079122462], [-90.06653479587726, 32.01960079122462], [-90.06653479587726, 31.97464484804893], [-89.97662290952587, 31.92968890487324], [-89.97662290952587, 31.839777018521865], [-89.84175507999879, 31.74986513217049], [-89.84175507999879, 31.659953245819114], [-89.7518431936474, 31.614997302643427], [-89.7518431936474, 31.52508541629205], [-89.70688725047171, 31.52508541629205], [-89.66193130729602, 31.3452616435893], [-89.57201942094463, 31.300305700413613], [-89.57201942094463, 31.16543787088655], [-89.52706347776893, 31.16543787088655], [-89.52706347776893, 31.075525984535172], [-89.48210753459324, 31.075525984535172], [-89.48210753459324, 30.985614098183795], [-89.43715159141755, 30.985614098183795], [-89.43715159141755, 30.850746268656735], [-89.39219564824185, 30.850746268656735], [-89.39219564824185, 30.67092249595398], [-89.34723970506616, 30.67092249595398], [-89.34723970506616, 30.401186836899853], [-89.30228376189046, 30.401186836899853], [-89.30228376189046, 29.861715518791602], [-89.34723970506616, 29.861715518791602], [-89.34723970506616, 29.63693580291316], [-89.39219564824185, 29.63693580291316], [-89.39219564824185, 29.502067973386097], [-89.43715159141755, 29.502067973386097], [-89.43715159141755, 29.412156087034724], [-89.48210753459324, 29.412156087034724], [-89.48210753459324, 29.322244200683347], [-89.52706347776893, 29.322244200683347], [-89.52706347776893, 29.23233231433197], [-89.57201942094463, 29.23233231433197], [-89.66193130729602, 29.097464484804906], [-89.7518431936474, 29.097464484804906], [-89.7967991368231, 29.007552598453533], [-89.88671102317448, 29.007552598453533], [-89.88671102317448, 28.962596655277842], [-90.02157885270157, 28.962596655277842], [-90.02157885270157, 28.917640712102155], [-90.20140262540434, 28.917640712102155], [-90.20140262540434, 28.87268476892647], [-90.78582988668836, 28.87268476892647], [-90.78582988668836, 28.917640712102155], [-90.96565365939114, 28.917640712102155], [-90.96565365939114, 28.962596655277842], [-91.05556554574252, 28.962596655277842], [-91.05556554574252, 29.007552598453533], [-91.2353893184453, 29.05250854162922], [-91.2353893184453, 29.097464484804906], [-91.280345261621, 29.097464484804906], [-91.280345261621, 29.142420427980596], [-91.32530120479669, 29.142420427980596], [-91.32530120479669, 29.187376371156283], [-91.46016903432377, 29.27728825750766], [-91.46016903432377, 29.367200143859034], [-91.50512497749946, 29.367200143859034], [-91.50512497749946, 29.45711203021041], [-91.55008092067516, 29.45711203021041], [-91.55008092067516, 29.591979859737474], [-91.59503686385085, 29.591979859737474], [-91.59503686385085, 29.726847689264538], [-91.63999280702654, 29.726847689264538], [-91.63999280702654, 29.951627405142975], [-91.68494875020224, 29.951627405142975]], [[-91.59503686385085, 30.26631900737279], [-91.55008092067516, 30.26631900737279], [-91.55008092067516, 29.81675957561591], [-91.50512497749946, 29.81675957561591], [-91.50512497749946, 29.63693580291316], [-91.46016903432377, 29.63693580291316], [-91.46016903432377, 29.502067973386097], [-91.41521309114808, 29.502067973386097], [-91.37025714797238, 29.322244200683347], [-91.32530120479669, 29.322244200683347], [-91.32530120479669, 29.27728825750766], [-91.280345261621, 29.27728825750766], [-91.1904333752696, 29.142420427980596], [-91.10052148891822, 29.142420427980596], [-91.10052148891822, 29.097464484804906], [-91.01060960256683, 29.097464484804906], [-91.01060960256683, 29.05250854162922], [-90.87574177303975, 29.05250854162922], [-90.87574177303975, 29.007552598453533], [-90.69591800033697, 29.007552598453533], [-90.69591800033697, 28.962596655277842], [-90.29131451175573, 28.962596655277842], [-90.29131451175573, 29.007552598453533], [-90.06653479587726, 29.007552598453533], [-90.06653479587726, 29.05250854162922], [-89.93166696635018, 29.05250854162922], [-89.93166696635018, 29.097464484804906], [-89.84175507999879, 29.097464484804906], [-89.7967991368231, 29.187376371156283], [-89.70688725047171, 29.187376371156283], [-89.70688725047171, 29.23233231433197], [-89.61697536412032, 29.27728825750766], [-89.61697536412032, 29.367200143859034], [-89.57201942094463, 29.367200143859034], [-89.52706347776893, 29.547023916561784], [-89.48210753459324, 29.547023916561784], [-89.48210753459324, 29.726847689264538], [-89.43715159141755, 29.726847689264538], [-89.43715159141755, 30.536054666426917], [-89.48210753459324, 30.536054666426917], [-89.48210753459324, 30.71587843912967], [-89.52706347776893, 30.71587843912967], [-89.57201942094463, 30.985614098183795], [-89.61697536412032, 30.985614098183795], [-89.61697536412032, 31.075525984535172], [-89.66193130729602, 31.075525984535172], [-89.66193130729602, 31.16543787088655], [-89.70688725047171, 31.16543787088655], [-89.7518431936474, 31.3452616435893], [-89.7967991368231, 31.3452616435893], [-89.7967991368231, 31.390217586764987], [-89.84175507999879, 31.390217586764987], [-89.84175507999879, 31.480129473116364], [-89.93166696635018, 31.52508541629205], [-89.93166696635018, 31.614997302643427], [-90.06653479587726, 31.7049091889948], [-90.06653479587726, 31.794821075346178], [-90.15644668222865, 31.794821075346178], [-90.15644668222865, 31.839777018521865], [-90.20140262540434, 31.839777018521865], [-90.24635856858004, 31.92968890487324], [-90.33627045493142, 31.92968890487324], [-90.33627045493142, 31.97464484804893], [-90.5160942276342, 31.97464484804893], [-90.5160942276342, 32.01960079122462], [-90.60600611398559, 32.01960079122462], [-90.60600611398559, 31.97464484804893], [-90.83078582986406, 31.97464484804893], [-90.83078582986406, 31.92968890487324], [-90.96565365939114, 31.92968890487324], [-91.01060960256683, 31.839777018521865], [-91.10052148891822, 31.839777018521865], [-91.10052148891822, 31.794821075346178], [-91.14547743209391, 31.794821075346178], [-91.14547743209391, 31.74986513217049], [-91.1904333752696, 31.74986513217049], [-91.1904333752696, 31.7049091889948], [-91.32530120479669, 31.614997302643427], [-91.32530120479669, 31.52508541629205], [-91.37025714797238, 31.52508541629205], [-91.37025714797238, 31.435173529940677], [-91.41521309114808, 31.435173529940677], [-91.41521309114808, 31.3452616435893], [-91.46016903432377, 31.3452616435893], [-91.46016903432377, 31.210393814062236], [-91.50512497749946, 31.210393814062236], [-91.50512497749946, 31.030570041359486], [-91.55008092067516, 31.030570041359486], [-91.55008092067516, 30.581010609602608], [-91.59503686385085, 30.581010609602608], [-91.59503686385085, 30.26631900737279]]]]}}, {"type": "Feature", "properties": {"shapefile": "2021083000_wsp50knt120hr_5km", "PERCENTAGE": "30-40%"}, "geometry": {"type": "MultiPolygon", "coordinates": [[[[-91.59503686385085, 30.26631900737279], [-91.59503686385085, 30.581010609602608], [-91.55008092067516, 30.581010609602608], [-91.55008092067516, 31.030570041359486], [-91.50512497749946, 31.030570041359486], [-91.50512497749946, 31.210393814062236], [-91.46016903432377, 31.210393814062236], [-91.46016903432377, 31.3452616435893], [-91.41521309114808, 31.3452616435893], [-91.41521309114808, 31.435173529940677], [-91.37025714797238, 31.435173529940677], [-91.32530120479669, 31.614997302643427], [-91.280345261621, 31.614997302643427], [-91.280345261621, 31.659953245819114], [-91.2353893184453, 31.659953245819114], [-91.2353893184453, 31.7049091889948], [-91.1904333752696, 31.7049091889948], [-91.10052148891822, 31.839777018521865], [-91.01060960256683, 31.839777018521865], [-90.96565365939114, 31.92968890487324], [-90.83078582986406, 31.92968890487324], [-90.83078582986406, 31.97464484804893], [-90.60600611398559, 31.97464484804893], [-90.60600611398559, 32.01960079122462], [-90.5160942276342, 32.01960079122462], [-90.5160942276342, 31.97464484804893], [-90.33627045493142, 31.97464484804893], [-90.33627045493142, 31.92968890487324], [-90.24635856858004, 31.92968890487324], [-90.15644668222865, 31.794821075346178], [-90.06653479587726, 31.794821075346178], [-90.06653479587726, 31.7049091889948], [-89.93166696635018, 31.614997302643427], [-89.93166696635018, 31.52508541629205], [-89.84175507999879, 31.480129473116364], [-89.84175507999879, 31.390217586764987], [-89.7518431936474, 31.3452616435893], [-89.7518431936474, 31.255349757237923], [-89.70688725047171, 31.255349757237923], [-89.70688725047171, 31.16543787088655], [-89.66193130729602, 31.16543787088655], [-89.66193130729602, 31.075525984535172], [-89.61697536412032, 31.075525984535172], [-89.61697536412032, 30.985614098183795], [-89.57201942094463, 30.985614098183795], [-89.57201942094463, 30.850746268656735], [-89.52706347776893, 30.850746268656735], [-89.52706347776893, 30.71587843912967], [-89.48210753459324, 30.71587843912967], [-89.48210753459324, 30.536054666426917], [-89.43715159141755, 30.536054666426917], [-89.43715159141755, 29.726847689264538], [-89.48210753459324, 29.726847689264538], [-89.48210753459324, 29.547023916561784], [-89.52706347776893, 29.547023916561784], [-89.52706347776893, 29.45711203021041], [-89.57201942094463, 29.45711203021041], [-89.57201942094463, 29.367200143859034], [-89.61697536412032, 29.367200143859034], [-89.61697536412032, 29.27728825750766], [-89.66193130729602, 29.27728825750766], [-89.70688725047171, 29.187376371156283], [-89.7967991368231, 29.187376371156283], [-89.84175507999879, 29.097464484804906], [-89.93166696635018, 29.097464484804906], [-89.93166696635018, 29.05250854162922], [-90.06653479587726, 29.05250854162922], [-90.06653479587726, 29.007552598453533], [-90.29131451175573, 29.007552598453533], [-90.29131451175573, 28.962596655277842], [-90.69591800033697, 28.962596655277842], [-90.69591800033697, 29.007552598453533], [-90.87574177303975, 29.007552598453533], [-90.87574177303975, 29.05250854162922], [-91.01060960256683, 29.05250854162922], [-91.01060960256683, 29.097464484804906], [-91.1904333752696, 29.142420427980596], [-91.1904333752696, 29.187376371156283], [-91.2353893184453, 29.187376371156283], [-91.2353893184453, 29.23233231433197], [-91.37025714797238, 29.322244200683347], [-91.37025714797238, 29.412156087034724], [-91.41521309114808, 29.412156087034724], [-91.41521309114808, 29.502067973386097], [-91.46016903432377, 29.502067973386097], [-91.46016903432377, 29.63693580291316], [-91.50512497749946, 29.63693580291316], [-91.50512497749946, 29.81675957561591], [-91.55008092067516, 29.81675957561591], [-91.55008092067516, 30.26631900737279], [-91.59503686385085, 30.26631900737279]], [[-91.46016903432377, 29.861715518791602], [-91.41521309114808, 29.861715518791602], [-91.41521309114808, 29.63693580291316], [-91.37025714797238, 29.63693580291316], [-91.37025714797238, 29.502067973386097], [-91.32530120479669, 29.502067973386097], [-91.32530120479669, 29.412156087034724], [-91.280345261621, 29.412156087034724], [-91.280345261621, 29.367200143859034], [-91.2353893184453, 29.367200143859034], [-91.2353893184453, 29.322244200683347], [-91.1904333752696, 29.322244200683347], [-91.10052148891822, 29.187376371156283], [-91.01060960256683, 29.187376371156283], [-91.01060960256683, 29.142420427980596], [-90.87574177303975, 29.142420427980596], [-90.87574177303975, 29.097464484804906], [-90.60600611398559, 29.097464484804906], [-90.60600611398559, 29.05250854162922], [-90.06653479587726, 29.097464484804906], [-90.06653479587726, 29.142420427980596], [-89.97662290952587, 29.142420427980596], [-89.97662290952587, 29.187376371156283], [-89.7967991368231, 29.23233231433197], [-89.7967991368231, 29.27728825750766], [-89.66193130729602, 29.367200143859034], [-89.66193130729602, 29.45711203021041], [-89.61697536412032, 29.45711203021041], [-89.61697536412032, 29.547023916561784], [-89.57201942094463, 29.547023916561784], [-89.57201942094463, 29.726847689264538], [-89.52706347776893, 29.726847689264538], [-89.52706347776893, 30.446142780075544], [-89.57201942094463, 30.446142780075544], [-89.57201942094463, 30.67092249595398], [-89.61697536412032, 30.67092249595398], [-89.61697536412032, 30.805790325481045], [-89.66193130729602, 30.805790325481045], [-89.66193130729602, 30.895702211832422], [-89.70688725047171, 30.895702211832422], [-89.70688725047171, 30.985614098183795], [-89.7518431936474, 30.985614098183795], [-89.7518431936474, 31.075525984535172], [-89.7967991368231, 31.075525984535172], [-89.7967991368231, 31.16543787088655], [-89.88671102317448, 31.210393814062236], [-89.93166696635018, 31.390217586764987], [-90.02157885270157, 31.435173529940677], [-90.02157885270157, 31.52508541629205], [-90.06653479587726, 31.52508541629205], [-90.06653479587726, 31.570041359467737], [-90.11149073905295, 31.570041359467737], [-90.11149073905295, 31.614997302643427], [-90.15644668222865, 31.614997302643427], [-90.15644668222865, 31.659953245819114], [-90.20140262540434, 31.659953245819114], [-90.29131451175573, 31.794821075346178], [-90.38122639810712, 31.794821075346178], [-90.38122639810712, 31.839777018521865], [-90.83078582986406, 31.839777018521865], [-90.83078582986406, 31.794821075346178], [-91.01060960256683, 31.74986513217049], [-91.05556554574252, 31.659953245819114], [-91.14547743209391, 31.659953245819114], [-91.14547743209391, 31.570041359467737], [-91.280345261621, 31.480129473116364], [-91.280345261621, 31.390217586764987], [-91.32530120479669, 31.390217586764987], [-91.32530120479669, 31.300305700413613], [-91.37025714797238, 31.300305700413613], [-91.37025714797238, 31.16543787088655], [-91.41521309114808, 31.16543787088655], [-91.41521309114808, 30.94065815500811], [-91.46016903432377, 30.94065815500811], [-91.46016903432377, 29.861715518791602]]]]}}, {"type": "Feature", "properties": {"shapefile": "2021083000_wsp50knt120hr_5km", "PERCENTAGE": "40-50%"}, "geometry": {"type": "MultiPolygon", "coordinates": [[[[-91.46016903432377, 29.861715518791602], [-91.46016903432377, 30.94065815500811], [-91.41521309114808, 30.94065815500811], [-91.41521309114808, 31.16543787088655], [-91.37025714797238, 31.16543787088655], [-91.37025714797238, 31.300305700413613], [-91.32530120479669, 31.300305700413613], [-91.280345261621, 31.480129473116364], [-91.14547743209391, 31.570041359467737], [-91.14547743209391, 31.659953245819114], [-91.05556554574252, 31.659953245819114], [-91.01060960256683, 31.74986513217049], [-90.92069771621544, 31.74986513217049], [-90.92069771621544, 31.794821075346178], [-90.83078582986406, 31.794821075346178], [-90.83078582986406, 31.839777018521865], [-90.38122639810712, 31.839777018521865], [-90.38122639810712, 31.794821075346178], [-90.29131451175573, 31.794821075346178], [-90.29131451175573, 31.74986513217049], [-90.24635856858004, 31.74986513217049], [-90.24635856858004, 31.7049091889948], [-90.20140262540434, 31.7049091889948], [-90.20140262540434, 31.659953245819114], [-90.15644668222865, 31.659953245819114], [-90.15644668222865, 31.614997302643427], [-90.02157885270157, 31.52508541629205], [-90.02157885270157, 31.435173529940677], [-89.93166696635018, 31.390217586764987], [-89.93166696635018, 31.300305700413613], [-89.88671102317448, 31.300305700413613], [-89.88671102317448, 31.210393814062236], [-89.7967991368231, 31.16543787088655], [-89.7967991368231, 31.075525984535172], [-89.7518431936474, 31.075525984535172], [-89.7518431936474, 30.985614098183795], [-89.70688725047171, 30.985614098183795], [-89.70688725047171, 30.895702211832422], [-89.66193130729602, 30.895702211832422], [-89.66193130729602, 30.805790325481045], [-89.61697536412032, 30.805790325481045], [-89.61697536412032, 30.67092249595398], [-89.57201942094463, 30.67092249595398], [-89.57201942094463, 30.446142780075544], [-89.52706347776893, 30.446142780075544], [-89.52706347776893, 29.726847689264538], [-89.57201942094463, 29.726847689264538], [-89.57201942094463, 29.547023916561784], [-89.61697536412032, 29.547023916561784], [-89.66193130729602, 29.367200143859034], [-89.70688725047171, 29.367200143859034], [-89.7967991368231, 29.23233231433197], [-89.88671102317448, 29.23233231433197], [-89.88671102317448, 29.187376371156283], [-90.06653479587726, 29.142420427980596], [-90.06653479587726, 29.097464484804906], [-90.33627045493142, 29.097464484804906], [-90.33627045493142, 29.05250854162922], [-90.87574177303975, 29.097464484804906], [-90.87574177303975, 29.142420427980596], [-91.01060960256683, 29.142420427980596], [-91.01060960256683, 29.187376371156283], [-91.10052148891822, 29.187376371156283], [-91.10052148891822, 29.23233231433197], [-91.14547743209391, 29.23233231433197], [-91.14547743209391, 29.27728825750766], [-91.1904333752696, 29.27728825750766], [-91.1904333752696, 29.322244200683347], [-91.32530120479669, 29.412156087034724], [-91.32530120479669, 29.502067973386097], [-91.37025714797238, 29.502067973386097], [-91.37025714797238, 29.63693580291316], [-91.41521309114808, 29.63693580291316], [-91.41521309114808, 29.861715518791602], [-91.46016903432377, 29.861715518791602]], [[-91.37025714797238, 29.861715518791602], [-91.32530120479669, 29.861715518791602], [-91.32530120479669, 29.63693580291316], [-91.280345261621, 29.63693580291316], [-91.280345261621, 29.502067973386097], [-91.2353893184453, 29.502067973386097], [-91.2353893184453, 29.412156087034724], [-91.1904333752696, 29.412156087034724], [-91.10052148891822, 29.27728825750766], [-91.01060960256683, 29.27728825750766], [-91.01060960256683, 29.23233231433197], [-90.87574177303975, 29.23233231433197], [-90.87574177303975, 29.187376371156283], [-90.65096205716128, 29.187376371156283], [-90.65096205716128, 29.142420427980596], [-90.29131451175573, 29.142420427980596], [-90.29131451175573, 29.187376371156283], [-90.06653479587726, 29.187376371156283], [-90.06653479587726, 29.23233231433197], [-89.93166696635018, 29.23233231433197], [-89.88671102317448, 29.322244200683347], [-89.7967991368231, 29.322244200683347], [-89.7967991368231, 29.367200143859034], [-89.7518431936474, 29.367200143859034], [-89.7518431936474, 29.45711203021041], [-89.70688725047171, 29.45711203021041], [-89.70688725047171, 29.547023916561784], [-89.66193130729602, 29.547023916561784], [-89.66193130729602, 29.726847689264538], [-89.61697536412032, 29.726847689264538], [-89.61697536412032, 30.446142780075544], [-89.66193130729602, 30.446142780075544], [-89.66193130729602, 30.625966552778294], [-89.70688725047171, 30.625966552778294], [-89.70688725047171, 30.760834382305358], [-89.7518431936474, 30.760834382305358], [-89.7967991368231, 30.94065815500811], [-89.88671102317448, 30.985614098183795], [-89.93166696635018, 31.16543787088655], [-89.97662290952587, 31.16543787088655], [-89.97662290952587, 31.210393814062236], [-90.02157885270157, 31.210393814062236], [-90.02157885270157, 31.300305700413613], [-90.11149073905295, 31.3452616435893], [-90.11149073905295, 31.435173529940677], [-90.15644668222865, 31.435173529940677], [-90.15644668222865, 31.480129473116364], [-90.24635856858004, 31.52508541629205], [-90.24635856858004, 31.614997302643427], [-90.29131451175573, 31.614997302643427], [-90.29131451175573, 31.659953245819114], [-90.38122639810712, 31.659953245819114], [-90.42618234128281, 31.74986513217049], [-90.69591800033697, 31.74986513217049], [-90.69591800033697, 31.7049091889948], [-90.96565365939114, 31.659953245819114], [-90.96565365939114, 31.614997302643427], [-91.01060960256683, 31.614997302643427], [-91.01060960256683, 31.570041359467737], [-91.05556554574252, 31.570041359467737], [-91.05556554574252, 31.52508541629205], [-91.1904333752696, 31.435173529940677], [-91.1904333752696, 31.3452616435893], [-91.2353893184453, 31.3452616435893], [-91.2353893184453, 31.255349757237923], [-91.280345261621, 31.255349757237923], [-91.280345261621, 31.12048192771086], [-91.32530120479669, 31.12048192771086], [-91.32530120479669, 30.895702211832422], [-91.37025714797238, 30.895702211832422], [-91.37025714797238, 29.861715518791602]]]]}}, {"type": "Feature", "properties": {"shapefile": "2021083000_wsp50knt120hr_5km", "PERCENTAGE": "50-60%"}, "geometry": {"type": "MultiPolygon", "coordinates": [[[[-91.37025714797238, 29.861715518791602], [-91.37025714797238, 30.895702211832422], [-91.32530120479669, 30.895702211832422], [-91.32530120479669, 31.12048192771086], [-91.280345261621, 31.12048192771086], [-91.280345261621, 31.255349757237923], [-91.2353893184453, 31.255349757237923], [-91.1904333752696, 31.435173529940677], [-91.14547743209391, 31.435173529940677], [-91.14547743209391, 31.480129473116364], [-91.10052148891822, 31.480129473116364], [-91.10052148891822, 31.52508541629205], [-91.05556554574252, 31.52508541629205], [-90.96565365939114, 31.659953245819114], [-90.83078582986406, 31.659953245819114], [-90.83078582986406, 31.7049091889948], [-90.69591800033697, 31.7049091889948], [-90.69591800033697, 31.74986513217049], [-90.42618234128281, 31.74986513217049], [-90.42618234128281, 31.7049091889948], [-90.38122639810712, 31.7049091889948], [-90.38122639810712, 31.659953245819114], [-90.29131451175573, 31.659953245819114], [-90.29131451175573, 31.614997302643427], [-90.24635856858004, 31.614997302643427], [-90.24635856858004, 31.52508541629205], [-90.11149073905295, 31.435173529940677], [-90.11149073905295, 31.3452616435893], [-90.02157885270157, 31.300305700413613], [-90.02157885270157, 31.210393814062236], [-89.93166696635018, 31.16543787088655], [-89.88671102317448, 30.985614098183795], [-89.7967991368231, 30.94065815500811], [-89.7967991368231, 30.850746268656735], [-89.7518431936474, 30.850746268656735], [-89.7518431936474, 30.760834382305358], [-89.70688725047171, 30.760834382305358], [-89.70688725047171, 30.625966552778294], [-89.66193130729602, 30.625966552778294], [-89.66193130729602, 30.446142780075544], [-89.61697536412032, 30.446142780075544], [-89.61697536412032, 29.726847689264538], [-89.66193130729602, 29.726847689264538], [-89.66193130729602, 29.547023916561784], [-89.70688725047171, 29.547023916561784], [-89.7518431936474, 29.367200143859034], [-89.7967991368231, 29.367200143859034], [-89.7967991368231, 29.322244200683347], [-89.88671102317448, 29.322244200683347], [-89.93166696635018, 29.23233231433197], [-90.06653479587726, 29.23233231433197], [-90.06653479587726, 29.187376371156283], [-90.29131451175573, 29.187376371156283], [-90.29131451175573, 29.142420427980596], [-90.65096205716128, 29.142420427980596], [-90.65096205716128, 29.187376371156283], [-90.87574177303975, 29.187376371156283], [-90.87574177303975, 29.23233231433197], [-91.01060960256683, 29.23233231433197], [-91.01060960256683, 29.27728825750766], [-91.10052148891822, 29.27728825750766], [-91.10052148891822, 29.322244200683347], [-91.2353893184453, 29.412156087034724], [-91.2353893184453, 29.502067973386097], [-91.280345261621, 29.502067973386097], [-91.280345261621, 29.63693580291316], [-91.32530120479669, 29.63693580291316], [-91.32530120479669, 29.861715518791602], [-91.37025714797238, 29.861715518791602]], [[-91.280345261621, 29.81675957561591], [-91.2353893184453, 29.81675957561591], [-91.2353893184453, 29.591979859737474], [-91.1904333752696, 29.591979859737474], [-91.14547743209391, 29.412156087034724], [-91.10052148891822, 29.412156087034724], [-91.05556554574252, 29.322244200683347], [-90.92069771621544, 29.322244200683347], [-90.92069771621544, 29.27728825750766], [-90.74087394351267, 29.27728825750766], [-90.74087394351267, 29.23233231433197], [-90.20140262540434, 29.23233231433197], [-90.20140262540434, 29.27728825750766], [-90.02157885270157, 29.27728825750766], [-90.02157885270157, 29.322244200683347], [-89.84175507999879, 29.367200143859034], [-89.84175507999879, 29.412156087034724], [-89.7967991368231, 29.412156087034724], [-89.7967991368231, 29.502067973386097], [-89.7518431936474, 29.502067973386097], [-89.7518431936474, 29.63693580291316], [-89.70688725047171, 29.63693580291316], [-89.70688725047171, 30.49109872325123], [-89.7518431936474, 30.49109872325123], [-89.7967991368231, 30.760834382305358], [-89.88671102317448, 30.805790325481045], [-89.88671102317448, 30.895702211832422], [-89.97662290952587, 30.94065815500811], [-89.97662290952587, 31.030570041359486], [-90.06653479587726, 31.075525984535172], [-90.06653479587726, 31.16543787088655], [-90.15644668222865, 31.210393814062236], [-90.15644668222865, 31.300305700413613], [-90.24635856858004, 31.3452616435893], [-90.24635856858004, 31.435173529940677], [-90.29131451175573, 31.435173529940677], [-90.29131451175573, 31.480129473116364], [-90.38122639810712, 31.52508541629205], [-90.38122639810712, 31.614997302643427], [-90.4711382844585, 31.614997302643427], [-90.4711382844585, 31.659953245819114], [-90.60600611398559, 31.659953245819114], [-90.60600611398559, 31.614997302643427], [-90.78582988668836, 31.614997302643427], [-90.78582988668836, 31.570041359467737], [-90.92069771621544, 31.570041359467737], [-90.92069771621544, 31.52508541629205], [-91.01060960256683, 31.52508541629205], [-91.01060960256683, 31.480129473116364], [-91.05556554574252, 31.480129473116364], [-91.05556554574252, 31.390217586764987], [-91.10052148891822, 31.390217586764987], [-91.10052148891822, 31.300305700413613], [-91.14547743209391, 31.300305700413613], [-91.14547743209391, 31.210393814062236], [-91.1904333752696, 31.210393814062236], [-91.1904333752696, 31.075525984535172], [-91.2353893184453, 31.075525984535172], [-91.2353893184453, 30.895702211832422], [-91.280345261621, 30.895702211832422], [-91.280345261621, 29.81675957561591]]]]}}, {"type": "Feature", "properties": {"shapefile": "2021083000_wsp50knt120hr_5km", "PERCENTAGE": "60-70%"}, "geometry": {"type": "MultiPolygon", "coordinates": [[[[-91.14547743209391, 29.412156087034724], [-91.14547743209391, 29.502067973386097], [-91.10052148891822, 29.502067973386097], [-91.01060960256683, 29.367200143859034], [-90.87574177303975, 29.367200143859034], [-90.87574177303975, 29.322244200683347], [-90.11149073905295, 29.322244200683347], [-90.11149073905295, 29.367200143859034], [-89.93166696635018, 29.367200143859034], [-89.93166696635018, 29.322244200683347], [-90.02157885270157, 29.322244200683347], [-90.02157885270157, 29.27728825750766], [-90.20140262540434, 29.27728825750766], [-90.20140262540434, 29.23233231433197], [-90.74087394351267, 29.23233231433197], [-90.74087394351267, 29.27728825750766], [-90.92069771621544, 29.27728825750766], [-90.92069771621544, 29.322244200683347], [-91.05556554574252, 29.322244200683347], [-91.05556554574252, 29.367200143859034], [-91.14547743209391, 29.412156087034724]]], [[[-91.280345261621, 29.81675957561591], [-91.280345261621, 30.895702211832422], [-91.2353893184453, 30.895702211832422], [-91.2353893184453, 31.075525984535172], [-91.1904333752696, 31.075525984535172], [-91.1904333752696, 31.210393814062236], [-91.14547743209391, 31.210393814062236], [-91.14547743209391, 31.300305700413613], [-91.10052148891822, 31.300305700413613], [-91.10052148891822, 31.390217586764987], [-91.05556554574252, 31.390217586764987], [-91.05556554574252, 31.480129473116364], [-91.01060960256683, 31.480129473116364], [-91.01060960256683, 31.52508541629205], [-90.92069771621544, 31.52508541629205], [-90.92069771621544, 31.570041359467737], [-90.78582988668836, 31.570041359467737], [-90.78582988668836, 31.614997302643427], [-90.60600611398559, 31.614997302643427], [-90.60600611398559, 31.659953245819114], [-90.4711382844585, 31.659953245819114], [-90.4711382844585, 31.614997302643427], [-90.38122639810712, 31.614997302643427], [-90.38122639810712, 31.52508541629205], [-90.24635856858004, 31.435173529940677], [-90.24635856858004, 31.3452616435893], [-90.15644668222865, 31.300305700413613], [-90.15644668222865, 31.210393814062236], [-90.06653479587726, 31.16543787088655], [-90.06653479587726, 31.075525984535172], [-89.97662290952587, 31.030570041359486], [-89.97662290952587, 30.94065815500811], [-89.93166696635018, 30.94065815500811], [-89.93166696635018, 30.895702211832422], [-89.88671102317448, 30.895702211832422], [-89.88671102317448, 30.805790325481045], [-89.7967991368231, 30.760834382305358], [-89.7967991368231, 30.625966552778294], [-89.7518431936474, 30.625966552778294], [-89.7518431936474, 30.49109872325123], [-89.70688725047171, 30.49109872325123], [-89.70688725047171, 29.63693580291316], [-89.7518431936474, 29.63693580291316], [-89.7518431936474, 29.502067973386097], [-89.7967991368231, 29.502067973386097], [-89.7967991368231, 29.412156087034724], [-89.84175507999879, 29.412156087034724], [-89.84175507999879, 29.367200143859034], [-89.93166696635018, 29.367200143859034], [-89.93166696635018, 29.412156087034724], [-89.84175507999879, 29.45711203021041], [-89.84175507999879, 29.547023916561784], [-89.7967991368231, 29.547023916561784], [-89.7967991368231, 29.861715518791602], [-89.7518431936474, 29.861715518791602], [-89.7518431936474, 30.176407121021416], [-89.7967991368231, 30.176407121021416], [-89.7967991368231, 30.536054666426917], [-89.84175507999879, 30.536054666426917], [-89.84175507999879, 30.67092249595398], [-89.88671102317448, 30.67092249595398], [-89.88671102317448, 30.71587843912967], [-89.93166696635018, 30.71587843912967], [-89.93166696635018, 30.805790325481045], [-89.97662290952587, 30.805790325481045], [-89.97662290952587, 30.850746268656735], [-90.11149073905295, 30.94065815500811], [-90.11149073905295, 31.030570041359486], [-90.20140262540434, 31.075525984535172], [-90.24635856858004, 31.255349757237923], [-90.33627045493142, 31.300305700413613], [-90.33627045493142, 31.390217586764987], [-90.42618234128281, 31.435173529940677], [-90.42618234128281, 31.52508541629205], [-90.4711382844585, 31.52508541629205], [-90.4711382844585, 31.570041359467737], [-90.5160942276342, 31.570041359467737], [-90.5160942276342, 31.52508541629205], [-90.65096205716128, 31.52508541629205], [-90.65096205716128, 31.480129473116364], [-90.78582988668836, 31.480129473116364], [-90.78582988668836, 31.435173529940677], [-90.92069771621544, 31.435173529940677], [-90.92069771621544, 31.390217586764987], [-91.01060960256683, 31.390217586764987], [-91.01060960256683, 31.300305700413613], [-91.05556554574252, 31.300305700413613], [-91.05556554574252, 31.210393814062236], [-91.10052148891822, 31.210393814062236], [-91.10052148891822, 31.12048192771086], [-91.14547743209391, 31.12048192771086], [-91.14547743209391, 30.94065815500811], [-91.1904333752696, 30.94065815500811], [-91.1904333752696, 29.681891746088848], [-91.14547743209391, 29.681891746088848], [-91.14547743209391, 29.502067973386097], [-91.1904333752696, 29.502067973386097], [-91.1904333752696, 29.591979859737474], [-91.2353893184453, 29.591979859737474], [-91.2353893184453, 29.81675957561591], [-91.280345261621, 29.81675957561591]]]]}}, {"type": "Feature", "properties": {"shapefile": "2021083000_wsp50knt120hr_5km", "PERCENTAGE": "70-80%"}, "geometry": {"type": "MultiPolygon", "coordinates": [[[[-91.05556554574252, 29.412156087034724], [-91.05556554574252, 29.45711203021041], [-91.01060960256683, 29.45711203021041], [-91.01060960256683, 29.412156087034724], [-91.05556554574252, 29.412156087034724]]], [[[-91.1904333752696, 29.681891746088848], [-91.1904333752696, 30.94065815500811], [-91.14547743209391, 30.94065815500811], [-91.14547743209391, 31.12048192771086], [-91.10052148891822, 31.12048192771086], [-91.10052148891822, 31.210393814062236], [-91.05556554574252, 31.210393814062236], [-91.01060960256683, 31.390217586764987], [-90.92069771621544, 31.390217586764987], [-90.92069771621544, 31.435173529940677], [-90.78582988668836, 31.435173529940677], [-90.78582988668836, 31.480129473116364], [-90.65096205716128, 31.480129473116364], [-90.65096205716128, 31.52508541629205], [-90.5160942276342, 31.52508541629205], [-90.5160942276342, 31.570041359467737], [-90.4711382844585, 31.570041359467737], [-90.4711382844585, 31.52508541629205], [-90.42618234128281, 31.52508541629205], [-90.42618234128281, 31.435173529940677], [-90.33627045493142, 31.390217586764987], [-90.33627045493142, 31.300305700413613], [-90.24635856858004, 31.255349757237923], [-90.20140262540434, 31.075525984535172], [-90.11149073905295, 31.030570041359486], [-90.11149073905295, 30.94065815500811], [-90.06653479587726, 30.94065815500811], [-90.06653479587726, 30.895702211832422], [-89.93166696635018, 30.805790325481045], [-89.93166696635018, 30.71587843912967], [-89.84175507999879, 30.67092249595398], [-89.84175507999879, 30.536054666426917], [-89.7967991368231, 30.536054666426917], [-89.7967991368231, 30.176407121021416], [-89.7518431936474, 30.176407121021416], [-89.7967991368231, 29.547023916561784], [-89.84175507999879, 29.547023916561784], [-89.84175507999879, 29.45711203021041], [-89.88671102317448, 29.45711203021041], [-89.93166696635018, 29.367200143859034], [-90.11149073905295, 29.367200143859034], [-90.11149073905295, 29.322244200683347], [-90.87574177303975, 29.322244200683347], [-90.87574177303975, 29.367200143859034], [-91.01060960256683, 29.367200143859034], [-91.01060960256683, 29.412156087034724], [-90.65096205716128, 29.412156087034724], [-90.65096205716128, 29.367200143859034], [-89.97662290952587, 29.412156087034724], [-89.97662290952587, 29.45711203021041], [-89.88671102317448, 29.502067973386097], [-89.88671102317448, 29.63693580291316], [-89.84175507999879, 29.63693580291316], [-89.84175507999879, 30.401186836899853], [-89.88671102317448, 30.401186836899853], [-89.88671102317448, 30.581010609602608], [-89.93166696635018, 30.581010609602608], [-89.93166696635018, 30.67092249595398], [-89.97662290952587, 30.67092249595398], [-90.06653479587726, 30.805790325481045], [-90.15644668222865, 30.805790325481045], [-90.15644668222865, 30.895702211832422], [-90.24635856858004, 30.94065815500811], [-90.24635856858004, 31.030570041359486], [-90.29131451175573, 31.030570041359486], [-90.29131451175573, 31.12048192771086], [-90.38122639810712, 31.16543787088655], [-90.38122639810712, 31.255349757237923], [-90.42618234128281, 31.255349757237923], [-90.42618234128281, 31.3452616435893], [-90.4711382844585, 31.3452616435893], [-90.4711382844585, 31.390217586764987], [-90.56105017080989, 31.390217586764987], [-90.56105017080989, 31.3452616435893], [-90.69591800033697, 31.3452616435893], [-90.69591800033697, 31.300305700413613], [-90.83078582986406, 31.300305700413613], [-90.83078582986406, 31.255349757237923], [-90.96565365939114, 31.255349757237923], [-90.96565365939114, 31.210393814062236], [-91.01060960256683, 31.210393814062236], [-91.01060960256683, 31.12048192771086], [-91.05556554574252, 31.12048192771086], [-91.05556554574252, 30.985614098183795], [-91.10052148891822, 30.985614098183795], [-91.10052148891822, 30.536054666426917], [-91.14547743209391, 30.536054666426917], [-91.14547743209391, 30.131451177845726], [-91.10052148891822, 30.131451177845726], [-91.10052148891822, 29.547023916561784], [-91.05556554574252, 29.547023916561784], [-91.05556554574252, 29.45711203021041], [-91.14547743209391, 29.502067973386097], [-91.14547743209391, 29.681891746088848], [-91.1904333752696, 29.681891746088848]]]]}}, {"type": "Feature", "properties": {"shapefile": "2021083000_wsp50knt120hr_5km", "PERCENTAGE": "80-90%"}, "geometry": {"type": "MultiPolygon", "coordinates": [[[[-89.97662290952587, 29.45711203021041], [-89.97662290952587, 29.502067973386097], [-89.93166696635018, 29.502067973386097], [-89.93166696635018, 29.45711203021041], [-89.97662290952587, 29.45711203021041]]], [[[-91.14547743209391, 30.131451177845726], [-91.10052148891822, 30.985614098183795], [-91.05556554574252, 30.985614098183795], [-91.05556554574252, 31.12048192771086], [-91.01060960256683, 31.12048192771086], [-91.01060960256683, 31.210393814062236], [-90.96565365939114, 31.210393814062236], [-90.96565365939114, 31.255349757237923], [-90.83078582986406, 31.255349757237923], [-90.83078582986406, 31.300305700413613], [-90.69591800033697, 31.300305700413613], [-90.69591800033697, 31.3452616435893], [-90.56105017080989, 31.3452616435893], [-90.56105017080989, 31.390217586764987], [-90.4711382844585, 31.390217586764987], [-90.4711382844585, 31.3452616435893], [-90.42618234128281, 31.3452616435893], [-90.42618234128281, 31.255349757237923], [-90.38122639810712, 31.255349757237923], [-90.38122639810712, 31.16543787088655], [-90.29131451175573, 31.12048192771086], [-90.24635856858004, 30.94065815500811], [-90.15644668222865, 30.895702211832422], [-90.15644668222865, 30.805790325481045], [-90.06653479587726, 30.805790325481045], [-90.06653479587726, 30.760834382305358], [-89.93166696635018, 30.67092249595398], [-89.93166696635018, 30.581010609602608], [-89.88671102317448, 30.581010609602608], [-89.88671102317448, 30.401186836899853], [-89.84175507999879, 30.401186836899853], [-89.84175507999879, 29.63693580291316], [-89.88671102317448, 29.63693580291316], [-89.88671102317448, 29.502067973386097], [-89.93166696635018, 29.502067973386097], [-89.93166696635018, 30.536054666426917], [-89.97662290952587, 30.536054666426917], [-89.97662290952587, 30.625966552778294], [-90.11149073905295, 30.625966552778294], [-90.11149073905295, 30.67092249595398], [-90.20140262540434, 30.67092249595398], [-90.20140262540434, 30.71587843912967], [-90.33627045493142, 30.805790325481045], [-90.33627045493142, 30.94065815500811], [-90.38122639810712, 30.94065815500811], [-90.38122639810712, 31.075525984535172], [-90.4711382844585, 31.12048192771086], [-90.4711382844585, 31.210393814062236], [-90.5160942276342, 31.210393814062236], [-90.5160942276342, 31.16543787088655], [-90.74087394351267, 31.16543787088655], [-90.74087394351267, 31.12048192771086], [-90.96565365939114, 31.12048192771086], [-90.96565365939114, 31.075525984535172], [-91.01060960256683, 31.075525984535172], [-91.01060960256683, 30.760834382305358], [-91.05556554574252, 30.760834382305358], [-91.05556554574252, 29.591979859737474], [-91.01060960256683, 29.591979859737474], [-91.01060960256683, 29.502067973386097], [-90.96565365939114, 29.502067973386097], [-90.96565365939114, 29.45711203021041], [-89.97662290952587, 29.45711203021041], [-89.97662290952587, 29.412156087034724], [-90.29131451175573, 29.412156087034724], [-90.29131451175573, 29.367200143859034], [-91.01060960256683, 29.412156087034724], [-91.01060960256683, 29.45711203021041], [-91.05556554574252, 29.45711203021041], [-91.05556554574252, 29.547023916561784], [-91.10052148891822, 29.547023916561784], [-91.10052148891822, 30.131451177845726], [-91.14547743209391, 30.131451177845726]]]]}}, {"type": "Feature", "properties": {"shapefile": "2021083000_wsp50knt120hr_5km", "PERCENTAGE": ">90%"}, "geometry": {"type": "MultiPolygon", "coordinates": [[[[-91.05556554574252, 29.591979859737474], [-91.05556554574252, 30.760834382305358], [-91.01060960256683, 30.760834382305358], [-91.01060960256683, 31.075525984535172], [-90.96565365939114, 31.075525984535172], [-90.96565365939114, 31.12048192771086], [-90.74087394351267, 31.12048192771086], [-90.74087394351267, 31.16543787088655], [-90.5160942276342, 31.16543787088655], [-90.5160942276342, 31.210393814062236], [-90.4711382844585, 31.210393814062236], [-90.4711382844585, 31.12048192771086], [-90.38122639810712, 31.075525984535172], [-90.33627045493142, 30.805790325481045], [-90.29131451175573, 30.805790325481045], [-90.20140262540434, 30.67092249595398], [-90.11149073905295, 30.67092249595398], [-90.11149073905295, 30.625966552778294], [-89.97662290952587, 30.625966552778294], [-89.97662290952587, 30.536054666426917], [-89.93166696635018, 30.536054666426917], [-89.93166696635018, 29.502067973386097], [-89.97662290952587, 29.502067973386097], [-89.97662290952587, 29.45711203021041], [-90.96565365939114, 29.45711203021041], [-90.96565365939114, 29.502067973386097], [-91.01060960256683, 29.502067973386097], [-91.01060960256683, 29.591979859737474], [-91.05556554574252, 29.591979859737474]]]]}}]}