{"type": "FeatureCollection", "features": [{"type": "Feature", "properties": {"shapefile": "al092021_2021082921_initialradii", "RADII": 34, "STORMID": "al092021", "BASIN": "al", "STORMNUM": 9, "ADVNUM": "15", "VALIDTIME": "2021082921", "SYNOPTIME": "2021082918", "TIMEZONE": "UTC", "TAU": 0, "NE": 130, "SE": 120, "SW": 80, "NW": 80}, "geometry": {"type": "Polygon", "coordinates": [[[-90.5808792, 31.2496071], [-90.5448837, 31.2582779], [-90.5085144, 31.2663918], [-90.4718018, 31.2739429], [-90.4347382, 31.2809238], [-90.3973541, 31.2873268], [-90.3596497, 31.2931423], [-90.32164, 31.2983665], [-90.2833328, 31.3029861], [-90.2447586, 31.3069973], [-90.2059097, 31.3103943], [-90.1668243, 31.3131676], [-90.1274948, 31.3153152], [-90.0879364, 31.3168201], [-90.0481873, 31.317688], [-90.0082245, 31.3179111], [-89.9680939, 31.3174782], [-89.9277954, 31.3163853], [-89.8873444, 31.3146286], [-89.8467712, 31.3122082], [-89.8060608, 31.3091087], [-89.7652588, 31.305336], [-89.7243652, 31.3008804], [-89.6834183, 31.2957363], [-89.6424026, 31.2899075], [-89.6013336, 31.2833824], [-89.560257, 31.2761631], [-89.519165, 31.2682457], [-89.4780884, 31.2596226], [-89.4370346, 31.2502975], [-89.3960342, 31.2402725], [-89.3550873, 31.2295361], [-89.3142166, 31.218092], [-89.2734375, 31.2059364], [-89.2327652, 31.1930714], [-89.1922226, 31.179491], [-89.151825, 31.1652012], [-89.1115952, 31.1501999], [-89.0715332, 31.1344872], [-89.0316696, 31.1180649], [-88.9920197, 31.100935], [-88.9531097, 31.0826683], [-88.9155273, 31.0628662], [-88.879303, 31.0415649], [-88.8444977, 31.0188065], [-88.811142, 30.9946156], [-88.7792969, 30.9690342], [-88.7490234, 30.9421043], [-88.7203445, 30.9138622], [-88.6932907, 30.8843479], [-88.6674194, 30.8540306], [-88.6421967, 30.8233509], [-88.6176453, 30.7923145], [-88.5937729, 30.7609425], [-88.5705795, 30.7292385], [-88.5480499, 30.6972122], [-88.5262146, 30.6648769], [-88.5050735, 30.6322422], [-88.4846344, 30.5993214], [-88.4648895, 30.5661221], [-88.4458618, 30.5326576], [-88.427536, 30.4989395], [-88.409935, 30.4649754], [-88.3930511, 30.4307785], [-88.3768768, 30.3963623], [-88.3614349, 30.3617325], [-88.3467255, 30.3269043], [-88.3327332, 30.2918911], [-88.3194885, 30.2567005], [-88.3069763, 30.221344], [-88.2951889, 30.1858349], [-88.2841492, 30.1501808], [-88.2738419, 30.114397], [-88.2642822, 30.078495], [-88.255455, 30.0424805], [-88.2473907, 30.0063705], [-88.2400436, 29.9701767], [-88.2334518, 29.9339123], [-88.2275925, 29.8975792], [-88.2224884, 29.8611965], [-88.2181168, 29.8247757], [-88.2144852, 29.7883224], [-88.2116013, 29.7518539], [-88.2094574, 29.7153797], [-88.208046, 29.6789074], [-88.2073669, 29.6424522], [-88.207428, 29.6060276], [-88.2082214, 29.5696411], [-88.2097321, 29.5333023], [-88.2119751, 29.4970264], [-88.2149353, 29.4608192], [-88.2186279, 29.424696], [-88.2230301, 29.3886681], [-88.2281723, 29.3527431], [-88.2339935, 29.3169327], [-88.2405396, 29.28125], [-88.2477722, 29.2457008], [-88.255722, 29.2103004], [-88.2643585, 29.1750584], [-88.2736816, 29.1399841], [-88.283699, 29.1050892], [-88.2943878, 29.0703773], [-88.3057556, 29.0358677], [-88.3177948, 29.0015697], [-88.3304977, 28.9674892], [-88.3438644, 28.9336338], [-88.3578796, 28.9000168], [-88.3725281, 28.8666515], [-88.3878403, 28.83354], [-88.4037781, 28.8006992], [-88.4203415, 28.7681351], [-88.4375305, 28.735857], [-88.4553146, 28.7038708], [-88.473732, 28.6721897], [-88.4927368, 28.6408253], [-88.5123367, 28.6097794], [-88.5325165, 28.5790634], [-88.5532761, 28.5486851], [-88.5746155, 28.5186596], [-88.5965118, 28.4889908], [-88.6189651, 28.4596786], [-88.6419525, 28.4307423], [-88.6654892, 28.4021873], [-88.6895447, 28.3740177], [-88.7141418, 28.3462467], [-88.7392349, 28.3188782], [-88.7648392, 28.2919197], [-88.7909317, 28.265377], [-88.8175125, 28.2392635], [-88.844574, 28.2135773], [-88.8721008, 28.1883316], [-88.900322, 28.1637535], [-88.9294662, 28.1400833], [-88.9595032, 28.117342], [-88.9903946, 28.0955486], [-89.0221252, 28.0747242], [-89.054657, 28.054884], [-89.0879745, 28.0360527], [-89.1220322, 28.0182419], [-89.1568146, 28.0014687], [-89.1920319, 27.9855309], [-89.2274323, 27.9702072], [-89.2630157, 27.9554996], [-89.2987442, 27.941412], [-89.3346252, 27.9279423], [-89.370636, 27.9150925], [-89.4067535, 27.9028568], [-89.4429855, 27.891243], [-89.4793167, 27.8802452], [-89.5157166, 27.8698654], [-89.5521927, 27.8601017], [-89.588707, 27.8509541], [-89.6252747, 27.8424206], [-89.66185, 27.8344994], [-89.6984558, 27.8271923], [-89.7350693, 27.8204918], [-89.7716599, 27.8144016], [-89.8082275, 27.808918], [-89.8447571, 27.8040333], [-89.8812408, 27.7997513], [-89.9176636, 27.7960663], [-89.95401, 27.7929764], [-89.9902878, 27.7904739], [-90.0264511, 27.7885628], [-90.0625153, 27.7872334], [-90.0984497, 27.7864876], [-90.1342468, 27.786314], [-90.1699142, 27.7867146], [-90.2054214, 27.7876816], [-90.2407684, 27.7892113], [-90.2759247, 27.7912998], [-90.3108978, 27.7939415], [-90.3456726, 27.7971325], [-90.3802261, 27.8008652], [-90.4145737, 27.8051376], [-90.4486923, 27.8099384], [-90.4825592, 27.8152676], [-90.5161743, 27.8211155], [-90.54953, 27.8274784], [-90.5826111, 27.8343487], [-90.6154099, 27.8417206], [-90.6479187, 27.8495865], [-90.6801224, 27.8579426], [-90.7120209, 27.8667774], [-90.7435913, 27.876091], [-90.7748489, 27.8858681], [-90.8057556, 27.8961067], [-90.8363266, 27.9067955], [-90.866539, 27.9179344], [-90.8963928, 27.9295101], [-90.9258652, 27.9415131], [-90.9549713, 27.9539394], [-90.983696, 27.9667797], [-91.0120163, 27.9800282], [-91.0399323, 27.9936733], [-91.0674438, 28.0077095], [-91.0945358, 28.0221233], [-91.1212158, 28.0369129], [-91.1474686, 28.0520668], [-91.1732864, 28.0675755], [-91.1986618, 28.0834312], [-91.2235947, 28.0996246], [-91.2480698, 28.116148], [-91.2720871, 28.1329899], [-91.2956543, 28.1501446], [-91.3187408, 28.1676006], [-91.3413544, 28.1853485], [-91.3634872, 28.2033825], [-91.3851318, 28.2216873], [-91.406311, 28.2402573], [-91.4269867, 28.2590866], [-91.4471741, 28.2781601], [-91.4668503, 28.297472], [-91.4860229, 28.317009], [-91.5047073, 28.3367653], [-91.5228653, 28.3567276], [-91.540535, 28.3768902], [-91.557663, 28.3972435], [-91.574295, 28.4177761], [-91.5904007, 28.4384766], [-91.6059875, 28.4593372], [-91.621376, 28.4800587], [-91.6369324, 28.5003567], [-91.6526794, 28.5202408], [-91.668602, 28.5397167], [-91.6847458, 28.5588074], [-91.7011337, 28.5775223], [-91.7177734, 28.5958691], [-91.7346725, 28.6138649], [-91.7518845, 28.6315231], [-91.7690735, 28.6491528], [-91.7859192, 28.6670399], [-91.8024139, 28.6851768], [-91.8185501, 28.7035618], [-91.8343201, 28.7221909], [-91.8497238, 28.7410583], [-91.864769, 28.7601547], [-91.879425, 28.77948], [-91.8937073, 28.7990208], [-91.9075928, 28.8187771], [-91.9210892, 28.8387413], [-91.9341888, 28.8589077], [-91.9468918, 28.8792725], [-91.959198, 28.8998203], [-91.9710922, 28.9205589], [-91.9825745, 28.9414711], [-91.9936447, 28.9625549], [-92.004303, 28.9838047], [-92.014534, 29.0052147], [-92.0243378, 29.0267735], [-92.0337143, 29.0484829], [-92.0426636, 29.0703259], [-92.051178, 29.0923023], [-92.0592651, 29.1144066], [-92.0669022, 29.136631], [-92.0740967, 29.1589622], [-92.0808563, 29.181406], [-92.0871582, 29.2039452], [-92.0930252, 29.2265797], [-92.0984344, 29.2492981], [-92.1033859, 29.2720947], [-92.1078796, 29.2949619], [-92.1119308, 29.3178978], [-92.115509, 29.3408909], [-92.1186295, 29.3639355], [-92.1212997, 29.3870239], [-92.1235046, 29.4101467], [-92.1252594, 29.4333019], [-92.1265335, 29.4564781], [-92.1273422, 29.4796677], [-92.1276855, 29.5028725], [-92.1275711, 29.5260754], [-92.1269913, 29.5492725], [-92.125946, 29.5724583], [-92.1244354, 29.5956249], [-92.1224594, 29.6187649], [-92.1200104, 29.6418686], [-92.1170959, 29.6649342], [-92.1137314, 29.6879539], [-92.1098938, 29.7109165], [-92.1056061, 29.7338161], [-92.1008453, 29.756649], [-92.0956192, 29.7794094], [-92.0899353, 29.8020802], [-92.0838013, 29.8246632], [-92.0772095, 29.8471546], [-92.0701599, 29.8695374], [-92.0626678, 29.8918076], [-92.054718, 29.9139671], [-92.0463181, 29.9360008], [-92.0374756, 29.9579029], [-92.0281906, 29.9796658], [-92.0184631, 30.0012856], [-92.0082932, 30.0227566], [-91.9976883, 30.0440636], [-91.9866486, 30.0652084], [-91.9751816, 30.0861855], [-91.9632874, 30.1069851], [-91.9509735, 30.1275978], [-91.9382477, 30.1480198], [-91.9250946, 30.168251], [-91.9115372, 30.1882725], [-91.8975677, 30.2080898], [-91.883194, 30.2276917], [-91.8684311, 30.2470665], [-91.8532562, 30.2662182], [-91.8377075, 30.2851353], [-91.8217545, 30.3038197], [-91.8054352, 30.3222523], [-91.7887268, 30.3404331], [-91.7716599, 30.3583603], [-91.7546463, 30.3763905], [-91.7380905, 30.3948975], [-91.7219696, 30.4138966], [-91.7062683, 30.4334106], [-91.6909409, 30.4534607], [-91.675972, 30.4740601], [-91.6613235, 30.4952259], [-91.6469803, 30.5169773], [-91.6329041, 30.5393276], [-91.6186676, 30.5619335], [-91.6038055, 30.5844193], [-91.5883484, 30.6067715], [-91.5722885, 30.6289902], [-91.5556259, 30.6510582], [-91.5383453, 30.6729603], [-91.5204697, 30.6946926], [-91.501976, 30.716238], [-91.4828796, 30.737587], [-91.4632111, 30.758728], [-91.4429321, 30.7796459], [-91.4220505, 30.800333], [-91.400589, 30.8207836], [-91.37854, 30.8409729], [-91.3559036, 30.8609009], [-91.3326874, 30.8805466], [-91.3088989, 30.89991], [-91.2845306, 30.9189682], [-91.2596054, 30.9377174], [-91.2341003, 30.9561462], [-91.2080536, 30.9742393], [-91.1814346, 30.9919872], [-91.1542969, 31.0093822], [-91.1266098, 31.0264111], [-91.0983887, 31.0430603], [-91.0696411, 31.0593185], [-91.0403748, 31.075182], [-91.0106049, 31.0906334], [-90.9803238, 31.1056652], [-90.9495544, 31.1202698], [-90.9182968, 31.1344299], [-90.8865509, 31.14814], [-90.854332, 31.1613865], [-90.8216476, 31.1741638], [-90.7885437, 31.1864624], [-90.7549744, 31.1982651], [-90.7209778, 31.2095718], [-90.686554, 31.2203674], [-90.6517258, 31.2306442], [-90.6164932, 31.2403965], [-90.5808792, 31.2496071]]]}}, {"type": "Feature", "properties": {"shapefile": "al092021_2021082921_initialradii", "RADII": 50, "STORMID": "al092021", "BASIN": "al", "STORMNUM": 9, "ADVNUM": "15", "VALIDTIME": "2021082921", "SYNOPTIME": "2021082918", "TIMEZONE": "UTC", "TAU": 0, "NE": 70, "SE": 60, "SW": 40, "NW": 40}, "geometry": {"type": "Polygon", "coordinates": [[[-90.5899811, 30.4168224], [-90.5712509, 30.4220657], [-90.5523071, 30.4270229], [-90.533165, 30.4316845], [-90.5138092, 30.4360485], [-90.4942551, 30.4401073], [-90.4745178, 30.4438648], [-90.4545746, 30.4473038], [-90.4344711, 30.4504261], [-90.4141769, 30.4532261], [-90.3937302, 30.4557018], [-90.3731232, 30.4578514], [-90.3523712, 30.4596634], [-90.3314667, 30.4611378], [-90.3104324, 30.4622707], [-90.2892761, 30.4630604], [-90.2679825, 30.4634972], [-90.2465897, 30.4635849], [-90.2250824, 30.4633179], [-90.203476, 30.4626865], [-90.1817932, 30.4617043], [-90.1600266, 30.4603481], [-90.1381912, 30.4586258], [-90.1162796, 30.4565353], [-90.0943146, 30.454071], [-90.0723038, 30.4512329], [-90.0502625, 30.448019], [-90.028183, 30.4444237], [-90.0060883, 30.4404469], [-89.9839783, 30.4360886], [-89.9618683, 30.4313431], [-89.9397583, 30.4262161], [-89.9176636, 30.4206982], [-89.8955994, 30.4147949], [-89.8735657, 30.4084988], [-89.8515778, 30.4018154], [-89.8296356, 30.3947372], [-89.8077545, 30.3872719], [-89.7859421, 30.3794155], [-89.7642059, 30.3711643], [-89.742569, 30.3625259], [-89.7213669, 30.3532009], [-89.7009659, 30.3429356], [-89.6814194, 30.3317394], [-89.662735, 30.3196487], [-89.6449509, 30.3066711], [-89.6281052, 30.2928429], [-89.6122208, 30.2781811], [-89.5973206, 30.2627125], [-89.5834427, 30.2464676], [-89.5702591, 30.2297497], [-89.5574493, 30.2128601], [-89.5450058, 30.1958046], [-89.5329437, 30.1785889], [-89.5212479, 30.1612206], [-89.5099182, 30.1437035], [-89.4989929, 30.1260452], [-89.4884262, 30.1082535], [-89.4782486, 30.0903244], [-89.4684601, 30.0722752], [-89.4590683, 30.0541077], [-89.4500504, 30.0358276], [-89.4414368, 30.0174465], [-89.433197, 29.9989662], [-89.4253616, 29.9803848], [-89.4179153, 29.9617233], [-89.4108658, 29.9429798], [-89.4042206, 29.9241638], [-89.3979645, 29.9052811], [-89.3920975, 29.8863297], [-89.3866272, 29.8673306], [-89.3815613, 29.8482761], [-89.3768997, 29.8291798], [-89.3726196, 29.8100491], [-89.3687439, 29.790884], [-89.3652649, 29.771698], [-89.362175, 29.7524929], [-89.3594894, 29.7332726], [-89.3572006, 29.7140465], [-89.3552933, 29.6948204], [-89.353775, 29.6755981], [-89.3526611, 29.6563931], [-89.351944, 29.6372032], [-89.3516083, 29.618042], [-89.3516541, 29.5989037], [-89.3521042, 29.5798035], [-89.3529358, 29.5607433], [-89.3541336, 29.5417347], [-89.3557358, 29.5227795], [-89.3576965, 29.5038834], [-89.3600464, 29.4850464], [-89.3627701, 29.4662876], [-89.3658676, 29.4476013], [-89.369339, 29.4289951], [-89.3731689, 29.4104786], [-89.3773651, 29.3920555], [-89.3819275, 29.3737316], [-89.3868561, 29.3555088], [-89.392128, 29.3373985], [-89.3977585, 29.3194046], [-89.4037476, 29.301527], [-89.4100723, 29.2837734], [-89.416748, 29.2661533], [-89.4237671, 29.2486668], [-89.4311218, 29.2313194], [-89.4388046, 29.214119], [-89.4468155, 29.1970654], [-89.4551544, 29.1801682], [-89.4638062, 29.1634312], [-89.4727936, 29.1468601], [-89.4820862, 29.130455], [-89.4916916, 29.1142273], [-89.5016022, 29.0981712], [-89.5118103, 29.0823021], [-89.5223083, 29.0666199], [-89.5331116, 29.0511265], [-89.5441971, 29.0358315], [-89.5555649, 29.020731], [-89.567215, 29.0058365], [-89.5791397, 28.9911461], [-89.5913391, 28.9766712], [-89.6037903, 28.96241], [-89.6165009, 28.9483643], [-89.6294708, 28.9345436], [-89.6426849, 28.9209461], [-89.6561584, 28.9075794], [-89.6698532, 28.8944397], [-89.6837921, 28.8815403], [-89.6979599, 28.8688755], [-89.7123413, 28.8564587], [-89.7269516, 28.8442822], [-89.7418518, 28.8324318], [-89.7571106, 28.8209801], [-89.7727356, 28.8099327], [-89.7887039, 28.7993088], [-89.804985, 28.7891026], [-89.8216171, 28.779335], [-89.8385239, 28.7699966], [-89.8557358, 28.7611008], [-89.8732376, 28.7526588], [-89.8909225, 28.7445946], [-89.9087067, 28.7368469], [-89.9265747, 28.7294044], [-89.9445343, 28.7222729], [-89.9625626, 28.7154503], [-89.9806671, 28.7089443], [-89.9988403, 28.7027454], [-90.0170593, 28.6968594], [-90.0353241, 28.6912842], [-90.0536499, 28.6860218], [-90.0719986, 28.6810684], [-90.0903778, 28.6764259], [-90.1087875, 28.6720924], [-90.1272125, 28.6680679], [-90.1456451, 28.6643543], [-90.1640778, 28.6609421], [-90.1825027, 28.6578407], [-90.2009277, 28.6550426], [-90.2193298, 28.6525497], [-90.2377243, 28.6503601], [-90.256073, 28.6484718], [-90.2743912, 28.6468773], [-90.2926636, 28.6455898], [-90.3108902, 28.6445923], [-90.329071, 28.6438904], [-90.3471832, 28.6434803], [-90.3652267, 28.643364], [-90.3832016, 28.6435337], [-90.4011002, 28.6439915], [-90.4189148, 28.6447315], [-90.4366455, 28.6457558], [-90.454277, 28.6470547], [-90.471817, 28.6486301], [-90.4892273, 28.650486], [-90.506546, 28.6526089], [-90.523735, 28.654995], [-90.5408096, 28.6576538], [-90.5577545, 28.6605701], [-90.5745544, 28.6637478], [-90.5912247, 28.6671791], [-90.6077576, 28.6708641], [-90.6241455, 28.6748009], [-90.6403809, 28.6789818], [-90.6564484, 28.6834068], [-90.6723557, 28.6880722], [-90.6880951, 28.6929703], [-90.7036591, 28.6980991], [-90.7190628, 28.7034569], [-90.7342834, 28.7090378], [-90.7492981, 28.7148399], [-90.7641525, 28.7208595], [-90.778801, 28.7270908], [-90.793251, 28.7335339], [-90.8075104, 28.7401772], [-90.8215485, 28.7470188], [-90.8353806, 28.7540588], [-90.8490143, 28.7612915], [-90.8624344, 28.7687111], [-90.8756332, 28.77631], [-90.8886108, 28.7840958], [-90.9013596, 28.7920494], [-90.913887, 28.8001747], [-90.9261856, 28.8084621], [-90.9382401, 28.8169155], [-90.9500656, 28.8255215], [-90.9616547, 28.83428], [-90.9730072, 28.8431835], [-90.984108, 28.8522301], [-90.9949646, 28.861412], [-91.0055847, 28.8707314], [-91.0159607, 28.8801785], [-91.026062, 28.8897476], [-91.0359192, 28.899435], [-91.0455322, 28.9092312], [-91.0548859, 28.919138], [-91.0639801, 28.9291553], [-91.0728073, 28.9392662], [-91.0813828, 28.9494724], [-91.0896912, 28.9597683], [-91.0977402, 28.9701462], [-91.1055222, 28.9806042], [-91.113205, 28.9909973], [-91.1209793, 29.001173], [-91.12883, 29.0111465], [-91.1367874, 29.0209141], [-91.1448364, 29.0304947], [-91.1530228, 29.0398827], [-91.1613235, 29.0490932], [-91.1697693, 29.0581264], [-91.1783676, 29.0669937], [-91.1869507, 29.0758438], [-91.195343, 29.0848217], [-91.2035828, 29.0939293], [-91.2116318, 29.103159], [-91.2194977, 29.1125107], [-91.2271729, 29.1219826], [-91.2346573, 29.1315651], [-91.241951, 29.1412582], [-91.249054, 29.151062], [-91.2559586, 29.1609764], [-91.2626648, 29.1709938], [-91.2691879, 29.1811047], [-91.2754822, 29.1913185], [-91.2815857, 29.2016258], [-91.2874832, 29.2120228], [-91.2931747, 29.2225113], [-91.2986526, 29.2330799], [-91.3039169, 29.2437344], [-91.3089752, 29.2544651], [-91.3138123, 29.2652721], [-91.3184433, 29.2761497], [-91.3228531, 29.2870998], [-91.3270493, 29.2981091], [-91.3310089, 29.3091831], [-91.3347549, 29.3203201], [-91.3382874, 29.3315048], [-91.3415833, 29.3427467], [-91.3446579, 29.3540344], [-91.3475037, 29.3653698], [-91.3501358, 29.3767471], [-91.3525391, 29.3881607], [-91.3547058, 29.3996048], [-91.3566437, 29.4110813], [-91.3583527, 29.4225903], [-91.3598251, 29.4341202], [-91.3610687, 29.4456711], [-91.3620911, 29.4572411], [-91.3628769, 29.4688206], [-91.3634262, 29.4804153], [-91.363739, 29.4920139], [-91.3638306, 29.5036182], [-91.3636856, 29.5152187], [-91.3633118, 29.5268173], [-91.3627014, 29.5384083], [-91.3618546, 29.549984], [-91.3607788, 29.5615501], [-91.3594742, 29.5730972], [-91.357933, 29.5846214], [-91.356163, 29.5961227], [-91.3541565, 29.6075954], [-91.3519287, 29.6190319], [-91.3494644, 29.6304359], [-91.3467712, 29.6418018], [-91.3438416, 29.65312], [-91.3407059, 29.6643982], [-91.3373337, 29.6756248], [-91.3337402, 29.6867981], [-91.3299179, 29.6979141], [-91.3258667, 29.7089672], [-91.3215866, 29.7199631], [-91.3171005, 29.7308922], [-91.3123932, 29.7417507], [-91.3074646, 29.752533], [-91.3023224, 29.763237], [-91.2969513, 29.7738647], [-91.2913742, 29.7844143], [-91.2855759, 29.7948704], [-91.2795868, 29.8052406], [-91.2733688, 29.8155136], [-91.2669601, 29.8256931], [-91.2603378, 29.8357773], [-91.2535095, 29.8457565], [-91.2464905, 29.8556309], [-91.2392654, 29.8653946], [-91.231842, 29.8750515], [-91.2242279, 29.8845901], [-91.216423, 29.8940163], [-91.2084198, 29.9033165], [-91.2002335, 29.9124966], [-91.191864, 29.9215488], [-91.1833191, 29.9304733], [-91.1748352, 29.9394913], [-91.1666565, 29.9488182], [-91.158783, 29.9584751], [-91.1511765, 29.9684658], [-91.1438522, 29.9788113], [-91.1367645, 29.9895115], [-91.1299057, 30.0005875], [-91.1232605, 30.0120449], [-91.1167908, 30.0238914], [-91.1102753, 30.035923], [-91.1034241, 30.0479088], [-91.0962219, 30.0598545], [-91.088707, 30.071743], [-91.0808563, 30.0835781], [-91.0726852, 30.0953445], [-91.0641785, 30.1070423], [-91.055336, 30.11866], [-91.0461731, 30.1301956], [-91.0366592, 30.1416397], [-91.0268402, 30.1529846], [-91.0166855, 30.1642246], [-91.0062027, 30.1753578], [-90.9953918, 30.1863747], [-90.9842758, 30.1972656], [-90.9728165, 30.2080345], [-90.9610443, 30.2186623], [-90.9489517, 30.229147], [-90.936554, 30.239481], [-90.9238281, 30.2496643], [-90.9107971, 30.2596836], [-90.8974609, 30.2695389], [-90.8838196, 30.2792187], [-90.8698654, 30.2887173], [-90.8556213, 30.2980309], [-90.8410797, 30.3071499], [-90.8262405, 30.3160744], [-90.8111115, 30.324791], [-90.7956924, 30.3332996], [-90.7799911, 30.3415909], [-90.7640152, 30.3496571], [-90.7477722, 30.3574924], [-90.7312469, 30.365099], [-90.7144699, 30.3724632], [-90.6974182, 30.3795853], [-90.6801224, 30.3864517], [-90.6625671, 30.3930588], [-90.6447906, 30.3994064], [-90.6267395, 30.4054832], [-90.6084671, 30.4112949], [-90.5899811, 30.4168224]]]}}, {"type": "Feature", "properties": {"shapefile": "al092021_2021082921_initialradii", "RADII": 64, "STORMID": "al092021", "BASIN": "al", "STORMNUM": 9, "ADVNUM": "15", "VALIDTIME": "2021082921", "SYNOPTIME": "2021082918", "TIMEZONE": "UTC", "TAU": 0, "NE": 40, "SE": 35, "SW": 20, "NW": 25}, "geometry": {"type": "Polygon", "coordinates": [[[-90.5941696, 30.0415115], [-90.583168, 30.0441074], [-90.5720596, 30.0465355], [-90.5608521, 30.0487938], [-90.5495377, 30.0508766], [-90.5381393, 30.0527821], [-90.5266418, 30.0545082], [-90.5150528, 30.0560532], [-90.5033798, 30.0574169], [-90.4916229, 30.0585976], [-90.4797897, 30.0595875], [-90.4678879, 30.0603905], [-90.4559021, 30.0610008], [-90.4438629, 30.0614223], [-90.4317703, 30.0616417], [-90.4196014, 30.0616684], [-90.407402, 30.0614967], [-90.3951416, 30.0611229], [-90.382843, 30.0605545], [-90.3705063, 30.0597763], [-90.3581314, 30.0587978], [-90.345726, 30.0576096], [-90.3332901, 30.056221], [-90.3208389, 30.0546227], [-90.3083801, 30.0528164], [-90.2958908, 30.0507984], [-90.2834091, 30.0485706], [-90.2709122, 30.0461292], [-90.2584229, 30.043478], [-90.2459488, 30.0406113], [-90.23349, 30.0375328], [-90.2210388, 30.0342407], [-90.2086029, 30.030735], [-90.1962051, 30.0270119], [-90.1838379, 30.0230751], [-90.1715012, 30.0189247], [-90.1592102, 30.0145569], [-90.146965, 30.0099716], [-90.1347733, 30.0051746], [-90.1226349, 30.0001602], [-90.1105652, 29.9949303], [-90.0987244, 29.9893417], [-90.0873032, 29.983263], [-90.0763092, 29.9767056], [-90.0657883, 29.9696732], [-90.0557251, 29.9621811], [-90.0461349, 29.9542446], [-90.0370636, 29.9458752], [-90.0284805, 29.9370823], [-90.0204391, 29.9278793], [-90.012764, 29.9184265], [-90.0052872, 29.9088745], [-89.9980316, 29.8992214], [-89.9909668, 29.889473], [-89.9841156, 29.8796253], [-89.9774857, 29.8696976], [-89.9710541, 29.8596725], [-89.964859, 29.849575], [-89.9588623, 29.8393955], [-89.9530869, 29.8291454], [-89.947525, 29.8188171], [-89.9421692, 29.8084202], [-89.9370422, 29.7979603], [-89.9321442, 29.7874374], [-89.9274673, 29.7768555], [-89.9230042, 29.766222], [-89.9187775, 29.7555332], [-89.9147644, 29.7448025], [-89.9109802, 29.7340221], [-89.9074097, 29.7232018], [-89.9040756, 29.7123451], [-89.9009628, 29.7014561], [-89.8980637, 29.6905346], [-89.8954163, 29.6795883], [-89.8929672, 29.6686192], [-89.8907547, 29.6576271], [-89.8887711, 29.6466198], [-89.8870087, 29.6355991], [-89.8854752, 29.6245689], [-89.8841705, 29.6135349], [-89.8830872, 29.602499], [-89.8822327, 29.5914612], [-89.8815994, 29.580431], [-89.8811874, 29.5694103], [-89.8809967, 29.5583973], [-89.8810349, 29.5474014], [-89.8812943, 29.5364208], [-89.8817673, 29.525465], [-89.8824692, 29.5145359], [-89.8833847, 29.5036278], [-89.8845139, 29.4927597], [-89.8858643, 29.4819241], [-89.8874283, 29.4711227], [-89.8892212, 29.4603672], [-89.8912125, 29.4496555], [-89.8934326, 29.4389915], [-89.8958435, 29.4283829], [-89.8984756, 29.41782], [-89.9013214, 29.4073219], [-89.9043655, 29.3968773], [-89.907608, 29.3865013], [-89.9110565, 29.376194], [-89.9147034, 29.3659496], [-89.9185638, 29.3557835], [-89.9226227, 29.3456936], [-89.926857, 29.3356762], [-89.9312973, 29.3257446], [-89.9359283, 29.315897], [-89.9407578, 29.306139], [-89.9457626, 29.2964649], [-89.9509506, 29.2868862], [-89.9563293, 29.2774048], [-89.9618835, 29.2680187], [-89.9676208, 29.2587357], [-89.9735413, 29.2495518], [-89.9796219, 29.2404785], [-89.9858704, 29.231514], [-89.9923019, 29.2226524], [-89.9988937, 29.2139072], [-90.0056458, 29.2052822], [-90.0125656, 29.1967735], [-90.0196457, 29.1883812], [-90.0268784, 29.1801147], [-90.0342636, 29.1719704], [-90.0417938, 29.1639538], [-90.0494766, 29.1560631], [-90.0573044, 29.1483059], [-90.0652695, 29.140686], [-90.0733719, 29.1331921], [-90.0816193, 29.1258411], [-90.0899963, 29.1186256], [-90.0985718, 29.1116257], [-90.1074448, 29.1049194], [-90.1166, 29.0985107], [-90.1260071, 29.0924072], [-90.1356812, 29.0866165], [-90.1455994, 29.0811424], [-90.1557693, 29.0759926], [-90.1661606, 29.0711708], [-90.1767731, 29.0666885], [-90.1875076, 29.0624695], [-90.1982803, 29.058445], [-90.2090912, 29.0546131], [-90.2199173, 29.0509739], [-90.2307816, 29.0475292], [-90.2416687, 29.0442734], [-90.2525711, 29.0412197], [-90.2634811, 29.0383511], [-90.2743988, 29.0356712], [-90.2853241, 29.0331898], [-90.296257, 29.0308971], [-90.3071747, 29.0287876], [-90.3181, 29.0268726], [-90.3290024, 29.0251465], [-90.3398743, 29.0236034], [-90.3507385, 29.0222473], [-90.3615646, 29.0210743], [-90.3723755, 29.0200882], [-90.3831482, 29.0192833], [-90.3938828, 29.0186558], [-90.4045715, 29.0182114], [-90.4152222, 29.0179443], [-90.425827, 29.0178566], [-90.4363708, 29.0179367], [-90.4468613, 29.0181961], [-90.457283, 29.0186253], [-90.4676437, 29.0192223], [-90.4779434, 29.0199928], [-90.4881821, 29.0209255], [-90.4983368, 29.0220242], [-90.5084076, 29.0232811], [-90.5184021, 29.0247021], [-90.5283203, 29.0262852], [-90.5381317, 29.028019], [-90.5478745, 29.0299072], [-90.5575104, 29.0319481], [-90.5670471, 29.0341396], [-90.5764923, 29.036478], [-90.5858307, 29.0389614], [-90.5950623, 29.0415821], [-90.604187, 29.0443497], [-90.6131973, 29.0472507], [-90.6221008, 29.0502853], [-90.6308823, 29.0534573], [-90.6395493, 29.0567551], [-90.6480865, 29.0601807], [-90.6565094, 29.0637245], [-90.6647873, 29.0673962], [-90.6729507, 29.0711899], [-90.6809769, 29.0750942], [-90.6888809, 29.0791111], [-90.6966476, 29.0832424], [-90.7042694, 29.0874767], [-90.7117615, 29.0918179], [-90.719101, 29.0962601], [-90.7263031, 29.1007957], [-90.7333679, 29.1054344], [-90.7402802, 29.1101608], [-90.7470474, 29.1149807], [-90.7536621, 29.1198864], [-90.7601242, 29.1248741], [-90.7664413, 29.12994], [-90.7726059, 29.135088], [-90.7786026, 29.1403065], [-90.7844543, 29.1455956], [-90.7901535, 29.1509533], [-90.7956848, 29.1563759], [-90.8010712, 29.1618576], [-90.8062973, 29.1673985], [-90.8113632, 29.1729965], [-90.8162613, 29.1786423], [-90.8210068, 29.1843433], [-90.8255844, 29.1900864], [-90.8299942, 29.195879], [-90.834259, 29.201704], [-90.838356, 29.2075672], [-90.8422852, 29.2134609], [-90.8460541, 29.2193871], [-90.8496704, 29.2253342], [-90.8531113, 29.2313137], [-90.8563995, 29.2373085], [-90.8596878, 29.2431774], [-90.8631592, 29.2487793], [-90.8668213, 29.2541199], [-90.870697, 29.2592087], [-90.8747864, 29.2640591], [-90.8790894, 29.2686729], [-90.8836365, 29.2730618], [-90.8884354, 29.2772293], [-90.8935013, 29.2811852], [-90.8986511, 29.2850876], [-90.9037323, 29.2890759], [-90.9087524, 29.2931614], [-90.9137039, 29.2973289], [-90.9185791, 29.3015881], [-90.9233856, 29.3059292], [-90.9281006, 29.3103638], [-90.9327545, 29.3148766], [-90.9373169, 29.3194752], [-90.941803, 29.3241539], [-90.9461975, 29.3289185], [-90.9505005, 29.3337574], [-90.9547272, 29.3386765], [-90.9588623, 29.3436756], [-90.9629059, 29.3487511], [-90.9668503, 29.353899], [-90.9707031, 29.3591232], [-90.9744568, 29.3644199], [-90.9781113, 29.3697891], [-90.9816589, 29.3752232], [-90.9851074, 29.3807278], [-90.9884415, 29.386301], [-90.991684, 29.3919411], [-90.9948044, 29.3976364], [-90.9978333, 29.4034023], [-91.0007629, 29.4092274], [-91.0035477, 29.4151096], [-91.0062408, 29.4210472], [-91.008812, 29.427042], [-91.011261, 29.4330921], [-91.0135956, 29.4391918], [-91.0158157, 29.445343], [-91.0179138, 29.4515457], [-91.0198822, 29.4577942], [-91.0217438, 29.4640884], [-91.023468, 29.4704208], [-91.0250626, 29.4767971], [-91.026535, 29.4832153], [-91.0278854, 29.4896679], [-91.0290909, 29.4961586], [-91.0301819, 29.5026817], [-91.0311279, 29.5092373], [-91.0319595, 29.5158215], [-91.0326538, 29.5224342], [-91.0332108, 29.5290699], [-91.033638, 29.5357285], [-91.0339203, 29.5424156], [-91.0340652, 29.5491161], [-91.0340805, 29.5558338], [-91.0339584, 29.5625687], [-91.0336914, 29.569315], [-91.0332947, 29.5760727], [-91.032753, 29.5828419], [-91.032074, 29.589613], [-91.0312424, 29.5963879], [-91.0302963, 29.6031704], [-91.0291824, 29.609951], [-91.0279388, 29.6167259], [-91.0265579, 29.6234951], [-91.0250244, 29.6302624], [-91.0233536, 29.6370201], [-91.0215454, 29.6437645], [-91.0195847, 29.6504917], [-91.0174942, 29.6572094], [-91.0152359, 29.6639061], [-91.0128555, 29.6705856], [-91.0103378, 29.6772423], [-91.0076752, 29.6838684], [-91.0048676, 29.6904697], [-91.0019226, 29.6970425], [-90.9988251, 29.7035828], [-90.9955978, 29.7100906], [-90.9922256, 29.7165604], [-90.9887085, 29.7229919], [-90.9850616, 29.7293835], [-90.9812698, 29.7357311], [-90.9773483, 29.7420349], [-90.9732742, 29.748291], [-90.9690781, 29.7544937], [-90.9647369, 29.7606468], [-90.9602661, 29.7667446], [-90.9557343, 29.7728577], [-90.9512329, 29.7790661], [-90.9467545, 29.7853661], [-90.9422989, 29.7917576], [-90.9378586, 29.7982483], [-90.9334183, 29.8048439], [-90.9289856, 29.8115406], [-90.9245377, 29.8183422], [-90.9200974, 29.8252525], [-90.9155502, 29.8321972], [-90.91082, 29.8391018], [-90.9059143, 29.8459644], [-90.9008179, 29.8527832], [-90.8955383, 29.8595505], [-90.8900833, 29.8662643], [-90.8844299, 29.8729172], [-90.8786163, 29.8795128], [-90.8726196, 29.8860474], [-90.8664322, 29.8925133], [-90.8600769, 29.8989048], [-90.8535461, 29.9052258], [-90.8468323, 29.9114723], [-90.8399429, 29.9176331], [-90.8328781, 29.9237137], [-90.8256531, 29.9297009], [-90.8182526, 29.9356003], [-90.8106766, 29.9414101], [-90.8029404, 29.9471207], [-90.7950211, 29.9527245], [-90.7869492, 29.9582253], [-90.778717, 29.9636192], [-90.7703094, 29.9689064], [-90.7617493, 29.9740772], [-90.7530365, 29.979126], [-90.7441711, 29.9840622], [-90.7351532, 29.9888706], [-90.7259827, 29.9935513], [-90.7166519, 29.9981041], [-90.7071838, 30.0025196], [-90.6975784, 30.0068054], [-90.6878204, 30.0109482], [-90.6779327, 30.0149498], [-90.6679001, 30.0188065], [-90.6577377, 30.0225143], [-90.6474533, 30.0260754], [-90.6370392, 30.02948], [-90.626503, 30.0327282], [-90.6158447, 30.0358181], [-90.6050644, 30.0387478], [-90.5941696, 30.0415115]]]}}]}