{"type": "FeatureCollection", "features": [{"type": "Feature", "properties": {"shapefile": "al092021-007_5day_pgn", "STORMNAME": "Ida", "STORMTYPE": "HU", "ADVDATE": "1100 PM EDT Fri Aug 27 2021", "ADVISNUM": "7", "STORMNUM": 9, "FCSTPRD": 120, "BASIN": "AL"}, "geometry": {"type": "Polygon", "coordinates": [[[-84.0307, 22.73248], [-84.00685, 22.73078], [-83.98215, 22.73248], [-83.95676, 22.73718], [-83.9312, 22.74428], [-83.90607, 22.75353], [-83.88167, 22.76433], [-83.85796, 22.77613], [-83.83539, 22.78907], [-83.80402, 22.81097], [-83.78528, 22.82775], [-83.76172, 22.85746], [-83.74866, 22.87993], [-83.73802, 22.90481], [-83.72993, 22.93197], [-83.72438, 22.96083], [-83.72169, 22.99084], [-83.72211, 23.02112], [-83.72581, 23.05041], [-83.73276, 23.07785], [-83.74284, 23.10302], [-83.75562, 23.12577], [-83.77052, 23.14639], [-83.78685, 23.16558], [-83.81253, 23.19316], [-83.82956, 23.21165], [-83.84631, 23.23042], [-83.85426, 23.24023], [-83.86987, 23.26014], [-83.89259, 23.2907], [-83.90011, 23.30094], [-83.92297, 23.33137], [-83.93092, 23.34118], [-83.94724, 23.36037], [-83.96413, 23.379], [-83.99025, 23.40616], [-84.00784, 23.42408], [-84.02573, 23.44171], [-84.03453, 23.45066], [-84.06122, 23.47725], [-84.07002, 23.48621], [-84.08777, 23.50398], [-84.1055, 23.52176], [-84.13219, 23.54835], [-84.14979, 23.56626], [-84.15873, 23.57508], [-84.18527, 23.60181], [-84.20316, 23.61944], [-84.22076, 23.63735], [-84.23865, 23.65498], [-84.25626, 23.6729], [-84.2652, 23.68172], [-84.28293, 23.69949], [-84.30054, 23.71741], [-84.31786, 23.7356], [-84.33475, 23.75423], [-84.35106, 23.77343], [-84.37434, 23.80343], [-84.38187, 23.81367], [-84.39691, 23.83414], [-84.41977, 23.86457], [-84.42772, 23.87438], [-84.45242, 23.90296], [-84.46094, 23.9122], [-84.47825, 23.9304], [-84.50465, 23.95727], [-84.52254, 23.97491], [-84.54013, 23.99282], [-84.54907, 24.00164], [-84.56682, 24.01941], [-84.59351, 24.046], [-84.61111, 24.06391], [-84.62006, 24.07273], [-84.64659, 24.09946], [-84.66448, 24.11709], [-84.68208, 24.13501], [-84.69997, 24.15264], [-84.71756, 24.17055], [-84.73544, 24.18818], [-84.75305, 24.2061], [-84.76199, 24.21491], [-84.78854, 24.24165], [-84.80643, 24.25928], [-84.82402, 24.27719], [-84.84191, 24.29482], [-84.85071, 24.30378], [-84.8774, 24.33037], [-84.89499, 24.34828], [-84.91287, 24.36592], [-84.93048, 24.38383], [-84.94836, 24.40146], [-84.96597, 24.41938], [-84.98386, 24.43701], [-85.00145, 24.45492], [-85.01934, 24.47256], [-85.03693, 24.49047], [-85.05482, 24.5081], [-85.07242, 24.52602], [-85.0903, 24.54365], [-85.10791, 24.56156], [-85.12579, 24.57919], [-85.1434, 24.59711], [-85.16129, 24.61474], [-85.17888, 24.63266], [-85.19677, 24.65029], [-85.21436, 24.6682], [-85.2233, 24.67702], [-85.24985, 24.70375], [-85.26773, 24.72138], [-85.28534, 24.7393], [-85.30322, 24.75693], [-85.32083, 24.77484], [-85.33871, 24.79247], [-85.35631, 24.81039], [-85.3742, 24.82802], [-85.39178, 24.84593], [-85.40968, 24.86357], [-85.42728, 24.88148], [-85.44516, 24.89911], [-85.46277, 24.91703], [-85.47171, 24.92584], [-85.49826, 24.95257], [-85.51614, 24.97021], [-85.53374, 24.98812], [-85.54269, 24.99694], [-85.56921, 25.02367], [-85.58711, 25.0413], [-85.59591, 25.05025], [-85.62259, 25.07684], [-85.6402, 25.09476], [-85.65808, 25.11239], [-85.66689, 25.12135], [-85.69357, 25.14794], [-85.71117, 25.16585], [-85.72906, 25.18348], [-85.74664, 25.2014], [-85.76454, 25.21903], [-85.78214, 25.23695], [-85.80002, 25.25458], [-85.81763, 25.27249], [-85.82657, 25.28131], [-85.85312, 25.30804], [-85.871, 25.32567], [-85.8886, 25.34359], [-85.90649, 25.36122], [-85.92407, 25.37913], [-85.94197, 25.39676], [-85.95985, 25.41439], [-85.9783, 25.43146], [-85.99704, 25.44823], [-86.01663, 25.46416], [-86.03679, 25.47952], [-86.05722, 25.49459], [-86.07767, 25.50966], [-86.09782, 25.52501], [-86.11741, 25.54094], [-86.13614, 25.55772], [-86.1546, 25.57478], [-86.17249, 25.59241], [-86.19037, 25.61004], [-86.20798, 25.62796], [-86.22586, 25.64559], [-86.24345, 25.6635], [-86.26134, 25.68113], [-86.27893, 25.69905], [-86.29683, 25.71668], [-86.31442, 25.7346], [-86.32336, 25.74341], [-86.34991, 25.77014], [-86.35886, 25.77896], [-86.3766, 25.79673], [-86.40329, 25.82332], [-86.42088, 25.84124], [-86.43877, 25.85887], [-86.45636, 25.87678], [-86.47426, 25.89442], [-86.49185, 25.91233], [-86.50974, 25.92996], [-86.52734, 25.94788], [-86.54523, 25.96551], [-86.56284, 25.98342], [-86.58072, 26.00105], [-86.59859, 26.01868], [-86.61705, 26.03574], [-86.63578, 26.05252], [-86.65537, 26.06845], [-86.67554, 26.08381], [-86.69597, 26.09888], [-86.71641, 26.11395], [-86.73657, 26.12931], [-86.75615, 26.14523], [-86.77489, 26.16201], [-86.79333, 26.17907], [-86.80228, 26.18789], [-86.8291, 26.21433], [-86.84671, 26.23225], [-86.86459, 26.24988], [-86.8822, 26.2678], [-86.90009, 26.28542], [-86.91769, 26.30334], [-86.93558, 26.32097], [-86.95317, 26.33889], [-86.97105, 26.35652], [-86.98865, 26.37443], [-87.00653, 26.39207], [-87.02414, 26.40998], [-87.04202, 26.42761], [-87.05963, 26.44553], [-87.07751, 26.46316], [-87.09512, 26.48107], [-87.11301, 26.4987], [-87.1306, 26.51662], [-87.14848, 26.53425], [-87.16608, 26.55217], [-87.18396, 26.5698], [-87.20157, 26.58771], [-87.21051, 26.59653], [-87.23706, 26.62326], [-87.25466, 26.64117], [-87.26318, 26.65042], [-87.28844, 26.67843], [-87.30434, 26.69805], [-87.31967, 26.71824], [-87.33472, 26.73871], [-87.34976, 26.75919], [-87.35742, 26.76928], [-87.38098, 26.799], [-87.39774, 26.81777], [-87.41476, 26.83625], [-87.43237, 26.85417], [-87.44998, 26.87208], [-87.46786, 26.88972], [-87.48546, 26.90763], [-87.50334, 26.92526], [-87.52094, 26.94318], [-87.53882, 26.96081], [-87.55643, 26.97872], [-87.57431, 26.99635], [-87.59192, 27.01427], [-87.6098, 27.0319], [-87.6274, 27.04982], [-87.64528, 27.06745], [-87.66289, 27.08536], [-87.68077, 27.10299], [-87.69836, 27.12091], [-87.71625, 27.13854], [-87.72505, 27.1475], [-87.75174, 27.17409], [-87.76935, 27.192], [-87.78723, 27.20963], [-87.80483, 27.22755], [-87.82243, 27.24546], [-87.83946, 27.26395], [-87.8562, 27.28272], [-87.8721, 27.30234], [-87.87978, 27.31244], [-87.90248, 27.34301], [-87.91754, 27.36348], [-87.93286, 27.38367], [-87.94876, 27.40329], [-87.96552, 27.42206], [-87.98254, 27.44054], [-88.00014, 27.45846], [-88.00894, 27.46741], [-88.03563, 27.49401], [-88.05322, 27.51192], [-88.07111, 27.52955], [-88.08871, 27.54747], [-88.1066, 27.5651], [-88.12421, 27.58301], [-88.14209, 27.60064], [-88.15089, 27.6096], [-88.16849, 27.62752], [-88.19432, 27.65496], [-88.21106, 27.67373], [-88.21901, 27.68354], [-88.24229, 27.71354], [-88.24982, 27.72378], [-88.26487, 27.74425], [-88.28006, 27.76458], [-88.29567, 27.78449], [-88.32037, 27.81307], [-88.32889, 27.82231], [-88.3462, 27.84052], [-88.3638, 27.85843], [-88.38155, 27.8762], [-88.40808, 27.90293], [-88.41689, 27.91189], [-88.4342, 27.93009], [-88.45947, 27.9581], [-88.47537, 27.97772], [-88.48303, 27.98782], [-88.50574, 28.01839], [-88.51326, 28.02862], [-88.53612, 28.05906], [-88.54407, 28.06886], [-88.56848, 28.09773], [-88.57671, 28.10725], [-88.59319, 28.12631], [-88.60936, 28.14565], [-88.62498, 28.16555], [-88.64769, 28.19612], [-88.66273, 28.21659], [-88.67039, 28.22669], [-88.686, 28.2466], [-88.70219, 28.26593], [-88.71866, 28.28499], [-88.73512, 28.30404], [-88.7513, 28.32338], [-88.77458, 28.35338], [-88.78963, 28.37385], [-88.80469, 28.39433], [-88.82001, 28.41452], [-88.82796, 28.42433], [-88.84414, 28.44367], [-88.86884, 28.47224], [-88.87706, 28.48177], [-88.89325, 28.50111], [-88.91652, 28.53111], [-88.92405, 28.54135], [-88.9391, 28.56182], [-88.96167, 28.59253], [-88.96933, 28.60263], [-88.99261, 28.63263], [-89.00027, 28.64273], [-89.01546, 28.66306], [-89.0305, 28.68353], [-89.05307, 28.71424], [-89.06059, 28.72448], [-89.07578, 28.74481], [-89.09126, 28.76486], [-89.1144, 28.79501], [-89.12944, 28.81548], [-89.13696, 28.82572], [-89.15202, 28.84619], [-89.16706, 28.86667], [-89.18225, 28.887], [-89.20553, 28.917], [-89.21319, 28.9271], [-89.2359, 28.95767], [-89.24327, 28.96805], [-89.26514, 28.99947], [-89.27223, 29.01014], [-89.29353, 29.04213], [-89.30062, 29.05279], [-89.31482, 29.07412], [-89.33612, 29.10611], [-89.35031, 29.12743], [-89.36422, 29.14905], [-89.37103, 29.16], [-89.38451, 29.18204], [-89.40396, 29.21587], [-89.41616, 29.2392], [-89.42227, 29.25085], [-89.44029, 29.28612], [-89.44598, 29.2982], [-89.45734, 29.32237], [-89.46855, 29.34669], [-89.47919, 29.37157], [-89.48913, 29.39716], [-89.49864, 29.42318], [-89.50745, 29.44991], [-89.51511, 29.47779], [-89.52163, 29.50679], [-89.52689, 29.53708], [-89.53058, 29.56893], [-89.53284, 29.6022], [-89.53398, 29.63632], [-89.53398, 29.67073], [-89.53285, 29.70486], [-89.53058, 29.73813], [-89.52702, 29.77012], [-89.52234, 29.80097], [-89.51694, 29.83112], [-89.51112, 29.86083], [-89.50517, 29.89041], [-89.49934, 29.92012], [-89.49353, 29.94984], [-89.48743, 29.97927], [-89.48103, 30.00842], [-89.47437, 30.03729], [-89.46741, 30.06586], [-89.46031, 30.0943], [-89.45676, 30.10852], [-89.44612, 30.15118], [-89.43903, 30.17961], [-89.43548, 30.19383], [-89.42469, 30.23635], [-89.41716, 30.26436], [-89.40936, 30.29208], [-89.40126, 30.31952], [-89.3929, 30.34668], [-89.38452, 30.37384], [-89.3804, 30.38749], [-89.36862, 30.429], [-89.3611, 30.45702], [-89.35741, 30.47109], [-89.34676, 30.51375], [-89.33966, 30.54218], [-89.33257, 30.57062], [-89.32547, 30.59906], [-89.31824, 30.62736], [-89.31454, 30.64143], [-89.3029, 30.68309], [-89.29481, 30.71053], [-89.28643, 30.73769], [-89.27806, 30.76485], [-89.26997, 30.79229], [-89.26599, 30.80608], [-89.25833, 30.83395], [-89.24669, 30.87561], [-89.23846, 30.90291], [-89.2342, 30.91642], [-89.21958, 30.95509], [-89.20865, 30.97969], [-89.19701, 31.00358], [-89.18465, 31.02676], [-89.1716, 31.04922], [-89.15812, 31.07126], [-89.15131, 31.08221], [-89.13016, 31.11434], [-89.12291, 31.12486], [-89.10786, 31.14534], [-89.09197, 31.16496], [-89.07494, 31.18344], [-89.05649, 31.20051], [-89.03718, 31.21672], [-89.0173, 31.23236], [-88.99744, 31.248], [-88.97784, 31.26392], [-88.95882, 31.28041], [-88.9398, 31.29691], [-88.92079, 31.3134], [-88.9012, 31.32933], [-88.88104, 31.34468], [-88.8606, 31.35976], [-88.84016, 31.37483], [-88.82001, 31.39018], [-88.80042, 31.40611], [-88.78139, 31.4226], [-88.76237, 31.43909], [-88.74336, 31.45559], [-88.72377, 31.47152], [-88.70361, 31.48687], [-88.68317, 31.50194], [-88.66273, 31.51701], [-88.64229, 31.53209], [-88.62213, 31.54744], [-88.60226, 31.56308], [-88.58211, 31.57844], [-88.56168, 31.59351], [-88.54123, 31.60858], [-88.5208, 31.62365], [-88.50063, 31.63901], [-88.48105, 31.65493], [-88.46202, 31.67143], [-88.443, 31.68792], [-88.42398, 31.70441], [-88.4044, 31.72034], [-88.38425, 31.73569], [-88.3638, 31.75077], [-88.34337, 31.76584], [-88.32292, 31.78091], [-88.30276, 31.79626], [-88.2829, 31.81191], [-88.26274, 31.82726], [-88.25252, 31.8348], [-88.22186, 31.85741], [-88.20142, 31.87248], [-88.18098, 31.88755], [-88.16083, 31.9029], [-88.14096, 31.91854], [-88.12079, 31.9339], [-88.10035, 31.94897], [-88.07991, 31.96404], [-88.05948, 31.97912], [-88.03903, 31.99419], [-88.01888, 32.00954], [-87.99901, 32.02518], [-87.97885, 32.04054], [-87.9584, 32.05561], [-87.93768, 32.0704], [-87.91669, 32.08491], [-87.89539, 32.09912], [-87.8741, 32.11334], [-87.85281, 32.12756], [-87.83179, 32.14206], [-87.81108, 32.15685], [-87.79063, 32.17192], [-87.77048, 32.18728], [-87.75061, 32.20292], [-87.73045, 32.21827], [-87.71001, 32.23335], [-87.68929, 32.24813], [-87.66827, 32.26263], [-87.64699, 32.27686], [-87.62541, 32.29079], [-87.60355, 32.30444], [-87.59248, 32.31112], [-87.57019, 32.32434], [-87.54763, 32.33728], [-87.52506, 32.35022], [-87.4917, 32.37013], [-87.46985, 32.38378], [-87.44798, 32.39743], [-87.42612, 32.41108], [-87.40398, 32.42445], [-87.39276, 32.43098], [-87.35884, 32.45032], [-87.33642, 32.4634], [-87.31427, 32.47677], [-87.29242, 32.49042], [-87.28148, 32.49724], [-87.24869, 32.51772], [-87.23763, 32.5244], [-87.20384, 32.54388], [-87.1922, 32.54999], [-87.15729, 32.56834], [-87.14551, 32.57431], [-87.1218, 32.58611], [-87.08631, 32.60388], [-87.07452, 32.60986], [-87.03862, 32.6272], [-87.02655, 32.63289], [-86.99007, 32.64967], [-86.97744, 32.65479], [-86.93897, 32.66957], [-86.92606, 32.67441], [-86.88675, 32.68834], [-86.87341, 32.69275], [-86.84671, 32.70156], [-86.82017, 32.71052], [-86.78027, 32.72389], [-86.76694, 32.72829], [-86.72691, 32.74152], [-86.71371, 32.74607], [-86.68717, 32.75502], [-86.66048, 32.76384], [-86.62045, 32.77707], [-86.60711, 32.78148], [-86.58014, 32.79], [-86.55275, 32.79811], [-86.52507, 32.80593], [-86.4971, 32.81347], [-86.46886, 32.82072], [-86.44048, 32.82783], [-86.41208, 32.83493], [-86.3837, 32.84204], [-86.34111, 32.85271], [-86.32692, 32.85626], [-86.29852, 32.86337], [-86.27014, 32.87048], [-86.24175, 32.87759], [-86.21336, 32.8847], [-86.18498, 32.89181], [-86.15659, 32.89892], [-86.1282, 32.90603], [-86.09981, 32.91314], [-86.07142, 32.92025], [-86.04303, 32.92735], [-86.01464, 32.93446], [-85.98625, 32.94157], [-85.95787, 32.94868], [-85.92947, 32.9558], [-85.90109, 32.9629], [-85.87256, 32.96987], [-85.84373, 32.97655], [-85.81464, 32.98295], [-85.78526, 32.98906], [-85.7556, 32.99489], [-85.72593, 33.00072], [-85.69641, 33.0067], [-85.66687, 33.01266], [-85.63736, 33.01864], [-85.60783, 33.02461], [-85.57817, 33.03044], [-85.53374, 33.03925], [-85.51898, 33.04224], [-85.47469, 33.0512], [-85.45993, 33.05418], [-85.4304, 33.06016], [-85.40074, 33.06599], [-85.37107, 33.07182], [-85.34155, 33.07779], [-85.31201, 33.08376], [-85.2825, 33.08973], [-85.25298, 33.0957], [-85.22331, 33.10153], [-85.19363, 33.10736], [-85.16412, 33.11333], [-85.13458, 33.11931], [-85.09031, 33.12827], [-85.07555, 33.13125], [-85.04588, 33.13708], [-85.0162, 33.14291], [-84.98669, 33.14888], [-84.95715, 33.15485], [-84.92764, 33.16083], [-84.89812, 33.16679], [-84.86845, 33.17263], [-84.82402, 33.18144], [-84.80927, 33.18443], [-84.77972, 33.1904], [-84.75021, 33.19637], [-84.72069, 33.20235], [-84.69102, 33.20817], [-84.66135, 33.214], [-84.63184, 33.21997], [-84.60229, 33.22594], [-84.57278, 33.23192], [-84.54326, 33.23788], [-84.5136, 33.24372], [-84.48392, 33.24955], [-84.45441, 33.25552], [-84.42487, 33.26149], [-84.39536, 33.26746], [-84.36583, 33.27344], [-84.33617, 33.27926], [-84.30649, 33.2851], [-84.27698, 33.29107], [-84.2473, 33.2969], [-84.21735, 33.30244], [-84.18712, 33.30771], [-84.15646, 33.31254], [-84.12552, 33.31709], [-84.09486, 33.32192], [-84.06462, 33.32719], [-84.03468, 33.33273], [-84.00501, 33.33856], [-83.97548, 33.34453], [-83.94582, 33.35036], [-83.90139, 33.35918], [-83.88663, 33.36216], [-83.8571, 33.36813], [-83.82758, 33.3741], [-83.79805, 33.38008], [-83.76839, 33.38591], [-83.73872, 33.39174], [-83.70934, 33.39785], [-83.68024, 33.40425], [-83.65143, 33.41093], [-83.62289, 33.4179], [-83.59451, 33.425], [-83.56598, 33.43198], [-83.53716, 33.43866], [-83.50806, 33.44505], [-83.47868, 33.45117], [-83.44902, 33.45699], [-83.41934, 33.46283], [-83.38983, 33.4688], [-83.36029, 33.47477], [-83.33078, 33.48074], [-83.30125, 33.48671], [-83.27159, 33.49254], [-83.24192, 33.49837], [-83.2124, 33.50435], [-83.18288, 33.51031], [-83.15335, 33.51629], [-83.12383, 33.52226], [-83.09416, 33.52809], [-83.0794, 33.53107], [-83.03511, 33.54003], [-83.00601, 33.54643], [-82.9772, 33.55312], [-82.94867, 33.56009], [-82.92028, 33.5672], [-82.89189, 33.5743], [-82.86351, 33.58141], [-82.83511, 33.58852], [-82.80673, 33.59563], [-82.77834, 33.60274], [-82.74995, 33.60985], [-82.72156, 33.61696], [-82.69317, 33.62407], [-82.66478, 33.63118], [-82.63654, 33.63843], [-82.60857, 33.64597], [-82.58089, 33.65378], [-82.5535, 33.66189], [-82.52639, 33.67027], [-82.49928, 33.67867], [-82.47188, 33.68677], [-82.4442, 33.69459], [-82.41638, 33.70227], [-82.3887, 33.71009], [-82.36145, 33.71833], [-82.33476, 33.72715], [-82.30879, 33.73668], [-82.27075, 33.75189], [-82.25797, 33.75687], [-82.23228, 33.76668], [-82.19353, 33.78118], [-82.18033, 33.78573], [-82.15379, 33.79469], [-82.11404, 33.8082], [-82.10112, 33.81303], [-82.06237, 33.82754], [-82.04974, 33.83266], [-82.0127, 33.84887], [-81.98856, 33.86024], [-81.97649, 33.86592], [-81.95265, 33.87759], [-81.92908, 33.88953], [-81.90538, 33.90133], [-81.88168, 33.91313], [-81.84634, 33.93105], [-81.83441, 33.93687], [-81.81071, 33.94868], [-81.78714, 33.96062], [-81.76344, 33.97242], [-81.72796, 33.9902], [-81.71617, 33.99617], [-81.69247, 34.00797], [-81.66876, 34.01977], [-81.63342, 34.03769], [-81.60957, 34.04934], [-81.58601, 34.06129], [-81.57437, 34.0674], [-81.53946, 34.08575], [-81.5281, 34.09214], [-81.4946, 34.11191], [-81.47273, 34.12556], [-81.45088, 34.13921], [-81.42902, 34.15285], [-81.40688, 34.16622], [-81.38445, 34.1793], [-81.3731, 34.1857], [-81.35052, 34.19864], [-81.32825, 34.21186], [-81.2953, 34.23219], [-81.27374, 34.24613], [-81.25244, 34.26035], [-81.23144, 34.27485], [-81.21071, 34.28964], [-81.19026, 34.30471], [-81.17011, 34.32006], [-81.15024, 34.3357], [-81.13009, 34.35106], [-81.10965, 34.36613], [-81.08921, 34.38121], [-81.06877, 34.39628], [-81.04861, 34.41164], [-81.02902, 34.42756], [-81.01001, 34.44405], [-80.99098, 34.46054], [-80.97197, 34.47704], [-80.95238, 34.49296], [-80.93222, 34.50832], [-80.91178, 34.52339], [-80.89134, 34.53847], [-80.87119, 34.55383], [-80.85159, 34.56975], [-80.83286, 34.58652], [-80.81441, 34.60359], [-80.79652, 34.62122], [-80.77863, 34.63885], [-80.76104, 34.65676], [-80.74315, 34.67439], [-80.72556, 34.69231], [-80.70767, 34.70994], [-80.69006, 34.72786], [-80.67218, 34.74549], [-80.65457, 34.7634], [-80.6367, 34.78104], [-80.61909, 34.79895], [-80.60121, 34.81658], [-80.58362, 34.8345], [-80.56601, 34.85241], [-80.54898, 34.8709], [-80.53223, 34.88966], [-80.51633, 34.90929], [-80.501, 34.92947], [-80.48595, 34.94995], [-80.4709, 34.97043], [-80.44762, 35.00043], [-80.43968, 35.01024], [-80.42322, 35.02929], [-80.40675, 35.04835], [-80.39029, 35.0674], [-80.37439, 35.08702], [-80.35905, 35.10721], [-80.33705, 35.13849], [-80.32272, 35.15968], [-80.31561, 35.17034], [-80.30142, 35.19167], [-80.28014, 35.22366], [-80.26595, 35.24499], [-80.25884, 35.25565], [-80.23755, 35.28764], [-80.22336, 35.30897], [-80.21626, 35.31963], [-80.20207, 35.34096], [-80.18077, 35.37296], [-80.16672, 35.39442], [-80.15295, 35.41618], [-80.13947, 35.43822], [-80.1264, 35.46068], [-80.11392, 35.48372], [-80.10171, 35.50703], [-80.0956, 35.5187], [-80.07787, 35.55424], [-80.07204, 35.56618], [-80.05416, 35.60159], [-80.04237, 35.62533], [-80.0306, 35.64908], [-80.01868, 35.67268], [-80.00703, 35.69657], [-79.99568, 35.72074], [-79.99001, 35.73283], [-79.97382, 35.76994], [-79.96374, 35.79539], [-79.95366, 35.82084], [-79.94359, 35.84629], [-79.93365, 35.87188], [-79.92343, 35.89719], [-79.91293, 35.92222], [-79.90271, 35.94753], [-79.89291, 35.97326], [-79.88341, 35.99928], [-79.87447, 36.02587], [-79.86624, 36.05317], [-79.85843, 36.08089], [-79.85091, 36.1089], [-79.84366, 36.1372], [-79.83656, 36.16564], [-79.82947, 36.19408], [-79.82237, 36.22251], [-79.81528, 36.25095], [-79.80818, 36.27939], [-79.80122, 36.30797], [-79.79469, 36.33698], [-79.78886, 36.36669], [-79.78391, 36.39726], [-79.77979, 36.42868], [-79.77624, 36.46068], [-79.77269, 36.49267], [-79.76858, 36.52409], [-79.76375, 36.5548], [-79.76119, 36.57001], [-79.75325, 36.61537], [-79.74856, 36.64623], [-79.74501, 36.67822], [-79.74274, 36.71149], [-79.74146, 36.74576], [-79.74089, 36.78073], [-79.74075, 36.81614], [-79.74075, 36.85168], [-79.74075, 36.88723], [-79.74075, 36.92278], [-79.74089, 36.95818], [-79.74146, 36.99316], [-79.74274, 37.02743], [-79.74416, 37.04378], [-79.74856, 37.09269], [-79.75324, 37.12355], [-79.75849, 37.15383], [-79.76375, 37.18412], [-79.76857, 37.21483], [-79.77269, 37.24625], [-79.77623, 37.27824], [-79.77979, 37.31023], [-79.78391, 37.34166], [-79.78887, 37.37223], [-79.79469, 37.40195], [-79.80122, 37.43095], [-79.80817, 37.45953], [-79.81541, 37.48782], [-79.82294, 37.51584], [-79.83074, 37.54356], [-79.83884, 37.57101], [-79.84735, 37.59802], [-79.85175, 37.61139], [-79.86496, 37.65148], [-79.87375, 37.67822], [-79.8827, 37.7048], [-79.89163, 37.73139], [-79.90044, 37.75813], [-79.90938, 37.78471], [-79.91875, 37.81087], [-79.92839, 37.83675], [-79.93819, 37.86249], [-79.94841, 37.88779], [-79.95892, 37.91282], [-79.96915, 37.93813], [-79.97907, 37.96372], [-79.98915, 37.98917], [-79.99923, 38.01463], [-80.00931, 38.04008], [-80.01996, 38.06496], [-80.03131, 38.08913], [-80.04309, 38.11288], [-80.05544, 38.13605], [-80.0685, 38.15852], [-80.08879, 38.19151], [-80.09561, 38.20245], [-80.10242, 38.2134], [-80.12272, 38.24639], [-80.13593, 38.26871], [-80.14883, 38.29132], [-80.16176, 38.31393], [-80.18163, 38.34734], [-80.18844, 38.35829], [-80.20221, 38.38004], [-80.21626, 38.40151], [-80.2306, 38.4227], [-80.24522, 38.4436], [-80.26012, 38.46422], [-80.27531, 38.48455], [-80.29077, 38.5046], [-80.30624, 38.52465], [-80.32144, 38.54498], [-80.33649, 38.56545], [-80.35153, 38.58593], [-80.36671, 38.60626], [-80.39029, 38.63598], [-80.39866, 38.64536], [-80.41556, 38.66399], [-80.44167, 38.69114], [-80.45046, 38.7001], [-80.46806, 38.71802], [-80.48538, 38.73622], [-80.50227, 38.75484], [-80.5186, 38.77404], [-80.53421, 38.79395], [-80.5494, 38.81428], [-80.56459, 38.83461], [-80.58021, 38.85452], [-80.59666, 38.87357], [-80.61441, 38.89134], [-80.64322, 38.9158], [-80.66338, 38.93116], [-80.68382, 38.94623], [-80.70398, 38.96158], [-80.72357, 38.97751], [-80.73294, 38.98589], [-80.75153, 39.00282], [-80.7697, 39.02016], [-80.78757, 39.0378], [-80.80532, 39.05557], [-80.82306, 39.07334], [-80.8499, 39.09979], [-80.85912, 39.10832], [-80.88708, 39.13363], [-80.89688, 39.14159], [-80.92683, 39.16491], [-80.93704, 39.17245], [-80.96771, 39.19505], [-80.97794, 39.20259], [-81.0083, 39.22548], [-81.02817, 39.24112], [-81.03825, 39.24879], [-81.06877, 39.27155], [-81.07913, 39.27895], [-81.1105, 39.30084], [-81.13179, 39.31506], [-81.14244, 39.32217], [-81.16373, 39.33639], [-81.19566, 39.35772], [-81.21696, 39.37194], [-81.22761, 39.37904], [-81.24904, 39.39312], [-81.28168, 39.41373], [-81.29276, 39.42042], [-81.32626, 39.44018], [-81.34897, 39.45297], [-81.3714, 39.46606], [-81.39354, 39.47942], [-81.40446, 39.48625], [-81.42633, 39.4999], [-81.45911, 39.52037], [-81.48126, 39.53374], [-81.50397, 39.54654], [-81.52725, 39.55877], [-81.55053, 39.57099], [-81.5741, 39.58294], [-81.59793, 39.5946], [-81.62149, 39.60654], [-81.63327, 39.61251], [-81.68069, 39.63612], [-81.69247, 39.64209], [-81.70425, 39.64806], [-81.74017, 39.66541], [-81.76429, 39.67678], [-81.78871, 39.68787], [-81.80134, 39.69299], [-81.85216, 39.71318], [-81.87756, 39.72327], [-81.89034, 39.72825], [-81.91589, 39.7382], [-81.92838, 39.74346], [-81.96585, 39.75925], [-81.99139, 39.7692], [-82.01695, 39.77915], [-82.05499, 39.79437], [-82.06776, 39.79935], [-82.09332, 39.8093], [-82.11829, 39.81982], [-82.13078, 39.82508], [-82.16882, 39.84029], [-82.19466, 39.84996], [-82.22078, 39.85934], [-82.26152, 39.87186], [-82.27528, 39.87584], [-82.31717, 39.88721], [-82.34526, 39.89461], [-82.37323, 39.90215], [-82.38715, 39.90598], [-82.4283, 39.91807], [-82.44193, 39.92219], [-82.4689, 39.93072], [-82.50992, 39.94295], [-82.5376, 39.95077], [-82.55151, 39.95461], [-82.59381, 39.96556], [-82.608, 39.96911], [-82.6364, 39.97622], [-82.67897, 39.98689], [-82.69318, 39.99044], [-82.73575, 40.00111], [-82.74994, 40.00466], [-82.79324, 40.01461], [-82.82277, 40.02058], [-82.85286, 40.02599], [-82.88351, 40.03082], [-82.91446, 40.03537], [-82.94512, 40.04021], [-82.97536, 40.04547], [-83.00545, 40.05087], [-83.03554, 40.05628], [-83.05058, 40.05898], [-83.09643, 40.06637], [-83.12738, 40.07092], [-83.15804, 40.07575], [-83.18826, 40.08102], [-83.21836, 40.08642], [-83.2486, 40.09167], [-83.27939, 40.09637], [-83.31134, 40.09992], [-83.34455, 40.1022], [-83.37876, 40.10349], [-83.41367, 40.10405], [-83.44888, 40.10433], [-83.48379, 40.1049], [-83.51801, 40.10618], [-83.5349, 40.10703], [-83.58316, 40.11201], [-83.61396, 40.1167], [-83.6442, 40.12196], [-83.67443, 40.12722], [-83.70523, 40.13191], [-83.73717, 40.13547], [-83.77037, 40.13774], [-83.78727, 40.1386], [-83.83951, 40.1396], [-83.87486, 40.13974], [-83.91034, 40.13974], [-83.94568, 40.1396], [-83.9806, 40.13902], [-84.0148, 40.13775], [-84.04802, 40.13547], [-84.07996, 40.13191], [-84.11076, 40.12723], [-84.14099, 40.12196], [-84.17122, 40.11671], [-84.20203, 40.11201], [-84.23396, 40.10846], [-84.26718, 40.10618], [-84.30139, 40.1049], [-84.3363, 40.10433], [-84.37151, 40.10405], [-84.40643, 40.10348], [-84.44064, 40.1022], [-84.45695, 40.10078], [-84.50578, 40.09637], [-84.53658, 40.09168], [-84.56682, 40.08642], [-84.59705, 40.08116], [-84.62772, 40.07632], [-84.65909, 40.0722], [-84.69102, 40.06865], [-84.72296, 40.06509], [-84.75433, 40.06097], [-84.78499, 40.05613], [-84.81508, 40.05073], [-84.84475, 40.0449], [-84.87427, 40.03893], [-84.90395, 40.0331], [-84.93361, 40.02727], [-84.96298, 40.02115], [-84.99208, 40.01476], [-85.0209, 40.00807], [-85.04943, 40.0011], [-85.07782, 39.99399], [-85.10621, 39.98689], [-85.1346, 39.97977], [-85.16298, 39.97266], [-85.19138, 39.96556], [-85.21976, 39.95845], [-85.24814, 39.95134], [-85.27654, 39.94423], [-85.30492, 39.93712], [-85.33331, 39.93001], [-85.36156, 39.92276], [-85.38953, 39.91522], [-85.41721, 39.90741], [-85.4446, 39.8993], [-85.47157, 39.89077], [-85.49825, 39.88195], [-85.53828, 39.86873], [-85.55163, 39.86433], [-85.57816, 39.85537], [-85.60471, 39.84641], [-85.63139, 39.83759], [-85.67114, 39.82409], [-85.68406, 39.81925], [-85.72281, 39.80475], [-85.73558, 39.79977], [-85.77335, 39.78427], [-85.78584, 39.77901], [-85.8111, 39.76878], [-85.84943, 39.75384], [-85.86206, 39.74872], [-85.90024, 39.73365], [-85.91287, 39.72853], [-85.93771, 39.71787], [-85.97404, 39.70095], [-85.98611, 39.69526], [-86.02174, 39.67763], [-86.03352, 39.67166], [-86.05722, 39.65986], [-86.08093, 39.64806], [-86.10449, 39.63612], [-86.1282, 39.62431], [-86.16369, 39.60654], [-86.18726, 39.5946], [-86.21109, 39.58294], [-86.23465, 39.57099], [-86.24644, 39.56502], [-86.27014, 39.55322], [-86.29385, 39.54142], [-86.31727, 39.52933], [-86.35219, 39.51099], [-86.37491, 39.49819], [-86.39703, 39.48483], [-86.4189, 39.47118], [-86.42982, 39.46435], [-86.45168, 39.4507], [-86.48476, 39.43051], [-86.49597, 39.42397], [-86.5299, 39.40464], [-86.54111, 39.39809], [-86.57446, 39.37819], [-86.59633, 39.36454], [-86.61789, 39.35061], [-86.63919, 39.33639], [-86.66019, 39.32188], [-86.68092, 39.3071], [-86.70135, 39.29202], [-86.72151, 39.27667], [-86.74139, 39.26103], [-86.76155, 39.24567], [-86.78198, 39.2306], [-86.8027, 39.21581], [-86.82372, 39.20131], [-86.845, 39.18709], [-86.8663, 39.17287], [-86.88759, 39.15865], [-86.90889, 39.14443], [-86.93018, 39.13022], [-86.95146, 39.116], [-86.97275, 39.10178], [-86.99405, 39.08756], [-87.01534, 39.07334], [-87.03663, 39.05912], [-87.05792, 39.0449], [-87.07922, 39.03069], [-87.10051, 39.01646], [-87.1218, 39.00225], [-87.1431, 38.98803], [-87.16438, 38.97381], [-87.18567, 38.95959], [-87.20697, 38.94537], [-87.22826, 38.93115], [-87.24955, 38.91694], [-87.27084, 38.90272], [-87.29213, 38.8885], [-87.31342, 38.87428], [-87.33472, 38.86006], [-87.356, 38.84584], [-87.37729, 38.83162], [-87.39859, 38.81741], [-87.41988, 38.80318], [-87.44118, 38.78897], [-87.46246, 38.77475], [-87.48375, 38.76054], [-87.49454, 38.75357], [-87.52719, 38.73295], [-87.54933, 38.71958], [-87.57176, 38.7065], [-87.58311, 38.7001], [-87.61689, 38.68062], [-87.62796, 38.67394], [-87.66089, 38.65361], [-87.68246, 38.63967], [-87.70377, 38.62546], [-87.72505, 38.61124], [-87.74634, 38.59702], [-87.76764, 38.5828], [-87.78894, 38.56858], [-87.81023, 38.55436], [-87.83151, 38.54015], [-87.8528, 38.52592], [-87.87409, 38.51171], [-87.88487, 38.50474], [-87.91753, 38.48412], [-87.9286, 38.47744], [-87.95088, 38.46422], [-87.9848, 38.44489], [-87.99602, 38.43834], [-88.02939, 38.41843], [-88.05124, 38.40479], [-88.07281, 38.39085], [-88.09412, 38.37663], [-88.1154, 38.36241], [-88.13669, 38.34819], [-88.15798, 38.33397], [-88.17928, 38.31975], [-88.20056, 38.30553], [-88.22186, 38.29131], [-88.24315, 38.2771], [-88.26443, 38.26288], [-88.28574, 38.24866], [-88.30702, 38.23444], [-88.32831, 38.22023], [-88.34961, 38.20601], [-88.3709, 38.19179], [-88.39218, 38.17757], [-88.41348, 38.16335], [-88.43477, 38.14913], [-88.45605, 38.13491], [-88.47736, 38.1207], [-88.48814, 38.11373], [-88.52079, 38.09312], [-88.54293, 38.07975], [-88.55415, 38.0732], [-88.58807, 38.05387], [-88.61021, 38.0405], [-88.63179, 38.02657], [-88.6528, 38.01206], [-88.67323, 37.99699], [-88.69312, 37.98135], [-88.71327, 37.966], [-88.7337, 37.95093], [-88.75443, 37.93614], [-88.77544, 37.92164], [-88.79672, 37.90742], [-88.81802, 37.8932], [-88.83931, 37.87898], [-88.8606, 37.86476], [-88.8819, 37.85054], [-88.90318, 37.83632], [-88.92447, 37.8221], [-88.94577, 37.80788], [-88.96706, 37.79366], [-88.98834, 37.77945], [-89.00964, 37.76523], [-89.03094, 37.75101], [-89.05223, 37.73679], [-89.07323, 37.72229], [-89.09396, 37.7075], [-89.1144, 37.69244], [-89.13455, 37.67707], [-89.15442, 37.66144], [-89.17458, 37.64608], [-89.19502, 37.631], [-89.21545, 37.61594], [-89.2359, 37.60086], [-89.25634, 37.58579], [-89.27649, 37.57044], [-89.29636, 37.5548], [-89.32675, 37.53191], [-89.33698, 37.52437], [-89.35741, 37.50929], [-89.37784, 37.49422], [-89.39828, 37.47915], [-89.41843, 37.4638], [-89.43831, 37.44816], [-89.45847, 37.4328], [-89.47891, 37.41773], [-89.49935, 37.40266], [-89.51979, 37.38758], [-89.54022, 37.37251], [-89.56038, 37.35715], [-89.58026, 37.34151], [-89.60042, 37.32616], [-89.62085, 37.31109], [-89.64129, 37.29601], [-89.66173, 37.28094], [-89.68188, 37.26559], [-89.70148, 37.24966], [-89.72944, 37.22436], [-89.73866, 37.21582], [-89.76605, 37.18995], [-89.77528, 37.18142], [-89.79402, 37.16464], [-89.81361, 37.14871], [-89.83377, 37.13335], [-89.85421, 37.11829], [-89.87465, 37.10321], [-89.89481, 37.08786], [-89.91438, 37.07194], [-89.93313, 37.05516], [-89.95158, 37.03809], [-89.96947, 37.02046], [-89.98735, 37.00283], [-90.01389, 36.9761], [-90.02283, 36.96729], [-90.04071, 36.94965], [-90.05917, 36.93259], [-90.07791, 36.91581], [-90.09749, 36.89989], [-90.11765, 36.88453], [-90.12787, 36.877], [-90.15852, 36.85439], [-90.17869, 36.83903], [-90.19827, 36.8231], [-90.21701, 36.80633], [-90.24441, 36.78045], [-90.26229, 36.76282], [-90.27123, 36.75401], [-90.29778, 36.72727], [-90.30672, 36.71846], [-90.32431, 36.70054], [-90.34221, 36.68291], [-90.3598, 36.665], [-90.37769, 36.64736], [-90.39529, 36.62945], [-90.41318, 36.61182], [-90.43079, 36.5939], [-90.44866, 36.57627], [-90.46626, 36.55836], [-90.48386, 36.54044], [-90.5009, 36.52196], [-90.51764, 36.50319], [-90.53354, 36.48357], [-90.54887, 36.46338], [-90.57145, 36.43266], [-90.57898, 36.42242], [-90.5943, 36.40224], [-90.61019, 36.38261], [-90.62695, 36.36385], [-90.64398, 36.34536], [-90.66158, 36.32745], [-90.67917, 36.30953], [-90.69707, 36.2919], [-90.71466, 36.27399], [-90.73254, 36.25636], [-90.75015, 36.23844], [-90.76775, 36.22053], [-90.78479, 36.20204], [-90.80154, 36.18327], [-90.81744, 36.16364], [-90.83276, 36.14346], [-90.8478, 36.12298], [-90.86285, 36.10251], [-90.87818, 36.08232], [-90.89408, 36.0627], [-90.91055, 36.04365], [-90.92701, 36.02459], [-90.95143, 35.99573], [-90.95938, 35.98592], [-90.98222, 35.95549], [-90.98975, 35.94525], [-91.00479, 35.92477], [-91.02013, 35.90459], [-91.03602, 35.88496], [-91.05249, 35.86591], [-91.06895, 35.84686], [-91.08542, 35.8278], [-91.10132, 35.80818], [-91.11665, 35.78799], [-91.13141, 35.76723], [-91.15298, 35.73553], [-91.16718, 35.7142], [-91.18138, 35.69287], [-91.18848, 35.68221], [-91.21033, 35.65078], [-91.21771, 35.6404], [-91.23276, 35.61993], [-91.24809, 35.59974], [-91.2637, 35.57983], [-91.27903, 35.55964], [-91.30145, 35.52879], [-91.31608, 35.50789], [-91.33041, 35.4867], [-91.34461, 35.46537], [-91.35881, 35.44404], [-91.36591, 35.43338], [-91.38009, 35.41206], [-91.39429, 35.39072], [-91.41544, 35.35859], [-91.4292, 35.33684], [-91.44269, 35.3148], [-91.45589, 35.29248], [-91.46881, 35.26987], [-91.4752, 35.25849], [-91.49493, 35.22494], [-91.50842, 35.2029], [-91.52203, 35.181], [-91.53567, 35.1591], [-91.54915, 35.13707], [-91.56235, 35.11474], [-91.57526, 35.09213], [-91.58818, 35.06953], [-91.60138, 35.0472], [-91.61487, 35.02517], [-91.62168, 35.01422], [-91.64212, 34.98137], [-91.6556, 34.95934], [-91.66228, 34.94824], [-91.67505, 34.9255], [-91.69337, 34.89052], [-91.70543, 34.86706], [-91.71721, 34.84331], [-91.72899, 34.81956], [-91.74106, 34.7961], [-91.75327, 34.77279], [-91.76575, 34.74976], [-91.77881, 34.72729], [-91.7923, 34.70525], [-91.80592, 34.68335], [-91.81955, 34.66145], [-91.82636, 34.65051], [-91.8461, 34.61695], [-91.85858, 34.59392], [-91.8708, 34.5706], [-91.87689, 34.55894], [-91.88882, 34.53533], [-91.90045, 34.51145], [-91.91834, 34.47604], [-91.92998, 34.45216], [-91.94135, 34.42799], [-91.95255, 34.40367], [-91.9632, 34.37879], [-91.97327, 34.35334], [-91.98335, 34.32788], [-91.99343, 34.30244], [-92.00351, 34.27698], [-92.01416, 34.2521], [-92.02538, 34.22778], [-92.03673, 34.20361], [-92.0424, 34.19153], [-92.06029, 34.15613], [-92.07193, 34.13224], [-92.07761, 34.12016], [-92.08896, 34.09599], [-92.10514, 34.05887], [-92.11522, 34.03342], [-92.12529, 34.00797], [-92.13538, 33.98252], [-92.14546, 33.95706], [-92.1561, 33.93219], [-92.16164, 33.91995], [-92.173, 33.89578], [-92.18974, 33.85924], [-92.19542, 33.84716], [-92.21161, 33.81004], [-92.22153, 33.78445], [-92.23119, 33.75858], [-92.24055, 33.73241], [-92.2495, 33.70583], [-92.25844, 33.67923], [-92.26781, 33.65308], [-92.27747, 33.6272], [-92.28726, 33.60146], [-92.29747, 33.57615], [-92.30798, 33.55112], [-92.31819, 33.52582], [-92.328, 33.50008], [-92.33765, 33.4742], [-92.34702, 33.44804], [-92.35596, 33.42145], [-92.36475, 33.39472], [-92.37356, 33.36799], [-92.38208, 33.34097], [-92.39017, 33.31353], [-92.39796, 33.2858], [-92.40549, 33.2578], [-92.41287, 33.22964], [-92.41656, 33.21557], [-92.42821, 33.17391], [-92.43629, 33.14646], [-92.44481, 33.11945], [-92.44922, 33.10608], [-92.46242, 33.06599], [-92.47121, 33.03925], [-92.47561, 33.02589], [-92.48853, 32.98551], [-92.49265, 32.97186], [-92.5006, 32.94427], [-92.51195, 32.90233], [-92.51933, 32.87418], [-92.52686, 32.84617], [-92.53467, 32.81844], [-92.54276, 32.791], [-92.55127, 32.76398], [-92.56007, 32.73725], [-92.56888, 32.71052], [-92.57767, 32.68379], [-92.58207, 32.67043], [-92.59556, 32.63061], [-92.60436, 32.60388], [-92.61316, 32.57715], [-92.61755, 32.56379], [-92.62665, 32.53734], [-92.63985, 32.49724], [-92.64864, 32.47051], [-92.65304, 32.45715], [-92.66653, 32.41734], [-92.67093, 32.40397], [-92.68413, 32.36387], [-92.68852, 32.35051], [-92.70131, 32.30998], [-92.70897, 32.28212], [-92.71606, 32.25368], [-92.7226, 32.22467], [-92.72856, 32.1951], [-92.73438, 32.16538], [-92.74034, 32.1358], [-92.74616, 32.10609], [-92.7517, 32.07609], [-92.75695, 32.0458], [-92.76178, 32.01509], [-92.76631, 31.98409], [-92.77113, 31.95338], [-92.7764, 31.9231], [-92.78178, 31.89295], [-92.78704, 31.86267], [-92.79172, 31.83181], [-92.79527, 31.79982], [-92.79754, 31.76655], [-92.79882, 31.73228], [-92.79939, 31.69731], [-92.79953, 31.6619], [-92.79953, 31.62635], [-92.79953, 31.59081], [-92.79953, 31.55526], [-92.79953, 31.51971], [-92.79953, 31.48417], [-92.79939, 31.44876], [-92.79882, 31.41379], [-92.79755, 31.37952], [-92.79527, 31.34624], [-92.79173, 31.31425], [-92.78704, 31.2834], [-92.78179, 31.25312], [-92.77654, 31.22283], [-92.77171, 31.19212], [-92.76759, 31.1607], [-92.76405, 31.1287], [-92.7605, 31.09671], [-92.75638, 31.06529], [-92.75155, 31.03458], [-92.74615, 31.00443], [-92.74034, 30.97472], [-92.73438, 30.94514], [-92.72856, 30.91542], [-92.72274, 30.88571], [-92.71677, 30.85613], [-92.71081, 30.82656], [-92.70485, 30.79698], [-92.69889, 30.76741], [-92.69307, 30.73769], [-92.68726, 30.70798], [-92.68129, 30.6784], [-92.67532, 30.64883], [-92.66936, 30.61925], [-92.66341, 30.58968], [-92.65759, 30.55996], [-92.65176, 30.53024], [-92.64879, 30.51546], [-92.63998, 30.47095], [-92.63445, 30.44095], [-92.6292, 30.41066], [-92.62437, 30.37995], [-92.61983, 30.34896], [-92.61501, 30.31824], [-92.60976, 30.28796], [-92.60422, 30.25795], [-92.5984, 30.22824], [-92.59244, 30.19867], [-92.58662, 30.16895], [-92.5808, 30.13923], [-92.57469, 30.1098], [-92.56831, 30.08065], [-92.56163, 30.05179], [-92.55469, 30.02321], [-92.54758, 29.99477], [-92.54048, 29.96633], [-92.53339, 29.9379], [-92.52629, 29.90946], [-92.5192, 29.88102], [-92.51196, 29.85273], [-92.50443, 29.82472], [-92.49662, 29.79699], [-92.48853, 29.76955], [-92.48001, 29.74253], [-92.47121, 29.7158], [-92.46241, 29.68907], [-92.45361, 29.66234], [-92.44467, 29.63575], [-92.43573, 29.60916], [-92.42693, 29.58243], [-92.41799, 29.55584], [-92.40863, 29.52968], [-92.39897, 29.5038], [-92.38917, 29.47807], [-92.37895, 29.45276], [-92.36844, 29.42773], [-92.35822, 29.40242], [-92.3483, 29.37683], [-92.33821, 29.35138], [-92.32814, 29.32593], [-92.31805, 29.30048], [-92.30741, 29.27559], [-92.29053, 29.23919], [-92.28485, 29.22711], [-92.26724, 29.19142], [-92.26128, 29.17962], [-92.24368, 29.14393], [-92.23175, 29.12033], [-92.2258, 29.10852], [-92.20819, 29.07284], [-92.20222, 29.06104], [-92.19031, 29.03743], [-92.17853, 29.01369], [-92.16675, 28.98994], [-92.14857, 28.95482], [-92.13637, 28.93151], [-92.12999, 28.92013], [-92.11026, 28.88657], [-92.09663, 28.86468], [-92.08968, 28.85387], [-92.06853, 28.82174], [-92.05434, 28.80041], [-92.04723, 28.78975], [-92.02594, 28.75775], [-92.01884, 28.74709], [-91.99755, 28.7151], [-91.99046, 28.70443], [-91.97626, 28.68311], [-91.95496, 28.65112], [-91.94787, 28.64045], [-91.93367, 28.61912], [-91.91211, 28.58741], [-91.90472, 28.57704], [-91.88201, 28.54647], [-91.86611, 28.52684], [-91.84964, 28.50779], [-91.84142, 28.49826], [-91.81671, 28.46968], [-91.80081, 28.45007], [-91.78548, 28.42987], [-91.77797, 28.41964], [-91.76292, 28.39916], [-91.74773, 28.37883], [-91.72417, 28.34911], [-91.71581, 28.33973], [-91.69038, 28.31186], [-91.67279, 28.29394], [-91.66399, 28.28498], [-91.64624, 28.26721], [-91.61969, 28.24048], [-91.60181, 28.22285], [-91.59301, 28.21389], [-91.57526, 28.19612], [-91.54872, 28.16939], [-91.53978, 28.16057], [-91.52204, 28.1428], [-91.49536, 28.11621], [-91.47775, 28.0983], [-91.45987, 28.08067], [-91.45107, 28.07171], [-91.42438, 28.04512], [-91.41558, 28.03616], [-91.39783, 28.01839], [-91.37129, 27.99166], [-91.36235, 27.98284], [-91.33582, 27.95611], [-91.31793, 27.93848], [-91.30005, 27.92085], [-91.28159, 27.90379], [-91.26285, 27.88701], [-91.24326, 27.87108], [-91.22311, 27.85573], [-91.20267, 27.84066], [-91.19245, 27.83312], [-91.16207, 27.81023], [-91.14249, 27.7943], [-91.12375, 27.77752], [-91.10529, 27.76046], [-91.09621, 27.75179], [-91.0779, 27.73458], [-91.04994, 27.70927], [-91.03034, 27.69335], [-91.01019, 27.67799], [-90.98975, 27.66292], [-90.96931, 27.64785], [-90.94887, 27.63278], [-90.92871, 27.61742], [-90.90884, 27.60178], [-90.88868, 27.58643], [-90.86825, 27.57135], [-90.84781, 27.55628], [-90.82737, 27.54121], [-90.80721, 27.52586], [-90.78763, 27.50993], [-90.7686, 27.49343], [-90.74958, 27.47694], [-90.73056, 27.46045], [-90.71098, 27.44452], [-90.69083, 27.42917], [-90.67038, 27.4141], [-90.64995, 27.39902], [-90.6295, 27.38395], [-90.60934, 27.3686], [-90.58948, 27.35296], [-90.56932, 27.3376], [-90.54887, 27.32253], [-90.52844, 27.30746], [-90.508, 27.29239], [-90.48784, 27.27703], [-90.46825, 27.2611], [-90.44923, 27.24461], [-90.43021, 27.22812], [-90.41119, 27.21162], [-90.3916, 27.1957], [-90.37144, 27.18034], [-90.35101, 27.16527], [-90.33057, 27.1502], [-90.31013, 27.13513], [-90.28998, 27.11977], [-90.2701, 27.10413], [-90.26003, 27.09645], [-90.22949, 27.0737], [-90.20906, 27.05863], [-90.18863, 27.04356], [-90.16818, 27.02849], [-90.14803, 27.01313], [-90.12816, 26.99749], [-90.11807, 26.98981], [-90.08755, 26.96706], [-90.06712, 26.95199], [-90.04668, 26.93692], [-90.02652, 26.92157], [-90.00694, 26.90564], [-89.98792, 26.88915], [-89.9689, 26.87265], [-89.94988, 26.85616], [-89.93029, 26.84023], [-89.91013, 26.82488], [-89.8894, 26.81009], [-89.86841, 26.79559], [-89.84711, 26.78137], [-89.83647, 26.77426], [-89.80453, 26.75293], [-89.78352, 26.73843], [-89.7628, 26.72364], [-89.74236, 26.70857], [-89.7222, 26.69321], [-89.70233, 26.67757], [-89.68217, 26.66222], [-89.66173, 26.64715], [-89.6413, 26.63207], [-89.62085, 26.617], [-89.60041, 26.60193], [-89.58026, 26.58657], [-89.56039, 26.57093], [-89.54022, 26.55558], [-89.51978, 26.54051], [-89.49934, 26.52544], [-89.47891, 26.51036], [-89.45847, 26.49529], [-89.44839, 26.48761], [-89.41844, 26.46429], [-89.39828, 26.44894], [-89.37784, 26.43387], [-89.35712, 26.41908], [-89.33612, 26.40458], [-89.31482, 26.39036], [-89.29353, 26.37614], [-89.27225, 26.36192], [-89.25123, 26.34742], [-89.23051, 26.33263], [-89.21007, 26.31756], [-89.18991, 26.3022], [-89.17004, 26.28656], [-89.14989, 26.27121], [-89.12944, 26.25613], [-89.10872, 26.24134], [-89.08771, 26.22684], [-89.06642, 26.21262], [-89.04514, 26.19841], [-89.02383, 26.18419], [-89.00284, 26.16969], [-88.9821, 26.1549], [-88.96167, 26.13982], [-88.94151, 26.12447], [-88.93157, 26.11665], [-88.90149, 26.09347], [-88.88104, 26.0784], [-88.86032, 26.06361], [-88.83931, 26.04911], [-88.81802, 26.03489], [-88.79672, 26.02068], [-88.77544, 26.00645], [-88.75415, 25.99224], [-88.73285, 25.97802], [-88.71156, 25.9638], [-88.69028, 25.94958], [-88.66898, 25.93536], [-88.64798, 25.92086], [-88.62724, 25.90607], [-88.60681, 25.891], [-88.58665, 25.87564], [-88.56677, 25.86], [-88.54663, 25.84465], [-88.52618, 25.82957], [-88.50546, 25.81479], [-88.48445, 25.80029], [-88.46317, 25.78606], [-88.44186, 25.77185], [-88.42058, 25.75763], [-88.39929, 25.74341], [-88.37799, 25.72919], [-88.3567, 25.71497], [-88.33542, 25.70076], [-88.31412, 25.68654], [-88.29283, 25.67232], [-88.27155, 25.6581], [-88.25024, 25.64388], [-88.22896, 25.62966], [-88.20767, 25.61545], [-88.18665, 25.60094], [-88.16594, 25.58615], [-88.14549, 25.57108], [-88.12534, 25.55573], [-88.10547, 25.54008], [-88.08531, 25.52473], [-88.06487, 25.50966], [-88.04414, 25.49487], [-88.02313, 25.48037], [-88.00185, 25.46615], [-87.98056, 25.45193], [-87.95926, 25.43771], [-87.93797, 25.42349], [-87.91669, 25.40928], [-87.89539, 25.39506], [-87.8741, 25.38084], [-87.85281, 25.36662], [-87.83151, 25.3524], [-87.81023, 25.33818], [-87.78893, 25.32397], [-87.76764, 25.30975], [-87.74635, 25.29552], [-87.72534, 25.28102], [-87.70462, 25.26624], [-87.68417, 25.25117], [-87.66402, 25.23581], [-87.64415, 25.22017], [-87.62399, 25.20481], [-87.60355, 25.18974], [-87.58282, 25.17495], [-87.56183, 25.16045], [-87.54053, 25.14623], [-87.51924, 25.13201], [-87.49796, 25.11779], [-87.47665, 25.10358], [-87.45537, 25.08936], [-87.43407, 25.07514], [-87.41278, 25.06092], [-87.39149, 25.0467], [-87.3702, 25.03248], [-87.34891, 25.01826], [-87.32762, 25.00404], [-87.30633, 24.98983], [-87.28503, 24.97561], [-87.26374, 24.96139], [-87.24245, 24.94717], [-87.22116, 24.93295], [-87.19986, 24.91874], [-87.17857, 24.90452], [-87.15729, 24.8903], [-87.13599, 24.87608], [-87.1147, 24.86186], [-87.09341, 24.84764], [-87.07211, 24.83342], [-87.05083, 24.8192], [-87.02954, 24.80499], [-87.00824, 24.79076], [-86.98695, 24.77655], [-86.96567, 24.76233], [-86.94437, 24.74811], [-86.92308, 24.73389], [-86.90179, 24.71967], [-86.88049, 24.70546], [-86.8592, 24.69124], [-86.83791, 24.67702], [-86.81662, 24.6628], [-86.79533, 24.64858], [-86.77404, 24.63436], [-86.75275, 24.62014], [-86.73145, 24.60593], [-86.71016, 24.59171], [-86.68887, 24.57749], [-86.66757, 24.56327], [-86.64629, 24.54905], [-86.625, 24.53483], [-86.6037, 24.52061], [-86.58241, 24.50639], [-86.56113, 24.49218], [-86.53983, 24.47796], [-86.51854, 24.46374], [-86.49725, 24.44952], [-86.47595, 24.4353], [-86.45467, 24.42108], [-86.43338, 24.40687], [-86.41209, 24.39265], [-86.39079, 24.37843], [-86.3695, 24.36421], [-86.34821, 24.34999], [-86.32692, 24.33577], [-86.30563, 24.32155], [-86.28433, 24.30733], [-86.26305, 24.29311], [-86.24175, 24.2789], [-86.22046, 24.26468], [-86.19917, 24.25046], [-86.17787, 24.23624], [-86.15659, 24.22202], [-86.1353, 24.2078], [-86.114, 24.19359], [-86.09271, 24.17937], [-86.07141, 24.16515], [-86.05013, 24.15093], [-86.02884, 24.13671], [-86.00755, 24.12249], [-85.98654, 24.10799], [-85.96581, 24.0932], [-85.94537, 24.07813], [-85.92522, 24.06277], [-85.90533, 24.04713], [-85.88519, 24.03178], [-85.87497, 24.02424], [-85.84402, 24.00192], [-85.82301, 23.98742], [-85.80173, 23.9732], [-85.78044, 23.95898], [-85.75914, 23.94476], [-85.73814, 23.93026], [-85.71741, 23.91547], [-85.69698, 23.9004], [-85.67682, 23.88504], [-85.65695, 23.8694], [-85.63679, 23.85404], [-85.61635, 23.83897], [-85.59563, 23.82419], [-85.57462, 23.80968], [-85.55333, 23.79546], [-85.53204, 23.78125], [-85.51074, 23.76703], [-85.48974, 23.75253], [-85.46901, 23.73774], [-85.44856, 23.72266], [-85.42841, 23.70731], [-85.40854, 23.69167], [-85.38838, 23.67631], [-85.36795, 23.66124], [-85.34723, 23.64645], [-85.32622, 23.63195], [-85.30493, 23.61773], [-85.28363, 23.60352], [-85.26234, 23.58929], [-85.24133, 23.57479], [-85.22061, 23.56001], [-85.20017, 23.54494], [-85.18002, 23.52958], [-85.16014, 23.51394], [-85.13998, 23.49858], [-85.11954, 23.48351], [-85.09911, 23.46844], [-85.07867, 23.45337], [-85.05823, 23.43829], [-85.03807, 23.42294], [-85.01819, 23.4073], [-84.99805, 23.39194], [-84.9776, 23.37687], [-84.95716, 23.3618], [-84.93672, 23.34673], [-84.91628, 23.33166], [-84.89613, 23.3163], [-84.87625, 23.30066], [-84.85609, 23.2853], [-84.83566, 23.27023], [-84.81522, 23.25516], [-84.79478, 23.24009], [-84.77434, 23.22501], [-84.75418, 23.20966], [-84.73431, 23.19402], [-84.71416, 23.17866], [-84.69372, 23.16359], [-84.67299, 23.1488], [-84.65198, 23.1343], [-84.63069, 23.12008], [-84.60941, 23.10586], [-84.58811, 23.09164], [-84.56711, 23.07714], [-84.54638, 23.06236], [-84.52594, 23.04729], [-84.50578, 23.03193], [-84.4859, 23.01629], [-84.46576, 23.00093], [-84.44531, 22.98586], [-84.42487, 22.97079], [-84.40443, 22.95572], [-84.38399, 22.94064], [-84.36384, 22.92529], [-84.34396, 22.90965], [-84.32381, 22.89429], [-84.30338, 22.87922], [-84.28265, 22.86443], [-84.26164, 22.84993], [-84.24036, 22.83571], [-84.20785, 22.81495], [-84.19691, 22.80813], [-84.17491, 22.79476], [-84.14142, 22.77599], [-84.11928, 22.76433], [-84.10863, 22.75864], [-84.0757, 22.74429], [-84.06519, 22.74044], [-84.0307, 22.73248]]]}}]}