{"type": "FeatureCollection", "features": [{"type": "Feature", "geometry": {"type": "LineString", "coordinates": [[-83.6, 22.6], [-84.8, 23.3], [-85.8, 24.1], [-86.8, 25.0], [-87.5, 26.0], [-88.7, 27.4], [-89.4, 28.4], [-90.0, 29.1], [-90.5, 30.1], [-91.0, 31.0], [-91.1, 32.0], [-91.1, 33.0], [-90.8, 33.6], [-90.3, 34.5], [-89.7, 35.3], [-88.8, 35.7], [-87.7, 35.9], [-85.8, 36.9], [-82.6, 37.9], [-79.8, 38.5], [-77.0, 39.1], [-74.3, 39.2], [-71.4, 39.3], [-67.8, 40.1], [-64.5, 40.9], [-59.7, 42.8], [-56.5, 44.1], [-53.3, 45.6], [-50.8, 47.0], [-48.0, 48.8], [-45.8, 50.6], [-42.8, 52.3], [-40.1, 53.8], [-36.1, 55.4], [-31.8, 57.1], [-25.1, 59.7], [-16.2, 61.8], [-9.0, 63.2], [-4.9, 63.9], [-1.6, 65.0]]}, "properties": {"model": "CMC", "label": "CMC", "kind": "physics", "group": "deterministic", "cycle": "2021082800"}}, {"type": "Feature", "geometry": {"type": "LineString", "coordinates": [[-83.5, 22.5], [-84.8, 23.2], [-85.9, 23.9], [-86.8, 24.8], [-87.5, 25.6], [-88.4, 26.4], [-88.8, 27.3], [-89.5, 28.0], [-89.9, 28.7], [-90.2, 29.5], [-90.0, 30.4], [-89.8, 31.4], [-89.6, 32.2], [-89.1, 33.0], [-88.3, 34.0], [-87.6, 34.8], [-86.4, 35.6], [-84.7, 36.6], [-81.6, 38.6], [-79.0, 39.2], [-76.7, 39.5], [-73.4, 40.4], [-70.0, 41.0], [-66.9, 41.5], [-61.8, 43.0], [-56.4, 44.7], [-52.8, 46.2], [-49.7, 46.7], [-45.8, 47.4], [-41.0, 49.3], [-37.1, 51.3], [-33.7, 53.3], [-30.8, 55.2]]}, "properties": {"model": "AP01", "label": "GEFS 01", "kind": "ensemble", "group": "ensemble", "cycle": "2021082800"}}, {"type": "Feature", "geometry": {"type": "LineString", "coordinates": [[-83.4, 22.7], [-84.7, 23.9], [-85.9, 24.8], [-86.9, 25.8], [-87.9, 26.9], [-89.0, 27.8], [-89.5, 29.0], [-90.0, 30.0], [-90.1, 31.0], [-90.4, 31.7], [-90.0, 32.4], [-89.4, 33.2], [-88.7, 34.2], [-88.1, 35.0], [-86.8, 36.0], [-85.5, 36.9], [-83.9, 37.6], [-81.9, 38.8], [-79.8, 40.2], [-76.9, 41.2], [-74.4, 41.5], [-71.6, 42.0], [-68.0, 43.1], [-62.8, 45.4], [-58.2, 47.2], [-56.6, 47.6], [-53.9, 48.8], [-52.4, 49.5], [-50.7, 50.2], [-48.9, 50.9], [-46.3, 52.0], [-43.7, 53.7], [-42.0, 55.5]]}, "properties": {"model": "AP03", "label": "GEFS 03", "kind": "ensemble", "group": "ensemble", "cycle": "2021082800"}}, {"type": "Feature", "geometry": {"type": "LineString", "coordinates": [[-83.5, 22.6], [-84.7, 23.4], [-85.7, 24.3], [-86.7, 25.3], [-87.7, 26.4], [-88.7, 27.1], [-89.4, 28.1], [-89.9, 28.9], [-90.3, 29.8], [-90.6, 30.6], [-90.5, 31.5], [-90.4, 32.4], [-89.9, 33.3], [-89.6, 33.9], [-88.4, 35.0], [-87.0, 35.8], [-85.2, 36.5], [-83.6, 37.0], [-81.3, 37.1], [-79.6, 36.9]]}, "properties": {"model": "AP04", "label": "GEFS 04", "kind": "ensemble", "group": "ensemble", "cycle": "2021082800"}}, {"type": "Feature", "geometry": {"type": "LineString", "coordinates": [[-83.5, 22.5], [-84.7, 23.3], [-85.9, 24.4], [-87.0, 25.3], [-88.1, 26.4], [-89.3, 27.4], [-90.0, 28.6], [-90.5, 29.8], [-90.5, 31.0], [-90.5, 32.1], [-90.2, 33.3], [-89.9, 34.2], [-89.2, 34.9], [-88.4, 35.4], [-87.2, 36.3], [-85.9, 36.7], [-84.0, 37.4], [-82.3, 38.4], [-80.6, 39.1], [-78.7, 39.4], [-77.3, 39.6], [-75.8, 39.5], [-73.8, 40.0], [-71.1, 41.4], [-67.2, 43.4], [-63.1, 45.0], [-59.4, 46.9], [-57.7, 47.7], [-54.5, 49.7], [-52.6, 51.3], [-50.9, 52.8], [-49.8, 54.7], [-48.8, 56.2]]}, "properties": {"model": "AP06", "label": "GEFS 06", "kind": "ensemble", "group": "ensemble", "cycle": "2021082800"}}, {"type": "Feature", "geometry": {"type": "LineString", "coordinates": [[-83.6, 22.8], [-84.7, 23.7], [-85.7, 24.5], [-86.8, 25.3], [-87.8, 26.3], [-89.1, 27.1], [-90.1, 28.0], [-91.1, 29.0], [-91.9, 30.0], [-92.7, 31.1], [-93.3, 32.0], [-93.5, 32.8], [-93.4, 33.6], [-93.2, 34.1], [-92.4, 34.9], [-91.4, 35.4], [-90.1, 36.1], [-88.6, 36.8], [-86.6, 37.6], [-84.6, 37.8], [-83.6, 37.0], [-84.1, 35.7], [-83.0, 34.9], [-82.4, 34.6], [-82.3, 34.4], [-82.7, 33.9], [-83.6, 33.8]]}, "properties": {"model": "AP07", "label": "GEFS 07", "kind": "ensemble", "group": "ensemble", "cycle": "2021082800"}}, {"type": "Feature", "geometry": {"type": "LineString", "coordinates": [[-83.7, 22.6], [-84.9, 23.4], [-85.9, 24.4], [-86.8, 25.3], [-88.0, 26.5], [-89.2, 27.6], [-90.2, 28.6], [-91.3, 29.6], [-92.0, 30.5], [-92.6, 31.1], [-92.7, 31.7], [-92.6, 32.4], [-91.9, 33.2], [-91.4, 33.8], [-90.2, 34.7], [-89.2, 35.5], [-87.9, 36.0], [-86.4, 36.8], [-84.9, 37.6], [-82.4, 38.4], [-79.3, 39.2], [-77.1, 39.5], [-76.6, 38.6], [-76.9, 37.6], [-77.9, 35.7], [-78.0, 34.9], [-78.5, 34.1], [-78.8, 33.7], [-79.2, 33.8], [-80.0, 33.7], [-80.6, 33.8], [-81.5, 34.1], [-81.7, 34.5]]}, "properties": {"model": "AP08", "label": "GEFS 08", "kind": "ensemble", "group": "ensemble", "cycle": "2021082800"}}, {"type": "Feature", "geometry": {"type": "LineString", "coordinates": [[-83.6, 22.3], [-84.8, 22.9], [-85.7, 23.8], [-86.6, 24.6], [-87.5, 25.2], [-88.5, 25.9], [-89.4, 26.7], [-90.6, 27.4], [-91.5, 27.8], [-92.2, 28.3], [-92.4, 29.0], [-92.5, 29.7], [-92.2, 30.5], [-92.1, 31.2], [-91.9, 32.0], [-91.8, 32.5], [-91.8, 32.8], [-92.2, 32.4], [-92.0, 32.3], [-92.2, 32.2], [-92.6, 32.0], [-93.2, 31.8], [-93.6, 32.2], [-94.1, 32.7], [-94.5, 33.3], [-95.2, 34.0], [-95.8, 35.4], [-96.7, 36.1], [-96.2, 37.1], [-95.7, 37.5]]}, "properties": {"model": "AP13", "label": "GEFS 13", "kind": "ensemble", "group": "ensemble", "cycle": "2021082800"}}, {"type": "Feature", "geometry": {"type": "LineString", "coordinates": [[-83.7, 22.5], [-84.8, 23.2], [-85.6, 24.0], [-86.4, 25.1], [-87.4, 26.1], [-88.5, 27.1], [-89.5, 28.1], [-90.2, 29.2], [-90.6, 30.0], [-91.0, 30.9], [-91.1, 31.9], [-91.0, 32.9], [-90.4, 33.8], [-89.7, 34.7], [-88.6, 35.7], [-87.5, 36.2], [-86.2, 36.9], [-85.3, 37.3], [-84.3, 37.3], [-82.8, 37.9], [-81.7, 38.5], [-81.4, 38.7], [-81.6, 38.3], [-82.4, 37.9], [-83.3, 37.7], [-84.7, 37.7], [-86.5, 37.7], [-88.2, 37.6], [-89.1, 37.0], [-89.5, 36.7], [-89.4, 36.7], [-89.2, 36.7], [-88.6, 36.8]]}, "properties": {"model": "AP14", "label": "GEFS 14", "kind": "ensemble", "group": "ensemble", "cycle": "2021082800"}}, {"type": "Feature", "geometry": {"type": "LineString", "coordinates": [[-83.8, 22.5], [-84.9, 23.3], [-85.9, 24.2], [-86.9, 25.2], [-88.2, 26.3], [-89.5, 27.1], [-90.5, 28.1], [-91.3, 28.8], [-91.9, 29.5], [-92.5, 30.0], [-92.2, 30.7], [-91.9, 31.4], [-91.0, 32.2], [-90.3, 33.2], [-89.7, 34.3], [-89.5, 34.8], [-88.7, 35.2], [-88.1, 35.6], [-87.1, 36.0], [-86.0, 36.2], [-84.7, 36.5], [-84.0, 36.1], [-82.0, 35.7], [-79.0, 36.3], [-74.4, 37.9], [-70.2, 39.5], [-66.7, 42.3], [-64.2, 45.3], [-63.2, 46.9], [-63.2, 48.3], [-63.7, 48.9], [-64.9, 49.4], [-66.0, 49.5]]}, "properties": {"model": "AP15", "label": "GEFS 15", "kind": "ensemble", "group": "ensemble", "cycle": "2021082800"}}, {"type": "Feature", "geometry": {"type": "LineString", "coordinates": [[-83.6, 22.6], [-84.6, 23.4], [-85.7, 24.3], [-87.0, 25.1], [-87.9, 26.0], [-88.9, 26.9], [-89.8, 27.8], [-90.5, 28.5], [-90.9, 29.2], [-91.1, 29.9], [-91.0, 30.7], [-90.9, 31.5], [-90.4, 32.2], [-90.1, 33.0], [-89.6, 33.9], [-89.1, 34.6], [-88.1, 35.1], [-87.5, 35.4], [-86.6, 36.0], [-85.5, 36.3], [-84.8, 36.3], [-84.8, 35.9], [-84.7, 35.1], [-84.9, 34.2], [-85.1, 33.7], [-86.3, 33.1], [-86.9, 33.0]]}, "properties": {"model": "AP18", "label": "GEFS 18", "kind": "ensemble", "group": "ensemble", "cycle": "2021082800"}}, {"type": "Feature", "geometry": {"type": "LineString", "coordinates": [[-83.6, 22.5], [-84.9, 23.2], [-86.1, 24.2], [-87.4, 25.3], [-88.5, 26.1], [-89.9, 27.0], [-90.7, 28.0], [-91.5, 28.7], [-92.0, 29.4], [-92.1, 29.8], [-91.8, 30.5], [-91.3, 31.4], [-90.8, 32.4], [-90.4, 33.0], [-89.6, 33.9], [-88.7, 34.7], [-87.8, 35.4], [-86.4, 36.7], [-84.6, 37.8], [-82.8, 38.3], [-80.9, 38.7], [-80.2, 38.3], [-79.8, 36.9], [-80.0, 36.0], [-80.2, 35.2], [-81.2, 34.5], [-82.2, 33.3], [-82.9, 32.6], [-83.8, 32.3], [-85.1, 32.1], [-86.6, 32.6], [-88.9, 31.7], [-91.6, 30.2]]}, "properties": {"model": "AP21", "label": "GEFS 21", "kind": "ensemble", "group": "ensemble", "cycle": "2021082800"}}, {"type": "Feature", "geometry": {"type": "LineString", "coordinates": [[-83.4, 22.9], [-84.7, 23.8], [-85.9, 24.8], [-87.0, 25.7], [-88.0, 26.6], [-89.2, 27.4], [-89.9, 28.3], [-90.7, 29.1], [-91.2, 29.9], [-91.5, 30.5], [-91.3, 31.6], [-91.0, 32.5], [-90.2, 33.4], [-89.6, 34.3], [-88.7, 35.0], [-87.4, 35.8], [-85.8, 36.8], [-84.4, 37.6], [-82.4, 38.4], [-80.1, 39.3], [-76.5, 39.9], [-72.8, 41.4], [-70.0, 42.5], [-67.3, 43.4], [-64.4, 43.7], [-60.5, 44.9], [-56.9, 46.0], [-54.0, 46.7], [-49.9, 47.9], [-45.6, 49.5], [-41.7, 50.8], [-37.7, 52.4], [-34.8, 53.9]]}, "properties": {"model": "AP22", "label": "GEFS 22", "kind": "ensemble", "group": "ensemble", "cycle": "2021082800"}}, {"type": "Feature", "geometry": {"type": "LineString", "coordinates": [[-83.5, 22.7], [-84.7, 23.6], [-85.9, 24.4], [-87.2, 25.2], [-88.2, 26.0], [-89.5, 26.7], [-90.5, 27.5], [-91.3, 28.1], [-91.9, 28.9], [-92.5, 29.5], [-92.6, 30.0], [-92.6, 30.7], [-92.2, 31.5], [-91.8, 32.3], [-91.1, 33.1], [-90.3, 33.9], [-89.4, 34.7], [-88.6, 35.4], [-87.7, 36.1], [-86.7, 36.4], [-85.7, 36.9], [-85.2, 37.0], [-84.8, 37.2], [-85.0, 37.4], [-85.6, 37.4], [-86.7, 37.5], [-87.8, 37.9], [-88.6, 38.6], [-89.0, 39.0], [-89.3, 39.3], [-88.2, 40.4]]}, "properties": {"model": "AP23", "label": "GEFS 23", "kind": "ensemble", "group": "ensemble", "cycle": "2021082800"}}, {"type": "Feature", "geometry": {"type": "LineString", "coordinates": [[-83.6, 22.5], [-84.7, 23.3], [-85.8, 24.2], [-86.9, 25.0], [-88.0, 26.0], [-89.2, 26.8], [-90.1, 27.9], [-91.1, 28.8], [-91.9, 29.9], [-92.9, 30.9], [-93.5, 31.9], [-93.9, 32.8], [-93.9, 33.5], [-93.6, 34.0], [-92.9, 34.8], [-92.2, 35.4], [-91.2, 35.7], [-90.4, 35.8], [-89.6, 35.8], [-88.5, 35.4], [-87.3, 35.3], [-86.8, 34.9], [-86.2, 34.7], [-85.1, 34.7], [-84.9, 33.9], [-85.7, 32.7], [-85.9, 32.4], [-86.6, 32.0], [-87.4, 31.7], [-88.9, 31.9], [-90.1, 32.7]]}, "properties": {"model": "AP25", "label": "GEFS 25", "kind": "ensemble", "group": "ensemble", "cycle": "2021082800"}}, {"type": "Feature", "geometry": {"type": "LineString", "coordinates": [[-83.6, 22.4], [-84.5, 23.3], [-85.5, 24.4], [-86.5, 25.3], [-87.5, 26.3], [-88.5, 27.1], [-89.5, 28.2], [-90.1, 29.0], [-90.5, 29.6], [-90.9, 30.1], [-90.8, 30.5], [-90.4, 31.2], [-90.0, 31.9], [-89.9, 32.8], [-89.6, 33.7], [-89.1, 34.2], [-88.1, 34.9], [-87.4, 35.3], [-86.3, 35.8], [-84.9, 36.3]]}, "properties": {"model": "AP27", "label": "GEFS 27", "kind": "ensemble", "group": "ensemble", "cycle": "2021082800"}}, {"type": "Feature", "geometry": {"type": "LineString", "coordinates": [[-83.8, 22.4], [-84.9, 23.1], [-86.0, 24.3], [-87.0, 25.2], [-88.0, 26.2], [-89.0, 27.1], [-89.8, 28.1], [-90.5, 28.8], [-91.0, 29.4], [-91.5, 29.9], [-91.7, 30.7], [-91.6, 31.3], [-91.2, 32.0], [-90.9, 32.7], [-90.2, 33.5], [-89.4, 34.3], [-88.3, 35.0], [-87.4, 35.7], [-86.1, 36.5], [-84.6, 37.1], [-82.3, 38.0], [-80.2, 38.9], [-79.2, 38.6], [-79.0, 37.9], [-79.9, 36.5], [-81.7, 36.5], [-83.5, 36.9], [-85.1, 36.2]]}, "properties": {"model": "AP28", "label": "GEFS 28", "kind": "ensemble", "group": "ensemble", "cycle": "2021082800"}}, {"type": "Feature", "geometry": {"type": "LineString", "coordinates": [[-83.4, 22.6], [-84.5, 23.4], [-85.6, 24.4], [-86.8, 25.1], [-87.7, 25.9], [-88.7, 26.6], [-89.4, 27.5], [-90.0, 28.4], [-90.5, 29.1], [-90.8, 29.6], [-90.8, 30.3], [-90.8, 30.9], [-90.4, 31.6], [-90.3, 32.4], [-90.0, 33.3], [-89.5, 33.9], [-88.5, 34.9], [-87.7, 35.6], [-86.4, 36.9], [-85.4, 37.3], [-83.6, 38.2], [-83.5, 37.5], [-83.0, 36.8], [-82.1, 36.7], [-82.0, 37.2], [-83.5, 36.4], [-86.1, 34.6], [-86.5, 34.4], [-87.0, 35.1], [-87.6, 35.9], [-88.1, 36.5]]}, "properties": {"model": "AP29", "label": "GEFS 29", "kind": "ensemble", "group": "ensemble", "cycle": "2021082800"}}, {"type": "Feature", "geometry": {"type": "LineString", "coordinates": [[-83.6, 22.6], [-84.7, 23.4], [-85.7, 24.3], [-86.9, 25.3], [-88.0, 26.1], [-89.0, 27.0], [-90.0, 27.8], [-90.6, 28.5], [-91.1, 29.3], [-91.4, 30.1], [-91.4, 31.1], [-91.3, 31.9], [-90.8, 32.8], [-90.1, 33.6], [-89.3, 34.5], [-88.3, 35.2], [-86.9, 36.0], [-85.7, 36.6], [-84.0, 37.4], [-81.4, 38.2], [-78.8, 38.9], [-76.0, 39.8], [-71.4, 41.4], [-67.1, 43.0], [-62.1, 45.8], [-58.5, 47.9], [-54.7, 48.9], [-51.4, 49.7], [-46.9, 50.8], [-43.2, 52.1], [-40.7, 53.6], [-39.1, 54.9], [-36.6, 56.0], [-32.9, 58.3], [-29.5, 61.7], [-26.5, 64.0], [-24.2, 65.3], [-21.4, 67.2], [-15.6, 68.6], [-6.5, 69.1], [2.4, 69.9]]}, "properties": {"model": "AVNO", "label": "GFS", "kind": "physics", "group": "deterministic", "cycle": "2021082800"}}, {"type": "Feature", "geometry": {"type": "LineString", "coordinates": [[-83.6, 22.5], [-84.8, 23.4], [-85.8, 24.5], [-86.8, 25.3], [-87.7, 26.4], [-88.9, 27.3], [-89.9, 28.2], [-90.3, 29.1], [-90.9, 29.8], [-91.2, 30.5], [-91.0, 31.3], [-90.6, 31.9], [-90.3, 32.8], [-89.9, 33.4], [-89.2, 34.2], [-88.2, 34.6], [-86.8, 35.2], [-85.3, 35.6], [-83.9, 36.2], [-83.1, 35.6], [-81.3, 35.8], [-80.2, 36.3]]}, "properties": {"model": "CTCX", "label": "COAMPS-TC", "kind": "physics", "group": "deterministic", "cycle": "2021082800"}}, {"type": "Feature", "geometry": {"type": "LineString", "coordinates": [[-83.3, 22.7], [-85.6, 24.2], [-87.7, 26.1], [-89.8, 27.9], [-91.5, 29.2], [-92.4, 30.7], [-92.5, 32.2], [-91.5, 33.7], [-90.5, 35.3], [-89.0, 36.1], [-87.7, 36.7], [-86.8, 36.8], [-86.7, 37.1]]}, "properties": {"model": "EGRR", "label": "UKMET", "kind": "physics", "group": "deterministic", "cycle": "2021082800"}}, {"type": "Feature", "geometry": {"type": "LineString", "coordinates": [[-83.5, 22.5], [-85.6, 24.4], [-87.8, 26.2], [-89.7, 27.9], [-91.0, 29.3], [-91.3, 30.7], [-90.9, 32.3], [-89.8, 33.8], [-88.3, 35.1], [-86.6, 36.2], [-84.0, 37.5], [-82.3, 38.4], [-80.3, 38.9], [-78.5, 39.0], [-76.6, 39.2]]}, "properties": {"model": "HCCA", "label": "HFIP Corrected Consensus", "kind": "consensus", "group": "consensus", "cycle": "2021082800"}}, {"type": "Feature", "geometry": {"type": "LineString", "coordinates": [[-83.5, 22.5], [-84.1, 22.8], [-84.6, 23.3], [-85.2, 23.9], [-85.8, 24.3], [-86.3, 24.8], [-86.9, 25.2], [-87.5, 25.6], [-88.1, 26.0], [-88.7, 26.3], [-89.3, 26.7], [-89.8, 27.0], [-90.3, 27.5], [-90.7, 27.8], [-91.1, 28.2], [-91.4, 28.6], [-91.8, 28.9], [-91.9, 29.1], [-92.1, 29.5], [-92.3, 29.9], [-92.4, 30.3], [-92.4, 30.6], [-92.3, 31.0], [-92.3, 31.5], [-92.2, 31.9], [-92.1, 32.1], [-91.8, 32.4], [-91.6, 32.9], [-91.3, 33.3], [-91.1, 33.6], [-90.8, 33.8], [-90.4, 34.0], [-89.9, 34.2], [-89.4, 34.4], [-89.0, 34.7], [-88.6, 35.0], [-88.2, 35.1], [-87.9, 35.4], [-87.4, 35.5], [-86.9, 35.8], [-86.4, 35.8], [-86.0, 35.9], [-85.7, 35.9]]}, "properties": {"model": "HMON", "label": "HMON", "kind": "physics", "group": "deterministic", "cycle": "2021082800"}}, {"type": "Feature", "geometry": {"type": "LineString", "coordinates": [[-83.5, 22.5], [-84.5, 23.4], [-85.6, 24.5], [-86.8, 25.4], [-87.9, 26.3], [-89.0, 27.0], [-89.9, 27.8], [-90.7, 28.6], [-91.2, 29.3], [-91.6, 30.0], [-91.7, 30.8], [-91.7, 31.7], [-91.5, 32.6], [-91.1, 33.4], [-90.4, 34.2], [-89.8, 34.8], [-88.9, 35.4], [-88.1, 35.9], [-87.0, 36.7], [-86.7, 37.2], [-86.2, 37.4], [-86.1, 37.9]]}, "properties": {"model": "HWRF", "label": "HWRF", "kind": "physics", "group": "deterministic", "cycle": "2021082800"}}, {"type": "Feature", "geometry": {"type": "LineString", "coordinates": [[-83.3, 22.6], [-84.7, 23.3], [-85.6, 24.2], [-86.7, 25.1], [-87.7, 26.0], [-88.8, 27.0], [-89.7, 27.8], [-90.8, 28.5], [-91.5, 29.2], [-92.0, 29.8], [-92.4, 30.4], [-92.6, 30.9], [-92.5, 31.7], [-92.0, 32.4], [-91.5, 33.2], [-91.1, 33.9], [-90.6, 34.5], [-90.1, 34.9], [-89.7, 35.4], [-89.2, 35.5], [-89.0, 35.5], [-88.8, 35.5], [-88.5, 35.6], [-88.6, 35.4], [-89.1, 35.3], [-89.7, 35.3], [-90.5, 35.3]]}, "properties": {"model": "UE00", "label": "ECMWF Ens 00", "kind": "ensemble", "group": "ensemble", "cycle": "2021082800"}}, {"type": "Feature", "geometry": {"type": "LineString", "coordinates": [[-83.5, 22.1], [-84.9, 22.9], [-85.8, 23.8], [-86.9, 24.4], [-87.5, 25.5], [-88.6, 26.5], [-89.4, 27.4], [-90.3, 28.1], [-90.9, 28.7], [-91.6, 29.2], [-91.9, 29.8], [-92.2, 30.4], [-92.4, 30.9], [-92.3, 31.2], [-92.2, 31.7], [-92.0, 32.0], [-91.7, 32.3], [-91.8, 32.4], [-91.6, 32.5], [-91.9, 32.5], [-92.0, 32.5], [-92.6, 32.6], [-93.1, 32.5], [-93.7, 32.5]]}, "properties": {"model": "UE01", "label": "ECMWF Ens 01", "kind": "ensemble", "group": "ensemble", "cycle": "2021082800"}}, {"type": "Feature", "geometry": {"type": "LineString", "coordinates": [[-83.2, 22.5], [-85.0, 23.5], [-86.1, 24.0], [-86.9, 24.9], [-87.8, 25.7], [-88.8, 26.7], [-89.7, 27.8], [-90.9, 28.5], [-91.5, 29.2], [-91.8, 29.8], [-92.0, 30.5], [-92.1, 30.9], [-91.7, 31.7], [-91.7, 32.5], [-90.9, 33.3], [-90.0, 34.1], [-89.2, 34.7], [-88.3, 35.2], [-86.9, 35.9], [-86.1, 36.4], [-85.2, 36.2]]}, "properties": {"model": "UE02", "label": "ECMWF Ens 02", "kind": "ensemble", "group": "ensemble", "cycle": "2021082800"}}, {"type": "Feature", "geometry": {"type": "LineString", "coordinates": [[-83.1, 22.3], [-84.3, 23.4], [-85.3, 24.4], [-86.3, 25.3], [-87.2, 26.3], [-88.2, 27.2], [-88.9, 28.5], [-90.0, 29.3], [-90.6, 30.0], [-90.8, 30.8], [-90.8, 31.5], [-90.6, 32.5], [-90.1, 33.5], [-89.7, 34.1], [-88.8, 35.0], [-88.3, 35.9], [-87.2, 36.4], [-85.8, 36.9], [-84.3, 37.9], [-82.9, 38.2], [-81.8, 38.1], [-80.8, 38.9], [-79.0, 38.3], [-79.1, 37.8]]}, "properties": {"model": "UE03", "label": "ECMWF Ens 03", "kind": "ensemble", "group": "ensemble", "cycle": "2021082800"}}, {"type": "Feature", "geometry": {"type": "LineString", "coordinates": [[-83.3, 22.1], [-84.7, 23.0], [-85.3, 23.8], [-86.5, 24.6], [-87.5, 25.4], [-88.3, 26.4], [-89.2, 27.6], [-90.3, 28.3], [-90.9, 28.9], [-91.6, 29.6], [-91.9, 30.4], [-92.2, 30.8], [-92.0, 31.4], [-92.0, 32.1], [-91.7, 32.7], [-90.9, 33.2], [-90.5, 34.1], [-90.1, 34.6], [-89.5, 35.1], [-89.4, 35.1], [-89.1, 35.2], [-89.2, 35.4], [-89.2, 35.4], [-89.4, 35.5], [-90.0, 35.3], [-90.9, 35.2]]}, "properties": {"model": "UE04", "label": "ECMWF Ens 04", "kind": "ensemble", "group": "ensemble", "cycle": "2021082800"}}, {"type": "Feature", "geometry": {"type": "LineString", "coordinates": [[-83.3, 22.4], [-84.7, 23.2], [-85.7, 23.8], [-86.4, 24.5], [-87.5, 25.4], [-88.5, 26.3], [-89.4, 27.2], [-90.3, 28.1], [-91.1, 28.7], [-91.8, 29.3], [-91.9, 29.8], [-92.0, 30.3], [-91.5, 31.2], [-91.2, 32.4], [-90.6, 33.2], [-89.7, 33.9], [-88.8, 34.9], [-88.3, 35.5], [-87.4, 35.6], [-86.5, 35.6], [-85.6, 35.8], [-85.4, 36.0]]}, "properties": {"model": "UE05", "label": "ECMWF Ens 05", "kind": "ensemble", "group": "ensemble", "cycle": "2021082800"}}, {"type": "Feature", "geometry": {"type": "LineString", "coordinates": [[-83.4, 22.7], [-84.7, 23.6], [-85.7, 24.4], [-86.8, 25.1], [-87.8, 25.9], [-88.9, 26.8], [-89.8, 27.8], [-90.8, 28.5], [-91.2, 29.3], [-92.3, 30.1], [-92.7, 30.8], [-92.8, 30.9], [-92.3, 31.5], [-91.7, 32.1], [-90.8, 32.9], [-90.1, 33.8], [-89.4, 34.5], [-88.9, 34.9], [-87.7, 35.3], [-86.7, 36.0], [-85.7, 36.6], [-84.7, 36.4]]}, "properties": {"model": "UE06", "label": "ECMWF Ens 06", "kind": "ensemble", "group": "ensemble", "cycle": "2021082800"}}, {"type": "Feature", "geometry": {"type": "LineString", "coordinates": [[-83.8, 22.4], [-84.9, 23.1], [-85.8, 24.1], [-86.9, 25.0], [-88.1, 25.9], [-89.1, 26.7], [-89.9, 27.6], [-90.9, 28.3], [-91.7, 28.8], [-92.3, 29.3], [-92.8, 29.8], [-92.9, 30.4], [-93.1, 30.9], [-92.8, 31.3], [-92.6, 32.0], [-92.5, 32.5], [-92.2, 32.7], [-91.9, 33.0], [-91.7, 33.3], [-91.7, 33.4], [-91.5, 33.4], [-91.5, 33.6], [-91.4, 33.6], [-90.4, 34.0], [-89.7, 33.8], [-88.3, 34.4], [-87.4, 34.7], [-87.1, 34.7]]}, "properties": {"model": "UE07", "label": "ECMWF Ens 07", "kind": "ensemble", "group": "ensemble", "cycle": "2021082800"}}, {"type": "Feature", "geometry": {"type": "LineString", "coordinates": [[-83.5, 22.5], [-85.2, 23.1], [-86.1, 23.4], [-86.9, 24.4], [-88.1, 25.3], [-89.4, 26.1], [-90.5, 26.7], [-91.4, 27.4], [-92.5, 27.9], [-93.3, 28.3], [-93.9, 28.5], [-94.0, 28.9], [-94.0, 29.2], [-93.9, 29.7], [-93.7, 30.2], [-93.7, 30.6], [-93.3, 30.9], [-93.1, 31.7], [-93.0, 32.2], [-93.1, 32.6], [-93.4, 33.0], [-94.0, 33.3], [-94.4, 33.6], [-94.7, 34.2]]}, "properties": {"model": "UE08", "label": "ECMWF Ens 08", "kind": "ensemble", "group": "ensemble", "cycle": "2021082800"}}, {"type": "Feature", "geometry": {"type": "LineString", "coordinates": [[-83.3, 22.7], [-84.5, 23.7], [-85.6, 24.6], [-86.8, 25.5], [-88.0, 26.2], [-89.1, 27.0], [-90.0, 27.9], [-91.2, 28.4], [-91.9, 28.7], [-92.3, 29.0], [-92.4, 29.5], [-92.6, 30.0], [-92.3, 30.5], [-92.1, 31.2], [-91.7, 32.1], [-91.7, 33.2], [-91.7, 33.8], [-91.4, 34.1], [-90.9, 34.5], [-90.8, 35.0], [-90.8, 35.4], [-91.0, 35.6], [-91.4, 35.6], [-91.4, 35.6], [-91.3, 35.7], [-91.1, 36.9], [-91.5, 37.5]]}, "properties": {"model": "UE09", "label": "ECMWF Ens 09", "kind": "ensemble", "group": "ensemble", "cycle": "2021082800"}}, {"type": "Feature", "geometry": {"type": "LineString", "coordinates": [[-83.2, 22.5], [-84.5, 23.9], [-85.5, 24.6], [-86.4, 25.4], [-87.5, 26.3], [-88.4, 27.0], [-88.9, 27.8], [-89.7, 28.3], [-90.0, 28.7], [-90.2, 29.0], [-90.3, 29.6], [-89.8, 30.1], [-89.5, 31.1], [-89.4, 31.9], [-89.2, 32.6], [-88.7, 33.0], [-88.1, 33.5], [-87.5, 33.7], [-86.3, 34.3]]}, "properties": {"model": "UE10", "label": "ECMWF Ens 10", "kind": "ensemble", "group": "ensemble", "cycle": "2021082800"}}, {"type": "Feature", "geometry": {"type": "LineString", "coordinates": [[-83.8, 22.4], [-84.7, 22.9], [-85.5, 24.0], [-86.6, 25.0], [-87.7, 26.2], [-88.9, 27.2], [-89.7, 28.5], [-90.9, 29.4], [-91.9, 30.0], [-92.4, 30.4], [-92.6, 30.9], [-92.5, 31.3], [-92.3, 32.0], [-92.2, 32.5], [-91.3, 32.8], [-90.4, 33.6], [-89.4, 34.4], [-89.0, 35.2], [-88.1, 35.6], [-86.9, 35.9], [-85.8, 35.8], [-84.9, 35.9], [-84.7, 35.9], [-82.7, 36.4], [-83.5, 36.5]]}, "properties": {"model": "UE11", "label": "ECMWF Ens 11", "kind": "ensemble", "group": "ensemble", "cycle": "2021082800"}}, {"type": "Feature", "geometry": {"type": "LineString", "coordinates": [[-83.4, 22.6], [-84.7, 23.4], [-85.5, 24.3], [-86.6, 25.2], [-87.5, 26.1], [-88.6, 26.9], [-89.5, 27.9], [-90.6, 28.6], [-91.4, 29.1], [-92.2, 29.5], [-92.5, 30.0], [-93.0, 30.5], [-93.1, 31.1], [-93.3, 31.8], [-93.1, 32.5], [-92.9, 32.8], [-92.9, 33.1], [-92.8, 33.2], [-92.9, 33.4], [-93.1, 33.2], [-92.8, 33.0], [-92.6, 33.4], [-92.5, 33.7]]}, "properties": {"model": "UE12", "label": "ECMWF Ens 12", "kind": "ensemble", "group": "ensemble", "cycle": "2021082800"}}, {"type": "Feature", "geometry": {"type": "LineString", "coordinates": [[-83.5, 22.5], [-84.7, 23.4], [-85.7, 24.1], [-86.9, 25.0], [-87.8, 25.9], [-88.9, 27.0], [-90.0, 28.0], [-90.9, 28.7], [-91.6, 29.6], [-92.3, 30.2], [-92.8, 30.7], [-92.8, 31.0], [-92.8, 31.7], [-92.8, 32.3], [-92.5, 33.0], [-92.3, 33.4], [-91.8, 33.8], [-92.0, 34.2], [-91.9, 34.3], [-92.2, 34.3], [-92.4, 34.3], [-92.8, 34.6], [-92.8, 34.8]]}, "properties": {"model": "UE13", "label": "ECMWF Ens 13", "kind": "ensemble", "group": "ensemble", "cycle": "2021082800"}}, {"type": "Feature", "geometry": {"type": "LineString", "coordinates": [[-83.3, 22.4], [-84.6, 23.3], [-85.4, 24.1], [-86.6, 25.1], [-87.4, 25.7], [-88.3, 26.6], [-89.2, 27.6], [-90.3, 28.3], [-91.1, 29.2], [-91.7, 30.0], [-92.2, 30.8], [-92.4, 31.4], [-92.2, 32.0], [-91.8, 32.8], [-91.2, 33.8], [-90.6, 34.7], [-89.5, 35.4], [-88.3, 36.3], [-86.6, 37.5], [-85.4, 37.9], [-83.8, 38.3], [-82.4, 38.6], [-78.4, 39.2], [-75.3, 40.1], [-69.4, 42.2], [-66.8, 44.9], [-65.0, 46.3], [-63.8, 47.9], [-63.2, 48.9], [-62.8, 50.1], [-63.0, 51.0], [-62.9, 51.2], [-61.4, 51.7]]}, "properties": {"model": "UE14", "label": "ECMWF Ens 14", "kind": "ensemble", "group": "ensemble", "cycle": "2021082800"}}, {"type": "Feature", "geometry": {"type": "LineString", "coordinates": [[-83.5, 22.4], [-85.0, 23.4], [-86.1, 23.8], [-87.0, 24.5], [-87.8, 25.3], [-88.8, 26.1], [-89.6, 27.1], [-90.3, 27.8], [-90.8, 28.3], [-91.4, 28.9], [-91.5, 29.3], [-91.2, 29.6], [-90.8, 30.2], [-90.1, 30.8], [-89.4, 31.6], [-88.8, 32.3], [-88.1, 32.9], [-87.8, 33.0], [-87.4, 33.2], [-87.2, 32.8], [-86.5, 32.6], [-86.3, 32.8], [-85.9, 33.2], [-86.3, 33.8]]}, "properties": {"model": "UE15", "label": "ECMWF Ens 15", "kind": "ensemble", "group": "ensemble", "cycle": "2021082800"}}, {"type": "Feature", "geometry": {"type": "LineString", "coordinates": [[-83.4, 22.5], [-84.7, 23.3], [-85.6, 24.0], [-86.5, 24.8], [-87.5, 25.8], [-88.6, 26.6], [-89.2, 27.5], [-90.0, 28.3], [-90.6, 29.1], [-91.2, 29.6], [-91.4, 30.3], [-91.7, 30.9], [-91.7, 31.6], [-91.7, 32.1], [-91.1, 32.9], [-90.9, 33.2], [-90.3, 33.6], [-90.2, 34.0], [-90.1, 34.1], [-90.5, 33.6], [-90.2, 33.1], [-90.0, 33.0], [-90.2, 32.6]]}, "properties": {"model": "UE16", "label": "ECMWF Ens 16", "kind": "ensemble", "group": "ensemble", "cycle": "2021082800"}}, {"type": "Feature", "geometry": {"type": "LineString", "coordinates": [[-83.4, 22.8], [-84.6, 23.7], [-85.8, 24.5], [-86.9, 25.3], [-88.0, 26.0], [-88.9, 26.8], [-89.7, 27.6], [-90.8, 28.4], [-91.4, 29.0], [-92.0, 29.8], [-92.5, 30.5], [-92.5, 31.3], [-92.3, 32.2], [-92.2, 33.2], [-91.6, 34.1], [-91.5, 35.1], [-91.1, 35.4], [-89.9, 35.8], [-89.1, 36.4], [-88.3, 36.6], [-87.1, 37.2], [-86.6, 37.5], [-85.3, 37.7], [-84.9, 37.9], [-82.1, 37.7]]}, "properties": {"model": "UE17", "label": "ECMWF Ens 17", "kind": "ensemble", "group": "ensemble", "cycle": "2021082800"}}, {"type": "Feature", "geometry": {"type": "LineString", "coordinates": [[-82.9, 22.4], [-84.1, 23.3], [-84.9, 24.2], [-86.0, 24.9], [-86.9, 25.7], [-88.1, 26.3], [-88.9, 26.9], [-89.7, 27.4], [-90.4, 28.0], [-91.1, 28.5], [-91.4, 29.1], [-91.6, 29.6], [-91.7, 30.2], [-91.7, 30.7], [-91.4, 31.1], [-91.1, 31.6], [-90.6, 32.1], [-90.4, 32.6], [-90.3, 33.0], [-90.2, 33.0], [-90.2, 33.4], [-90.5, 33.6], [-90.6, 33.7], [-90.9, 33.7], [-91.2, 33.4], [-91.1, 33.1], [-91.1, 33.2]]}, "properties": {"model": "UE18", "label": "ECMWF Ens 18", "kind": "ensemble", "group": "ensemble", "cycle": "2021082800"}}, {"type": "Feature", "geometry": {"type": "LineString", "coordinates": [[-83.2, 22.1], [-84.6, 23.2], [-85.5, 23.9], [-86.4, 24.7], [-87.7, 25.7], [-88.8, 26.5], [-89.7, 27.2], [-90.3, 28.0], [-90.9, 28.6], [-91.2, 29.1], [-91.4, 29.8], [-91.6, 30.1], [-91.4, 30.7], [-91.4, 31.5], [-91.4, 32.3], [-91.4, 32.7], [-90.8, 33.0], [-90.2, 33.5], [-90.3, 34.6], [-90.8, 34.7], [-91.2, 34.2], [-91.7, 34.1], [-92.0, 33.7], [-92.2, 33.6]]}, "properties": {"model": "UE19", "label": "ECMWF Ens 19", "kind": "ensemble", "group": "ensemble", "cycle": "2021082800"}}, {"type": "Feature", "geometry": {"type": "LineString", "coordinates": [[-83.1, 22.5], [-84.4, 23.2], [-85.2, 24.2], [-86.3, 25.2], [-87.2, 26.3], [-88.1, 27.0], [-89.1, 27.7], [-89.8, 28.1], [-90.3, 28.4], [-90.6, 28.5], [-90.6, 28.9], [-90.6, 29.3], [-90.6, 29.6], [-90.7, 29.8], [-90.5, 30.1], [-90.6, 30.2], [-90.6, 30.2], [-90.6, 30.2], [-90.6, 30.4], [-91.1, 30.6], [-91.6, 30.6], [-92.0, 30.2], [-92.5, 30.6], [-93.1, 30.6], [-94.2, 30.8], [-95.3, 30.8], [-96.2, 31.1], [-96.5, 31.5], [-96.8, 32.8], [-97.9, 33.6], [-97.8, 34.7], [-97.6, 35.9], [-96.9, 37.2]]}, "properties": {"model": "UE20", "label": "ECMWF Ens 20", "kind": "ensemble", "group": "ensemble", "cycle": "2021082800"}}, {"type": "Feature", "geometry": {"type": "LineString", "coordinates": [[-82.9, 22.4], [-84.1, 23.4], [-85.2, 24.4], [-86.4, 25.3], [-87.9, 26.1], [-89.3, 26.8], [-90.4, 27.4], [-91.7, 27.8], [-92.3, 28.3], [-92.8, 28.5], [-93.1, 29.1], [-93.4, 29.4], [-93.7, 29.8], [-93.9, 29.9], [-93.7, 30.1], [-93.7, 30.4], [-93.7, 30.8], [-93.9, 31.0], [-94.3, 31.5], [-95.0, 31.3], [-95.4, 31.4], [-96.4, 31.5], [-96.6, 31.9], [-97.1, 31.9], [-97.9, 32.4], [-98.5, 32.8], [-98.5, 33.3], [-98.7, 33.9]]}, "properties": {"model": "UE21", "label": "ECMWF Ens 21", "kind": "ensemble", "group": "ensemble", "cycle": "2021082800"}}, {"type": "Feature", "geometry": {"type": "LineString", "coordinates": [[-83.0, 22.4], [-84.1, 23.4], [-85.2, 24.4], [-86.3, 25.3], [-87.5, 26.2], [-88.8, 27.1], [-90.1, 28.0], [-91.1, 28.4], [-91.7, 28.7], [-92.1, 28.9], [-92.1, 29.4], [-92.0, 30.0], [-91.9, 30.8], [-91.5, 31.5], [-91.4, 32.3], [-90.9, 32.6], [-90.3, 33.0], [-89.9, 33.4], [-89.6, 33.6], [-89.2, 33.7], [-88.8, 34.0], [-88.9, 34.3], [-89.1, 34.3], [-89.2, 34.1], [-89.3, 34.1], [-89.5, 34.4]]}, "properties": {"model": "UE22", "label": "ECMWF Ens 22", "kind": "ensemble", "group": "ensemble", "cycle": "2021082800"}}, {"type": "Feature", "geometry": {"type": "LineString", "coordinates": [[-83.3, 22.0], [-84.7, 23.0], [-85.8, 23.6], [-86.6, 24.4], [-87.5, 25.5], [-88.8, 26.6], [-90.1, 27.3], [-91.1, 27.9], [-91.7, 28.3], [-92.2, 28.8], [-92.3, 29.2], [-92.2, 29.6], [-92.1, 30.2], [-92.0, 30.7], [-91.7, 31.2], [-91.4, 31.5], [-91.3, 31.9], [-90.9, 32.0], [-90.6, 32.4], [-90.8, 32.5], [-90.8, 32.4], [-90.8, 32.5], [-90.6, 33.0], [-90.8, 33.2], [-91.4, 33.1], [-91.8, 33.4], [-91.2, 33.4], [-90.7, 33.7]]}, "properties": {"model": "UE23", "label": "ECMWF Ens 23", "kind": "ensemble", "group": "ensemble", "cycle": "2021082800"}}, {"type": "Feature", "geometry": {"type": "LineString", "coordinates": [[-83.8, 22.1], [-85.2, 22.7], [-86.3, 23.3], [-87.2, 24.0], [-88.3, 24.7], [-89.2, 25.7], [-90.1, 26.9], [-90.9, 27.8], [-91.7, 28.5], [-92.5, 29.0], [-92.7, 29.4], [-92.8, 29.6], [-92.8, 30.2], [-93.0, 30.7], [-92.8, 31.3], [-92.7, 31.8], [-93.1, 31.5], [-93.1, 31.7], [-93.2, 31.5], [-93.3, 31.3], [-93.9, 30.9], [-94.5, 31.5]]}, "properties": {"model": "UE24", "label": "ECMWF Ens 24", "kind": "ensemble", "group": "ensemble", "cycle": "2021082800"}}, {"type": "Feature", "geometry": {"type": "LineString", "coordinates": [[-83.6, 22.2], [-85.0, 23.2], [-86.1, 24.0], [-87.2, 24.7], [-88.2, 25.5], [-89.2, 26.3], [-90.2, 27.3], [-91.1, 28.1], [-91.7, 28.6], [-92.3, 29.0], [-92.4, 29.6], [-92.5, 30.1], [-92.6, 30.9], [-92.6, 31.1], [-92.2, 31.7], [-91.7, 32.4], [-91.4, 33.1], [-91.4, 33.4], [-91.2, 33.6], [-91.4, 33.6], [-91.6, 33.5], [-92.2, 33.4], [-92.6, 33.3], [-93.1, 33.4]]}, "properties": {"model": "UE25", "label": "ECMWF Ens 25", "kind": "ensemble", "group": "ensemble", "cycle": "2021082800"}}, {"type": "Feature", "geometry": {"type": "LineString", "coordinates": [[-83.3, 22.6], [-84.5, 23.3], [-85.6, 24.3], [-86.7, 25.1], [-87.8, 26.1], [-89.1, 27.1], [-90.3, 28.0], [-91.1, 28.7], [-91.7, 29.3], [-92.2, 29.8], [-92.6, 30.5], [-93.0, 31.0], [-92.9, 31.7], [-92.6, 32.3], [-91.9, 32.9], [-91.1, 33.6], [-90.3, 34.1], [-89.4, 34.5], [-88.5, 34.9], [-87.7, 34.9], [-86.6, 34.9], [-85.7, 35.1], [-84.7, 34.3]]}, "properties": {"model": "UE26", "label": "ECMWF Ens 26", "kind": "ensemble", "group": "ensemble", "cycle": "2021082800"}}, {"type": "Feature", "geometry": {"type": "LineString", "coordinates": [[-83.5, 22.5], [-84.9, 23.2], [-86.1, 24.0], [-87.2, 24.9], [-88.2, 25.7], [-89.4, 26.3], [-90.2, 27.2], [-91.1, 27.9], [-91.4, 28.8], [-92.0, 29.4], [-92.2, 30.2], [-92.5, 30.8], [-92.3, 31.5], [-92.2, 32.2], [-91.6, 33.2], [-91.3, 33.8], [-90.6, 33.9], [-90.0, 34.3], [-90.0, 34.6], [-90.0, 34.1], [-90.0, 33.7], [-90.3, 33.7]]}, "properties": {"model": "UE27", "label": "ECMWF Ens 27", "kind": "ensemble", "group": "ensemble", "cycle": "2021082800"}}, {"type": "Feature", "geometry": {"type": "LineString", "coordinates": [[-83.3, 22.4], [-84.6, 23.4], [-85.7, 24.5], [-86.9, 25.1], [-87.8, 26.0], [-88.8, 27.0], [-89.8, 27.9], [-90.9, 28.8], [-91.6, 29.2], [-91.7, 29.6], [-91.7, 30.2], [-91.7, 30.9], [-91.4, 31.9], [-91.4, 32.6], [-90.9, 33.3], [-90.5, 34.0], [-90.3, 34.6], [-90.5, 34.3], [-89.8, 34.1], [-89.5, 34.1], [-89.2, 33.9]]}, "properties": {"model": "UE28", "label": "ECMWF Ens 28", "kind": "ensemble", "group": "ensemble", "cycle": "2021082800"}}, {"type": "Feature", "geometry": {"type": "LineString", "coordinates": [[-83.5, 22.4], [-84.6, 23.1], [-85.6, 24.0], [-86.5, 24.6], [-87.4, 25.7], [-88.6, 26.4], [-89.5, 27.0], [-90.4, 27.6], [-91.1, 28.1], [-91.5, 28.5], [-91.6, 28.9], [-91.7, 29.6], [-91.9, 30.4], [-92.2, 30.9], [-92.0, 31.4], [-91.9, 31.8], [-91.5, 32.1], [-91.4, 32.8], [-91.4, 33.1], [-91.4, 33.2], [-91.5, 33.7], [-92.2, 34.1], [-92.5, 34.6], [-93.6, 35.7]]}, "properties": {"model": "UE29", "label": "ECMWF Ens 29", "kind": "ensemble", "group": "ensemble", "cycle": "2021082800"}}, {"type": "Feature", "geometry": {"type": "LineString", "coordinates": [[-83.3, 22.5], [-84.7, 23.2], [-85.8, 24.0], [-86.9, 24.9], [-88.0, 25.6], [-89.4, 26.5], [-90.3, 27.1], [-91.6, 27.6], [-92.3, 27.9], [-92.6, 28.5], [-93.0, 29.0], [-93.1, 29.6], [-93.3, 30.3], [-93.4, 31.0], [-93.4, 31.6], [-93.1, 32.1], [-93.1, 32.4], [-92.8, 32.6], [-92.3, 33.4], [-92.5, 33.2], [-92.3, 33.2], [-92.3, 33.4], [-91.7, 33.6], [-91.9, 33.8], [-91.4, 33.7], [-91.2, 34.5], [-92.2, 35.2], [-92.4, 35.3]]}, "properties": {"model": "UE30", "label": "ECMWF Ens 30", "kind": "ensemble", "group": "ensemble", "cycle": "2021082800"}}, {"type": "Feature", "geometry": {"type": "LineString", "coordinates": [[-83.5, 22.6], [-84.7, 23.1], [-85.7, 23.7], [-86.5, 24.3], [-87.4, 25.3], [-88.8, 26.2], [-89.7, 26.8], [-90.8, 27.4], [-91.6, 27.8], [-92.2, 27.9], [-92.5, 28.2], [-92.8, 28.4], [-92.5, 28.9], [-92.4, 29.4], [-92.3, 29.8], [-92.3, 30.2], [-92.2, 30.4], [-91.9, 31.0], [-91.8, 31.3], [-92.2, 31.7], [-92.7, 31.7], [-93.2, 31.5], [-93.4, 31.8], [-93.7, 32.3]]}, "properties": {"model": "UE31", "label": "ECMWF Ens 31", "kind": "ensemble", "group": "ensemble", "cycle": "2021082800"}}, {"type": "Feature", "geometry": {"type": "LineString", "coordinates": [[-83.4, 21.9], [-84.7, 22.9], [-85.8, 23.9], [-86.9, 24.6], [-88.0, 25.5], [-89.4, 26.2], [-90.5, 26.8], [-91.1, 27.4], [-91.9, 28.2], [-92.5, 28.9], [-92.8, 29.5], [-93.3, 30.1], [-93.7, 30.6], [-93.9, 31.1], [-93.5, 31.5], [-93.3, 32.1], [-92.8, 32.3], [-92.9, 32.7], [-92.6, 32.8], [-92.8, 32.8], [-93.1, 32.6], [-93.6, 32.6], [-94.2, 32.2], [-94.2, 31.7], [-94.0, 31.9], [-94.2, 32.4], [-94.2, 33.1], [-95.0, 32.9]]}, "properties": {"model": "UE32", "label": "ECMWF Ens 32", "kind": "ensemble", "group": "ensemble", "cycle": "2021082800"}}, {"type": "Feature", "geometry": {"type": "LineString", "coordinates": [[-83.5, 22.3], [-84.4, 22.9], [-85.0, 24.0], [-86.1, 25.1], [-87.3, 26.2], [-88.6, 27.2], [-89.8, 27.9], [-90.9, 28.5], [-91.6, 28.9], [-92.0, 29.4], [-92.0, 29.9], [-92.0, 30.4], [-91.4, 31.2], [-91.1, 32.1], [-90.2, 32.8], [-89.7, 33.5], [-89.2, 34.1], [-88.9, 33.8], [-87.8, 33.6], [-87.5, 33.8], [-87.5, 33.2], [-87.4, 32.8], [-86.8, 32.8]]}, "properties": {"model": "UE33", "label": "ECMWF Ens 33", "kind": "ensemble", "group": "ensemble", "cycle": "2021082800"}}, {"type": "Feature", "geometry": {"type": "LineString", "coordinates": [[-83.0, 21.9], [-84.1, 22.7], [-85.1, 23.6], [-86.3, 24.5], [-87.5, 25.3], [-88.7, 26.1], [-90.0, 26.7], [-90.9, 27.0], [-91.4, 27.5], [-91.7, 28.1], [-91.7, 28.7], [-91.7, 29.6], [-91.7, 30.6], [-91.6, 31.5], [-91.4, 32.4], [-90.6, 33.4], [-90.3, 34.3], [-89.7, 34.9], [-88.6, 35.3], [-87.8, 35.7], [-87.4, 36.0], [-86.9, 35.8], [-86.4, 35.9]]}, "properties": {"model": "UE34", "label": "ECMWF Ens 34", "kind": "ensemble", "group": "ensemble", "cycle": "2021082800"}}, {"type": "Feature", "geometry": {"type": "LineString", "coordinates": [[-83.3, 22.5], [-84.7, 23.1], [-85.7, 23.9], [-86.7, 24.7], [-87.7, 25.5], [-88.9, 26.4], [-89.9, 27.2], [-90.8, 27.8], [-91.7, 28.4], [-92.2, 28.8], [-92.3, 29.3], [-92.5, 29.8], [-92.4, 30.5], [-92.3, 31.1], [-92.0, 31.7], [-91.9, 32.4], [-91.6, 32.8], [-91.4, 33.2], [-91.4, 33.4], [-91.2, 33.3], [-91.1, 33.3], [-90.9, 33.4], [-90.6, 33.7], [-90.6, 33.9], [-90.8, 33.6], [-90.8, 33.6], [-91.4, 34.1], [-91.6, 34.2]]}, "properties": {"model": "UE35", "label": "ECMWF Ens 35", "kind": "ensemble", "group": "ensemble", "cycle": "2021082800"}}, {"type": "Feature", "geometry": {"type": "LineString", "coordinates": [[-83.5, 22.6], [-84.5, 23.5], [-85.6, 24.7], [-86.7, 25.6], [-87.9, 26.6], [-89.1, 27.4], [-90.1, 28.2], [-91.1, 29.0], [-91.6, 29.6], [-92.2, 30.1], [-92.4, 30.8], [-92.4, 31.5], [-92.0, 32.3], [-91.8, 33.0], [-91.1, 34.0], [-90.2, 35.1], [-89.5, 35.8], [-89.0, 35.9], [-88.0, 36.2], [-86.8, 36.5], [-86.0, 36.5], [-85.6, 36.2], [-85.3, 35.8], [-85.2, 35.0], [-85.7, 34.2], [-86.8, 33.3], [-87.7, 32.4], [-88.8, 31.7], [-90.5, 30.5], [-91.3, 29.9], [-92.3, 29.7], [-93.6, 30.0], [-94.0, 30.2]]}, "properties": {"model": "AP02", "label": "GEFS 02", "kind": "ensemble", "group": "ensemble", "cycle": "2021082800"}}, {"type": "Feature", "geometry": {"type": "LineString", "coordinates": [[-83.4, 22.8], [-84.5, 23.8], [-85.5, 24.8], [-86.5, 25.8], [-87.4, 26.9], [-88.5, 27.9], [-89.4, 29.0], [-90.1, 29.8], [-90.6, 30.9], [-90.9, 31.8], [-90.7, 32.7], [-90.2, 33.6], [-89.2, 34.5], [-88.2, 35.7], [-86.7, 37.0], [-85.1, 37.8], [-83.2, 38.1], [-80.1, 39.8], [-77.5, 40.7], [-75.1, 41.4], [-72.2, 42.4], [-69.8, 43.5], [-66.5, 44.3], [-62.6, 46.0], [-59.3, 47.5], [-56.5, 48.1], [-52.0, 49.6], [-47.6, 51.3], [-42.7, 53.5], [-39.2, 55.7], [-38.2, 57.0], [-36.2, 58.0], [-33.1, 59.7]]}, "properties": {"model": "AP05", "label": "GEFS 05", "kind": "ensemble", "group": "ensemble", "cycle": "2021082800"}}, {"type": "Feature", "geometry": {"type": "LineString", "coordinates": [[-83.6, 22.3], [-85.1, 22.8], [-86.0, 23.5], [-87.0, 24.6], [-88.0, 25.6], [-89.1, 26.6], [-90.2, 27.7], [-91.1, 28.7], [-91.8, 29.5], [-92.5, 30.3], [-92.5, 31.2], [-92.4, 32.3], [-92.2, 33.3], [-91.9, 34.2], [-91.5, 35.0], [-90.7, 35.8], [-89.5, 36.4], [-88.1, 37.2], [-86.5, 38.6], [-85.7, 38.3], [-84.6, 37.9], [-82.8, 38.0], [-81.4, 38.4], [-80.7, 37.9], [-81.3, 37.0], [-83.3, 36.0], [-85.2, 34.2]]}, "properties": {"model": "AP09", "label": "GEFS 09", "kind": "ensemble", "group": "ensemble", "cycle": "2021082800"}}, {"type": "Feature", "geometry": {"type": "LineString", "coordinates": [[-83.5, 22.3], [-84.8, 22.9], [-85.8, 23.7], [-86.8, 24.5], [-87.8, 25.4], [-88.8, 26.3], [-89.8, 27.2], [-90.5, 28.1], [-91.0, 29.0], [-91.2, 30.0], [-91.4, 31.2], [-91.3, 32.4], [-90.9, 33.7], [-90.5, 34.7], [-89.7, 35.8], [-88.7, 36.7], [-87.1, 37.7], [-86.2, 38.3], [-84.9, 38.6], [-84.0, 37.9], [-82.9, 37.3], [-81.5, 37.7], [-80.7, 37.0], [-80.7, 36.6], [-80.8, 35.0]]}, "properties": {"model": "AP10", "label": "GEFS 10", "kind": "ensemble", "group": "ensemble", "cycle": "2021082800"}}, {"type": "Feature", "geometry": {"type": "LineString", "coordinates": [[-83.2, 22.4], [-84.4, 23.2], [-85.5, 24.1], [-86.4, 25.0], [-87.3, 25.8], [-88.2, 26.5], [-89.0, 27.2], [-90.0, 27.8], [-90.7, 28.4], [-91.4, 29.0], [-91.5, 29.8], [-91.5, 30.9], [-91.4, 31.9], [-91.2, 32.7], [-91.0, 33.6], [-90.8, 34.0], [-90.4, 34.3], [-90.1, 34.4], [-89.3, 35.1], [-88.6, 35.9], [-88.3, 35.9], [-88.4, 35.9], [-89.0, 35.5], [-89.6, 34.9], [-90.2, 34.8], [-91.0, 34.8]]}, "properties": {"model": "AP11", "label": "GEFS 11", "kind": "ensemble", "group": "ensemble", "cycle": "2021082800"}}, {"type": "Feature", "geometry": {"type": "LineString", "coordinates": [[-83.3, 22.7], [-84.4, 23.7], [-85.5, 24.6], [-86.7, 25.3], [-87.8, 26.2], [-89.0, 26.9], [-89.7, 27.7], [-90.5, 28.5], [-90.9, 29.0], [-91.3, 29.7], [-91.2, 30.3], [-91.2, 30.8], [-90.7, 31.3], [-90.6, 31.6], [-90.0, 32.1], [-89.1, 32.8], [-88.3, 33.4], [-87.6, 34.4], [-86.8, 35.2], [-85.6, 35.5], [-84.2, 35.5]]}, "properties": {"model": "AP12", "label": "GEFS 12", "kind": "ensemble", "group": "ensemble", "cycle": "2021082800"}}, {"type": "Feature", "geometry": {"type": "LineString", "coordinates": [[-83.6, 22.4], [-84.9, 23.2], [-86.0, 24.0], [-87.1, 24.9], [-88.1, 25.7], [-89.3, 26.5], [-90.2, 27.3], [-90.9, 28.1], [-91.3, 28.7], [-91.5, 29.5], [-91.4, 30.6], [-91.4, 31.6], [-91.2, 32.6], [-91.0, 33.4], [-90.4, 34.4], [-89.7, 35.4], [-88.9, 36.3], [-87.8, 37.2], [-86.6, 38.1], [-85.2, 38.9], [-84.0, 39.2], [-83.4, 39.2], [-83.4, 38.8], [-83.5, 37.9], [-83.3, 37.2], [-83.1, 35.7], [-83.1, 34.9], [-84.4, 35.0], [-84.9, 34.5], [-86.2, 34.5], [-87.2, 34.3], [-88.8, 33.4]]}, "properties": {"model": "AP16", "label": "GEFS 16", "kind": "ensemble", "group": "ensemble", "cycle": "2021082800"}}, {"type": "Feature", "geometry": {"type": "LineString", "coordinates": [[-83.5, 22.5], [-84.6, 23.4], [-85.6, 24.1], [-86.6, 25.0], [-87.5, 25.9], [-88.4, 26.7], [-89.2, 27.6], [-90.0, 28.3], [-90.7, 28.9], [-91.2, 29.4], [-91.6, 30.0], [-91.8, 30.6], [-91.8, 31.4], [-91.9, 31.9], [-91.8, 32.8], [-91.9, 33.5], [-91.7, 33.9], [-91.6, 34.1], [-91.5, 34.4], [-91.4, 34.3], [-91.4, 34.3], [-91.4, 34.6], [-91.7, 35.2], [-92.4, 35.4], [-92.6, 35.8], [-93.0, 36.6]]}, "properties": {"model": "AP17", "label": "GEFS 17", "kind": "ensemble", "group": "ensemble", "cycle": "2021082800"}}, {"type": "Feature", "geometry": {"type": "LineString", "coordinates": [[-83.6, 22.4], [-84.6, 23.2], [-85.6, 24.3], [-86.7, 25.2], [-87.6, 26.1], [-88.7, 27.1], [-89.5, 27.9], [-89.9, 28.6], [-90.0, 29.5], [-90.1, 30.4], [-89.8, 31.4], [-89.6, 32.3], [-89.0, 33.0], [-88.6, 33.6], [-87.8, 35.2], [-87.2, 36.1], [-85.9, 36.6], [-84.3, 37.5], [-82.7, 38.3]]}, "properties": {"model": "AP19", "label": "GEFS 19", "kind": "ensemble", "group": "ensemble", "cycle": "2021082800"}}, {"type": "Feature", "geometry": {"type": "LineString", "coordinates": [[-83.4, 22.6], [-84.5, 23.5], [-85.6, 24.3], [-86.7, 25.2], [-87.8, 26.2], [-89.0, 27.0], [-89.8, 27.9], [-90.7, 28.7], [-91.2, 29.6], [-91.3, 30.2], [-91.2, 31.0], [-90.9, 31.6], [-90.3, 32.4], [-90.2, 33.2], [-89.6, 33.9], [-88.8, 34.7], [-87.5, 35.8], [-86.9, 36.3], [-85.5, 37.5], [-84.2, 38.4], [-81.9, 39.3], [-80.1, 40.0]]}, "properties": {"model": "AP20", "label": "GEFS 20", "kind": "ensemble", "group": "ensemble", "cycle": "2021082800"}}, {"type": "Feature", "geometry": {"type": "LineString", "coordinates": [[-83.5, 22.5], [-84.5, 23.4], [-85.4, 24.4], [-86.6, 25.9], [-88.0, 27.0], [-89.1, 28.1], [-89.7, 29.2], [-90.5, 30.3], [-90.8, 31.5], [-90.9, 32.5], [-90.6, 33.5], [-90.1, 34.6], [-89.2, 35.9], [-88.4, 37.0], [-87.1, 37.9], [-85.3, 38.7], [-82.3, 39.8], [-79.7, 40.6], [-76.2, 41.3], [-72.7, 42.1], [-69.1, 42.9], [-66.2, 43.7], [-63.7, 44.6], [-61.4, 44.8], [-59.2, 44.7], [-55.8, 45.3], [-53.3, 45.3], [-50.6, 45.9], [-48.3, 45.8], [-45.7, 46.6], [-43.2, 47.6], [-40.3, 48.4], [-38.0, 49.0]]}, "properties": {"model": "AP24", "label": "GEFS 24", "kind": "ensemble", "group": "ensemble", "cycle": "2021082800"}}, {"type": "Feature", "geometry": {"type": "LineString", "coordinates": [[-83.3, 22.5], [-84.5, 23.3], [-85.7, 24.2], [-86.9, 25.0], [-88.0, 25.8], [-89.1, 26.5], [-89.9, 27.5], [-90.5, 28.4], [-90.8, 29.3], [-90.9, 30.1], [-90.3, 31.2], [-89.9, 32.2], [-89.2, 33.1], [-88.5, 33.8], [-87.6, 34.5], [-86.5, 35.1], [-85.2, 35.5], [-84.4, 35.6], [-82.4, 34.9], [-81.1, 34.9], [-79.7, 36.9], [-78.2, 39.0], [-76.8, 39.7], [-75.1, 39.2], [-74.2, 39.3], [-73.4, 39.3], [-73.9, 38.5], [-75.8, 37.0], [-76.5, 36.8], [-77.1, 37.0], [-77.9, 37.1], [-79.0, 36.2], [-79.6, 36.5]]}, "properties": {"model": "AP26", "label": "GEFS 26", "kind": "ensemble", "group": "ensemble", "cycle": "2021082800"}}, {"type": "Feature", "geometry": {"type": "LineString", "coordinates": [[-83.7, 22.5], [-84.9, 23.0], [-85.9, 23.9], [-87.0, 24.7], [-88.1, 25.5], [-89.3, 26.3], [-90.4, 27.1], [-91.3, 27.9], [-91.9, 28.7], [-92.3, 29.6], [-92.6, 30.6], [-92.6, 31.7], [-92.5, 32.8], [-92.4, 33.7], [-91.9, 34.7], [-91.2, 35.6], [-90.2, 36.4], [-89.3, 37.1], [-88.4, 37.8], [-87.6, 37.9], [-86.7, 37.8], [-86.0, 37.7], [-85.3, 37.7], [-84.8, 37.6], [-84.8, 37.3], [-85.1, 36.9], [-85.5, 36.6], [-85.9, 35.9], [-86.3, 35.0], [-86.7, 34.3], [-87.1, 33.6], [-87.7, 32.1], [-88.8, 30.7]]}, "properties": {"model": "AP30", "label": "GEFS 30", "kind": "ensemble", "group": "ensemble", "cycle": "2021082800"}}, {"type": "Feature", "geometry": {"type": "LineString", "coordinates": [[-82.7, 21.6], [-84.7, 23.6], [-86.5, 25.6], [-88.3, 27.9], [-89.8, 30.0], [-90.7, 32.0], [-90.6, 33.7], [-89.6, 35.2], [-87.7, 36.3], [-84.9, 37.0], [-80.4, 37.8], [-74.6, 39.0], [-71.0, 38.8], [-67.5, 38.3], [-62.9, 38.6]]}, "properties": {"model": "CMCI", "label": "CMC (interpolated)", "kind": "physics", "group": "deterministic", "cycle": "2021082718"}}, {"type": "Feature", "geometry": {"type": "LineString", "coordinates": [[-83.5, 22.5], [-84.8, 23.4], [-86.0, 24.7], [-87.2, 25.4], [-87.9, 26.5], [-89.0, 27.5], [-89.8, 28.5], [-90.2, 29.4], [-90.8, 30.1], [-90.7, 31.0], [-90.5, 32.0], [-90.3, 32.7], [-89.9, 33.6], [-89.1, 34.1], [-87.8, 34.9], [-86.7, 35.5], [-85.5, 36.0], [-83.7, 36.6], [-82.0, 37.4], [-79.6, 37.1], [-76.5, 37.4]]}, "properties": {"model": "COTC", "label": "COAMPS-TC (interpolated)", "kind": "physics", "group": "deterministic", "cycle": "2021082800"}}, {"type": "Feature", "geometry": {"type": "LineString", "coordinates": [[-83.4, 22.3], [-84.9, 23.4], [-86.0, 24.3], [-86.9, 25.2], [-87.8, 26.3], [-88.9, 27.2], [-89.6, 28.1], [-90.4, 28.8], [-91.0, 29.4], [-91.1, 30.0], [-91.2, 30.7], [-91.2, 31.5], [-90.9, 32.1], [-90.7, 32.8], [-90.2, 33.6], [-89.8, 34.3], [-89.5, 34.8], [-89.2, 34.8], [-88.4, 35.1], [-87.8, 35.4], [-87.0, 35.9], [-86.4, 36.4], [-86.0, 36.8], [-86.0, 36.7], [-86.0, 36.5], [-86.0, 36.5], [-85.8, 36.6], [-85.5, 36.8], [-85.3, 37.1], [-85.3, 37.6], [-84.9, 38.1]]}, "properties": {"model": "NVGM", "label": "NAVGEM", "kind": "physics", "group": "deterministic", "cycle": "2021082800"}}, {"type": "Feature", "geometry": {"type": "LineString", "coordinates": [[-83.5, 22.5], [-85.6, 24.4], [-87.7, 26.2], [-89.6, 27.8], [-90.8, 29.2], [-91.2, 30.6], [-90.9, 32.1], [-89.9, 33.6], [-88.6, 34.9], [-86.7, 36.0], [-84.4, 37.0], [-81.0, 38.6], [-79.9, 39.6], [-73.8, 41.2], [-71.0, 41.7]]}, "properties": {"model": "TVCA", "label": "Consensus", "kind": "consensus", "group": "consensus", "cycle": "2021082800"}}, {"type": "Feature", "geometry": {"type": "LineString", "coordinates": [[-83.5, 22.5], [-85.6, 24.4], [-87.7, 26.2], [-89.6, 27.8], [-90.8, 29.2], [-91.2, 30.6], [-90.9, 32.1], [-89.9, 33.6], [-88.6, 34.9], [-86.7, 36.0], [-84.4, 37.0], [-81.0, 38.6], [-79.9, 39.6], [-73.8, 41.2], [-71.0, 41.7]]}, "properties": {"model": "TVCN", "label": "TVCN Consensus", "kind": "consensus", "group": "consensus", "cycle": "2021082800"}}, {"type": "Feature", "geometry": {"type": "LineString", "coordinates": [[-80.9, 19.5], [-82.9, 21.3], [-85.0, 23.0], [-87.0, 24.9], [-89.0, 26.7], [-90.7, 28.3], [-91.6, 29.6], [-91.5, 31.0], [-90.7, 32.7], [-89.4, 34.2], [-87.6, 35.2], [-85.5, 36.0], [-83.1, 36.6], [-80.7, 36.8], [-78.7, 36.2]]}, "properties": {"model": "EMXI", "label": "ECMWF", "kind": "physics", "group": "deterministic", "cycle": "2021082706"}}, {"type": "Feature", "geometry": {"type": "LineString", "coordinates": [[-83.5, 22.5], [-85.6, 24.3], [-87.7, 26.0], [-89.6, 27.7], [-90.8, 29.2], [-91.2, 30.7], [-90.6, 32.4], [-89.3, 34.1], [-87.1, 35.8], [-83.8, 37.5], [-79.2, 39.4], [-75.0, 41.2], [-71.9, 42.2], [-68.9, 43.1], [-65.5, 43.8]]}, "properties": {"model": "GFEX", "label": "GFS Ensemble Mean", "kind": "consensus", "group": "consensus", "cycle": "2021082800"}}, {"type": "Feature", "geometry": {"type": "LineString", "coordinates": [[-83.5, 22.5], [-84.0, 23.0], [-85.6, 24.4], [-87.7, 26.1], [-89.6, 27.8], [-90.8, 29.2], [-91.0, 30.7], [-90.6, 32.3], [-88.2, 34.9], [-83.9, 36.8], [-79.1, 38.6]]}, "properties": {"model": "OFCL", "label": "Official", "kind": "official", "group": "official", "cycle": "2021082800"}}, {"type": "Feature", "geometry": {"type": "LineString", "coordinates": [[-82.7, 21.6], [-84.8, 23.4], [-87.1, 25.2], [-89.2, 26.8], [-91.1, 28.3], [-92.3, 29.5], [-92.6, 30.7], [-92.4, 32.2], [-92.0, 33.6], [-91.8, 34.7], [-91.7, 35.3], [-91.7, 35.8], [-91.8, 36.3]]}, "properties": {"model": "EGRI", "label": "UKMET (interpolated)", "kind": "physics", "group": "deterministic", "cycle": "2021082718"}}]}