{"type": "FeatureCollection", "features": [{"type": "Feature", "properties": {"shapefile": "al092021-007_5day_lin", "STORMNAME": "Ida", "STORMTYPE": "HU", "ADVDATE": "1100 PM EDT Fri Aug 27 2021", "ADVISNUM": "7", "STORMNUM": 9, "FCSTPRD": 120, "BASIN": "AL"}, "geometry": {"type": "LineString", "coordinates": [[-84.0, 23.0], [-85.6, 24.4], [-87.7, 26.1], [-89.6, 27.8], [-90.8, 29.2], [-91.0, 30.7], [-90.6, 32.3], [-88.2, 34.9], [-83.9, 36.8]]}}, {"type": "Feature", "properties": {"shapefile": "al092021-007_5day_pts", "ADVDATE": "1100 PM EDT Fri Aug 27 2021", "ADVISNUM": "7", "BASIN": "AL", "DATELBL": "11:00 PM Fri", "DVLBL": "H", "FCSTPRD": 120, "FLDATELBL": "2021-08-27 8:00 PM Fri EDT", "GUST": 85, "LAT": 23, "LON": -84, "MAXWIND": 70, "MSLP": 989, "SSNUM": 1, "STORMNAME": "Hurricane Ida", "STORMNUM": 9, "STORMSRC": "Tropical Cyclone", "STORMTYPE": "HU", "TCDVLP": "Hurricane", "TAU": 0, "TCDIR": 320, "TCSPD": 13, "TIMEZONE": "EDT", "VALIDTIME": "28/0000"}, "geometry": {"type": "Point", "coordinates": [-84.0, 23.0]}}, {"type": "Feature", "properties": {"shapefile": "al092021-007_5day_pts", "ADVDATE": "1100 PM EDT Fri Aug 27 2021", "ADVISNUM": "7", "BASIN": "AL", "DATELBL": "8:00 AM Sat", "DVLBL": "H", "FCSTPRD": 120, "FLDATELBL": "2021-08-28 8:00 AM Sat EDT", "GUST": 105, "LAT": 24, "LON": -85, "MAXWIND": 85, "MSLP": 9999, "SSNUM": 2, "STORMNAME": "Hurricane Ida", "STORMNUM": 9, "STORMSRC": "Tropical Cyclone", "STORMTYPE": "HU", "TCDVLP": "Hurricane", "TAU": 12, "TCDIR": 9999, "TCSPD": 9999, "TIMEZONE": "EDT", "VALIDTIME": "28/1200"}, "geometry": {"type": "Point", "coordinates": [-85.6, 24.4]}}, {"type": "Feature", "properties": {"shapefile": "al092021-007_5day_pts", "ADVDATE": "1100 PM EDT Fri Aug 27 2021", "ADVISNUM": "7", "BASIN": "AL", "DATELBL": "8:00 PM Sat", "DVLBL": "M", "FCSTPRD": 120, "FLDATELBL": "2021-08-28 8:00 PM Sat EDT", "GUST": 130, "LAT": 26, "LON": -87, "MAXWIND": 105, "MSLP": 9999, "SSNUM": 3, "STORMNAME": "Hurricane Ida", "STORMNUM": 9, "STORMSRC": "Tropical Cyclone", "STORMTYPE": "MH", "TCDVLP": "Major Hurricane", "TAU": 24, "TCDIR": 9999, "TCSPD": 9999, "TIMEZONE": "EDT", "VALIDTIME": "29/0000"}, "geometry": {"type": "Point", "coordinates": [-87.7, 26.1]}}, {"type": "Feature", "properties": {"shapefile": "al092021-007_5day_pts", "ADVDATE": "1100 PM EDT Fri Aug 27 2021", "ADVISNUM": "7", "BASIN": "AL", "DATELBL": "8:00 AM Sun", "DVLBL": "M", "FCSTPRD": 120, "FLDATELBL": "2021-08-29 8:00 AM Sun EDT", "GUST": 145, "LAT": 27, "LON": -89, "MAXWIND": 120, "MSLP": 9999, "SSNUM": 4, "STORMNAME": "Hurricane Ida", "STORMNUM": 9, "STORMSRC": "Tropical Cyclone", "STORMTYPE": "MH", "TCDVLP": "Major Hurricane", "TAU": 36, "TCDIR": 9999, "TCSPD": 9999, "TIMEZONE": "EDT", "VALIDTIME": "29/1200"}, "geometry": {"type": "Point", "coordinates": [-89.6, 27.8]}}, {"type": "Feature", "properties": {"shapefile": "al092021-007_5day_pts", "ADVDATE": "1100 PM EDT Fri Aug 27 2021", "ADVISNUM": "7", "BASIN": "AL", "DATELBL": "8:00 PM Sun", "DVLBL": "M", "FCSTPRD": 120, "FLDATELBL": "2021-08-29 8:00 PM Sun EDT", "GUST": 135, "LAT": 29, "LON": -90, "MAXWIND": 110, "MSLP": 9999, "SSNUM": 3, "STORMNAME": "Hurricane Ida", "STORMNUM": 9, "STORMSRC": "Tropical Cyclone", "STORMTYPE": "MH", "TCDVLP": "Major Hurricane", "TAU": 48, "TCDIR": 9999, "TCSPD": 9999, "TIMEZONE": "EDT", "VALIDTIME": "30/0000"}, "geometry": {"type": "Point", "coordinates": [-90.8, 29.2]}}, {"type": "Feature", "properties": {"shapefile": "al092021-007_5day_pts", "ADVDATE": "1100 PM EDT Fri Aug 27 2021", "ADVISNUM": "7", "BASIN": "AL", "DATELBL": "8:00 AM Mon", "DVLBL": "S", "FCSTPRD": 120, "FLDATELBL": "2021-08-30 8:00 AM Mon EDT", "GUST": 75, "LAT": 30, "LON": -91, "MAXWIND": 60, "MSLP": 9999, "SSNUM": 0, "STORMNAME": "Hurricane Ida", "STORMNUM": 9, "STORMSRC": "Tropical Cyclone", "STORMTYPE": "TS", "TCDVLP": "Tropical Storm", "TAU": 60, "TCDIR": 9999, "TCSPD": 9999, "TIMEZONE": "EDT", "VALIDTIME": "30/1200"}, "geometry": {"type": "Point", "coordinates": [-91.0, 30.7]}}, {"type": "Feature", "properties": {"shapefile": "al092021-007_5day_pts", "ADVDATE": "1100 PM EDT Fri Aug 27 2021", "ADVISNUM": "7", "BASIN": "AL", "DATELBL": "8:00 PM Mon", "DVLBL": "S", "FCSTPRD": 120, "FLDATELBL": "2021-08-30 8:00 PM Mon EDT", "GUST": 45, "LAT": 32, "LON": -90, "MAXWIND": 35, "MSLP": 9999, "SSNUM": 0, "STORMNAME": "Hurricane Ida", "STORMNUM": 9, "STORMSRC": "Tropical Cyclone", "STORMTYPE": "TS", "TCDVLP": "Tropical Storm", "TAU": 72, "TCDIR": 9999, "TCSPD": 9999, "TIMEZONE": "EDT", "VALIDTIME": "31/0000"}, "geometry": {"type": "Point", "coordinates": [-90.6, 32.3]}}, {"type": "Feature", "properties": {"shapefile": "al092021-007_5day_pts", "ADVDATE": "1100 PM EDT Fri Aug 27 2021", "ADVISNUM": "7", "BASIN": "AL", "DATELBL": "8:00 PM Tue", "DVLBL": "D", "FCSTPRD": 120, "FLDATELBL": "2021-08-31 8:00 PM Tue EDT", "GUST": 35, "LAT": 34, "LON": -88, "MAXWIND": 25, "MSLP": 9999, "SSNUM": 0, "STORMNAME": "Hurricane Ida", "STORMNUM": 9, "STORMSRC": "Tropical Cyclone", "STORMTYPE": "TD", "TCDVLP": "Tropical Depression", "TAU": 96, "TCDIR": 9999, "TCSPD": 9999, "TIMEZONE": "EDT", "VALIDTIME": "01/0000"}, "geometry": {"type": "Point", "coordinates": [-88.2, 34.9]}}, {"type": "Feature", "properties": {"shapefile": "al092021-007_5day_pts", "ADVDATE": "1100 PM EDT Fri Aug 27 2021", "ADVISNUM": "7", "BASIN": "AL", "DATELBL": "8:00 PM Wed", "DVLBL": "D", "FCSTPRD": 120, "FLDATELBL": "2021-09-01 8:00 PM Wed EDT", "GUST": 30, "LAT": 36, "LON": -83, "MAXWIND": 20, "MSLP": 9999, "SSNUM": 0, "STORMNAME": "Hurricane Ida", "STORMNUM": 9, "STORMSRC": "Post-Tropical Cyclone", "STORMTYPE": "STD", "TCDVLP": "Subtropical Depression", "TAU": 120, "TCDIR": 9999, "TCSPD": 9999, "TIMEZONE": "EDT", "VALIDTIME": "02/0000"}, "geometry": {"type": "Point", "coordinates": [-83.9, 36.8]}}]}