{"type": "FeatureCollection", "features": [{"type": "Feature", "properties": {"shapefile": "al092021_2021082803_initialradii", "RADII": 34, "STORMID": "al092021", "BASIN": "al", "STORMNUM": 9, "ADVNUM": "7", "VALIDTIME": "2021082803", "SYNOPTIME": "2021082800", "TIMEZONE": "UTC", "TAU": 0, "NE": 100, "SE": 60, "SW": 40, "NW": 70}, "geometry": {"type": "Polygon", "coordinates": [[[-83.985733, 24.4153976], [-83.9584427, 24.4204884], [-83.930954, 24.4251366], [-83.9032822, 24.4293404], [-83.875412, 24.4330883], [-83.847374, 24.4363785], [-83.8191757, 24.439209], [-83.7908096, 24.4415722], [-83.7623138, 24.4434681], [-83.7336731, 24.444891], [-83.704895, 24.4458332], [-83.6760025, 24.4462967], [-83.6470032, 24.4462757], [-83.6179123, 24.4457645], [-83.5887299, 24.4447632], [-83.5594635, 24.4432659], [-83.5301437, 24.4412727], [-83.5007477, 24.4387817], [-83.4713135, 24.4357872], [-83.4418411, 24.4322891], [-83.4123306, 24.4282837], [-83.3828278, 24.4237671], [-83.353302, 24.4187412], [-83.3237915, 24.4132042], [-83.2942963, 24.4071541], [-83.2648239, 24.4005871], [-83.2353897, 24.393507], [-83.2060165, 24.38591], [-83.1766891, 24.3777962], [-83.1474304, 24.3691635], [-83.1182632, 24.3600121], [-83.0892029, 24.3503437], [-83.0602188, 24.3401566], [-83.0313721, 24.3294525], [-83.0026398, 24.3182316], [-82.9740524, 24.3064957], [-82.9456177, 24.2942429], [-82.9173279, 24.281477], [-82.8892212, 24.2681961], [-82.8612976, 24.2544041], [-82.8335648, 24.2401047], [-82.8066101, 24.2247963], [-82.7810287, 24.2080116], [-82.7568665, 24.1897907], [-82.7341843, 24.1701717], [-82.7130203, 24.1492004], [-82.6934128, 24.126915], [-82.675415, 24.1033669], [-82.6590652, 24.0785923], [-82.6444016, 24.0526428], [-82.6309052, 24.0260639], [-82.6180115, 23.9993706], [-82.6057053, 23.9725819], [-82.594017, 23.9456997], [-82.5829163, 23.9187412], [-82.5724335, 23.891716], [-82.5625381, 23.8646336], [-82.5532455, 23.8375053], [-82.5445404, 23.8103428], [-82.536438, 23.7831573], [-82.528923, 23.7559586], [-82.5220032, 23.7287521], [-82.5156555, 23.7015591], [-82.509903, 23.6743832], [-82.5047302, 23.647234], [-82.500145, 23.6201229], [-82.4961243, 23.5930634], [-82.4926758, 23.566061], [-82.4897995, 23.5391273], [-82.4874802, 23.5122738], [-82.4857254, 23.4855042], [-82.4845276, 23.4588375], [-82.4838715, 23.4322777], [-82.483757, 23.4058361], [-82.4841919, 23.3795185], [-82.4851456, 23.3533401], [-82.4866486, 23.3273048], [-82.488678, 23.301424], [-82.4912109, 23.2757034], [-82.4942551, 23.2501564], [-82.4978104, 23.2247887], [-82.5018616, 23.1996078], [-82.506424, 23.1746254], [-82.5114517, 23.149847], [-82.5169754, 23.1252823], [-82.5229645, 23.100935], [-82.5294189, 23.0768204], [-82.5363464, 23.0529385], [-82.5437164, 23.0293007], [-82.5515366, 23.0059128], [-82.5597839, 22.9827805], [-82.5684738, 22.9599152], [-82.5775833, 22.9373207], [-82.5871048, 22.9150047], [-82.5970306, 22.892971], [-82.6073608, 22.8712292], [-82.6180801, 22.8497849], [-82.6291885, 22.8286438], [-82.6406555, 22.8078079], [-82.6524963, 22.7872887], [-82.6647034, 22.7670898], [-82.6772537, 22.7472134], [-82.6901474, 22.7276688], [-82.7033615, 22.7084579], [-82.7169037, 22.6895866], [-82.7307663, 22.6710587], [-82.7449265, 22.6528797], [-82.7593842, 22.6350517], [-82.7741394, 22.6175785], [-82.7891541, 22.6004696], [-82.804451, 22.5837212], [-82.8199921, 22.5673447], [-82.8358002, 22.5513363], [-82.8518372, 22.5356998], [-82.8681259, 22.5204411], [-82.8846054, 22.5055618], [-82.9013214, 22.491066], [-82.9182281, 22.4769554], [-82.9353333, 22.4632282], [-82.9526215, 22.4498882], [-82.9700928, 22.4369431], [-82.9877243, 22.424387], [-83.0055161, 22.4122238], [-83.0234528, 22.4004536], [-83.0415268, 22.389082], [-83.0597229, 22.3781052], [-83.0780411, 22.3675232], [-83.0964737, 22.3573437], [-83.1150131, 22.347559], [-83.1336288, 22.3381729], [-83.1523361, 22.3291855], [-83.1709518, 22.3204479], [-83.1893463, 22.3118057], [-83.207489, 22.3032513], [-83.2253952, 22.2947693], [-83.2430725, 22.2863541], [-83.2605286, 22.2779942], [-83.277771, 22.2696838], [-83.2947845, 22.2614059], [-83.3115768, 22.2531548], [-83.3283005, 22.2450695], [-83.3451462, 22.2372971], [-83.3620605, 22.2298317], [-83.3790588, 22.2226772], [-83.3961334, 22.2158356], [-83.413269, 22.2093067], [-83.4304733, 22.2030869], [-83.4477234, 22.1971817], [-83.4650345, 22.1915855], [-83.4823837, 22.1863041], [-83.4997635, 22.1813297], [-83.5171738, 22.176672], [-83.5346069, 22.1723194], [-83.5520554, 22.1682796], [-83.569519, 22.164547], [-83.5869675, 22.1611233], [-83.6044388, 22.1580048], [-83.6218796, 22.1551933], [-83.6393127, 22.1526871], [-83.6567307, 22.1504841], [-83.674118, 22.1485825], [-83.6914825, 22.1469822], [-83.7087936, 22.1456814], [-83.726059, 22.1446762], [-83.7432938, 22.1439629], [-83.7604446, 22.1435471], [-83.7775574, 22.1434193], [-83.7945862, 22.1435814], [-83.8115387, 22.1440315], [-83.8284149, 22.1447678], [-83.8452148, 22.1457825], [-83.8619232, 22.1470795], [-83.87854, 22.1486511], [-83.8950424, 22.1504993], [-83.9114456, 22.1526184], [-83.9277344, 22.1550045], [-83.9439087, 22.1576576], [-83.9599686, 22.160574], [-83.9758987, 22.1637516], [-83.991684, 22.1671829], [-84.0073547, 22.1708698], [-84.0228653, 22.1748047], [-84.0382385, 22.1789856], [-84.0534668, 22.1834145], [-84.0685425, 22.1880779], [-84.0834579, 22.1929817], [-84.0982132, 22.1981125], [-84.112793, 22.203474], [-84.1272049, 22.2090588], [-84.1414413, 22.2148666], [-84.1554871, 22.22089], [-84.1693649, 22.2271252], [-84.1830597, 22.2335701], [-84.1965637, 22.2402191], [-84.2098694, 22.2470684], [-84.2229691, 22.2541161], [-84.2358704, 22.2613525], [-84.2485733, 22.2687778], [-84.2610779, 22.2763863], [-84.2733688, 22.284174], [-84.2854309, 22.2921371], [-84.297287, 22.3002701], [-84.3089294, 22.308567], [-84.3203506, 22.3170223], [-84.3315506, 22.3256378], [-84.342514, 22.334404], [-84.3532562, 22.3433151], [-84.3637619, 22.3523712], [-84.3740311, 22.3615646], [-84.384079, 22.3708878], [-84.3938904, 22.3803406], [-84.40345, 22.3899174], [-84.4127808, 22.3996124], [-84.4218674, 22.4094181], [-84.4307098, 22.4193363], [-84.4393082, 22.4293594], [-84.4476624, 22.439476], [-84.4557648, 22.4496899], [-84.463623, 22.4599934], [-84.4712296, 22.4703827], [-84.4785919, 22.4808464], [-84.4860916, 22.4910278], [-84.4941559, 22.5005722], [-84.5028, 22.5095081], [-84.5120544, 22.5178547], [-84.5219421, 22.525631], [-84.5325089, 22.5328636], [-84.5437393, 22.5395737], [-84.555687, 22.5457859], [-84.5683517, 22.5515308], [-84.5813828, 22.5571899], [-84.5943604, 22.5631313], [-84.6072922, 22.569355], [-84.620163, 22.5758591], [-84.6329727, 22.582653], [-84.6457214, 22.5897293], [-84.6583939, 22.597084], [-84.6709824, 22.6047268], [-84.6834869, 22.612648], [-84.6958923, 22.6208553], [-84.7081985, 22.6293411], [-84.7203903, 22.6381054], [-84.7324524, 22.6471519], [-84.7444153, 22.6564732], [-84.7562332, 22.6660767], [-84.7679138, 22.675951], [-84.7794571, 22.6861], [-84.7908554, 22.6965237], [-84.8020935, 22.7072163], [-84.8131561, 22.7181778], [-84.8240585, 22.7294083], [-84.8347702, 22.7408981], [-84.845314, 22.7526512], [-84.8556595, 22.7646656], [-84.8658066, 22.7769318], [-84.8757401, 22.7894554], [-84.8854752, 22.8022308], [-84.8949966, 22.8152542], [-84.9042892, 22.8285236], [-84.913353, 22.8420334], [-84.9221725, 22.8557816], [-84.9307556, 22.8697643], [-84.9390945, 22.8839798], [-84.9471741, 22.8984203], [-84.9549866, 22.9130859], [-84.9625397, 22.927969], [-84.9698105, 22.9430695], [-84.9768066, 22.9583797], [-84.9835205, 22.973896], [-84.9899445, 22.9896145], [-84.9960632, 23.0055294], [-85.0018845, 23.0216389], [-85.0074005, 23.0379353], [-85.0126038, 23.0544109], [-85.0174866, 23.0710678], [-85.0220337, 23.0878925], [-85.0262604, 23.104887], [-85.0301514, 23.1220398], [-85.0337067, 23.1393509], [-85.0369186, 23.1568089], [-85.0397873, 23.1744156], [-85.0422897, 23.1921597], [-85.0444489, 23.2100334], [-85.0462341, 23.2280369], [-85.0476532, 23.2461586], [-85.0487061, 23.2643948], [-85.0493851, 23.2827377], [-85.0496826, 23.301178], [-85.0495911, 23.3197136], [-85.0491333, 23.3383369], [-85.0482788, 23.3570423], [-85.04702, 23.3758183], [-85.0453796, 23.3946648], [-85.0433273, 23.4135723], [-85.0408783, 23.4325333], [-85.0380325, 23.4515362], [-85.0347672, 23.4705791], [-85.0310974, 23.4896526], [-85.0270157, 23.5087509], [-85.022522, 23.5278683], [-85.0176086, 23.5469913], [-85.0122757, 23.5661201], [-85.0065231, 23.5852375], [-85.000351, 23.6043434], [-84.9937515, 23.6234283], [-84.9867325, 23.6424828], [-84.9792786, 23.6615028], [-84.971405, 23.6804733], [-84.9631042, 23.6993961], [-84.9543762, 23.718256], [-84.9452209, 23.7370491], [-84.9356384, 23.755764], [-84.9256287, 23.774395], [-84.9151917, 23.7929344], [-84.9043198, 23.8113747], [-84.8930206, 23.8297043], [-84.8812943, 23.8479195], [-84.8691559, 23.8660088], [-84.8565826, 23.8839645], [-84.8435822, 23.9017811], [-84.8301697, 23.9194508], [-84.8163223, 23.9369621], [-84.802063, 23.9543076], [-84.787384, 23.9714813], [-84.7723007, 23.9884739], [-84.7567902, 24.0052795], [-84.7408752, 24.0218868], [-84.724556, 24.03829], [-84.7078323, 24.0544796], [-84.6907043, 24.0704498], [-84.6731873, 24.0861893], [-84.6552582, 24.1016922], [-84.6369476, 24.1169529], [-84.6182556, 24.1319637], [-84.5991745, 24.1467113], [-84.5797119, 24.1611938], [-84.5598755, 24.175396], [-84.5396652, 24.1893196], [-84.5190887, 24.2029552], [-84.4981537, 24.2162914], [-84.4768677, 24.2293224], [-84.4552307, 24.2420425], [-84.4332428, 24.2544441], [-84.4109192, 24.2665195], [-84.3882599, 24.2782612], [-84.3652725, 24.2896633], [-84.3419724, 24.3007145], [-84.3183517, 24.3114147], [-84.2944183, 24.3217545], [-84.2701797, 24.3317261], [-84.2456512, 24.3413219], [-84.2208405, 24.3505402], [-84.1957397, 24.3593731], [-84.170372, 24.3678112], [-84.144722, 24.3758507], [-84.1188278, 24.3834877], [-84.0926819, 24.3907127], [-84.0662842, 24.3975201], [-84.0396576, 24.4039097], [-84.0127945, 24.4098701], [-83.985733, 24.4153976]]]}}, {"type": "Feature", "properties": {"shapefile": "al092021_2021082803_initialradii", "RADII": 50, "STORMID": "al092021", "BASIN": "al", "STORMNUM": 9, "ADVNUM": "7", "VALIDTIME": "2021082803", "SYNOPTIME": "2021082800", "TIMEZONE": "UTC", "TAU": 0, "NE": 50, "SE": 30, "SW": 0, "NW": 30}, "geometry": {"type": "Polygon", "coordinates": [[[-83.9931793, 23.6666183], [-83.9803772, 23.6700974], [-83.9674301, 23.6733704], [-83.9543533, 23.6764297], [-83.9411469, 23.6792755], [-83.9278259, 23.6819019], [-83.9143906, 23.6843071], [-83.9008408, 23.6864872], [-83.8871689, 23.6884422], [-83.8733978, 23.6901646], [-83.8595276, 23.6916561], [-83.8455582, 23.6929111], [-83.8314972, 23.6939297], [-83.8173523, 23.694706], [-83.8031311, 23.69524], [-83.7888336, 23.6955318], [-83.7744598, 23.6955719], [-83.7600174, 23.695364], [-83.7455139, 23.6949005], [-83.7309723, 23.6941853], [-83.7163696, 23.6932125], [-83.7017136, 23.6919823], [-83.6870346, 23.6904926], [-83.6723099, 23.6887436], [-83.6575623, 23.6867313], [-83.6427917, 23.6844559], [-83.6279984, 23.6819134], [-83.6131973, 23.6791039], [-83.5983887, 23.6760254], [-83.58358, 23.6726818], [-83.568779, 23.6690655], [-83.5539856, 23.6651802], [-83.5392227, 23.6610203], [-83.5244827, 23.6565914], [-83.509758, 23.6518879], [-83.495079, 23.6469097], [-83.4804382, 23.6416607], [-83.4658508, 23.6361389], [-83.4513092, 23.6303425], [-83.4368286, 23.6242714], [-83.4224167, 23.6179276], [-83.4083862, 23.6110249], [-83.3950958, 23.6032906], [-83.382576, 23.5947475], [-83.370842, 23.5854168], [-83.3599243, 23.575325], [-83.3498535, 23.5644913], [-83.3406372, 23.5529404], [-83.3323135, 23.540699], [-83.324913, 23.527792], [-83.3181152, 23.5145302], [-83.311615, 23.5012131], [-83.3054199, 23.4878426], [-83.2995224, 23.4744282], [-83.2939224, 23.4609737], [-83.28862, 23.447485], [-83.2836151, 23.4339638], [-83.2789001, 23.4204178], [-83.2745056, 23.4068584], [-83.2703781, 23.3932838], [-83.2665558, 23.3796997], [-83.263031, 23.3661118], [-83.2597961, 23.3525295], [-83.2568512, 23.3389511], [-83.2541885, 23.3253899], [-83.2518234, 23.3118458], [-83.2497406, 23.2983227], [-83.2479401, 23.284832], [-83.2464294, 23.2713718], [-83.2452011, 23.2579498], [-83.2442322, 23.2445679], [-83.2435608, 23.2312393], [-83.2431564, 23.2179585], [-83.2430267, 23.2047367], [-83.2431717, 23.191576], [-83.2435837, 23.178484], [-83.2442551, 23.1654587], [-83.2451935, 23.1525135], [-83.246376, 23.1396465], [-83.2478333, 23.1268654], [-83.2495422, 23.114172], [-83.2514954, 23.101572], [-83.2536926, 23.0890694], [-83.2561493, 23.0766678], [-83.2588348, 23.0643711], [-83.2617569, 23.0521851], [-83.2649231, 23.0401096], [-83.2683182, 23.0281506], [-83.2719421, 23.0163155], [-83.2757874, 23.0046043], [-83.2798462, 22.9930191], [-83.2841339, 22.9815655], [-83.2886276, 22.9702492], [-83.2933426, 22.9590683], [-83.2982407, 22.9480305], [-83.3033524, 22.9371357], [-83.3086624, 22.9263897], [-83.3141632, 22.9157944], [-83.3198547, 22.9053516], [-83.325737, 22.8950672], [-83.3317871, 22.8849411], [-83.3380127, 22.8749771], [-83.3444214, 22.8651791], [-83.3509903, 22.855545], [-83.3577271, 22.8460789], [-83.3646164, 22.8367882], [-83.3716736, 22.8276711], [-83.3788681, 22.8187294], [-83.3862152, 22.8099651], [-83.3936996, 22.8013821], [-83.4013214, 22.7929783], [-83.4090652, 22.7847595], [-83.4169464, 22.7767258], [-83.4249496, 22.7688789], [-83.4330673, 22.7612209], [-83.4412994, 22.7537518], [-83.4496384, 22.7464733], [-83.4580917, 22.7393894], [-83.4666367, 22.7324982], [-83.4752655, 22.7257996], [-83.4839935, 22.7192974], [-83.4927979, 22.7129917], [-83.5017014, 22.7068844], [-83.5106583, 22.7009697], [-83.5196915, 22.6952591], [-83.5287933, 22.689743], [-83.5379562, 22.6844254], [-83.5471878, 22.6793098], [-83.5564575, 22.6743908], [-83.565773, 22.669672], [-83.5751343, 22.6651535], [-83.58461, 22.6609097], [-83.5942688, 22.6570129], [-83.6041107, 22.6534691], [-83.6141052, 22.6502857], [-83.6242523, 22.6474648], [-83.6345444, 22.6450119], [-83.6449661, 22.6429272], [-83.6555099, 22.6412201], [-83.6661682, 22.6398869], [-83.6768417, 22.6388626], [-83.6874466, 22.6380692], [-83.6979828, 22.6375046], [-83.7084579, 22.6371689], [-83.7188416, 22.6370564], [-83.7291489, 22.6371651], [-83.7393494, 22.6374912], [-83.7494659, 22.6380386], [-83.7594757, 22.6387978], [-83.7693787, 22.6397667], [-83.7791824, 22.6409435], [-83.7888718, 22.6423225], [-83.7984314, 22.6439018], [-83.8078766, 22.6456795], [-83.8171768, 22.6476498], [-83.8263474, 22.6498108], [-83.8353958, 22.6521568], [-83.8442917, 22.654686], [-83.8530426, 22.6573925], [-83.8616409, 22.6602745], [-83.8700867, 22.6633282], [-83.8783722, 22.6665478], [-83.8865051, 22.6699295], [-83.8944626, 22.6734695], [-83.9022522, 22.6771622], [-83.9098816, 22.6810074], [-83.9173279, 22.6849957], [-83.9245911, 22.6891232], [-83.9316711, 22.6933861], [-83.9385757, 22.6977863], [-83.9452896, 22.7023087], [-83.9518127, 22.706955], [-83.9581528, 22.7117176], [-83.9642868, 22.7165909], [-83.9702377, 22.7215786], [-83.9759827, 22.7266636], [-83.9815216, 22.7318497], [-83.9868546, 22.7371292], [-83.9919891, 22.7424965], [-83.9969177, 22.7479477], [-84.0016327, 22.7534752], [-84.006134, 22.7590771], [-84.0104446, 22.7647476], [-84.0145264, 22.7704811], [-84.0183945, 22.7762718], [-84.0220642, 22.7821159], [-84.0254974, 22.7880077], [-84.0287247, 22.7939415], [-84.031723, 22.7999134], [-84.0345154, 22.8059177], [-84.0371017, 22.8119507], [-84.0394592, 22.8180027], [-84.0415955, 22.8240738], [-84.0435257, 22.8301563], [-84.0452271, 22.8362465], [-84.0467148, 22.8423367], [-84.0480042, 22.8484249], [-84.0490494, 22.8545017], [-84.0498962, 22.8605671], [-84.0505219, 22.8666134], [-84.0509415, 22.8726349], [-84.0511322, 22.8786278], [-84.0511246, 22.8845863], [-84.0509109, 22.8905067], [-84.0504913, 22.8963833], [-84.0498581, 22.9022102], [-84.0490189, 22.9079857], [-84.0479736, 22.913702], [-84.0467453, 22.9193516], [-84.0453033, 22.9249401], [-84.0436707, 22.9304523], [-84.0418396, 22.9358902], [-84.0398102, 22.9412441], [-84.0376053, 22.9465122], [-84.035202, 22.9516964], [-84.0326233, 22.9567795], [-84.0298538, 22.9617596], [-84.0269165, 22.9666424], [-84.0237961, 22.9714146], [-84.0205154, 22.976078], [-84.0170593, 22.9806252], [-84.0139084, 22.984621], [-84.0115814, 22.9876499], [-84.0101013, 22.9897423], [-84.0095291, 22.9909286], [-84.0098572, 22.9912357], [-84.0111465, 22.990696], [-84.0134201, 22.9893417], [-84.0167084, 22.987196], [-84.0210419, 22.9843006], [-84.0259781, 22.9811172], [-84.031044, 22.9780865], [-84.036232, 22.9752159], [-84.0415344, 22.9725037], [-84.0469437, 22.9699574], [-84.0524597, 22.967577], [-84.0580826, 22.9653645], [-84.0638123, 22.9633255], [-84.0696259, 22.9614601], [-84.075531, 22.9597683], [-84.0815201, 22.9582577], [-84.0875854, 22.9569283], [-84.0937195, 22.95578], [-84.0999298, 22.9548168], [-84.1061859, 22.9540405], [-84.1125183, 22.9534531], [-84.1189041, 22.9530525], [-84.1253357, 22.9528465], [-84.1318054, 22.9528332], [-84.1383133, 22.9530106], [-84.1448517, 22.9533863], [-84.1514206, 22.9539566], [-84.1580124, 22.9547253], [-84.1646118, 22.9556923], [-84.1712265, 22.9568558], [-84.1778259, 22.9582214], [-84.1844559, 22.9597836], [-84.1910706, 22.961544], [-84.1976624, 22.9635086], [-84.2042389, 22.9656715], [-84.2107925, 22.9680367], [-84.2173157, 22.970602], [-84.2238083, 22.9733658], [-84.2302628, 22.9763298], [-84.2366638, 22.9794922], [-84.2430191, 22.9828548], [-84.2493134, 22.986412], [-84.2555466, 22.9901676], [-84.2617188, 22.9941196], [-84.2678146, 22.9982681], [-84.2738342, 23.0026093], [-84.2797623, 23.0071411], [-84.2856064, 23.0118637], [-84.2913513, 23.016777], [-84.2969971, 23.0218792], [-84.3025284, 23.0271683], [-84.3079605, 23.0326424], [-84.3132706, 23.0382957], [-84.3184509, 23.0441303], [-84.3235168, 23.0501404], [-84.3284531, 23.0563278], [-84.3332214, 23.0626888], [-84.337883, 23.0692196], [-84.3423843, 23.0759163], [-84.3467331, 23.0827789], [-84.3509216, 23.0898056], [-84.3549576, 23.0969906], [-84.3588181, 23.104332], [-84.3625107, 23.111824], [-84.3660202, 23.1194687], [-84.3693542, 23.1272564], [-84.3725052, 23.1351871], [-84.3754578, 23.1432571], [-84.378212, 23.1514626], [-84.3807755, 23.1597996], [-84.3831482, 23.1682644], [-84.3852997, 23.1768532], [-84.3872452, 23.1855621], [-84.3889847, 23.1943855], [-84.3904953, 23.2033215], [-84.3917847, 23.2123642], [-84.3928528, 23.2215042], [-84.393692, 23.2307472], [-84.3942947, 23.2400818], [-84.3946609, 23.249506], [-84.394783, 23.2590122], [-84.3946686, 23.2685966], [-84.39431, 23.2782574], [-84.3936996, 23.2879868], [-84.3928375, 23.297781], [-84.3917389, 23.3076305], [-84.3902893, 23.3174648], [-84.3884277, 23.327198], [-84.3861618, 23.3368168], [-84.3834915, 23.3463173], [-84.3804092, 23.3556843], [-84.3769531, 23.3649082], [-84.373085, 23.3739834], [-84.3688431, 23.3828964], [-84.3642197, 23.3916397], [-84.3592911, 23.4002762], [-84.3541412, 23.4088707], [-84.3487778, 23.4174232], [-84.3431931, 23.4259262], [-84.3373947, 23.4343739], [-84.3313751, 23.4427662], [-84.3251419, 23.4510956], [-84.3186722, 23.4593601], [-84.3120041, 23.4675541], [-84.3051224, 23.4756756], [-84.2980194, 23.4837151], [-84.2907028, 23.4916744], [-84.2831726, 23.4995403], [-84.2754288, 23.5073166], [-84.2674789, 23.5149918], [-84.2593155, 23.5225697], [-84.250946, 23.5300407], [-84.242363, 23.5374012], [-84.2335815, 23.5446472], [-84.2246094, 23.5517712], [-84.215416, 23.5587749], [-84.2060318, 23.5656509], [-84.1964493, 23.5723953], [-84.186676, 23.5790024], [-84.176712, 23.5854721], [-84.1665497, 23.5917988], [-84.1561966, 23.5979729], [-84.1456604, 23.6039963], [-84.1349487, 23.6098614], [-84.124054, 23.6155663], [-84.1129761, 23.621109], [-84.1017303, 23.6264801], [-84.0903091, 23.6316814], [-84.0787201, 23.6367054], [-84.0669632, 23.6415482], [-84.0550537, 23.6462059], [-84.042984, 23.6506748], [-84.0307465, 23.6549587], [-84.018364, 23.6590462], [-84.0058441, 23.6629314], [-83.9931793, 23.6666183]]]}}, {"type": "Feature", "properties": {"shapefile": "al092021_2021082803_initialradii", "RADII": 64, "STORMID": "al092021", "BASIN": "al", "STORMNUM": 9, "ADVNUM": "7", "VALIDTIME": "2021082803", "SYNOPTIME": "2021082800", "TIMEZONE": "UTC", "TAU": 0, "NE": 20, "SE": 0, "SW": 0, "NW": 0}, "geometry": {"type": "Polygon", "coordinates": [[[-83.9979401, 23.1680374], [-83.9946442, 23.1716709], [-83.9912109, 23.1752491], [-83.9876404, 23.1787682], [-83.9839325, 23.1822243], [-83.9800873, 23.1856155], [-83.9761124, 23.1889343], [-83.9720078, 23.1921844], [-83.9677734, 23.1953583], [-83.9634018, 23.1984501], [-83.9589005, 23.2014656], [-83.954277, 23.2043953], [-83.9495392, 23.2072334], [-83.944664, 23.2099819], [-83.9396744, 23.212635], [-83.9345779, 23.2151909], [-83.9293518, 23.2176476], [-83.9240189, 23.220005], [-83.9185867, 23.2222519], [-83.9130325, 23.2243919], [-83.9073792, 23.2264175], [-83.9016113, 23.2283287], [-83.895752, 23.2301254], [-83.8897934, 23.231802], [-83.8837357, 23.2333546], [-83.877594, 23.2347832], [-83.8713608, 23.236084], [-83.8650284, 23.237257], [-83.8586273, 23.2382965], [-83.8521423, 23.2392006], [-83.8455811, 23.2399693], [-83.8389435, 23.2405987], [-83.8322296, 23.2410889], [-83.8254547, 23.2414322], [-83.8186188, 23.2416325], [-83.8117218, 23.2416859], [-83.8047714, 23.2415886], [-83.79776, 23.2413425], [-83.7907104, 23.2409439], [-83.7835999, 23.2403946], [-83.7764587, 23.2396851], [-83.7695923, 23.238533], [-83.7633438, 23.2366619], [-83.7577515, 23.2340927], [-83.7528229, 23.2308483], [-83.7485809, 23.2269421], [-83.7450714, 23.2224045], [-83.7422943, 23.2172527], [-83.7402802, 23.2115097], [-83.7390442, 23.2051964], [-83.7383041, 23.1986294], [-83.7377167, 23.1921005], [-83.7373047, 23.1856155], [-83.7370682, 23.1791763], [-83.7369843, 23.1727848], [-83.7370682, 23.1664467], [-83.7373047, 23.1601639], [-83.7377014, 23.1539421], [-83.7382431, 23.1477795], [-83.7389603, 23.1416836], [-83.7398071, 23.1356544], [-83.7408142, 23.1296959], [-83.7419586, 23.1238136], [-83.7432404, 23.1180077], [-83.7446747, 23.1122818], [-83.7462463, 23.106638], [-83.7479553, 23.1010799], [-83.7497864, 23.0956059], [-83.7517548, 23.0902252], [-83.7538528, 23.0849361], [-83.756073, 23.0797405], [-83.7583923, 23.0746441], [-83.7608643, 23.0696468], [-83.7634354, 23.0647507], [-83.7661133, 23.0599575], [-83.768898, 23.0552731], [-83.7717896, 23.0506954], [-83.7747879, 23.0462265], [-83.7778778, 23.041872], [-83.7810669, 23.0376301], [-83.7843475, 23.0335007], [-83.7877197, 23.0294914], [-83.7911682, 23.0255985], [-83.7947083, 23.0218296], [-83.7983322, 23.0181808], [-83.8020248, 23.0146523], [-83.8057785, 23.0112514], [-83.8096085, 23.0079689], [-83.8134995, 23.0048161], [-83.8174515, 23.0017929], [-83.8214569, 22.9988995], [-83.8255234, 22.9961319], [-83.829628, 22.993494], [-83.833786, 22.9909878], [-83.8379822, 22.9886131], [-83.8422165, 22.9863682], [-83.8464813, 22.9842587], [-83.8507843, 22.9822826], [-83.8551178, 22.9804344], [-83.8594666, 22.9787216], [-83.8638382, 22.9771461], [-83.8682098, 22.9757004], [-83.8726196, 22.9743881], [-83.8770218, 22.9732132], [-83.8814392, 22.9721699], [-83.885849, 22.9712601], [-83.8902512, 22.9704819], [-83.8946533, 22.9698353], [-83.8990479, 22.9693222], [-83.9034195, 22.9689407], [-83.9077835, 22.9686871], [-83.9121246, 22.9685669], [-83.9164429, 22.9685745], [-83.9207306, 22.9687119], [-83.9249802, 22.9689751], [-83.9291992, 22.969368], [-83.9333801, 22.9698849], [-83.9375229, 22.9705276], [-83.9416199, 22.9712906], [-83.9456558, 22.9721775], [-83.9496536, 22.9731827], [-83.9535828, 22.9743099], [-83.9574509, 22.9755516], [-83.9612808, 22.9769135], [-83.9650192, 22.9783878], [-83.9687042, 22.9799728], [-83.9723129, 22.9816723], [-83.975853, 22.9834805], [-83.9793091, 22.9853916], [-83.9826889, 22.9874115], [-83.9859772, 22.9895344], [-83.9890137, 22.9916115], [-83.9916687, 22.9934864], [-83.9939423, 22.9951496], [-83.9958344, 22.9965858], [-83.9973679, 22.9977856], [-83.9985352, 22.9987392], [-83.9993591, 22.9994335], [-83.9998398, 22.9998569], [-84.0, 23.0000019], [-84.0, 23.0000019], [-84.0, 23.0000019], [-84.0, 23.0000019], [-84.0, 23.0000019], [-84.0, 23.0000019], [-84.0, 23.0000019], [-84.0, 23.0000019], [-84.0, 23.0000019], [-84.0, 23.0000019], [-84.0, 23.0000019], [-84.0, 23.0000019], [-84.0, 23.0000019], [-84.0, 23.0000019], [-84.0, 23.0000019], [-84.0, 23.0000019], [-84.0, 23.0000019], [-84.0, 23.0000019], [-84.0, 23.0000019], [-84.0, 23.0000019], [-84.0, 23.0000019], [-84.0, 23.0000019], [-84.0, 23.0000019], [-84.0, 23.0000019], [-84.0, 23.0000019], [-84.0, 23.0000019], [-84.0, 23.0000019], [-84.0, 23.0000019], [-84.0, 23.0000019], [-84.0, 23.0000019], [-84.0, 23.0000019], [-84.0, 23.0000019], [-84.0, 23.0000019], [-84.0, 23.0000019], [-84.0, 23.0000019], [-84.0, 23.0000019], [-84.0, 23.0000019], [-84.0, 23.0000019], [-84.0, 23.0000019], [-84.0, 23.0000019], [-84.0, 23.0000019], [-84.0, 23.0000019], [-84.0, 23.0000019], [-84.0, 23.0000019], [-84.0, 23.0000019], [-84.0, 23.0000019], [-84.0, 23.0000019], [-84.0, 23.0000019], [-84.0, 23.0000019], [-84.0, 23.0000019], [-84.0, 23.0000019], [-84.0, 23.0000019], [-84.0, 23.0000019], [-84.0, 23.0000019], [-84.0, 23.0000019], [-84.0, 23.0000019], [-84.0, 23.0000019], [-84.0, 23.0000019], [-84.0, 23.0000019], [-84.0, 23.0000019], [-84.0, 23.0000019], [-84.0, 23.0000019], [-84.0, 23.0000019], [-84.0, 23.0000019], [-84.0, 23.0000019], [-84.0, 23.0000019], [-84.0, 23.0000019], [-84.0, 23.0000019], [-84.0, 23.0000019], [-84.0, 23.0000019], [-84.0, 23.0000019], [-84.0, 23.0000019], [-84.0, 23.0000019], [-84.0, 23.0000019], [-84.0, 23.0000019], [-84.0, 23.0000019], [-84.0, 23.0000019], [-84.0, 23.0000019], [-84.0, 23.0000019], [-84.0, 23.0000019], [-84.0, 23.0000019], [-84.0, 23.0000019], [-84.0, 23.0000019], [-84.0, 23.0000019], [-84.0, 23.0000019], [-84.0, 23.0000019], [-84.0, 23.0000019], [-84.0, 23.0000019], [-84.0, 23.0000019], [-84.0, 23.0000019], [-84.0, 23.0000019], [-84.0, 23.0000019], [-84.0, 23.0000019], [-84.0, 23.0000019], [-84.0, 23.0000019], [-84.0, 23.0000019], [-84.0, 23.0000019], [-84.0, 23.0000019], [-84.0, 23.0000019], [-84.0, 23.0000019], [-84.0, 23.0000019], [-84.0, 23.0000019], [-84.0, 23.0000019], [-84.0, 23.0000019], [-84.0, 23.0000019], [-84.0, 23.0000019], [-84.0, 23.0000019], [-84.0, 23.0000019], [-84.0, 23.0000019], [-84.0, 23.0000019], [-84.0, 23.0000019], [-84.0, 23.0000019], [-84.0, 23.0000019], [-84.0, 23.0000019], [-84.0, 23.0000019], [-84.0, 23.0000019], [-84.0, 23.0000019], [-84.0, 23.0000019], [-84.0, 23.0000019], [-84.0, 23.0000019], [-84.0, 23.0000019], [-84.0, 23.0000019], [-84.0, 23.0000019], [-84.0, 23.0000019], [-84.0, 23.0000019], [-84.0, 23.0000019], [-84.0, 23.0000019], [-84.0, 23.0000019], [-84.0, 23.0000019], [-84.0, 23.0000019], [-84.0, 23.0000019], [-84.0, 23.0000019], [-84.0, 23.0000019], [-84.0, 23.0000019], [-84.0, 23.0000019], [-84.0, 23.0000019], [-84.0, 23.0000019], [-84.0, 23.0000019], [-84.0, 23.0000019], [-84.0, 23.0000019], [-84.0, 23.0000019], [-84.0, 23.0000019], [-84.0, 23.0000019], [-84.0, 23.0000019], [-84.0, 23.0000019], [-84.0, 23.0000019], [-84.0, 23.0000019], [-84.0, 23.0000019], [-84.0, 23.0000019], [-84.0, 23.0000019], [-84.0, 23.0000019], [-84.0, 23.0000019], [-84.0, 23.0000019], [-84.0, 23.0000019], [-84.0, 23.0000019], [-84.0, 23.0000019], [-84.0, 23.0000019], [-84.0, 23.0000019], [-84.0, 23.0000019], [-84.0, 23.0000019], [-84.0, 23.0000019], [-84.0, 23.0000019], [-84.0, 23.0000019], [-84.0, 23.0000019], [-84.0, 23.0000019], [-84.0, 23.0000019], [-84.0, 23.0000019], [-84.0, 23.0000019], [-84.0, 23.0000019], [-84.0, 23.0000019], [-84.0, 23.0000019], [-84.0, 23.0000019], [-84.0001526, 23.0001488], [-84.000618, 23.000597], [-84.0013733, 23.0013542], [-84.0024109, 23.00243], [-84.0037079, 23.0038357], [-84.0052719, 23.0055771], [-84.0070724, 23.0076675], [-84.0091171, 23.0101109], [-84.0113754, 23.0129185], [-84.0136795, 23.0159512], [-84.0158691, 23.0190563], [-84.0179596, 23.0222397], [-84.0199203, 23.0254898], [-84.021759, 23.0288143], [-84.0234756, 23.0322037], [-84.0250778, 23.0356541], [-84.0265579, 23.0391674], [-84.027916, 23.042738], [-84.0291367, 23.04636], [-84.0302429, 23.0500336], [-84.0312042, 23.0537586], [-84.0320206, 23.0575275], [-84.0327225, 23.0613403], [-84.033287, 23.0651894], [-84.0337067, 23.0690708], [-84.0339966, 23.0729904], [-84.0341492, 23.0769367], [-84.0341492, 23.0809097], [-84.0340195, 23.0849056], [-84.0337372, 23.0889206], [-84.0333099, 23.0929527], [-84.032753, 23.0969925], [-84.0320511, 23.1010456], [-84.0312042, 23.1051044], [-84.0302124, 23.1091652], [-84.0290756, 23.1132259], [-84.0277939, 23.1172791], [-84.0263672, 23.1213264], [-84.0247879, 23.1253624], [-84.0230713, 23.1293869], [-84.0212097, 23.1333904], [-84.0191956, 23.137373], [-84.0170441, 23.1413307], [-84.01474, 23.145256], [-84.0122986, 23.1491528], [-84.0097198, 23.1530151], [-84.0069885, 23.1568375], [-84.0041122, 23.1606197], [-84.0010986, 23.1643543], [-83.9979401, 23.1680374]]]}}]}