{"type": "FeatureCollection", "features": [{"type": "Feature", "properties": {"shapefile": "al092021-005_5day_pgn", "STORMNAME": "Ida", "STORMTYPE": "TS", "ADVDATE": "1100 AM EDT Fri Aug 27 2021", "ADVISNUM": "5", "STORMNUM": 9, "FCSTPRD": 120, "BASIN": "AL"}, "geometry": {"type": "Polygon", "coordinates": [[[-82.15074, 20.43623], [-82.1246, 20.43326], [-82.09697, 20.43326], [-82.06846, 20.43623], [-82.04009, 20.44204], [-82.01246, 20.45037], [-81.98633, 20.46108], [-81.96196, 20.47388], [-81.93924, 20.48831], [-81.90775, 20.51256], [-81.88904, 20.53101], [-81.86438, 20.5621], [-81.85087, 20.58576], [-81.84032, 20.61209], [-81.83305, 20.64081], [-81.82919, 20.67146], [-81.82874, 20.70315], [-81.83156, 20.73454], [-81.83736, 20.76474], [-81.84566, 20.79331], [-81.85636, 20.81979], [-81.86913, 20.84419], [-81.88354, 20.86695], [-81.89928, 20.88838], [-81.92497, 20.91843], [-81.94279, 20.93777], [-81.96121, 20.95652], [-81.97964, 20.97527], [-81.99806, 20.99401], [-82.01588, 21.01336], [-82.0334, 21.03299], [-82.04172, 21.04326], [-82.05806, 21.06409], [-82.07394, 21.08537], [-82.0897, 21.10679], [-82.10559, 21.12807], [-82.12193, 21.14889], [-82.14777, 21.1788], [-82.1656, 21.19814], [-82.18401, 21.21689], [-82.20243, 21.23563], [-82.22114, 21.25408], [-82.23956, 21.27283], [-82.25797, 21.29158], [-82.2758, 21.31092], [-82.29333, 21.33056], [-82.30997, 21.35109], [-82.31798, 21.36165], [-82.33388, 21.38293], [-82.35749, 21.41506], [-82.37354, 21.43619], [-82.38185, 21.44646], [-82.4077, 21.47636], [-82.42551, 21.4957], [-82.44394, 21.51445], [-82.46236, 21.5332], [-82.48106, 21.55164], [-82.49948, 21.57039], [-82.5179, 21.58914], [-82.53573, 21.60848], [-82.55325, 21.62812], [-82.56157, 21.63839], [-82.57791, 21.65921], [-82.5938, 21.68049], [-82.61742, 21.71263], [-82.62544, 21.72319], [-82.64177, 21.74402], [-82.66762, 21.77393], [-82.68544, 21.79327], [-82.70386, 21.81201], [-82.72227, 21.83076], [-82.741, 21.84921], [-82.75941, 21.86795], [-82.77812, 21.8864], [-82.79654, 21.90515], [-82.81496, 21.92389], [-82.83278, 21.94324], [-82.8503, 21.96288], [-82.86694, 21.98341], [-82.87496, 21.99397], [-82.89085, 22.01525], [-82.91446, 22.04738], [-82.92249, 22.05795], [-82.93883, 22.07878], [-82.96467, 22.10868], [-82.9825, 22.12802], [-83.00092, 22.14677], [-83.01933, 22.16552], [-83.02869, 22.17474], [-83.05647, 22.20271], [-83.07518, 22.22116], [-83.0936, 22.23991], [-83.11231, 22.25835], [-83.13072, 22.2771], [-83.14944, 22.29555], [-83.16786, 22.3143], [-83.18657, 22.33274], [-83.20499, 22.35149], [-83.21434, 22.36072], [-83.24212, 22.38869], [-83.26083, 22.40714], [-83.27925, 22.42588], [-83.2886, 22.43511], [-83.31638, 22.46308], [-83.3348, 22.48182], [-83.35262, 22.50117], [-83.37015, 22.52081], [-83.38679, 22.54134], [-83.39481, 22.5519], [-83.4107, 22.57318], [-83.42645, 22.5946], [-83.44234, 22.61587], [-83.467, 22.64697], [-83.48453, 22.66661], [-83.50234, 22.68595], [-83.52076, 22.7047], [-83.53917, 22.72345], [-83.55789, 22.74189], [-83.57631, 22.76064], [-83.59502, 22.77909], [-83.61343, 22.79784], [-83.63215, 22.81628], [-83.65057, 22.83503], [-83.66928, 22.85348], [-83.6877, 22.87222], [-83.70641, 22.89067], [-83.72483, 22.90942], [-83.74355, 22.92787], [-83.76196, 22.94662], [-83.78067, 22.96507], [-83.7991, 22.98381], [-83.81781, 23.00226], [-83.83623, 23.02101], [-83.85495, 23.03946], [-83.87337, 23.0582], [-83.89207, 23.07665], [-83.91049, 23.0954], [-83.92921, 23.11385], [-83.94762, 23.13259], [-83.96634, 23.15104], [-83.98476, 23.16979], [-84.00347, 23.18824], [-84.02189, 23.20698], [-84.0406, 23.22543], [-84.05902, 23.24418], [-84.07773, 23.26263], [-84.09615, 23.28137], [-84.11487, 23.29982], [-84.13329, 23.31857], [-84.152, 23.33702], [-84.17042, 23.35577], [-84.18913, 23.37421], [-84.20755, 23.39296], [-84.22626, 23.41141], [-84.24467, 23.43015], [-84.2634, 23.4486], [-84.28181, 23.46735], [-84.30052, 23.4858], [-84.31894, 23.50455], [-84.33765, 23.52299], [-84.35607, 23.54174], [-84.37479, 23.56019], [-84.3932, 23.57894], [-84.41192, 23.59738], [-84.42113, 23.60676], [-84.44905, 23.63458], [-84.46747, 23.65333], [-84.48618, 23.67178], [-84.50461, 23.69052], [-84.52332, 23.70897], [-84.54173, 23.72772], [-84.56046, 23.74616], [-84.56966, 23.75554], [-84.59758, 23.78336], [-84.60679, 23.79273], [-84.63471, 23.82055], [-84.65312, 23.8393], [-84.67184, 23.85775], [-84.69026, 23.8765], [-84.70897, 23.89495], [-84.72739, 23.91369], [-84.7461, 23.93214], [-84.76453, 23.95089], [-84.78323, 23.96934], [-84.80165, 23.98808], [-84.82037, 24.00653], [-84.83878, 24.02528], [-84.8575, 24.04373], [-84.87592, 24.06248], [-84.89462, 24.08092], [-84.91306, 24.09967], [-84.93176, 24.11812], [-84.95018, 24.13687], [-84.9689, 24.15531], [-84.98732, 24.17406], [-85.00603, 24.19251], [-85.02444, 24.21125], [-85.04316, 24.2297], [-85.06158, 24.24845], [-85.08029, 24.2669], [-85.09871, 24.28564], [-85.11742, 24.30409], [-85.13584, 24.32284], [-85.15455, 24.34129], [-85.17297, 24.36004], [-85.19168, 24.37849], [-85.2101, 24.39723], [-85.21946, 24.40646], [-85.24724, 24.43443], [-85.25659, 24.44365], [-85.28437, 24.47162], [-85.30309, 24.49007], [-85.3215, 24.50882], [-85.33992, 24.52757], [-85.35774, 24.54691], [-85.37527, 24.56655], [-85.39191, 24.58708], [-85.40794, 24.6082], [-85.41582, 24.61892], [-85.43156, 24.64034], [-85.45547, 24.67218], [-85.46379, 24.68245], [-85.48962, 24.71235], [-85.50745, 24.73169], [-85.52586, 24.75044], [-85.54428, 24.76918], [-85.563, 24.78763], [-85.58142, 24.80638], [-85.59984, 24.82513], [-85.61766, 24.84447], [-85.63519, 24.86411], [-85.65182, 24.88464], [-85.65984, 24.8952], [-85.68361, 24.92719], [-85.69148, 24.9379], [-85.70737, 24.95918], [-85.72371, 24.98001], [-85.74955, 25.00991], [-85.76738, 25.02925], [-85.7858, 25.048], [-85.80421, 25.06675], [-85.82263, 25.08549], [-85.84045, 25.10484], [-85.85798, 25.12447], [-85.8746, 25.145], [-85.88263, 25.15557], [-85.89853, 25.17685], [-85.91428, 25.19827], [-85.93016, 25.21954], [-85.95482, 25.25064], [-85.97235, 25.27028], [-85.99017, 25.28962], [-86.00859, 25.30837], [-86.02701, 25.32711], [-86.04543, 25.34586], [-86.06325, 25.3652], [-86.08076, 25.38484], [-86.09741, 25.40537], [-86.10543, 25.41594], [-86.12919, 25.44792], [-86.13706, 25.45864], [-86.16098, 25.49047], [-86.1693, 25.50074], [-86.19513, 25.53065], [-86.21296, 25.54999], [-86.23137, 25.56873], [-86.24979, 25.58748], [-86.26821, 25.60623], [-86.28603, 25.62557], [-86.30356, 25.64521], [-86.3202, 25.66574], [-86.32822, 25.6763], [-86.35199, 25.70829], [-86.36773, 25.72971], [-86.37575, 25.74028], [-86.39209, 25.76111], [-86.41792, 25.79101], [-86.42683, 25.80068], [-86.45387, 25.8294], [-86.46278, 25.83907], [-86.48922, 25.86838], [-86.49754, 25.87865], [-86.5219, 25.91004], [-86.52977, 25.92075], [-86.54552, 25.94218], [-86.5614, 25.96345], [-86.57774, 25.98428], [-86.59482, 26.00436], [-86.61249, 26.02386], [-86.63062, 26.0429], [-86.64902, 26.06165], [-86.66745, 26.08039], [-86.68557, 26.09944], [-86.70325, 26.11893], [-86.72865, 26.14928], [-86.73666, 26.15984], [-86.76044, 26.19183], [-86.7683, 26.20254], [-86.78419, 26.22382], [-86.80885, 26.25492], [-86.81761, 26.26473], [-86.83528, 26.28423], [-86.86262, 26.31264], [-86.88103, 26.33139], [-86.89039, 26.34061], [-86.90895, 26.35921], [-86.93658, 26.38733], [-86.9455, 26.397], [-86.96317, 26.41649], [-86.98856, 26.44684], [-86.99658, 26.45741], [-87.01248, 26.47868], [-87.0361, 26.51081], [-87.04411, 26.52138], [-87.06046, 26.54221], [-87.07755, 26.56229], [-87.09521, 26.58178], [-87.11333, 26.60083], [-87.14096, 26.62895], [-87.15968, 26.6474], [-87.16888, 26.65677], [-87.19681, 26.68459], [-87.20601, 26.69397], [-87.23393, 26.72179], [-87.25235, 26.74053], [-87.2617, 26.74976], [-87.28027, 26.76836], [-87.3082, 26.79618], [-87.3174, 26.80555], [-87.33597, 26.82415], [-87.35453, 26.84275], [-87.38246, 26.87057], [-87.39167, 26.87994], [-87.41008, 26.89869], [-87.43712, 26.9274], [-87.44588, 26.93722], [-87.47128, 26.96758], [-87.47929, 26.97814], [-87.49519, 26.99941], [-87.51094, 27.02084], [-87.52683, 27.04211], [-87.54317, 27.06294], [-87.56901, 27.09285], [-87.57793, 27.10252], [-87.60526, 27.13094], [-87.62367, 27.14968], [-87.63303, 27.15891], [-87.65159, 27.17751], [-87.67951, 27.20533], [-87.69792, 27.22407], [-87.70729, 27.2333], [-87.73506, 27.26127], [-87.74442, 27.27049], [-87.77219, 27.29846], [-87.78156, 27.30769], [-87.80933, 27.33566], [-87.82805, 27.35411], [-87.83726, 27.36348], [-87.85582, 27.38208], [-87.87439, 27.40068], [-87.90231, 27.4285], [-87.92073, 27.44724], [-87.93944, 27.46569], [-87.94865, 27.47507], [-87.97657, 27.50289], [-87.99498, 27.52163], [-88.00434, 27.53086], [-88.0229, 27.54946], [-88.04147, 27.56805], [-88.06004, 27.58665], [-88.08796, 27.61447], [-88.10637, 27.63322], [-88.12479, 27.65197], [-88.1337, 27.66164], [-88.16015, 27.69094], [-88.16847, 27.70121], [-88.1848, 27.72204], [-88.20069, 27.74332], [-88.21644, 27.76474], [-88.23234, 27.78602], [-88.24867, 27.80685], [-88.26575, 27.82693], [-88.28342, 27.84642], [-88.30154, 27.86547], [-88.31996, 27.88421], [-88.33853, 27.90281], [-88.3663, 27.93078], [-88.38472, 27.94953], [-88.40254, 27.96887], [-88.41131, 27.97869], [-88.42839, 27.99878], [-88.44473, 28.01961], [-88.46062, 28.04088], [-88.47636, 28.06231], [-88.49226, 28.08358], [-88.50859, 28.10441], [-88.52553, 28.12465], [-88.54276, 28.14458], [-88.55998, 28.16452], [-88.57692, 28.18475], [-88.59325, 28.20558], [-88.609, 28.22701], [-88.6243, 28.24888], [-88.6393, 28.27105], [-88.65414, 28.29336], [-88.66901, 28.31568], [-88.68385, 28.338], [-88.69872, 28.36032], [-88.71356, 28.38263], [-88.72841, 28.40495], [-88.74327, 28.42727], [-88.75812, 28.44958], [-88.77298, 28.4719], [-88.78783, 28.49422], [-88.80253, 28.51668], [-88.81693, 28.53945], [-88.83104, 28.56251], [-88.84486, 28.58587], [-88.85838, 28.60952], [-88.87189, 28.63318], [-88.88571, 28.65654], [-88.89982, 28.6796], [-88.91408, 28.70251], [-88.92833, 28.72542], [-88.94244, 28.74848], [-88.95611, 28.77199], [-88.96918, 28.79609], [-88.98196, 28.8205], [-88.99458, 28.84504], [-89.0069, 28.86989], [-89.01923, 28.89473], [-89.03171, 28.91943], [-89.04403, 28.94428], [-89.05637, 28.96912], [-89.06883, 28.99382], [-89.08101, 29.01882], [-89.0929, 29.04411], [-89.10463, 29.06955], [-89.11577, 29.09559], [-89.12617, 29.12237], [-89.13627, 29.14945], [-89.14607, 29.17682], [-89.15543, 29.20465], [-89.16464, 29.23262], [-89.174, 29.26044], [-89.18335, 29.28826], [-89.19255, 29.31623], [-89.20192, 29.34406], [-89.21172, 29.37143], [-89.22182, 29.39851], [-89.23207, 29.42544], [-89.24277, 29.45192], [-89.25375, 29.47811], [-89.26445, 29.50459], [-89.27485, 29.53137], [-89.2854, 29.558], [-89.29594, 29.58463], [-89.30634, 29.61141], [-89.31703, 29.6379], [-89.32787, 29.66423], [-89.33813, 29.69116], [-89.34718, 29.71869], [-89.35475, 29.74651], [-89.35817, 29.7599], [-89.36188, 29.78802], [-89.36203, 29.81584], [-89.35846, 29.84292], [-89.35519, 29.85527], [-89.34644, 29.881], [-89.33501, 29.90556], [-89.32193, 29.92936], [-89.30812, 29.95272], [-89.29415, 29.97593], [-89.28049, 29.99944], [-89.26742, 30.02354], [-89.25465, 30.04794], [-89.24202, 30.07249], [-89.22969, 30.09733], [-89.21736, 30.12218], [-89.20474, 30.14673], [-89.19196, 30.17113], [-89.17889, 30.19523], [-89.16524, 30.21874], [-89.15112, 30.2418], [-89.13686, 30.26471], [-89.1226, 30.28762], [-89.11548, 30.29908], [-89.10152, 30.32229], [-89.08176, 30.3583], [-89.06898, 30.38269], [-89.05621, 30.4071], [-89.04344, 30.4315], [-89.03036, 30.4556], [-89.01671, 30.4791], [-89.00259, 30.50217], [-88.98834, 30.52508], [-88.98121, 30.53653], [-88.96695, 30.55945], [-88.94616, 30.59441], [-88.93263, 30.61806], [-88.92595, 30.62997], [-88.91229, 30.65348], [-88.8912, 30.68814], [-88.88406, 30.6996], [-88.86209, 30.73337], [-88.84724, 30.75569], [-88.83981, 30.76685], [-88.81754, 30.80032], [-88.80268, 30.82264], [-88.78783, 30.84496], [-88.77296, 30.86728], [-88.76554, 30.87843], [-88.75069, 30.90075], [-88.72841, 30.93423], [-88.72098, 30.94538], [-88.69856, 30.97871], [-88.68326, 31.00058], [-88.67554, 31.01144], [-88.65177, 31.04343], [-88.64375, 31.05399], [-88.6194, 31.08539], [-88.6035, 31.10666], [-88.58776, 31.12809], [-88.57989, 31.1388], [-88.56414, 31.16022], [-88.53978, 31.19162], [-88.5227, 31.2117], [-88.51394, 31.22152], [-88.49612, 31.24086], [-88.47769, 31.25961], [-88.45927, 31.27836], [-88.44057, 31.29681], [-88.42185, 31.31525], [-88.40225, 31.33281], [-88.38205, 31.34977], [-88.36037, 31.36524], [-88.33719, 31.37923], [-88.32472, 31.38533], [-88.29918, 31.39693], [-88.27229, 31.4072], [-88.24422, 31.41628], [-88.21539, 31.42461], [-88.18614, 31.4325], [-88.15674, 31.44023], [-88.12747, 31.44812], [-88.09851, 31.4563], [-88.06985, 31.46478], [-88.04148, 31.47356], [-88.01311, 31.48234], [-87.98444, 31.49082], [-87.95547, 31.499], [-87.92622, 31.50689], [-87.89666, 31.51447], [-87.86696, 31.52191], [-87.83725, 31.52935], [-87.80754, 31.53679], [-87.77783, 31.54423], [-87.74814, 31.55167], [-87.71843, 31.55911], [-87.68872, 31.56655], [-87.65901, 31.57398], [-87.62931, 31.58142], [-87.59961, 31.58886], [-87.5699, 31.5963], [-87.54019, 31.60374], [-87.51048, 31.61118], [-87.48077, 31.61862], [-87.45108, 31.62606], [-87.42137, 31.6335], [-87.39166, 31.64094], [-87.36197, 31.64838], [-87.33226, 31.65581], [-87.30255, 31.66325], [-87.27286, 31.67069], [-87.24314, 31.67813], [-87.21344, 31.68557], [-87.18373, 31.69301], [-87.15402, 31.70045], [-87.12431, 31.70789], [-87.0946, 31.71533], [-87.06491, 31.72277], [-87.0352, 31.73021], [-87.00549, 31.73764], [-86.97565, 31.74493], [-86.9455, 31.75193], [-86.91505, 31.75862], [-86.88431, 31.76502], [-86.86871, 31.76799], [-86.82222, 31.77722], [-86.79147, 31.78362], [-86.76102, 31.79031], [-86.73087, 31.79731], [-86.70102, 31.8046], [-86.67131, 31.81203], [-86.6416, 31.81947], [-86.61191, 31.82691], [-86.5822, 31.83435], [-86.55249, 31.84179], [-86.52293, 31.84938], [-86.49367, 31.85727], [-86.46471, 31.86545], [-86.43605, 31.87393], [-86.40767, 31.88271], [-86.37931, 31.89149], [-86.35064, 31.89996], [-86.32169, 31.90815], [-86.29242, 31.91603], [-86.26286, 31.92362], [-86.23315, 31.93106], [-86.20346, 31.9385], [-86.17374, 31.94594], [-86.14404, 31.95338], [-86.11449, 31.96096], [-86.08522, 31.96885], [-86.05626, 31.97703], [-86.0276, 31.98551], [-85.99922, 31.99429], [-85.97086, 32.00307], [-85.94219, 32.01155], [-85.91324, 32.01973], [-85.88397, 32.02762], [-85.85456, 32.03535], [-85.82531, 32.04324], [-85.79634, 32.05142], [-85.76767, 32.05991], [-85.73946, 32.06883], [-85.71153, 32.07805], [-85.68361, 32.08728], [-85.65569, 32.0965], [-85.6279, 32.10588], [-85.60014, 32.11525], [-85.57221, 32.12447], [-85.54443, 32.13385], [-85.51711, 32.14367], [-85.49008, 32.15379], [-85.4632, 32.16405], [-85.43675, 32.17476], [-85.41062, 32.18577], [-85.38418, 32.19648], [-85.35744, 32.2069], [-85.33086, 32.21746], [-85.30427, 32.22803], [-85.27768, 32.23859], [-85.25169, 32.24975], [-85.22629, 32.26151], [-85.18842, 32.27936], [-85.17609, 32.2856], [-85.13911, 32.30435], [-85.12663, 32.31045], [-85.10183, 32.3228], [-85.06485, 32.34155], [-85.05237, 32.34764], [-85.02756, 32.35999], [-85.00291, 32.37249], [-84.9781, 32.38484], [-84.9533, 32.39719], [-84.92865, 32.40968], [-84.90384, 32.42204], [-84.87903, 32.43438], [-84.85453, 32.44703], [-84.81799, 32.46622], [-84.80611, 32.47292], [-84.78264, 32.48661], [-84.74818, 32.50788], [-84.72531, 32.52217], [-84.70244, 32.53645], [-84.69086, 32.54344], [-84.65581, 32.56413], [-84.64392, 32.57082], [-84.62045, 32.58451], [-84.58629, 32.60608], [-84.56431, 32.62125], [-84.54292, 32.63702], [-84.52213, 32.65339], [-84.50104, 32.66946], [-84.47964, 32.68523], [-84.45796, 32.70071], [-84.42484, 32.72332], [-84.4137, 32.73076], [-84.40256, 32.7382], [-84.36914, 32.76051], [-84.34716, 32.77569], [-84.32547, 32.79117], [-84.30438, 32.80723], [-84.27408, 32.83267], [-84.26428, 32.84145], [-84.24497, 32.85931], [-84.22626, 32.87775], [-84.20755, 32.8962], [-84.17918, 32.92358], [-84.16953, 32.93251], [-84.14992, 32.95006], [-84.11887, 32.97476], [-84.10832, 32.9828], [-84.09763, 32.99068], [-84.06555, 33.01434], [-84.04446, 33.0304], [-84.02396, 33.04707], [-84.00436, 33.06462], [-83.98505, 33.08248], [-83.96634, 33.10093], [-83.94792, 33.11967], [-83.9301, 33.13901], [-83.90425, 33.16892], [-83.88792, 33.18974], [-83.87202, 33.21102], [-83.86415, 33.22173], [-83.8484, 33.24316], [-83.83237, 33.26429], [-83.81573, 33.28481], [-83.78929, 33.31413], [-83.78038, 33.3238], [-83.76225, 33.34284], [-83.74443, 33.36218], [-83.7186, 33.39209], [-83.70226, 33.41292], [-83.69424, 33.42348], [-83.67849, 33.44491], [-83.65488, 33.47704], [-83.647, 33.48775], [-83.63097, 33.50888], [-83.60661, 33.54028], [-83.59859, 33.55084], [-83.57512, 33.58312], [-83.55981, 33.605], [-83.55225, 33.616], [-83.53011, 33.64963], [-83.5157, 33.67239], [-83.5016, 33.69545], [-83.49461, 33.70705], [-83.47427, 33.74247], [-83.46758, 33.75437], [-83.44695, 33.78949], [-83.43283, 33.81254], [-83.41856, 33.83546], [-83.40431, 33.85837], [-83.3902, 33.88143], [-83.38321, 33.89304], [-83.36346, 33.92904], [-83.35069, 33.95345], [-83.33807, 33.97799], [-83.32588, 34.00298], [-83.31401, 34.02827], [-83.30228, 34.05372], [-83.29114, 34.07976], [-83.28059, 34.10639], [-83.27005, 34.13302], [-83.25949, 34.15965], [-83.2491, 34.18643], [-83.2384, 34.21291], [-83.22742, 34.2391], [-83.21672, 34.26558], [-83.20647, 34.29251], [-83.19637, 34.31959], [-83.18657, 34.34697], [-83.17721, 34.37479], [-83.168, 34.40276], [-83.15879, 34.43073], [-83.14988, 34.459], [-83.14142, 34.48772], [-83.13325, 34.51672], [-83.12538, 34.54604], [-83.1178, 34.57564], [-83.11052, 34.60555], [-83.10355, 34.63575], [-83.09686, 34.66624], [-83.09048, 34.69704], [-83.08438, 34.72814], [-83.0783, 34.75924], [-83.07205, 34.79018], [-83.06597, 34.82128], [-83.06032, 34.85282], [-83.05542, 34.88511], [-83.05171, 34.91858], [-83.04919, 34.95325], [-83.04726, 34.98851], [-83.04532, 35.02377], [-83.0428, 35.05843], [-83.03909, 35.09191], [-83.03418, 35.1242], [-83.02869, 35.15589], [-83.02334, 35.18743], [-83.01903, 35.21912], [-83.01666, 35.25126], [-83.01666, 35.28369], [-83.01903, 35.31583], [-83.02334, 35.34752], [-83.02869, 35.37906], [-83.03418, 35.41075], [-83.03909, 35.44304], [-83.0428, 35.47651], [-83.04532, 35.51118], [-83.04726, 35.54644], [-83.04919, 35.5817], [-83.05171, 35.61636], [-83.05542, 35.64984], [-83.06033, 35.68213], [-83.06596, 35.71367], [-83.07206, 35.74477], [-83.07829, 35.77571], [-83.08438, 35.8068], [-83.09047, 35.8379], [-83.09686, 35.8687], [-83.10355, 35.8992], [-83.11052, 35.92941], [-83.11781, 35.95931], [-83.12538, 35.98891], [-83.13326, 36.01823], [-83.14142, 36.04723], [-83.14988, 36.07595], [-83.15879, 36.10422], [-83.168, 36.13219], [-83.17722, 36.16016], [-83.18657, 36.18798], [-83.19637, 36.21536], [-83.20647, 36.24244], [-83.21687, 36.26922], [-83.228, 36.29525], [-83.23974, 36.32069], [-83.25163, 36.34599], [-83.26381, 36.37099], [-83.27628, 36.39568], [-83.28861, 36.42053], [-83.30093, 36.44538], [-83.31342, 36.47007], [-83.32574, 36.49492], [-83.33807, 36.51977], [-83.35054, 36.54446], [-83.36287, 36.56931], [-83.37521, 36.59415], [-83.38783, 36.61871], [-83.4006, 36.6431], [-83.41367, 36.66721], [-83.42734, 36.69072], [-83.44144, 36.71378], [-83.45585, 36.73653], [-83.47055, 36.759], [-83.4854, 36.78132], [-83.50026, 36.80364], [-83.51511, 36.82596], [-83.52996, 36.84827], [-83.54482, 36.87059], [-83.55981, 36.89275], [-83.57512, 36.91463], [-83.59071, 36.9362], [-83.60661, 36.95748], [-83.6228, 36.97845], [-83.63899, 36.99944], [-83.65488, 37.02071], [-83.67062, 37.04214], [-83.68637, 37.06356], [-83.70226, 37.08484], [-83.71859, 37.10566], [-83.73567, 37.12575], [-83.75334, 37.14524], [-83.77147, 37.16428], [-83.78989, 37.18303], [-83.80846, 37.20163], [-83.82702, 37.22023], [-83.84559, 37.23882], [-83.86415, 37.25742], [-83.88272, 37.27602], [-83.90128, 37.29462], [-83.91985, 37.31321], [-83.93842, 37.33181], [-83.95699, 37.35041], [-83.97555, 37.36901], [-83.99411, 37.3876], [-84.01268, 37.4062], [-84.03124, 37.4248], [-84.0498, 37.4434], [-84.06837, 37.46199], [-84.08708, 37.48045], [-84.11575, 37.50752], [-84.12556, 37.5163], [-84.14561, 37.53341], [-84.1664, 37.54978], [-84.19833, 37.57358], [-84.21973, 37.58936], [-84.23042, 37.59724], [-84.25166, 37.61316], [-84.28299, 37.63756], [-84.29354, 37.64559], [-84.32547, 37.6694], [-84.34715, 37.68487], [-84.36914, 37.70005], [-84.39142, 37.71492], [-84.4137, 37.7298], [-84.42484, 37.73724], [-84.45825, 37.75956], [-84.46939, 37.767], [-84.50282, 37.78931], [-84.5251, 37.80419], [-84.54738, 37.81907], [-84.55852, 37.82651], [-84.59193, 37.84882], [-84.60307, 37.85626], [-84.63678, 37.87828], [-84.65965, 37.89257], [-84.68283, 37.90656], [-84.69472, 37.91325], [-84.73096, 37.93274], [-84.75531, 37.94553], [-84.77997, 37.95803], [-84.80492, 37.97023], [-84.82957, 37.98273], [-84.85423, 37.99523], [-84.87918, 38.00742], [-84.90384, 38.01992], [-84.91617, 38.02617], [-84.95345, 38.04462], [-84.96577, 38.05087], [-85.00276, 38.06962], [-85.02771, 38.08182], [-85.05237, 38.09431], [-85.07702, 38.10682], [-85.10226, 38.11871], [-85.12752, 38.13062], [-85.15306, 38.14222], [-85.1795, 38.15294], [-85.20654, 38.16305], [-85.23357, 38.17317], [-85.2612, 38.18269], [-85.28912, 38.19192], [-85.31674, 38.20144], [-85.35729, 38.21661], [-85.37081, 38.22167], [-85.39755, 38.23209], [-85.42369, 38.2431], [-85.44982, 38.2541], [-85.47656, 38.26452], [-85.51726, 38.27955], [-85.53092, 38.28446], [-85.55914, 38.29338], [-85.60251, 38.30573], [-85.63177, 38.31362], [-85.64648, 38.31749], [-85.69043, 38.32924], [-85.70499, 38.33326], [-85.73381, 38.34159], [-85.76232, 38.35022], [-85.79054, 38.35915], [-85.83407, 38.37135], [-85.84877, 38.37521], [-85.87877, 38.38235], [-85.92496, 38.39188], [-85.95601, 38.39798], [-85.98691, 38.40423], [-86.00235, 38.40735], [-86.04869, 38.41673], [-86.07958, 38.42297], [-86.09502, 38.4261], [-86.14166, 38.43517], [-86.17256, 38.44142], [-86.20361, 38.44752], [-86.23494, 38.45332], [-86.25069, 38.45615], [-86.29866, 38.46389], [-86.33104, 38.46865], [-86.36313, 38.47371], [-86.39476, 38.47921], [-86.42624, 38.48487], [-86.44199, 38.48769], [-86.4901, 38.49528], [-86.52353, 38.499], [-86.55828, 38.50138], [-86.59409, 38.50272], [-86.63062, 38.50331], [-86.66746, 38.50361], [-86.70399, 38.5042], [-86.73979, 38.50555], [-86.77454, 38.50793], [-86.79163, 38.50941], [-86.84019, 38.51656], [-86.85608, 38.51923], [-86.88757, 38.52489], [-86.93568, 38.53248], [-86.96911, 38.5362], [-87.00386, 38.53857], [-87.03966, 38.53992], [-87.07619, 38.54051], [-87.11304, 38.54051], [-87.14957, 38.53991], [-87.18536, 38.53857], [-87.22012, 38.53619], [-87.25354, 38.53247], [-87.28577, 38.52757], [-87.31741, 38.52206], [-87.34904, 38.51656], [-87.38127, 38.51165], [-87.4147, 38.50793], [-87.44945, 38.50555], [-87.48524, 38.50421], [-87.52177, 38.50362], [-87.55861, 38.50331], [-87.59515, 38.50272], [-87.63095, 38.50138], [-87.66571, 38.499], [-87.69913, 38.49528], [-87.73136, 38.49037], [-87.763, 38.48487], [-87.79448, 38.47921], [-87.82611, 38.47371], [-87.8582, 38.46865], [-87.89057, 38.46389], [-87.92265, 38.45883], [-87.95428, 38.45332], [-87.98578, 38.44767], [-88.01727, 38.44202], [-88.0489, 38.43652], [-88.08099, 38.43146], [-88.11337, 38.42669], [-88.14545, 38.42163], [-88.17694, 38.41598], [-88.20784, 38.40973], [-88.23813, 38.40289], [-88.26797, 38.3956], [-88.29768, 38.38816], [-88.32739, 38.38072], [-88.3571, 38.37328], [-88.38681, 38.36584], [-88.41651, 38.3584], [-88.44607, 38.35081], [-88.47533, 38.34293], [-88.50429, 38.33475], [-88.53295, 38.32626], [-88.56117, 38.31734], [-88.5891, 38.30812], [-88.61702, 38.29889], [-88.64494, 38.28967], [-88.68652, 38.27553], [-88.70049, 38.27092], [-88.72841, 38.2617], [-88.7562, 38.25232], [-88.78351, 38.2425], [-88.82407, 38.22733], [-88.83743, 38.22212], [-88.86388, 38.21141], [-88.90309, 38.19489], [-88.92982, 38.18448], [-88.94319, 38.17927], [-88.96977, 38.16871], [-89.00974, 38.15294], [-89.02295, 38.14758], [-89.06171, 38.13062], [-89.07434, 38.12466], [-89.11221, 38.10681], [-89.12454, 38.10056], [-89.1492, 38.08806], [-89.174, 38.07571], [-89.21113, 38.05712], [-89.23578, 38.04462], [-89.24826, 38.03852], [-89.28539, 38.01992], [-89.29772, 38.01368], [-89.33501, 37.99523], [-89.34733, 37.98898], [-89.37198, 37.97648], [-89.39679, 37.96413], [-89.43392, 37.94553], [-89.45827, 37.93274], [-89.47046, 37.92634], [-89.50639, 37.90656], [-89.52957, 37.89257], [-89.55244, 37.87828], [-89.57532, 37.864], [-89.59818, 37.84972], [-89.60977, 37.84273], [-89.64482, 37.82204], [-89.66859, 37.80865], [-89.68033, 37.80181], [-89.70364, 37.78797], [-89.73811, 37.7667], [-89.77182, 37.74468], [-89.78296, 37.73724], [-89.80494, 37.72206], [-89.82663, 37.70659], [-89.85856, 37.68279], [-89.8691, 37.67475], [-89.8795, 37.66657], [-89.91098, 37.64232], [-89.93237, 37.62655], [-89.94307, 37.61867], [-89.97516, 37.595], [-89.99625, 37.57894], [-90.01674, 37.56227], [-90.03635, 37.54472], [-90.06501, 37.51764], [-90.07437, 37.50842], [-90.10229, 37.48059], [-90.12086, 37.462], [-90.13942, 37.4434], [-90.14864, 37.43403], [-90.17655, 37.4062], [-90.19511, 37.38761], [-90.20448, 37.37838], [-90.22289, 37.35963], [-90.24161, 37.34119], [-90.26003, 37.32244], [-90.27873, 37.30399], [-90.29715, 37.28524], [-90.31587, 37.2668], [-90.33429, 37.24805], [-90.353, 37.2296], [-90.37143, 37.21085], [-90.39935, 37.18303], [-90.40855, 37.17366], [-90.42728, 37.15521], [-90.45505, 37.12724], [-90.47361, 37.10864], [-90.49217, 37.09004], [-90.50153, 37.08082], [-90.5293, 37.05285], [-90.53867, 37.04362], [-90.55708, 37.02488], [-90.57579, 37.00643], [-90.59421, 36.98768], [-90.62228, 36.96001], [-90.64129, 36.94186], [-90.66075, 36.92415], [-90.67056, 36.91537], [-90.69106, 36.8987], [-90.72284, 36.87476], [-90.73354, 36.86687], [-90.75492, 36.8511], [-90.77602, 36.83503], [-90.8063, 36.80959], [-90.81612, 36.80081], [-90.83542, 36.78296], [-90.85414, 36.76451], [-90.88206, 36.73669], [-90.89127, 36.72732], [-90.91919, 36.69949], [-90.92839, 36.69012], [-90.95647, 36.66245], [-90.96582, 36.65322], [-90.99493, 36.62659], [-91.00473, 36.61781], [-91.02524, 36.60115], [-91.04633, 36.58508], [-91.06772, 36.56931], [-91.08911, 36.55354], [-91.1102, 36.53747], [-91.1405, 36.51203], [-91.1503, 36.50325], [-91.1696, 36.4854], [-91.18832, 36.46695], [-91.21625, 36.43913], [-91.23481, 36.42053], [-91.25337, 36.40193], [-91.27194, 36.38334], [-91.2813, 36.37411], [-91.30907, 36.34614], [-91.32764, 36.32754], [-91.33684, 36.31817], [-91.35556, 36.29972], [-91.37398, 36.28097], [-91.39268, 36.26252], [-91.42046, 36.23455], [-91.43918, 36.21611], [-91.45819, 36.19795], [-91.46785, 36.18903], [-91.48746, 36.17147], [-91.50795, 36.15481], [-91.52905, 36.13874], [-91.55043, 36.12297], [-91.56113, 36.11508], [-91.60315, 36.0828], [-91.6232, 36.06569], [-91.63301, 36.05691], [-91.65232, 36.03905], [-91.68039, 36.01138], [-91.68974, 36.00216], [-91.70816, 35.98341], [-91.72688, 35.96496], [-91.7545, 35.93684], [-91.77261, 35.9178], [-91.78152, 35.90813], [-91.79906, 35.88849], [-91.82372, 35.85739], [-91.83174, 35.84683], [-91.85535, 35.81469], [-91.86323, 35.80398], [-91.88759, 35.77258], [-91.90467, 35.7525], [-91.91343, 35.74268], [-91.94046, 35.71397], [-91.94968, 35.70459], [-91.96809, 35.68585], [-91.99601, 35.65803], [-92.00522, 35.64865], [-92.03314, 35.62083], [-92.04234, 35.61146], [-92.06107, 35.59301], [-92.07948, 35.57426], [-92.10681, 35.54585], [-92.11572, 35.53617], [-92.14157, 35.50626], [-92.14989, 35.496], [-92.1738, 35.46416], [-92.18167, 35.45345], [-92.20544, 35.42146], [-92.21346, 35.4109], [-92.23009, 35.39037], [-92.25594, 35.36047], [-92.27316, 35.34053], [-92.28178, 35.33056], [-92.30643, 35.29946], [-92.32233, 35.27819], [-92.3302, 35.26748], [-92.35382, 35.23534], [-92.36169, 35.22463], [-92.37773, 35.2035], [-92.40208, 35.1721], [-92.41011, 35.16154], [-92.42585, 35.14012], [-92.44888, 35.10739], [-92.45645, 35.09638], [-92.4713, 35.07406], [-92.49358, 35.04058], [-92.50101, 35.02943], [-92.52328, 34.99595], [-92.53072, 34.98479], [-92.55299, 34.95132], [-92.56784, 34.929], [-92.5827, 34.90668], [-92.59755, 34.88437], [-92.6124, 34.86205], [-92.61983, 34.85089], [-92.64151, 34.81682], [-92.64864, 34.80536], [-92.66929, 34.77025], [-92.68236, 34.74615], [-92.69513, 34.72174], [-92.7079, 34.69735], [-92.72067, 34.67294], [-92.73374, 34.64884], [-92.74741, 34.62534], [-92.75439, 34.61373], [-92.76865, 34.59082], [-92.79002, 34.55645], [-92.80414, 34.53339], [-92.81113, 34.52178], [-92.83089, 34.48578], [-92.84366, 34.46138], [-92.85628, 34.43683], [-92.86845, 34.41183], [-92.88034, 34.38654], [-92.89207, 34.3611], [-92.90321, 34.33506], [-92.91376, 34.30843], [-92.92431, 34.2818], [-92.93485, 34.25517], [-92.94525, 34.22839], [-92.95595, 34.2019], [-92.96693, 34.17572], [-92.97763, 34.14924], [-92.98803, 34.12246], [-92.99857, 34.09583], [-93.00912, 34.06919], [-93.01952, 34.04241], [-93.03021, 34.01593], [-93.0412, 33.98975], [-93.0519, 33.96326], [-93.06215, 33.93633], [-93.07224, 33.90925], [-93.08205, 33.88187], [-93.09141, 33.85406], [-93.10062, 33.82608], [-93.10997, 33.79826], [-93.11932, 33.77044], [-93.12852, 33.74247], [-93.13774, 33.7145], [-93.14696, 33.68653], [-93.15587, 33.65826], [-93.16434, 33.62954], [-93.17249, 33.60053], [-93.18037, 33.57122], [-93.18794, 33.54161], [-93.19537, 33.51186], [-93.2028, 33.4821], [-93.21022, 33.45234], [-93.21765, 33.42259], [-93.22507, 33.39283], [-93.2325, 33.36308], [-93.23993, 33.33332], [-93.24736, 33.30357], [-93.25478, 33.27381], [-93.26221, 33.24405], [-93.26949, 33.21415], [-93.27632, 33.1838], [-93.28255, 33.15285], [-93.2882, 33.12131], [-93.29325, 33.08917], [-93.298, 33.05674], [-93.30305, 33.0246], [-93.30855, 32.99291], [-93.31419, 32.96137], [-93.31984, 32.92983], [-93.32533, 32.89814], [-93.33038, 32.866], [-93.33513, 32.83356], [-93.34018, 32.80143], [-93.34568, 32.76974], [-93.35132, 32.7382], [-93.35683, 32.70651], [-93.36172, 32.67422], [-93.36543, 32.64075], [-93.36795, 32.60608], [-93.36989, 32.57082], [-93.37183, 32.53556], [-93.37434, 32.50089], [-93.37806, 32.46741], [-93.38297, 32.43513], [-93.38846, 32.40344], [-93.39395, 32.37175], [-93.39886, 32.33946], [-93.40257, 32.30598], [-93.40494, 32.27118], [-93.40628, 32.23532], [-93.40688, 32.19872], [-93.40702, 32.16167], [-93.40702, 32.12447], [-93.40702, 32.08728], [-93.40702, 32.05009], [-93.40702, 32.01289], [-93.40702, 31.97569], [-93.40702, 31.9385], [-93.40702, 31.9013], [-93.40702, 31.86411], [-93.40702, 31.82691], [-93.40702, 31.78972], [-93.40702, 31.75252], [-93.40702, 31.71533], [-93.40702, 31.67813], [-93.40702, 31.64094], [-93.40702, 31.60374], [-93.40702, 31.56655], [-93.40702, 31.52935], [-93.40702, 31.49216], [-93.40702, 31.45496], [-93.40702, 31.41776], [-93.40702, 31.38057], [-93.40702, 31.34337], [-93.40702, 31.30618], [-93.40702, 31.26898], [-93.40702, 31.23179], [-93.40702, 31.19459], [-93.40702, 31.1574], [-93.40688, 31.12035], [-93.40628, 31.08375], [-93.40494, 31.0479], [-93.40257, 31.01308], [-93.39885, 30.97961], [-93.39395, 30.94732], [-93.38846, 30.91563], [-93.38296, 30.88394], [-93.37805, 30.85165], [-93.37434, 30.81818], [-93.37183, 30.78351], [-93.36989, 30.74825], [-93.36796, 30.71299], [-93.36543, 30.67832], [-93.36172, 30.64485], [-93.35683, 30.61256], [-93.35133, 30.58087], [-93.34568, 30.54933], [-93.34018, 30.51764], [-93.33513, 30.4855], [-93.33038, 30.45307], [-93.32533, 30.42093], [-93.31984, 30.38924], [-93.31404, 30.35785], [-93.30795, 30.32675], [-93.30171, 30.29581], [-93.29562, 30.26471], [-93.28954, 30.23362], [-93.28329, 30.20267], [-93.27721, 30.17157], [-93.27141, 30.14018], [-93.26591, 30.10849], [-93.26086, 30.07635], [-93.25612, 30.04392], [-93.25107, 30.01178], [-93.24557, 29.98009], [-93.23993, 29.94855], [-93.23428, 29.91701], [-93.22878, 29.88532], [-93.22373, 29.85318], [-93.21898, 29.82075], [-93.21393, 29.78861], [-93.20828, 29.75707], [-93.20206, 29.72612], [-93.19522, 29.69577], [-93.18794, 29.66587], [-93.18037, 29.63626], [-93.17249, 29.60695], [-93.16432, 29.57794], [-93.15586, 29.54922], [-93.14696, 29.52095], [-93.13774, 29.49298], [-93.12854, 29.46501], [-93.11917, 29.43719], [-93.10938, 29.40981], [-93.09927, 29.38274], [-93.08887, 29.35596], [-93.07773, 29.32992], [-93.066, 29.30448], [-93.05412, 29.27919], [-93.04194, 29.25419], [-93.02946, 29.22949], [-93.01714, 29.20465], [-93.00481, 29.1798], [-92.99233, 29.1551], [-92.98, 29.13026], [-92.96767, 29.10541], [-92.95505, 29.08086], [-92.94228, 29.05646], [-92.9292, 29.03236], [-92.91554, 29.00885], [-92.90143, 28.98579], [-92.88702, 28.96302], [-92.87232, 28.94056], [-92.85747, 28.91824], [-92.84262, 28.89592], [-92.82777, 28.87361], [-92.81291, 28.85129], [-92.79807, 28.82897], [-92.78306, 28.8068], [-92.76776, 28.78493], [-92.75201, 28.76351], [-92.73567, 28.74268], [-92.7186, 28.7226], [-92.69201, 28.69343], [-92.6828, 28.68406], [-92.65518, 28.65594], [-92.64582, 28.64672], [-92.62725, 28.62812], [-92.60869, 28.60952], [-92.59012, 28.59093], [-92.57155, 28.57233], [-92.55299, 28.55373], [-92.52505, 28.52591], [-92.51585, 28.51653], [-92.49728, 28.49794], [-92.47872, 28.47934], [-92.4508, 28.45152], [-92.44159, 28.44214], [-92.42303, 28.42355], [-92.39525, 28.39558], [-92.38589, 28.38635], [-92.36733, 28.36775], [-92.33941, 28.33993], [-92.33005, 28.33071], [-92.30138, 28.30363], [-92.28178, 28.28607], [-92.27153, 28.27774], [-92.24019, 28.25334], [-92.2188, 28.23757], [-92.19741, 28.2218], [-92.17632, 28.20573], [-92.15582, 28.18907], [-92.13622, 28.17151], [-92.12657, 28.16258], [-92.09819, 28.13521], [-92.08884, 28.12598], [-92.07027, 28.10739], [-92.05171, 28.08879], [-92.02394, 28.06082], [-92.00522, 28.04237], [-91.9868, 28.02362], [-91.97745, 28.0144], [-91.95889, 27.9958], [-91.93096, 27.96798], [-91.92175, 27.9586], [-91.90318, 27.94001], [-91.87541, 27.91204], [-91.86606, 27.90281], [-91.84749, 27.88421], [-91.81956, 27.85639], [-91.80114, 27.83765], [-91.79178, 27.82842], [-91.77322, 27.80982], [-91.74529, 27.782], [-91.73608, 27.77263], [-91.70816, 27.7448], [-91.68974, 27.72606], [-91.67104, 27.70761], [-91.66183, 27.69824], [-91.6339, 27.67042], [-91.62469, 27.66104], [-91.60613, 27.64245], [-91.57835, 27.61448], [-91.55965, 27.59603], [-91.55044, 27.58665], [-91.52251, 27.55883], [-91.5133, 27.54946], [-91.49474, 27.53086], [-91.46695, 27.50289], [-91.4576, 27.49366], [-91.43903, 27.47507], [-91.4111, 27.44724], [-91.3924, 27.42879], [-91.38274, 27.41987], [-91.36328, 27.40216], [-91.34323, 27.38505], [-91.3119, 27.36065], [-91.30121, 27.35277], [-91.26911, 27.32911], [-91.24803, 27.31304], [-91.22754, 27.29638], [-91.21774, 27.2876], [-91.18862, 27.26097], [-91.17926, 27.25175], [-91.16055, 27.2333], [-91.13248, 27.20562], [-91.11316, 27.18777], [-91.09356, 27.17021], [-91.07306, 27.15355], [-91.05197, 27.13748], [-91.03058, 27.12171], [-91.0092, 27.10594], [-90.99866, 27.09791], [-90.97786, 27.08154], [-90.94771, 27.05595], [-90.93776, 27.04732], [-90.9079, 27.02143], [-90.88741, 27.00477], [-90.86631, 26.9887], [-90.84492, 26.97293], [-90.82354, 26.95716], [-90.80246, 26.94109], [-90.78195, 26.92443], [-90.772, 26.9158], [-90.74214, 26.88991], [-90.72224, 26.87265], [-90.70174, 26.85599], [-90.68065, 26.83992], [-90.65926, 26.82415], [-90.63788, 26.80838], [-90.61679, 26.79231], [-90.5963, 26.77565], [-90.58634, 26.76701], [-90.55649, 26.74113], [-90.53659, 26.72387], [-90.52634, 26.71554], [-90.495, 26.69114], [-90.4736, 26.67537], [-90.45222, 26.6596], [-90.43114, 26.64353], [-90.41063, 26.62687], [-90.40068, 26.61824], [-90.37082, 26.59235], [-90.36087, 26.58372], [-90.33043, 26.55843], [-90.30933, 26.54235], [-90.28795, 26.52659], [-90.26656, 26.51081], [-90.24517, 26.49504], [-90.22409, 26.47898], [-90.20329, 26.46261], [-90.18219, 26.44654], [-90.1608, 26.43077], [-90.13913, 26.4153], [-90.11715, 26.40012], [-90.09487, 26.38525], [-90.07259, 26.37037], [-90.05031, 26.35549], [-90.02832, 26.34031], [-90.00664, 26.32484], [-89.98524, 26.30907], [-89.96416, 26.293], [-89.94336, 26.27663], [-89.92227, 26.26057], [-89.90089, 26.24479], [-89.8795, 26.22902], [-89.85811, 26.21325], [-89.83672, 26.19748], [-89.81563, 26.18142], [-89.79483, 26.16505], [-89.77374, 26.14898], [-89.75236, 26.13321], [-89.73068, 26.11773], [-89.71969, 26.11015], [-89.68642, 26.08768], [-89.66414, 26.0728], [-89.64185, 26.05793], [-89.61958, 26.04305], [-89.5973, 26.02817], [-89.58616, 26.02073], [-89.55274, 25.99841], [-89.53046, 25.98354], [-89.50848, 25.96836], [-89.48679, 25.95289], [-89.46541, 25.93711], [-89.44431, 25.92105], [-89.42352, 25.90468], [-89.40244, 25.88861], [-89.38105, 25.87284], [-89.35936, 25.85737], [-89.33738, 25.8422], [-89.31509, 25.82732], [-89.29282, 25.81244], [-89.27054, 25.79756], [-89.24855, 25.78238], [-89.22687, 25.76691], [-89.20547, 25.75114], [-89.18439, 25.73507], [-89.1636, 25.71871], [-89.14251, 25.70264], [-89.12112, 25.68687], [-89.09943, 25.67139], [-89.07745, 25.65622], [-89.05518, 25.64134], [-89.0329, 25.62646], [-89.01062, 25.61158], [-88.98864, 25.59641], [-88.96695, 25.58093], [-88.94556, 25.56516], [-88.92447, 25.5491], [-88.90367, 25.53273], [-88.88258, 25.51666], [-88.86119, 25.50089], [-88.83951, 25.48542], [-88.81754, 25.47024], [-88.79526, 25.45536], [-88.77298, 25.44049], [-88.7507, 25.42561], [-88.73971, 25.41802], [-88.70702, 25.39496], [-88.68564, 25.37919], [-88.66455, 25.36312], [-88.64375, 25.34675], [-88.62266, 25.33068], [-88.60127, 25.31491], [-88.57988, 25.29914], [-88.5585, 25.28337], [-88.53711, 25.2676], [-88.51602, 25.25153], [-88.49522, 25.23517], [-88.47414, 25.2191], [-88.45274, 25.20333], [-88.43136, 25.18756], [-88.40997, 25.17179], [-88.38889, 25.15572], [-88.36839, 25.13905], [-88.34848, 25.1218], [-88.32858, 25.10454], [-88.30869, 25.08728], [-88.28818, 25.07062], [-88.26709, 25.05455], [-88.2457, 25.03878], [-88.2243, 25.023], [-88.20292, 25.00723], [-88.18182, 24.99117], [-88.17143, 24.98298], [-88.13995, 24.95873], [-88.11856, 24.94296], [-88.09717, 24.92719], [-88.07579, 24.91142], [-88.0547, 24.89535], [-88.04445, 24.88702], [-88.0143, 24.86143], [-87.9944, 24.84417], [-87.97449, 24.82691], [-87.95399, 24.81025], [-87.9329, 24.79418], [-87.91151, 24.77841], [-87.89013, 24.76264], [-87.86874, 24.74687], [-87.84765, 24.7308], [-87.82686, 24.71443], [-87.80576, 24.69837], [-87.78438, 24.68259], [-87.76299, 24.66682], [-87.7416, 24.65105], [-87.7205, 24.63498], [-87.70001, 24.61832], [-87.68011, 24.60106], [-87.66021, 24.58381], [-87.6403, 24.56654], [-87.6198, 24.54988], [-87.59872, 24.53381], [-87.57733, 24.51804], [-87.55594, 24.50227], [-87.53485, 24.4862], [-87.51436, 24.46954], [-87.50441, 24.46091], [-87.47455, 24.43502], [-87.4646, 24.4264], [-87.43416, 24.4011], [-87.41306, 24.38503], [-87.39167, 24.36926], [-87.38097, 24.36138], [-87.34919, 24.33742], [-87.3287, 24.32076], [-87.30879, 24.3035], [-87.28889, 24.28624], [-87.26898, 24.26898], [-87.24849, 24.25232], [-87.22739, 24.23625], [-87.21671, 24.22836], [-87.18462, 24.20471], [-87.16354, 24.18864], [-87.14304, 24.17198], [-87.13309, 24.16335], [-87.10323, 24.13746], [-87.08333, 24.1202], [-87.06282, 24.10354], [-87.04173, 24.08747], [-87.02035, 24.0717], [-86.99896, 24.05593], [-86.97787, 24.03986], [-86.95738, 24.0232], [-86.93747, 24.00594], [-86.91757, 23.98868], [-86.89767, 23.97142], [-86.87717, 23.95476], [-86.85609, 23.93869], [-86.83469, 23.92292], [-86.8133, 23.90715], [-86.79192, 23.89138], [-86.77083, 23.87531], [-86.75003, 23.85894], [-86.72894, 23.84287], [-86.70755, 23.8271], [-86.68616, 23.81133], [-86.66478, 23.79556], [-86.64368, 23.77949], [-86.6232, 23.76283], [-86.60329, 23.74557], [-86.58339, 23.72831], [-86.56348, 23.71105], [-86.54298, 23.69439], [-86.5219, 23.67832], [-86.50051, 23.66255], [-86.47912, 23.64678], [-86.45773, 23.63101], [-86.43665, 23.61494], [-86.41585, 23.59858], [-86.39475, 23.58251], [-86.37337, 23.56674], [-86.35197, 23.55096], [-86.33059, 23.53519], [-86.3092, 23.51942], [-86.28812, 23.50336], [-86.26732, 23.48699], [-86.24623, 23.47092], [-86.22484, 23.45515], [-86.20345, 23.43938], [-86.18207, 23.42361], [-86.16068, 23.40784], [-86.13959, 23.39177], [-86.11879, 23.3754], [-86.0977, 23.35934], [-86.07632, 23.34356], [-86.05493, 23.32779], [-86.03354, 23.31202], [-86.01215, 23.29625], [-85.99106, 23.28018], [-85.97026, 23.26382], [-85.94917, 23.24775], [-85.92778, 23.23198], [-85.9061, 23.21651], [-85.88412, 23.20133], [-85.86185, 23.18645], [-85.83957, 23.17157], [-85.81729, 23.1567], [-85.7953, 23.14152], [-85.77361, 23.12605], [-85.75223, 23.11028], [-85.73114, 23.09421], [-85.71034, 23.07784], [-85.68925, 23.06177], [-85.66786, 23.046], [-85.64618, 23.03053], [-85.6242, 23.01535], [-85.60192, 23.00047], [-85.57964, 22.9856], [-85.55736, 22.97072], [-85.53538, 22.95554], [-85.51369, 22.94007], [-85.4923, 22.9243], [-85.47122, 22.90823], [-85.45042, 22.89186], [-85.42933, 22.8758], [-85.40794, 22.86003], [-85.38656, 22.84426], [-85.36517, 22.82848], [-85.34378, 22.81271], [-85.32269, 22.79665], [-85.3019, 22.78028], [-85.28081, 22.76421], [-85.25941, 22.74844], [-85.23773, 22.73297], [-85.21574, 22.71779], [-85.19347, 22.70291], [-85.17119, 22.68804], [-85.14891, 22.67316], [-85.12663, 22.65828], [-85.10435, 22.6434], [-85.08208, 22.62852], [-85.05979, 22.61364], [-85.03751, 22.59877], [-85.01553, 22.58359], [-84.99385, 22.56812], [-84.97247, 22.55235], [-84.95137, 22.53628], [-84.93057, 22.51991], [-84.90948, 22.50384], [-84.88809, 22.48807], [-84.86641, 22.4726], [-84.84443, 22.45742], [-84.82215, 22.44255], [-84.79987, 22.42767], [-84.7776, 22.41279], [-84.75561, 22.39762], [-84.73392, 22.38214], [-84.71254, 22.36637], [-84.69144, 22.3503], [-84.67065, 22.33394], [-84.64957, 22.31787], [-84.62817, 22.3021], [-84.60649, 22.28662], [-84.58451, 22.27145], [-84.56223, 22.25657], [-84.53995, 22.24169], [-84.51767, 22.22681], [-84.49568, 22.21164], [-84.474, 22.19617], [-84.45261, 22.18039], [-84.43152, 22.16433], [-84.41074, 22.14796], [-84.38963, 22.13189], [-84.36826, 22.11612], [-84.34686, 22.10035], [-84.32547, 22.08458], [-84.30409, 22.06881], [-84.28299, 22.05274], [-84.2622, 22.03638], [-84.24112, 22.02031], [-84.21973, 22.00454], [-84.19803, 21.98906], [-84.17606, 21.97388], [-84.15378, 21.95901], [-84.1315, 21.94413], [-84.10922, 21.92925], [-84.08723, 21.91408], [-84.06555, 21.89861], [-84.04416, 21.88283], [-84.02307, 21.86676], [-84.00229, 21.8504], [-83.98119, 21.83433], [-83.95981, 21.81856], [-83.93842, 21.80279], [-83.91702, 21.78702], [-83.89565, 21.77125], [-83.87454, 21.75518], [-83.85375, 21.73881], [-83.83266, 21.72274], [-83.81127, 21.70697], [-83.78989, 21.6912], [-83.76849, 21.67543], [-83.74741, 21.65936], [-83.72691, 21.6427], [-83.707, 21.62544], [-83.6871, 21.60818], [-83.66721, 21.59092], [-83.64671, 21.57426], [-83.62562, 21.55819], [-83.60423, 21.54242], [-83.58284, 21.52665], [-83.56175, 21.51058], [-83.54125, 21.49392], [-83.52135, 21.47666], [-83.50145, 21.4594], [-83.48154, 21.44214], [-83.46104, 21.42548], [-83.43996, 21.40941], [-83.41856, 21.39364], [-83.39718, 21.37787], [-83.37579, 21.3621], [-83.35471, 21.34603], [-83.33391, 21.32966], [-83.31282, 21.31359], [-83.29143, 21.29782], [-83.27005, 21.28205], [-83.24866, 21.26628], [-83.22757, 21.25022], [-83.21732, 21.24188], [-83.18716, 21.21629], [-83.16727, 21.19904], [-83.14735, 21.18178], [-83.12686, 21.16511], [-83.10577, 21.14904], [-83.08438, 21.13327], [-83.06299, 21.1175], [-83.0419, 21.10143], [-83.02141, 21.08477], [-83.0015, 21.06751], [-82.9816, 21.05025], [-82.9617, 21.03299], [-82.9412, 21.01633], [-82.92011, 21.00026], [-82.89873, 20.98449], [-82.87733, 20.96872], [-82.85625, 20.95265], [-82.83575, 20.93599], [-82.81584, 20.91873], [-82.79594, 20.90147], [-82.77603, 20.88421], [-82.75554, 20.86755], [-82.73445, 20.85148], [-82.71307, 20.83571], [-82.69168, 20.81994], [-82.67059, 20.80387], [-82.65009, 20.78721], [-82.63019, 20.76995], [-82.61029, 20.75269], [-82.59038, 20.73543], [-82.58013, 20.7271], [-82.5488, 20.7027], [-82.5274, 20.68693], [-82.50601, 20.67116], [-82.48463, 20.65539], [-82.46354, 20.63932], [-82.44275, 20.62296], [-82.42166, 20.60689], [-82.38957, 20.58323], [-82.37888, 20.57534], [-82.35748, 20.55957], [-82.3361, 20.5438], [-82.315, 20.52773], [-82.29437, 20.51137], [-82.27357, 20.4956], [-82.25263, 20.48072], [-82.23154, 20.46703], [-82.19842, 20.45037], [-82.17525, 20.44204], [-82.15074, 20.43623]]]}}]}