{"type":"FeatureCollection","features":[{"type":"Feature","properties":{"kind":"observed-history","source":"NHC GIS Best Track Archive","through":"2021082712"},"geometry":{"type":"LineString","coordinates":[[-78.9,16.5],[-79.5,17.4],[-80.2,18.3],[-80.9,19.4],[-82.1,20.7]]}},{"type":"Feature","properties":{"shapefile":"AL092021_pts","STORMNAME":"NINE","DTG":2021082612,"YEAR":2021,"MONTH":"08","DAY":26,"HHMM":"1200","MSLP":1006,"BASIN":"al","STORMNUM":9,"STORMTYPE":"TD","INTENSITY":30,"SS":0,"LAT":16,"LON":-78},"geometry":{"type":"Point","coordinates":[-78.9,16.5]}},{"type":"Feature","properties":{"shapefile":"AL092021_pts","STORMNAME":"NINE","DTG":2021082618,"YEAR":2021,"MONTH":"08","DAY":26,"HHMM":"1800","MSLP":1006,"BASIN":"al","STORMNUM":9,"STORMTYPE":"TS","INTENSITY":35,"SS":0,"LAT":17,"LON":-79},"geometry":{"type":"Point","coordinates":[-79.5,17.4]}},{"type":"Feature","properties":{"shapefile":"AL092021_pts","STORMNAME":"IDA","DTG":2021082700,"YEAR":2021,"MONTH":"08","DAY":27,"HHMM":"0000","MSLP":1004,"BASIN":"al","STORMNUM":9,"STORMTYPE":"TS","INTENSITY":40,"SS":0,"LAT":18,"LON":-80},"geometry":{"type":"Point","coordinates":[-80.2,18.3]}},{"type":"Feature","properties":{"shapefile":"AL092021_pts","STORMNAME":"IDA","DTG":2021082706,"YEAR":2021,"MONTH":"08","DAY":27,"HHMM":"0600","MSLP":1002,"BASIN":"al","STORMNUM":9,"STORMTYPE":"TS","INTENSITY":45,"SS":0,"LAT":19,"LON":-80},"geometry":{"type":"Point","coordinates":[-80.9,19.4]}}]}