{"type": "FeatureCollection", "features": [{"type": "Feature", "geometry": {"type": "LineString", "coordinates": [[-81.9, 20.2], [-82.7, 21.2], [-83.8, 22.3], [-84.9, 23.1], [-85.7, 24.2], [-86.5, 25.1], [-87.5, 26.3], [-88.5, 27.5], [-89.3, 28.7], [-90.0, 29.6], [-90.5, 30.7], [-91.1, 31.6], [-91.0, 32.5], [-90.9, 33.3], [-90.5, 34.0], [-89.8, 35.0], [-89.2, 35.5], [-88.1, 35.9], [-86.4, 36.5], [-85.3, 36.6], [-83.9, 36.8], [-81.3, 37.0], [-76.9, 38.4], [-73.9, 39.0], [-72.3, 39.0], [-71.3, 38.6], [-69.8, 37.5], [-67.7, 37.9], [-65.7, 37.9], [-63.4, 38.1], [-60.4, 38.6], [-56.7, 39.3], [-53.5, 39.8], [-50.8, 39.9], [-48.3, 40.2], [-44.8, 41.2], [-41.3, 42.1], [-38.2, 42.7], [-35.7, 43.6], [-32.9, 44.4]]}, "properties": {"model": "CMC", "label": "CMC", "kind": "physics", "group": "deterministic", "cycle": "2021082712"}}, {"type": "Feature", "geometry": {"type": "LineString", "coordinates": [[-82.0, 19.9], [-83.0, 20.9], [-83.9, 21.7], [-84.6, 22.6], [-85.4, 23.6], [-86.5, 24.5], [-87.3, 25.3], [-88.3, 26.3], [-89.2, 27.1], [-90.0, 27.7], [-90.7, 28.2], [-91.3, 28.6], [-91.6, 29.2], [-92.0, 30.0], [-92.3, 30.8], [-92.5, 31.6], [-92.6, 32.4], [-92.6, 33.0], [-92.5, 33.4], [-92.7, 33.6], [-93.1, 33.7], [-93.6, 33.6], [-94.0, 33.6], [-94.9, 33.5], [-95.2, 33.7], [-95.5, 34.0], [-95.7, 35.0], [-96.5, 35.8], [-96.9, 36.7], [-96.9, 37.8], [-96.3, 38.4], [-95.6, 38.5], [-94.6, 40.6]]}, "properties": {"model": "AP01", "label": "GEFS 01", "kind": "ensemble", "group": "ensemble", "cycle": "2021082712"}}, {"type": "Feature", "geometry": {"type": "LineString", "coordinates": [[-81.6, 20.3], [-82.4, 21.4], [-83.6, 22.5], [-84.9, 23.1], [-85.8, 24.2], [-87.0, 25.2], [-88.1, 26.3], [-89.5, 27.4], [-90.4, 28.3], [-91.3, 29.2], [-91.9, 30.1], [-92.3, 30.9], [-92.4, 31.6], [-92.1, 32.2], [-91.4, 32.9], [-90.8, 33.5], [-89.7, 34.1], [-88.4, 34.8], [-87.2, 35.3], [-86.3, 35.3], [-85.6, 34.6], [-84.4, 34.1], [-82.9, 34.5], [-82.7, 34.6], [-82.8, 34.4], [-82.9, 34.3], [-83.8, 34.4], [-85.4, 34.5], [-86.8, 34.6], [-87.9, 35.1], [-89.2, 36.0]]}, "properties": {"model": "AP03", "label": "GEFS 03", "kind": "ensemble", "group": "ensemble", "cycle": "2021082712"}}, {"type": "Feature", "geometry": {"type": "LineString", "coordinates": [[-81.5, 20.4], [-82.5, 21.6], [-83.5, 22.8], [-84.7, 23.6], [-85.9, 24.6], [-86.9, 25.6], [-88.0, 26.5], [-89.0, 27.3], [-89.7, 28.2], [-90.2, 29.0], [-90.6, 29.6], [-90.6, 30.1], [-90.4, 30.9], [-90.1, 31.6], [-89.5, 32.4], [-89.2, 32.9], [-88.9, 33.5], [-88.8, 33.7], [-88.5, 33.7], [-88.3, 33.6], [-87.7, 33.8], [-87.3, 33.9], [-86.6, 33.7], [-86.8, 33.4], [-87.3, 32.9], [-87.7, 33.1], [-88.9, 33.1], [-90.4, 32.8], [-91.7, 32.8], [-92.1, 32.5], [-92.6, 32.8], [-93.3, 33.7]]}, "properties": {"model": "AP04", "label": "GEFS 04", "kind": "ensemble", "group": "ensemble", "cycle": "2021082712"}}, {"type": "Feature", "geometry": {"type": "LineString", "coordinates": [[-81.7, 20.2], [-82.7, 21.3], [-84.0, 22.5], [-85.1, 23.0], [-86.0, 23.8], [-87.1, 24.8], [-88.1, 25.6], [-89.5, 26.4], [-90.6, 27.0], [-91.6, 27.6], [-92.1, 28.1], [-92.8, 28.7], [-93.0, 29.5], [-93.3, 30.3], [-93.1, 31.1], [-92.7, 31.9], [-92.1, 32.9], [-91.4, 33.7], [-90.6, 34.5], [-90.4, 35.0], [-90.0, 35.2], [-89.8, 35.3], [-89.6, 35.1], [-89.8, 34.7], [-89.6, 34.8], [-89.3, 35.1], [-89.7, 35.0], [-90.7, 34.2], [-90.5, 34.9], [-90.1, 36.1], [-90.0, 37.1], [-90.0, 38.3]]}, "properties": {"model": "AP06", "label": "GEFS 06", "kind": "ensemble", "group": "ensemble", "cycle": "2021082712"}}, {"type": "Feature", "geometry": {"type": "LineString", "coordinates": [[-81.4, 20.2], [-82.3, 21.3], [-83.4, 22.3], [-84.5, 23.0], [-85.5, 23.8], [-86.7, 24.5], [-87.6, 25.2], [-88.6, 26.0], [-89.8, 27.1], [-90.5, 27.8], [-91.1, 28.8], [-91.6, 29.7], [-91.8, 30.8], [-91.6, 31.8], [-91.3, 32.8], [-90.8, 33.6], [-89.9, 34.7], [-89.0, 35.9], [-88.2, 36.9], [-87.3, 37.1], [-85.9, 37.5], [-84.2, 38.2], [-82.4, 38.7], [-80.5, 38.9], [-78.5, 38.8], [-76.5, 38.8], [-74.6, 38.6], [-71.0, 39.7], [-66.0, 40.4], [-61.1, 41.4], [-57.2, 42.0]]}, "properties": {"model": "AP07", "label": "GEFS 07", "kind": "ensemble", "group": "ensemble", "cycle": "2021082712"}}, {"type": "Feature", "geometry": {"type": "LineString", "coordinates": [[-81.6, 20.4], [-82.6, 21.5], [-83.6, 22.8], [-85.0, 23.4], [-86.1, 23.9], [-87.2, 24.6], [-88.1, 25.4], [-89.0, 26.2], [-89.9, 27.0], [-90.4, 27.9], [-90.6, 28.8], [-90.6, 29.7], [-90.5, 30.9], [-90.6, 32.1], [-90.2, 33.3], [-89.8, 34.0], [-89.0, 34.6], [-88.1, 35.4], [-86.9, 36.1], [-85.6, 37.2], [-83.3, 39.1], [-80.8, 40.0], [-77.3, 40.5], [-75.4, 40.3], [-72.9, 40.3], [-71.1, 39.8], [-66.5, 41.7], [-59.6, 44.4], [-53.9, 46.1], [-49.3, 47.1], [-46.5, 47.2], [-43.1, 48.1], [-38.3, 49.8]]}, "properties": {"model": "AP08", "label": "GEFS 08", "kind": "ensemble", "group": "ensemble", "cycle": "2021082712"}}, {"type": "Feature", "geometry": {"type": "LineString", "coordinates": [[-81.9, 20.2], [-82.9, 20.9], [-83.9, 21.9], [-85.4, 22.6], [-86.5, 23.4], [-87.8, 24.2], [-88.8, 25.1], [-90.0, 26.1], [-90.7, 27.1], [-91.4, 28.1], [-91.9, 29.0], [-92.4, 29.6], [-92.4, 30.3], [-92.2, 31.2], [-91.9, 32.1], [-91.6, 32.9], [-91.4, 33.7], [-91.2, 34.0], [-90.5, 34.4], [-90.4, 34.4], [-89.9, 34.5], [-89.4, 34.8], [-88.9, 35.0], [-88.9, 35.1], [-88.5, 35.0], [-88.0, 34.4], [-87.6, 34.3], [-88.4, 33.7], [-89.3, 32.8], [-89.2, 32.0], [-90.2, 31.6], [-91.7, 30.4], [-93.9, 29.8]]}, "properties": {"model": "AP13", "label": "GEFS 13", "kind": "ensemble", "group": "ensemble", "cycle": "2021082712"}}, {"type": "Feature", "geometry": {"type": "LineString", "coordinates": [[-82.0, 20.5], [-83.0, 21.6], [-84.2, 22.5], [-85.2, 23.1], [-86.2, 24.1], [-87.1, 25.1], [-88.1, 26.0], [-89.2, 27.0], [-90.1, 28.0], [-91.1, 28.7], [-91.4, 29.3], [-91.6, 29.7], [-91.4, 30.4], [-91.1, 30.9], [-90.1, 31.4], [-89.2, 32.5], [-88.4, 33.7], [-87.5, 34.9], [-86.3, 36.0], [-85.1, 36.7], [-83.4, 37.8], [-81.2, 38.5], [-77.6, 39.2]]}, "properties": {"model": "AP14", "label": "GEFS 14", "kind": "ensemble", "group": "ensemble", "cycle": "2021082712"}}, {"type": "Feature", "geometry": {"type": "LineString", "coordinates": [[-81.2, 19.8], [-82.2, 20.8], [-83.1, 22.0], [-84.3, 23.1], [-85.5, 24.0], [-86.5, 24.9], [-87.7, 26.0], [-89.1, 27.0], [-90.2, 28.0], [-91.0, 28.9], [-91.3, 29.8], [-91.5, 30.5], [-91.1, 31.4], [-90.4, 32.1], [-89.2, 33.0], [-88.4, 33.9], [-87.2, 34.5], [-86.1, 35.0], [-84.6, 35.2], [-82.9, 36.0], [-81.0, 37.6]]}, "properties": {"model": "AP15", "label": "GEFS 15", "kind": "ensemble", "group": "ensemble", "cycle": "2021082712"}}, {"type": "Feature", "geometry": {"type": "LineString", "coordinates": [[-81.7, 20.3], [-82.5, 21.2], [-83.5, 22.4], [-84.7, 23.1], [-85.8, 23.9], [-86.9, 24.7], [-87.8, 25.7], [-88.8, 26.7], [-89.9, 27.6], [-90.5, 28.3], [-91.0, 29.0], [-91.3, 29.7], [-91.0, 30.6], [-90.8, 31.7], [-90.3, 32.6], [-89.9, 33.3], [-89.2, 33.8], [-88.2, 34.3], [-87.0, 34.8], [-86.1, 35.2], [-84.8, 36.0], [-82.6, 37.9], [-81.7, 38.2], [-81.3, 38.0], [-80.8, 39.2], [-82.4, 39.1], [-81.9, 38.2]]}, "properties": {"model": "AP18", "label": "GEFS 18", "kind": "ensemble", "group": "ensemble", "cycle": "2021082712"}}, {"type": "Feature", "geometry": {"type": "LineString", "coordinates": [[-81.6, 20.3], [-82.5, 21.4], [-83.5, 22.6], [-84.9, 23.4], [-86.1, 24.0], [-87.3, 24.7], [-88.5, 25.4], [-89.7, 25.9], [-90.9, 26.3], [-91.8, 26.5], [-92.5, 26.9], [-93.2, 27.1], [-93.9, 27.5], [-94.1, 27.8], [-94.0, 28.1], [-93.7, 28.6], [-93.6, 29.4], [-93.9, 30.3], [-94.4, 30.4], [-94.7, 30.7], [-95.0, 30.9], [-95.5, 31.3], [-96.0, 31.6], [-96.8, 31.8], [-97.3, 32.1], [-97.8, 32.5], [-97.9, 33.1], [-98.1, 34.0], [-97.6, 34.9], [-96.8, 35.7], [-95.7, 36.3], [-94.3, 36.8], [-91.8, 37.3]]}, "properties": {"model": "AP21", "label": "GEFS 21", "kind": "ensemble", "group": "ensemble", "cycle": "2021082712"}}, {"type": "Feature", "geometry": {"type": "LineString", "coordinates": [[-81.7, 20.3], [-82.7, 21.4], [-83.8, 22.3], [-85.0, 22.8], [-86.0, 23.8], [-87.2, 24.8], [-88.3, 25.7], [-89.6, 26.4], [-90.6, 27.3], [-91.6, 28.1], [-92.5, 28.7], [-93.1, 29.5], [-93.4, 30.4], [-93.4, 31.3], [-93.0, 32.4], [-92.6, 33.0], [-91.5, 33.9], [-90.5, 34.6], [-89.1, 35.2], [-87.7, 35.9], [-86.2, 36.7], [-84.3, 37.6], [-82.6, 38.3], [-81.3, 38.5], [-79.4, 38.1], [-77.2, 38.1], [-74.8, 39.0], [-72.3, 40.0], [-69.0, 42.0], [-66.5, 43.9], [-63.5, 45.0], [-60.5, 47.4], [-59.7, 47.9]]}, "properties": {"model": "AP22", "label": "GEFS 22", "kind": "ensemble", "group": "ensemble", "cycle": "2021082712"}}, {"type": "Feature", "geometry": {"type": "LineString", "coordinates": [[-81.6, 20.3], [-82.4, 21.4], [-83.5, 22.4], [-84.8, 23.0], [-85.7, 23.6], [-86.7, 24.2], [-87.6, 24.9], [-88.7, 25.6], [-89.8, 26.3], [-90.8, 26.9], [-91.5, 27.3], [-92.4, 27.6], [-92.9, 27.8], [-93.2, 28.1], [-93.3, 28.4], [-93.5, 28.7], [-93.5, 29.2], [-93.9, 29.8], [-94.6, 30.2], [-95.5, 30.1], [-96.4, 29.7], [-96.7, 29.6], [-97.4, 29.6], [-98.1, 29.6], [-98.7, 29.7], [-99.5, 30.1], [-100.1, 30.8], [-100.6, 31.6], [-101.3, 32.8], [-101.9, 33.8], [-101.9, 35.1], [-101.7, 36.6], [-100.8, 38.0]]}, "properties": {"model": "AP23", "label": "GEFS 23", "kind": "ensemble", "group": "ensemble", "cycle": "2021082712"}}, {"type": "Feature", "geometry": {"type": "LineString", "coordinates": [[-81.7, 20.0], [-82.6, 20.7], [-83.6, 21.6], [-84.5, 22.7], [-85.5, 23.7], [-86.6, 25.0], [-87.9, 26.0], [-89.0, 27.1], [-90.1, 28.4], [-91.1, 29.5], [-91.3, 30.8], [-91.5, 32.0], [-91.2, 33.0], [-90.2, 33.9], [-89.0, 35.1], [-87.6, 36.0], [-85.7, 37.1], [-83.0, 38.3], [-79.1, 39.8], [-76.7, 40.7], [-72.7, 42.1], [-69.3, 44.4], [-67.4, 46.1], [-66.0, 47.6], [-64.8, 48.6], [-64.3, 49.8], [-64.1, 50.5], [-64.1, 51.0], [-64.0, 51.7], [-63.2, 52.3], [-61.9, 52.6], [-60.1, 53.5], [-59.2, 56.8]]}, "properties": {"model": "AP25", "label": "GEFS 25", "kind": "ensemble", "group": "ensemble", "cycle": "2021082712"}}, {"type": "Feature", "geometry": {"type": "LineString", "coordinates": [[-81.9, 19.7], [-82.6, 20.6], [-83.5, 21.6], [-84.5, 22.2], [-85.7, 23.1], [-87.0, 23.8], [-88.1, 24.7], [-89.3, 25.5], [-90.4, 26.6], [-91.5, 27.5], [-92.4, 28.2], [-93.0, 28.6], [-93.3, 29.4], [-93.5, 30.1], [-93.5, 30.8], [-93.4, 31.5], [-93.2, 32.4], [-93.3, 32.9], [-93.0, 33.1], [-92.8, 33.2], [-92.6, 33.8], [-92.2, 34.2], [-92.2, 34.1], [-92.9, 33.7], [-94.2, 33.3], [-94.7, 33.2], [-94.8, 33.6], [-96.5, 34.0]]}, "properties": {"model": "AP27", "label": "GEFS 27", "kind": "ensemble", "group": "ensemble", "cycle": "2021082712"}}, {"type": "Feature", "geometry": {"type": "LineString", "coordinates": [[-81.8, 20.2], [-82.7, 21.1], [-83.7, 22.3], [-85.0, 23.1], [-85.9, 24.0], [-86.9, 24.9], [-87.8, 25.6], [-88.9, 26.4], [-89.7, 27.2], [-90.6, 28.0], [-91.1, 28.7], [-91.6, 29.2], [-91.7, 29.7], [-91.6, 30.3], [-91.3, 31.0], [-91.1, 31.5], [-90.8, 32.2], [-90.7, 32.7], [-90.5, 32.7], [-90.4, 32.7], [-90.4, 33.3], [-90.7, 33.6], [-91.3, 33.5], [-92.4, 33.4], [-92.8, 33.8], [-92.8, 34.5], [-93.3, 35.1], [-93.9, 36.1]]}, "properties": {"model": "AP28", "label": "GEFS 28", "kind": "ensemble", "group": "ensemble", "cycle": "2021082712"}}, {"type": "Feature", "geometry": {"type": "LineString", "coordinates": [[-81.7, 20.3], [-82.4, 21.4], [-83.4, 22.6], [-84.4, 23.6], [-85.5, 24.7], [-86.7, 25.7], [-87.8, 26.7], [-89.0, 27.7], [-90.0, 28.6], [-90.8, 29.4], [-91.1, 30.3], [-91.4, 31.1], [-91.5, 32.0], [-91.2, 33.0], [-90.6, 34.0], [-90.1, 34.7], [-89.2, 35.6], [-88.3, 36.1], [-86.9, 36.7], [-85.9, 36.8], [-85.4, 36.2], [-84.5, 35.4], [-82.9, 35.2], [-82.2, 35.2], [-81.9, 34.7], [-81.7, 34.5], [-82.2, 34.2], [-83.5, 33.4], [-84.3, 33.2], [-85.4, 33.0], [-85.0, 32.8], [-85.3, 33.0]]}, "properties": {"model": "AP29", "label": "GEFS 29", "kind": "ensemble", "group": "ensemble", "cycle": "2021082712"}}, {"type": "Feature", "geometry": {"type": "LineString", "coordinates": [[-81.7, 20.4], [-82.6, 21.4], [-83.7, 22.5], [-84.9, 23.2], [-85.9, 24.1], [-87.0, 25.0], [-87.9, 25.9], [-89.1, 26.8], [-90.0, 27.6], [-90.6, 28.5], [-91.1, 29.2], [-91.2, 29.9], [-90.9, 30.7], [-90.5, 31.9], [-90.0, 32.9], [-89.6, 33.6], [-88.8, 34.3], [-87.8, 35.1], [-86.7, 35.9], [-85.7, 36.4], [-84.4, 37.0], [-82.9, 37.3], [-80.9, 37.2], [-80.3, 36.3], [-80.4, 35.2], [-80.1, 34.4], [-79.9, 33.5], [-80.2, 32.5], [-79.8, 32.1], [-78.9, 31.5], [-78.6, 30.9], [-78.6, 30.3], [-78.8, 29.9], [-79.3, 29.3], [-80.0, 28.5], [-81.0, 28.0], [-81.8, 27.8], [-82.7, 28.0], [-84.7, 27.5], [-87.0, 27.0], [-89.5, 27.2]]}, "properties": {"model": "AVNO", "label": "GFS", "kind": "physics", "group": "deterministic", "cycle": "2021082712"}}, {"type": "Feature", "geometry": {"type": "LineString", "coordinates": [[-81.9, 20.2], [-82.7, 21.3], [-83.7, 22.6], [-84.9, 23.3], [-85.8, 24.4], [-86.8, 25.3], [-87.7, 26.3], [-89.1, 27.3], [-90.0, 28.2], [-90.8, 28.8], [-91.0, 29.5], [-91.3, 30.2], [-91.1, 31.0], [-90.7, 31.8], [-90.5, 32.6], [-90.0, 33.1], [-89.4, 33.8], [-88.3, 34.2], [-87.1, 34.8], [-86.2, 35.4], [-85.4, 35.6], [-84.3, 35.3]]}, "properties": {"model": "CTCX", "label": "COAMPS-TC", "kind": "physics", "group": "deterministic", "cycle": "2021082712"}}, {"type": "Feature", "geometry": {"type": "LineString", "coordinates": [[-81.6, 20.1], [-83.5, 21.9], [-85.8, 23.8], [-88.1, 25.5], [-90.2, 27.0], [-91.9, 28.4], [-92.6, 29.4], [-92.5, 30.7], [-92.1, 32.5], [-91.7, 33.7], [-91.5, 34.6], [-91.6, 34.9], [-91.6, 35.5]]}, "properties": {"model": "EGRR", "label": "UKMET", "kind": "physics", "group": "deterministic", "cycle": "2021082712"}}, {"type": "Feature", "geometry": {"type": "LineString", "coordinates": [[-81.7, 20.3], [-83.7, 22.2], [-85.9, 24.0], [-88.0, 25.9], [-90.0, 27.6], [-91.3, 29.0], [-91.7, 30.4], [-91.4, 31.9], [-90.4, 33.3], [-89.3, 34.4], [-88.3, 35.1], [-87.4, 35.4], [-86.1, 35.6], [-84.6, 35.8], [-82.8, 36.0]]}, "properties": {"model": "HCCA", "label": "HFIP Corrected Consensus", "kind": "consensus", "group": "consensus", "cycle": "2021082712"}}, {"type": "Feature", "geometry": {"type": "LineString", "coordinates": [[-81.6, 20.5], [-82.1, 21.0], [-82.6, 21.5], [-83.1, 21.9], [-83.6, 22.4], [-84.2, 22.8], [-84.7, 23.3], [-85.2, 23.7], [-85.7, 24.3], [-86.3, 24.9], [-87.0, 25.5], [-87.7, 25.9], [-88.2, 26.3], [-88.9, 26.6], [-89.4, 27.0], [-90.0, 27.5], [-90.5, 27.8], [-90.9, 28.2], [-91.4, 28.5], [-91.7, 28.9], [-91.9, 29.2], [-92.1, 29.4], [-92.4, 29.8], [-92.4, 30.1], [-92.4, 30.5], [-92.4, 30.8], [-92.3, 31.2], [-92.1, 31.7], [-92.0, 32.1], [-91.8, 32.3], [-91.5, 32.6], [-91.1, 33.0], [-90.7, 33.4], [-90.5, 33.9], [-90.2, 34.1], [-89.8, 34.4], [-89.4, 34.6], [-89.1, 34.6], [-88.7, 34.7], [-88.1, 35.0], [-87.5, 35.4], [-86.9, 35.8], [-86.0, 36.3]]}, "properties": {"model": "HMON", "label": "HMON", "kind": "physics", "group": "deterministic", "cycle": "2021082712"}}, {"type": "Feature", "geometry": {"type": "LineString", "coordinates": [[-81.7, 20.3], [-82.6, 21.4], [-83.6, 22.5], [-84.5, 23.3], [-85.5, 24.4], [-86.7, 25.3], [-87.7, 26.4], [-88.8, 27.2], [-89.6, 28.0], [-90.4, 28.6], [-90.8, 29.2], [-91.1, 29.9], [-91.1, 30.7], [-91.1, 31.6], [-90.9, 32.3], [-90.6, 33.0], [-90.2, 33.5], [-89.8, 34.0], [-89.8, 34.3], [-89.7, 34.3], [-89.3, 34.3], [-89.0, 34.5]]}, "properties": {"model": "HWRF", "label": "HWRF", "kind": "physics", "group": "deterministic", "cycle": "2021082712"}}, {"type": "Feature", "geometry": {"type": "LineString", "coordinates": [[-81.6, 20.1], [-82.7, 21.0], [-83.5, 21.8], [-84.8, 22.7], [-85.8, 23.6], [-86.9, 24.5], [-88.0, 25.3], [-89.2, 26.1], [-90.2, 26.8], [-91.1, 27.5], [-91.9, 28.1], [-92.5, 28.5], [-92.8, 28.9], [-92.8, 29.3], [-92.6, 29.9], [-92.6, 30.5], [-92.3, 31.3], [-92.3, 31.9], [-92.0, 32.6], [-92.0, 33.1], [-92.1, 33.4], [-92.2, 33.4], [-92.2, 33.6], [-92.5, 34.0], [-92.8, 34.5], [-93.1, 34.3]]}, "properties": {"model": "UE00", "label": "ECMWF Ens 00", "kind": "ensemble", "group": "ensemble", "cycle": "2021082712"}}, {"type": "Feature", "geometry": {"type": "LineString", "coordinates": [[-81.8, 19.9], [-82.9, 20.8], [-83.6, 21.5], [-84.9, 22.3], [-85.8, 22.9], [-86.7, 23.6], [-87.9, 24.2], [-88.9, 25.0], [-89.7, 25.5], [-90.4, 26.4], [-91.2, 27.0], [-91.9, 27.5], [-92.4, 27.9], [-92.6, 28.3], [-92.8, 28.8], [-93.1, 29.1], [-92.9, 29.5], [-92.9, 29.8], [-92.8, 30.1], [-92.6, 30.3], [-92.6, 30.8], [-92.8, 31.1], [-93.0, 31.7], [-93.9, 31.9], [-93.9, 32.1], [-94.3, 32.4], [-94.9, 32.4], [-95.4, 33.0], [-95.9, 33.2], [-97.2, 34.4]]}, "properties": {"model": "UE01", "label": "ECMWF Ens 01", "kind": "ensemble", "group": "ensemble", "cycle": "2021082712"}}, {"type": "Feature", "geometry": {"type": "LineString", "coordinates": [[-81.3, 20.1], [-82.4, 21.2], [-83.5, 21.9], [-85.2, 22.7], [-86.4, 23.4], [-87.5, 24.2], [-88.6, 25.0], [-90.0, 25.9], [-90.9, 26.8], [-92.0, 27.7], [-92.8, 28.5], [-93.4, 28.8], [-93.7, 29.2], [-93.7, 29.6], [-93.7, 30.2], [-94.2, 30.8], [-94.2, 31.0], [-94.2, 30.8], [-93.7, 30.6], [-93.9, 30.7], [-93.9, 30.3], [-93.4, 29.8], [-93.0, 29.5], [-92.1, 29.7], [-92.5, 30.7], [-93.4, 30.7], [-93.6, 31.3], [-94.8, 31.5], [-95.4, 31.4], [-96.0, 32.1]]}, "properties": {"model": "UE02", "label": "ECMWF Ens 02", "kind": "ensemble", "group": "ensemble", "cycle": "2021082712"}}, {"type": "Feature", "geometry": {"type": "LineString", "coordinates": [[-81.8, 19.7], [-82.6, 20.7], [-83.5, 21.5], [-84.4, 22.4], [-85.6, 23.2], [-86.6, 24.0], [-87.4, 24.9], [-88.3, 25.8], [-89.1, 27.0], [-90.3, 27.9], [-91.2, 28.3], [-91.9, 28.9], [-92.2, 29.6], [-92.6, 30.1], [-92.6, 30.6], [-92.3, 31.5], [-91.9, 32.3], [-91.4, 33.0], [-90.6, 33.4], [-89.1, 34.1], [-88.0, 35.1], [-86.9, 35.2], [-85.5, 35.2], [-83.1, 36.1], [-83.1, 34.8], [-81.7, 34.8], [-81.4, 34.2], [-80.7, 34.0], [-79.6, 34.1], [-79.4, 33.1], [-78.2, 32.8], [-76.9, 32.7], [-76.4, 32.6]]}, "properties": {"model": "UE03", "label": "ECMWF Ens 03", "kind": "ensemble", "group": "ensemble", "cycle": "2021082712"}}, {"type": "Feature", "geometry": {"type": "LineString", "coordinates": [[-81.6, 19.9], [-82.7, 20.8], [-83.4, 21.8], [-84.6, 22.5], [-85.3, 23.4], [-86.1, 24.4], [-87.2, 25.3], [-88.5, 26.1], [-89.2, 27.0], [-90.0, 27.6], [-90.6, 28.4], [-91.2, 29.1], [-91.7, 29.7], [-92.1, 30.4], [-92.5, 31.3], [-93.0, 31.7], [-93.0, 32.1], [-92.9, 32.6], [-92.4, 33.3], [-92.2, 33.7], [-92.2, 34.0], [-92.4, 33.9], [-92.5, 33.9], [-92.8, 34.2], [-92.8, 34.4], [-93.1, 34.9]]}, "properties": {"model": "UE04", "label": "ECMWF Ens 04", "kind": "ensemble", "group": "ensemble", "cycle": "2021082712"}}, {"type": "Feature", "geometry": {"type": "LineString", "coordinates": [[-81.4, 20.0], [-82.1, 21.0], [-83.1, 22.0], [-84.5, 22.7], [-85.3, 23.3], [-86.1, 24.2], [-87.3, 25.3], [-88.5, 26.2], [-89.5, 27.0], [-90.3, 27.6], [-90.9, 28.5], [-91.4, 29.2], [-91.6, 29.7], [-91.6, 30.4], [-91.7, 31.1], [-91.5, 31.7], [-91.0, 32.4], [-90.6, 32.8], [-89.8, 33.4], [-89.1, 34.3], [-88.5, 34.7], [-88.5, 34.9], [-88.0, 34.6], [-87.5, 34.9], [-87.3, 35.0], [-87.2, 34.8]]}, "properties": {"model": "UE05", "label": "ECMWF Ens 05", "kind": "ensemble", "group": "ensemble", "cycle": "2021082712"}}, {"type": "Feature", "geometry": {"type": "LineString", "coordinates": [[-81.5, 20.4], [-82.5, 21.2], [-83.4, 22.0], [-84.9, 22.7], [-85.8, 23.5], [-86.9, 23.9], [-88.0, 24.6], [-89.2, 25.4], [-90.0, 26.1], [-90.9, 27.0], [-91.7, 27.9], [-92.6, 28.7], [-93.1, 29.4], [-93.5, 30.0], [-93.6, 30.7], [-93.7, 31.5], [-93.1, 32.2], [-92.8, 33.0], [-92.6, 33.6], [-92.4, 34.1], [-92.2, 34.5], [-92.3, 34.5], [-92.0, 34.6], [-91.8, 34.7], [-91.6, 35.2], [-91.5, 35.3], [-90.9, 35.5], [-90.6, 36.1], [-89.5, 37.1], [-88.9, 37.6]]}, "properties": {"model": "UE06", "label": "ECMWF Ens 06", "kind": "ensemble", "group": "ensemble", "cycle": "2021082712"}}, {"type": "Feature", "geometry": {"type": "LineString", "coordinates": [[-82.4, 20.1], [-83.2, 21.2], [-84.3, 21.8], [-85.7, 22.3], [-86.7, 22.7], [-87.5, 23.4], [-88.7, 24.2], [-90.0, 24.8], [-90.8, 25.3], [-91.6, 25.8], [-92.0, 26.3], [-92.8, 27.0], [-93.6, 27.4], [-94.2, 27.6], [-94.5, 28.0], [-94.8, 28.5], [-95.1, 28.7], [-95.5, 29.0], [-95.9, 29.4], [-96.2, 29.8], [-96.8, 30.2], [-97.4, 30.4], [-98.2, 30.8], [-99.3, 31.2], [-100.6, 31.2], [-101.6, 31.1], [-102.4, 31.1], [-102.7, 31.5], [-103.7, 32.6], [-104.6, 33.0]]}, "properties": {"model": "UE07", "label": "ECMWF Ens 07", "kind": "ensemble", "group": "ensemble", "cycle": "2021082712"}}, {"type": "Feature", "geometry": {"type": "LineString", "coordinates": [[-81.9, 19.9], [-82.6, 21.0], [-83.8, 21.9], [-85.4, 22.5], [-86.6, 22.8], [-87.5, 23.3], [-88.6, 24.0], [-89.7, 24.9], [-90.9, 25.7], [-92.0, 26.3], [-92.9, 26.8], [-93.9, 27.2], [-94.5, 27.2], [-95.4, 27.7], [-96.1, 27.5], [-96.7, 27.4], [-96.7, 27.4], [-97.0, 27.6], [-97.3, 27.8], [-97.8, 27.8], [-98.1, 27.8], [-98.7, 28.0], [-99.5, 28.1], [-100.4, 28.0], [-101.1, 27.6], [-101.8, 27.4], [-103.0, 27.4], [-104.0, 28.1], [-105.2, 28.8]]}, "properties": {"model": "UE08", "label": "ECMWF Ens 08", "kind": "ensemble", "group": "ensemble", "cycle": "2021082712"}}, {"type": "Feature", "geometry": {"type": "LineString", "coordinates": [[-81.3, 20.4], [-82.7, 21.3], [-83.8, 22.3], [-85.0, 23.1], [-86.3, 24.0], [-87.5, 24.6], [-88.6, 25.5], [-89.9, 26.3], [-90.9, 26.8], [-91.7, 27.4], [-92.2, 28.0], [-92.7, 28.8], [-93.4, 29.5], [-93.9, 30.0], [-94.2, 30.9], [-94.3, 31.5], [-94.4, 32.3], [-94.2, 32.8], [-93.9, 33.4], [-93.7, 33.9], [-93.5, 34.7], [-94.2, 35.0], [-94.4, 34.7], [-94.5, 35.2], [-94.5, 35.8], [-94.6, 36.7], [-94.5, 37.4], [-94.5, 37.8]]}, "properties": {"model": "UE09", "label": "ECMWF Ens 09", "kind": "ensemble", "group": "ensemble", "cycle": "2021082712"}}, {"type": "Feature", "geometry": {"type": "LineString", "coordinates": [[-81.6, 20.0], [-82.7, 21.0], [-83.6, 22.0], [-84.9, 23.0], [-85.8, 23.8], [-87.1, 24.7], [-88.3, 25.5], [-89.4, 26.3], [-90.3, 26.9], [-91.4, 27.4], [-92.1, 27.7], [-92.8, 27.9], [-93.1, 28.0], [-93.2, 28.0], [-93.1, 28.1], [-92.8, 28.5], [-92.3, 28.9], [-92.2, 29.6], [-92.2, 30.3], [-92.6, 30.8], [-93.1, 31.1], [-93.4, 31.4], [-93.7, 31.7], [-94.2, 31.9], [-94.2, 32.4], [-94.2, 32.8]]}, "properties": {"model": "UE10", "label": "ECMWF Ens 10", "kind": "ensemble", "group": "ensemble", "cycle": "2021082712"}}, {"type": "Feature", "geometry": {"type": "LineString", "coordinates": [[-82.1, 20.0], [-83.4, 20.6], [-84.5, 21.0], [-85.1, 21.7], [-86.1, 22.7], [-86.9, 24.0], [-88.2, 25.1], [-89.7, 26.1], [-90.6, 26.6], [-91.6, 27.4], [-92.8, 28.1], [-93.7, 28.5], [-94.5, 28.9], [-95.1, 29.0], [-95.4, 29.1], [-95.6, 29.3], [-95.1, 29.5], [-95.0, 29.7], [-94.6, 30.1], [-94.8, 30.7], [-94.9, 31.0], [-95.4, 31.3], [-96.4, 31.5], [-97.3, 31.6], [-98.4, 31.8], [-99.3, 32.2], [-100.4, 32.9], [-101.3, 33.4], [-101.9, 34.1], [-102.4, 34.9]]}, "properties": {"model": "UE11", "label": "ECMWF Ens 11", "kind": "ensemble", "group": "ensemble", "cycle": "2021082712"}}, {"type": "Feature", "geometry": {"type": "LineString", "coordinates": [[-81.3, 20.6], [-82.4, 21.5], [-83.6, 22.4], [-85.0, 23.1], [-86.1, 23.9], [-87.2, 24.9], [-88.9, 25.9], [-90.3, 26.5], [-91.2, 27.2], [-92.3, 27.9], [-93.1, 28.4], [-94.0, 28.9], [-94.4, 29.3], [-94.8, 29.8], [-95.1, 30.2], [-95.1, 30.7], [-95.0, 31.3], [-94.7, 31.7], [-94.2, 32.4], [-94.1, 33.0], [-93.9, 33.2], [-93.9, 33.8], [-94.1, 34.0], [-94.4, 34.3], [-94.3, 34.7], [-94.8, 34.7], [-95.0, 35.3], [-95.4, 36.2], [-95.9, 36.5]]}, "properties": {"model": "UE12", "label": "ECMWF Ens 12", "kind": "ensemble", "group": "ensemble", "cycle": "2021082712"}}, {"type": "Feature", "geometry": {"type": "LineString", "coordinates": [[-81.6, 19.9], [-82.7, 21.0], [-83.8, 22.1], [-84.7, 22.9], [-85.6, 24.0], [-86.7, 25.3], [-88.0, 26.4], [-89.1, 27.3], [-90.0, 28.3], [-90.9, 29.0], [-91.4, 29.8], [-92.2, 30.4], [-92.3, 30.8], [-92.5, 31.2], [-92.1, 31.7], [-91.7, 32.5], [-91.2, 33.4], [-90.6, 34.3], [-90.8, 34.9], [-90.2, 35.3], [-89.7, 36.2], [-90.3, 36.2], [-90.1, 36.1], [-89.7, 36.5], [-89.1, 37.2], [-88.8, 38.3]]}, "properties": {"model": "UE13", "label": "ECMWF Ens 13", "kind": "ensemble", "group": "ensemble", "cycle": "2021082712"}}, {"type": "Feature", "geometry": {"type": "LineString", "coordinates": [[-81.6, 20.4], [-82.7, 21.0], [-83.3, 21.9], [-84.4, 22.7], [-85.3, 23.6], [-86.3, 24.4], [-87.5, 25.4], [-88.6, 26.1], [-89.5, 27.0], [-90.5, 27.8], [-91.2, 28.5], [-91.9, 29.1], [-92.2, 29.6], [-92.3, 30.2], [-92.3, 30.9], [-92.3, 31.8], [-92.0, 32.4], [-91.7, 32.9], [-90.8, 33.5], [-90.0, 34.2], [-89.4, 35.1], [-89.1, 35.1], [-88.0, 35.2], [-87.2, 35.8], [-86.9, 36.0], [-86.7, 35.6], [-86.7, 35.6], [-87.2, 35.2], [-87.3, 34.7]]}, "properties": {"model": "UE14", "label": "ECMWF Ens 14", "kind": "ensemble", "group": "ensemble", "cycle": "2021082712"}}, {"type": "Feature", "geometry": {"type": "LineString", "coordinates": [[-81.8, 20.2], [-82.7, 21.0], [-83.5, 21.9], [-84.9, 22.7], [-85.9, 23.5], [-86.9, 24.2], [-87.9, 25.1], [-88.9, 26.0], [-90.0, 26.7], [-90.9, 27.1], [-91.7, 27.4], [-92.3, 27.7], [-92.6, 28.0], [-92.8, 28.1], [-92.6, 28.4], [-92.6, 28.6], [-92.5, 29.0], [-92.3, 29.2], [-92.2, 29.5], [-92.1, 29.9], [-92.1, 30.5], [-92.5, 31.1], [-92.8, 31.6], [-93.6, 32.1], [-94.0, 32.6], [-94.6, 33.2], [-95.1, 33.9], [-95.1, 34.9], [-94.2, 36.6], [-94.5, 38.0]]}, "properties": {"model": "UE15", "label": "ECMWF Ens 15", "kind": "ensemble", "group": "ensemble", "cycle": "2021082712"}}, {"type": "Feature", "geometry": {"type": "LineString", "coordinates": [[-81.9, 20.3], [-82.9, 21.3], [-83.8, 22.0], [-85.2, 22.7], [-86.1, 23.8], [-87.4, 24.7], [-88.4, 25.6], [-89.4, 26.5], [-90.6, 27.4], [-91.7, 28.1], [-92.3, 28.5], [-92.8, 28.9], [-93.0, 29.3], [-93.3, 29.6], [-93.4, 30.0], [-93.6, 30.6], [-93.6, 31.2], [-93.4, 31.7], [-93.3, 32.3], [-93.3, 32.8], [-93.1, 33.2], [-92.9, 33.6], [-93.1, 34.3], [-93.3, 34.9], [-93.3, 35.0], [-93.6, 35.4]]}, "properties": {"model": "UE16", "label": "ECMWF Ens 16", "kind": "ensemble", "group": "ensemble", "cycle": "2021082712"}}, {"type": "Feature", "geometry": {"type": "LineString", "coordinates": [[-81.6, 20.3], [-82.5, 21.4], [-83.6, 22.4], [-85.0, 23.1], [-86.1, 23.8], [-87.1, 24.6], [-88.3, 25.2], [-89.5, 25.8], [-90.5, 26.4], [-91.7, 27.0], [-92.4, 27.6], [-93.1, 28.0], [-93.4, 28.3], [-93.7, 28.9], [-93.7, 29.5], [-94.0, 30.2], [-94.4, 30.9], [-94.6, 31.5], [-94.6, 32.0], [-94.6, 32.8], [-94.8, 33.3], [-94.9, 34.0], [-95.7, 34.7], [-95.7, 35.2], [-95.9, 36.4], [-95.9, 36.9], [-95.6, 38.0], [-94.8, 39.0], [-93.7, 39.8], [-92.2, 40.1], [-90.3, 40.5], [-89.1, 40.5], [-86.8, 39.8]]}, "properties": {"model": "UE17", "label": "ECMWF Ens 17", "kind": "ensemble", "group": "ensemble", "cycle": "2021082712"}}, {"type": "Feature", "geometry": {"type": "LineString", "coordinates": [[-81.6, 20.0], [-82.6, 21.2], [-83.5, 22.5], [-84.9, 23.4], [-85.9, 24.3], [-87.0, 25.1], [-88.3, 25.9], [-89.2, 26.5], [-90.3, 27.5], [-91.5, 28.0], [-92.3, 28.3], [-92.9, 28.7], [-93.4, 29.4], [-93.8, 30.0], [-94.2, 30.6], [-94.3, 31.3], [-93.9, 31.9], [-93.7, 32.4], [-93.3, 32.8], [-92.8, 33.1], [-92.6, 33.2], [-92.3, 33.2], [-92.3, 33.2], [-92.3, 33.2], [-92.3, 33.6], [-92.7, 33.9]]}, "properties": {"model": "UE18", "label": "ECMWF Ens 18", "kind": "ensemble", "group": "ensemble", "cycle": "2021082712"}}, {"type": "Feature", "geometry": {"type": "LineString", "coordinates": [[-81.8, 20.0], [-82.6, 20.9], [-83.3, 21.9], [-84.9, 23.2], [-86.4, 23.6], [-87.4, 23.9], [-88.0, 24.6], [-88.9, 25.7], [-89.8, 26.5], [-90.8, 27.1], [-91.7, 27.7], [-92.2, 28.0], [-92.3, 28.5], [-92.3, 29.1], [-92.5, 29.7], [-92.8, 30.2], [-92.6, 30.8], [-92.5, 31.6], [-92.5, 32.1], [-92.3, 32.3], [-92.0, 32.9], [-91.9, 33.5], [-91.6, 34.5], [-91.6, 35.5], [-91.6, 36.2], [-91.7, 36.6], [-92.6, 36.8], [-93.4, 36.6], [-91.6, 36.6], [-90.6, 37.8], [-89.2, 38.8], [-88.6, 39.7]]}, "properties": {"model": "UE19", "label": "ECMWF Ens 19", "kind": "ensemble", "group": "ensemble", "cycle": "2021082712"}}, {"type": "Feature", "geometry": {"type": "LineString", "coordinates": [[-81.0, 20.2], [-82.6, 21.8], [-83.5, 22.2], [-84.9, 23.1], [-85.5, 24.1], [-86.5, 25.3], [-87.7, 26.3], [-88.5, 27.0], [-89.1, 27.9], [-89.7, 28.7], [-90.4, 29.0], [-91.0, 29.2], [-91.1, 29.4], [-91.4, 29.7], [-91.5, 30.0], [-91.7, 30.2], [-91.7, 30.4], [-91.5, 30.4], [-91.2, 30.4], [-91.1, 30.7], [-91.1, 31.3], [-91.4, 31.6], [-92.0, 31.7], [-92.6, 31.5], [-92.6, 31.9], [-93.6, 31.5], [-94.4, 31.6], [-95.4, 32.0], [-96.2, 32.3], [-96.5, 32.4]]}, "properties": {"model": "UE20", "label": "ECMWF Ens 20", "kind": "ensemble", "group": "ensemble", "cycle": "2021082712"}}, {"type": "Feature", "geometry": {"type": "LineString", "coordinates": [[-81.8, 20.5], [-82.6, 21.5], [-83.7, 22.6], [-84.9, 23.4], [-86.0, 24.2], [-87.2, 24.9], [-88.4, 25.7], [-89.7, 26.6], [-90.9, 27.2], [-92.2, 27.5], [-93.1, 27.6], [-93.7, 27.8], [-94.0, 28.0], [-94.4, 28.1], [-94.3, 28.4], [-94.5, 28.7], [-94.8, 28.9], [-94.9, 28.9], [-94.8, 28.9], [-95.1, 28.8], [-95.3, 28.5], [-95.6, 28.7], [-95.9, 29.2], [-96.8, 29.6], [-97.6, 29.8], [-98.7, 30.1], [-99.8, 30.7], [-101.0, 31.2], [-102.1, 31.3], [-102.6, 31.6], [-103.2, 31.7]]}, "properties": {"model": "UE21", "label": "ECMWF Ens 21", "kind": "ensemble", "group": "ensemble", "cycle": "2021082712"}}, {"type": "Feature", "geometry": {"type": "LineString", "coordinates": [[-81.5, 19.4], [-82.5, 20.6], [-83.5, 21.4], [-84.7, 22.9], [-86.1, 24.0], [-87.4, 24.5], [-88.4, 25.1], [-89.7, 26.1], [-90.6, 27.0], [-92.0, 27.6], [-93.1, 27.7], [-93.6, 28.1], [-94.2, 28.5], [-94.2, 28.9], [-94.2, 29.5], [-94.2, 30.0], [-94.4, 30.4], [-94.2, 30.7], [-93.9, 31.3], [-93.9, 31.7], [-94.2, 32.3], [-94.7, 32.4], [-95.6, 32.8], [-96.2, 33.0], [-96.7, 33.6], [-97.4, 33.7]]}, "properties": {"model": "UE22", "label": "ECMWF Ens 22", "kind": "ensemble", "group": "ensemble", "cycle": "2021082712"}}, {"type": "Feature", "geometry": {"type": "LineString", "coordinates": [[-81.8, 19.8], [-82.4, 20.6], [-83.4, 21.7], [-85.0, 22.8], [-86.4, 23.8], [-87.5, 24.4], [-88.3, 25.6], [-89.7, 26.7], [-90.4, 27.9], [-91.4, 28.9], [-92.2, 29.6], [-92.6, 30.2], [-92.8, 31.0], [-93.1, 31.8], [-92.8, 32.5], [-92.8, 33.2], [-92.3, 33.9], [-91.7, 34.2], [-91.1, 34.7], [-90.8, 34.9], [-90.3, 34.8], [-89.9, 34.5], [-89.4, 34.3], [-89.1, 34.7], [-88.9, 34.7], [-88.7, 34.5], [-88.0, 34.4], [-87.7, 35.1], [-87.1, 35.1]]}, "properties": {"model": "UE23", "label": "ECMWF Ens 23", "kind": "ensemble", "group": "ensemble", "cycle": "2021082712"}}, {"type": "Feature", "geometry": {"type": "LineString", "coordinates": [[-82.4, 20.2], [-83.3, 20.8], [-84.1, 21.7], [-85.0, 22.5], [-86.1, 23.7], [-87.2, 24.9], [-88.6, 25.9], [-89.9, 26.8], [-90.9, 27.5], [-91.7, 28.1], [-92.6, 28.5], [-93.1, 29.0], [-93.4, 29.4], [-93.4, 29.8], [-93.3, 30.4], [-93.3, 31.0], [-93.3, 31.6], [-93.1, 32.2], [-93.0, 32.8], [-92.8, 33.2], [-93.1, 33.7], [-93.4, 33.6], [-93.6, 33.9], [-94.0, 34.5], [-94.2, 34.9], [-94.1, 35.3]]}, "properties": {"model": "UE24", "label": "ECMWF Ens 24", "kind": "ensemble", "group": "ensemble", "cycle": "2021082712"}}, {"type": "Feature", "geometry": {"type": "LineString", "coordinates": [[-82.4, 19.9], [-83.3, 20.9], [-84.1, 21.8], [-85.5, 23.1], [-86.7, 24.2], [-87.7, 24.9], [-88.6, 25.6], [-89.5, 26.4], [-90.2, 27.1], [-90.9, 28.0], [-91.4, 28.7], [-91.7, 29.1], [-91.7, 29.6], [-91.8, 30.1], [-91.9, 30.7], [-91.9, 31.2], [-91.7, 31.8], [-91.8, 32.2], [-91.4, 32.3], [-91.1, 32.7], [-90.6, 33.2], [-90.5, 33.4], [-90.3, 33.4], [-90.2, 33.4], [-89.7, 33.8], [-89.4, 35.0]]}, "properties": {"model": "UE25", "label": "ECMWF Ens 25", "kind": "ensemble", "group": "ensemble", "cycle": "2021082712"}}, {"type": "Feature", "geometry": {"type": "LineString", "coordinates": [[-82.1, 19.9], [-82.5, 20.7], [-83.4, 22.5], [-84.7, 23.4], [-85.8, 24.6], [-86.9, 25.5], [-88.0, 26.3], [-89.2, 27.4], [-90.2, 28.3], [-91.4, 29.1], [-92.3, 29.6], [-93.1, 29.9], [-93.5, 30.4], [-93.7, 30.8], [-93.7, 31.2], [-93.5, 31.6], [-93.3, 31.9], [-93.0, 32.1], [-92.8, 32.5], [-92.9, 32.7], [-93.1, 32.4], [-93.1, 32.2], [-93.6, 32.1], [-94.0, 32.1], [-94.0, 32.4], [-94.3, 32.9]]}, "properties": {"model": "UE26", "label": "ECMWF Ens 26", "kind": "ensemble", "group": "ensemble", "cycle": "2021082712"}}, {"type": "Feature", "geometry": {"type": "LineString", "coordinates": [[-81.1, 20.3], [-82.4, 21.1], [-83.3, 22.3], [-84.9, 23.1], [-86.0, 23.9], [-86.8, 24.9], [-87.8, 26.1], [-89.1, 27.0], [-90.0, 27.9], [-90.8, 28.3], [-91.3, 28.7], [-91.4, 29.4], [-91.4, 30.2], [-91.4, 30.9], [-91.4, 31.5], [-90.8, 32.5], [-90.1, 33.3], [-89.7, 33.7], [-88.9, 33.8], [-88.1, 34.2], [-87.5, 34.3], [-87.0, 34.3], [-86.7, 33.6], [-86.3, 33.2], [-85.9, 33.0]]}, "properties": {"model": "UE27", "label": "ECMWF Ens 27", "kind": "ensemble", "group": "ensemble", "cycle": "2021082712"}}, {"type": "Feature", "geometry": {"type": "LineString", "coordinates": [[-81.8, 20.2], [-82.7, 21.1], [-83.5, 22.1], [-85.0, 22.9], [-86.0, 23.6], [-86.9, 24.3], [-87.7, 25.2], [-88.9, 26.1], [-90.0, 26.8], [-91.1, 27.6], [-92.2, 28.0], [-92.8, 28.3], [-93.0, 28.7], [-93.1, 29.1], [-93.1, 29.7], [-93.3, 30.0], [-93.2, 30.4], [-93.4, 30.9], [-93.3, 31.1], [-93.0, 31.3], [-92.8, 31.5], [-92.5, 31.7], [-92.3, 32.0], [-92.3, 32.4], [-92.3, 32.8], [-92.2, 32.9], [-92.2, 33.3], [-91.7, 34.1], [-91.7, 35.0], [-91.7, 35.1]]}, "properties": {"model": "UE28", "label": "ECMWF Ens 28", "kind": "ensemble", "group": "ensemble", "cycle": "2021082712"}}, {"type": "Feature", "geometry": {"type": "LineString", "coordinates": [[-81.9, 20.4], [-83.2, 21.2], [-84.1, 21.9], [-85.6, 22.9], [-86.7, 23.8], [-87.7, 24.4], [-88.5, 25.4], [-89.7, 26.5], [-90.5, 27.4], [-91.4, 28.0], [-92.0, 28.5], [-92.8, 28.9], [-92.9, 29.0], [-92.9, 29.3], [-92.8, 29.7], [-92.6, 30.0], [-92.6, 30.1], [-92.6, 30.4], [-92.6, 30.5], [-92.8, 30.9], [-93.4, 31.1], [-94.2, 31.2], [-94.8, 31.3], [-95.4, 31.7], [-95.9, 32.5], [-96.8, 33.6]]}, "properties": {"model": "UE29", "label": "ECMWF Ens 29", "kind": "ensemble", "group": "ensemble", "cycle": "2021082712"}}, {"type": "Feature", "geometry": {"type": "LineString", "coordinates": [[-81.1, 19.6], [-82.7, 20.9], [-83.9, 21.8], [-85.5, 22.6], [-86.4, 23.6], [-87.4, 24.5], [-88.6, 25.5], [-90.0, 26.4], [-90.9, 27.0], [-91.9, 27.8], [-92.6, 28.5], [-93.3, 28.7], [-93.7, 29.4], [-94.3, 29.8], [-94.6, 30.2], [-94.8, 30.4], [-94.2, 30.7], [-94.0, 30.7], [-93.2, 31.1], [-92.8, 31.4], [-92.5, 32.2], [-92.9, 32.2], [-92.6, 32.0], [-93.0, 32.2], [-92.9, 32.2], [-93.0, 32.2], [-93.2, 31.5], [-92.3, 31.6], [-92.0, 32.3], [-93.1, 32.5]]}, "properties": {"model": "UE30", "label": "ECMWF Ens 30", "kind": "ensemble", "group": "ensemble", "cycle": "2021082712"}}, {"type": "Feature", "geometry": {"type": "LineString", "coordinates": [[-81.6, 20.6], [-82.9, 22.0], [-84.3, 22.8], [-85.2, 23.6], [-86.3, 24.4], [-87.4, 25.5], [-88.5, 26.4], [-89.5, 27.2], [-90.3, 27.9], [-90.9, 28.5], [-91.4, 29.1], [-91.6, 29.6], [-91.5, 30.2], [-91.4, 30.8], [-90.9, 31.5], [-90.5, 32.2], [-89.9, 33.0], [-89.2, 33.6], [-88.3, 33.8], [-87.4, 34.5], [-86.5, 34.9], [-85.6, 34.9], [-83.0, 36.5], [-83.8, 37.0], [-83.0, 37.3]]}, "properties": {"model": "UE31", "label": "ECMWF Ens 31", "kind": "ensemble", "group": "ensemble", "cycle": "2021082712"}}, {"type": "Feature", "geometry": {"type": "LineString", "coordinates": [[-81.9, 19.7], [-82.7, 20.6], [-83.5, 21.6], [-84.6, 22.5], [-85.8, 23.7], [-86.9, 24.2], [-87.8, 25.3], [-89.4, 26.3], [-90.3, 26.8], [-91.4, 27.6], [-92.3, 28.2], [-93.0, 28.5], [-93.3, 28.7], [-93.4, 29.1], [-93.2, 29.8], [-93.4, 30.4], [-93.4, 30.8], [-93.4, 31.4], [-93.3, 31.5], [-92.8, 31.9], [-92.5, 32.3], [-92.5, 32.5], [-92.6, 32.7], [-93.1, 32.9], [-93.4, 33.2], [-93.7, 33.2]]}, "properties": {"model": "UE32", "label": "ECMWF Ens 32", "kind": "ensemble", "group": "ensemble", "cycle": "2021082712"}}, {"type": "Feature", "geometry": {"type": "LineString", "coordinates": [[-81.8, 20.2], [-83.0, 21.4], [-84.0, 22.3], [-85.2, 23.0], [-86.0, 24.0], [-87.2, 25.0], [-88.3, 26.1], [-89.5, 27.0], [-90.5, 27.9], [-91.5, 28.5], [-92.3, 29.1], [-92.8, 29.5], [-92.8, 30.1], [-92.8, 30.6], [-92.5, 31.3], [-92.2, 31.9], [-91.7, 32.6], [-91.1, 33.0], [-90.6, 33.3], [-90.3, 33.2], [-90.0, 33.0], [-89.5, 32.9], [-89.2, 33.2], [-89.2, 33.2], [-88.9, 33.0], [-88.6, 33.0], [-88.3, 32.6], [-87.8, 33.0], [-87.7, 33.4], [-87.6, 33.4], [-88.5, 33.2]]}, "properties": {"model": "UE33", "label": "ECMWF Ens 33", "kind": "ensemble", "group": "ensemble", "cycle": "2021082712"}}, {"type": "Feature", "geometry": {"type": "LineString", "coordinates": [[-81.7, 19.7], [-82.4, 20.3], [-83.2, 21.0], [-84.3, 22.1], [-85.2, 23.8], [-86.6, 25.0], [-87.5, 25.5], [-88.3, 26.4], [-88.9, 27.3], [-89.9, 28.3], [-90.6, 28.7], [-90.8, 29.4], [-90.8, 30.2], [-90.4, 30.9], [-90.0, 31.9], [-89.7, 32.6], [-88.9, 33.6], [-88.0, 34.3], [-86.8, 35.1], [-85.7, 35.4], [-84.1, 36.4], [-81.9, 37.5], [-80.4, 38.8], [-77.7, 40.0], [-77.0, 39.5], [-75.5, 39.0], [-76.2, 38.6]]}, "properties": {"model": "UE34", "label": "ECMWF Ens 34", "kind": "ensemble", "group": "ensemble", "cycle": "2021082712"}}, {"type": "Feature", "geometry": {"type": "LineString", "coordinates": [[-81.6, 19.9], [-82.7, 21.0], [-83.8, 21.9], [-85.2, 22.9], [-86.1, 23.8], [-87.2, 24.7], [-88.3, 25.7], [-89.4, 26.5], [-90.3, 27.4], [-91.4, 28.1], [-92.2, 28.6], [-92.8, 29.0], [-92.8, 29.4], [-92.8, 29.8], [-92.6, 30.4], [-92.5, 30.9], [-92.0, 31.6], [-91.7, 32.3], [-91.1, 32.8], [-90.8, 33.4], [-90.5, 33.6], [-90.3, 33.7], [-89.9, 33.5], [-89.5, 33.9], [-89.2, 34.1], [-89.2, 34.1], [-89.1, 33.8], [-88.5, 34.0], [-88.9, 34.3], [-89.3, 34.3], [-90.0, 34.3], [-90.8, 34.1]]}, "properties": {"model": "UE35", "label": "ECMWF Ens 35", "kind": "ensemble", "group": "ensemble", "cycle": "2021082712"}}, {"type": "Feature", "geometry": {"type": "LineString", "coordinates": [[-81.8, 20.2], [-82.7, 20.9], [-83.5, 22.0], [-84.4, 22.8], [-85.3, 23.6], [-86.3, 24.4], [-87.2, 25.2], [-88.2, 26.0], [-88.9, 26.8], [-89.6, 27.4], [-90.2, 28.0], [-90.5, 28.6], [-90.5, 29.4], [-90.6, 30.1], [-90.3, 31.1], [-90.0, 31.9], [-89.7, 32.8], [-89.3, 33.7], [-89.4, 34.3], [-89.5, 34.1], [-89.1, 34.1], [-88.7, 34.1], [-88.3, 34.3], [-88.3, 34.6], [-88.5, 34.9], [-88.9, 34.8], [-89.9, 34.1], [-90.9, 34.2], [-91.8, 34.6], [-92.7, 35.0], [-94.0, 35.5], [-95.4, 35.9], [-95.2, 36.8]]}, "properties": {"model": "AP02", "label": "GEFS 02", "kind": "ensemble", "group": "ensemble", "cycle": "2021082712"}}, {"type": "Feature", "geometry": {"type": "LineString", "coordinates": [[-81.7, 20.3], [-82.6, 21.6], [-83.8, 22.7], [-84.9, 23.4], [-86.1, 24.2], [-87.2, 25.1], [-88.5, 26.2], [-89.7, 27.0], [-90.6, 27.9], [-91.4, 28.7], [-91.9, 29.6], [-92.2, 30.2], [-92.0, 31.2], [-91.6, 32.4], [-90.8, 33.3], [-90.0, 34.1], [-89.0, 34.9], [-88.2, 35.3], [-87.3, 35.5], [-86.5, 35.6], [-85.7, 36.0], [-85.1, 36.6], [-85.3, 36.7], [-86.0, 36.3], [-86.6, 35.9], [-87.4, 35.5], [-87.6, 34.8], [-87.9, 35.1], [-88.3, 36.1], [-88.2, 36.8], [-88.0, 37.6], [-88.1, 38.6]]}, "properties": {"model": "AP05", "label": "GEFS 05", "kind": "ensemble", "group": "ensemble", "cycle": "2021082712"}}, {"type": "Feature", "geometry": {"type": "LineString", "coordinates": [[-81.8, 20.2], [-82.4, 21.1], [-83.5, 22.1], [-84.6, 23.0], [-85.6, 23.9], [-86.6, 24.7], [-87.5, 25.6], [-88.7, 26.6], [-89.5, 27.5], [-90.2, 28.7], [-90.8, 29.5], [-91.1, 30.3], [-91.1, 31.1], [-91.0, 31.9], [-90.6, 32.5], [-90.2, 33.1], [-89.8, 33.9], [-90.0, 34.2], [-89.9, 34.0], [-89.7, 33.9], [-89.1, 34.3], [-89.3, 34.6], [-89.6, 34.6], [-90.6, 34.2], [-90.9, 34.4], [-91.3, 34.7], [-92.2, 35.0], [-93.4, 35.9], [-93.8, 36.9], [-93.2, 37.9]]}, "properties": {"model": "AP09", "label": "GEFS 09", "kind": "ensemble", "group": "ensemble", "cycle": "2021082712"}}, {"type": "Feature", "geometry": {"type": "LineString", "coordinates": [[-81.6, 20.2], [-82.4, 21.0], [-83.4, 22.2], [-84.7, 23.1], [-85.9, 24.0], [-87.1, 25.0], [-88.5, 25.9], [-90.0, 26.9], [-91.2, 27.8], [-92.3, 28.8], [-93.0, 29.7], [-93.5, 30.8], [-93.6, 32.1], [-93.7, 33.2], [-93.4, 34.0], [-92.7, 34.7], [-91.5, 35.7], [-90.6, 36.4], [-89.6, 36.6], [-88.8, 36.7], [-87.8, 36.7], [-86.7, 36.6], [-86.8, 35.6], [-87.3, 34.4], [-87.4, 33.8], [-87.5, 33.8], [-87.7, 33.5], [-88.1, 33.8], [-89.1, 34.5], [-89.2, 34.9], [-89.5, 34.8], [-89.8, 35.8], [-89.5, 37.0]]}, "properties": {"model": "AP10", "label": "GEFS 10", "kind": "ensemble", "group": "ensemble", "cycle": "2021082712"}}, {"type": "Feature", "geometry": {"type": "LineString", "coordinates": [[-81.8, 20.3], [-83.0, 21.4], [-84.0, 22.5], [-85.0, 23.5], [-85.9, 24.3], [-86.8, 25.2], [-87.6, 26.1], [-88.5, 26.9], [-89.3, 27.7], [-90.1, 28.5], [-90.8, 29.1], [-91.4, 29.8], [-91.8, 30.5], [-92.2, 31.2], [-92.2, 31.9], [-92.2, 32.5], [-92.1, 33.2], [-91.6, 33.6], [-90.9, 34.1], [-90.3, 34.5], [-89.6, 35.0], [-88.6, 35.5], [-88.4, 35.0], [-88.9, 34.4], [-88.7, 34.7], [-89.1, 34.9], [-89.6, 35.0], [-90.2, 35.1], [-90.3, 36.2], [-90.3, 37.4], [-89.7, 38.6], [-86.3, 39.6], [-84.2, 40.3]]}, "properties": {"model": "AP11", "label": "GEFS 11", "kind": "ensemble", "group": "ensemble", "cycle": "2021082712"}}, {"type": "Feature", "geometry": {"type": "LineString", "coordinates": [[-81.7, 20.2], [-82.7, 21.2], [-83.8, 22.3], [-84.9, 23.1], [-85.8, 23.8], [-86.7, 24.3], [-87.7, 25.0], [-88.9, 25.5], [-89.8, 26.0], [-90.7, 26.6], [-91.3, 27.2], [-92.0, 27.6], [-92.3, 28.1], [-92.4, 28.5], [-92.1, 28.9], [-91.9, 29.2], [-91.5, 29.9], [-91.4, 30.7], [-91.4, 31.4], [-91.7, 31.7], [-91.7, 31.9], [-91.6, 32.4], [-91.8, 33.0], [-92.4, 33.5], [-92.9, 34.1], [-93.4, 35.0], [-93.4, 36.1], [-93.0, 37.2], [-91.9, 38.4], [-90.4, 39.5], [-88.6, 40.6], [-86.4, 41.2], [-84.3, 41.7]]}, "properties": {"model": "AP12", "label": "GEFS 12", "kind": "ensemble", "group": "ensemble", "cycle": "2021082712"}}, {"type": "Feature", "geometry": {"type": "LineString", "coordinates": [[-82.0, 20.5], [-83.1, 21.8], [-84.1, 22.8], [-85.4, 23.7], [-86.2, 24.6], [-87.2, 25.6], [-88.0, 26.7], [-89.1, 27.6], [-89.8, 28.7], [-90.6, 29.5], [-90.9, 30.2], [-91.1, 30.8], [-91.0, 31.6], [-90.5, 32.6], [-89.7, 33.6], [-89.2, 34.6], [-88.3, 35.6], [-87.4, 36.4], [-86.7, 37.1], [-86.0, 37.3], [-85.0, 37.7], [-83.9, 38.0], [-82.8, 38.1], [-82.1, 37.9], [-81.0, 37.5], [-79.0, 37.0], [-77.9, 36.5], [-76.0, 37.2]]}, "properties": {"model": "AP16", "label": "GEFS 16", "kind": "ensemble", "group": "ensemble", "cycle": "2021082712"}}, {"type": "Feature", "geometry": {"type": "LineString", "coordinates": [[-81.9, 20.2], [-82.9, 21.2], [-83.8, 22.3], [-85.0, 23.2], [-85.9, 23.9], [-86.8, 24.9], [-87.9, 25.9], [-89.0, 26.8], [-90.0, 27.6], [-91.0, 28.4], [-91.4, 29.0], [-91.9, 29.7], [-91.7, 30.4], [-91.6, 31.4], [-91.4, 32.1], [-91.3, 32.6], [-91.0, 32.9], [-90.3, 33.1], [-89.4, 33.6], [-89.6, 33.6], [-89.5, 33.5], [-89.3, 33.1], [-89.2, 32.6], [-89.7, 32.7], [-90.6, 32.9], [-91.6, 33.2], [-93.8, 32.8], [-96.6, 33.0], [-97.8, 33.1]]}, "properties": {"model": "AP17", "label": "GEFS 17", "kind": "ensemble", "group": "ensemble", "cycle": "2021082712"}}, {"type": "Feature", "geometry": {"type": "LineString", "coordinates": [[-81.8, 20.2], [-82.8, 21.3], [-83.9, 22.3], [-85.1, 23.1], [-86.2, 23.8], [-87.1, 24.5], [-88.1, 25.1], [-89.1, 25.6], [-90.1, 26.3], [-91.0, 26.9], [-91.6, 27.5], [-92.4, 27.7], [-92.5, 28.1], [-92.6, 28.4], [-92.4, 28.7], [-92.0, 29.1], [-91.8, 29.7], [-91.4, 30.4], [-91.1, 31.0], [-91.3, 31.3], [-91.5, 31.4], [-91.7, 31.3], [-91.9, 31.1], [-92.4, 30.9], [-92.7, 30.9], [-92.9, 30.7], [-93.4, 31.1], [-94.7, 31.9], [-96.8, 32.7], [-98.1, 33.0], [-98.6, 33.0], [-98.9, 33.3], [-98.8, 33.3]]}, "properties": {"model": "AP19", "label": "GEFS 19", "kind": "ensemble", "group": "ensemble", "cycle": "2021082712"}}, {"type": "Feature", "geometry": {"type": "LineString", "coordinates": [[-81.6, 20.3], [-82.7, 21.2], [-83.5, 22.0], [-84.8, 22.7], [-85.7, 23.6], [-86.9, 24.4], [-87.8, 25.3], [-89.0, 26.0], [-90.0, 27.0], [-90.7, 27.8], [-91.1, 28.5], [-91.3, 29.2], [-90.9, 29.9], [-90.6, 30.7], [-90.1, 31.4], [-89.9, 32.0], [-89.2, 32.6], [-88.3, 33.0], [-87.4, 33.2], [-87.3, 33.3], [-86.9, 34.0], [-87.0, 33.7], [-86.8, 33.5], [-87.2, 33.3], [-87.5, 33.7], [-88.6, 34.2], [-89.2, 33.9], [-89.4, 34.8], [-89.6, 36.2], [-89.6, 38.0], [-89.7, 38.9], [-89.2, 40.2]]}, "properties": {"model": "AP20", "label": "GEFS 20", "kind": "ensemble", "group": "ensemble", "cycle": "2021082712"}}, {"type": "Feature", "geometry": {"type": "LineString", "coordinates": [[-81.5, 20.2], [-82.4, 21.2], [-83.4, 22.6], [-84.8, 23.3], [-85.9, 23.9], [-86.8, 24.7], [-87.7, 25.5], [-88.7, 26.3], [-89.7, 27.1], [-90.6, 27.7], [-91.1, 28.3], [-91.8, 28.7], [-91.9, 29.1], [-91.8, 29.7], [-91.6, 30.2], [-91.4, 30.7], [-91.0, 31.2], [-90.5, 31.6], [-90.2, 31.8], [-90.1, 32.2], [-89.4, 33.1], [-89.2, 34.0], [-89.5, 34.5], [-90.2, 34.6], [-90.1, 35.1], [-89.8, 35.4], [-89.7, 35.8], [-90.4, 36.2], [-90.1, 36.9], [-89.5, 37.6], [-89.2, 38.6], [-88.6, 39.4], [-87.7, 42.0]]}, "properties": {"model": "AP24", "label": "GEFS 24", "kind": "ensemble", "group": "ensemble", "cycle": "2021082712"}}, {"type": "Feature", "geometry": {"type": "LineString", "coordinates": [[-81.6, 20.2], [-82.5, 21.2], [-83.5, 22.4], [-84.8, 23.2], [-85.9, 24.1], [-87.2, 25.0], [-88.4, 25.9], [-89.7, 26.6], [-90.6, 27.5], [-91.2, 28.2], [-91.4, 29.1], [-91.7, 29.9], [-91.5, 30.9], [-91.2, 32.0], [-90.4, 33.0], [-89.8, 33.9], [-88.9, 34.9], [-87.9, 35.5], [-86.7, 36.1], [-85.9, 36.5], [-85.1, 36.7], [-84.3, 36.8], [-82.0, 35.9], [-81.9, 35.2], [-80.9, 35.5], [-78.4, 36.7], [-76.2, 37.0], [-73.2, 38.1], [-69.8, 39.0]]}, "properties": {"model": "AP26", "label": "GEFS 26", "kind": "ensemble", "group": "ensemble", "cycle": "2021082712"}}, {"type": "Feature", "geometry": {"type": "LineString", "coordinates": [[-82.0, 20.7], [-83.2, 21.8], [-84.6, 22.4], [-85.5, 23.0], [-86.6, 24.2], [-87.7, 25.0], [-88.5, 26.1], [-89.8, 27.1], [-90.5, 28.2], [-91.4, 29.1], [-91.9, 30.0], [-92.5, 30.9], [-92.8, 31.7], [-92.8, 32.3], [-92.2, 32.9], [-91.7, 33.8], [-91.1, 34.6], [-90.4, 35.0], [-89.1, 35.4], [-88.0, 35.9], [-87.2, 36.2], [-86.4, 36.1], [-86.3, 35.3], [-86.4, 34.2], [-86.1, 33.8], [-85.8, 33.4], [-86.0, 33.4], [-86.3, 33.4], [-86.6, 33.9], [-86.6, 34.3], [-86.9, 34.8], [-87.0, 35.5], [-86.7, 36.0]]}, "properties": {"model": "AP30", "label": "GEFS 30", "kind": "ensemble", "group": "ensemble", "cycle": "2021082712"}}, {"type": "Feature", "geometry": {"type": "LineString", "coordinates": [[-80.9, 19.5], [-83.1, 21.7], [-85.3, 23.8], [-87.1, 25.8], [-88.8, 28.0], [-90.1, 30.0], [-90.7, 31.8], [-90.4, 33.5], [-89.1, 35.1], [-86.8, 36.5], [-84.0, 37.2], [-80.7, 36.9], [-77.4, 36.6], [-74.0, 36.3]]}, "properties": {"model": "CMCI", "label": "CMC (interpolated)", "kind": "physics", "group": "deterministic", "cycle": "2021082706"}}, {"type": "Feature", "geometry": {"type": "LineString", "coordinates": [[-81.7, 20.2], [-83.0, 21.4], [-83.7, 22.5], [-84.6, 23.4], [-85.4, 24.6], [-86.3, 25.3], [-87.0, 26.1], [-87.7, 27.0], [-88.2, 27.8], [-88.7, 28.6], [-88.9, 29.2], [-89.0, 29.8], [-89.2, 30.5], [-89.2, 31.0], [-88.9, 31.5], [-89.0, 31.8], [-88.1, 32.3], [-87.4, 33.0], [-87.3, 33.1], [-86.7, 33.4], [-85.5, 33.9]]}, "properties": {"model": "COTC", "label": "COAMPS-TC (interpolated)", "kind": "physics", "group": "deterministic", "cycle": "2021082712"}}, {"type": "Feature", "geometry": {"type": "LineString", "coordinates": [[-82.1, 20.1], [-82.9, 21.1], [-83.5, 22.2], [-84.6, 23.2], [-85.4, 24.0], [-86.3, 24.8], [-87.1, 25.5], [-88.0, 26.2], [-88.6, 27.0], [-89.0, 27.6], [-89.4, 28.3], [-89.7, 28.9], [-89.9, 29.6], [-89.9, 30.3], [-89.9, 31.2], [-89.9, 32.1], [-89.7, 33.0], [-89.6, 33.8], [-89.3, 34.5], [-89.2, 35.0], [-88.6, 35.4], [-87.8, 36.1], [-87.1, 36.8], [-86.5, 37.3], [-85.7, 37.6], [-85.1, 37.5], [-84.6, 37.2], [-84.2, 36.8], [-83.4, 36.1], [-82.8, 35.3], [-82.5, 34.5]]}, "properties": {"model": "NVGM", "label": "NAVGEM", "kind": "physics", "group": "deterministic", "cycle": "2021082712"}}, {"type": "Feature", "geometry": {"type": "LineString", "coordinates": [[-81.7, 20.3], [-83.7, 22.2], [-85.8, 24.0], [-87.9, 25.9], [-89.8, 27.5], [-91.1, 28.9], [-91.6, 30.2], [-91.3, 31.6], [-90.5, 33.0], [-89.5, 34.0], [-88.3, 34.8], [-87.2, 35.0], [-85.0, 35.5], [-82.6, 35.7], [-80.6, 35.7]]}, "properties": {"model": "TVCA", "label": "Consensus", "kind": "consensus", "group": "consensus", "cycle": "2021082712"}}, {"type": "Feature", "geometry": {"type": "LineString", "coordinates": [[-81.7, 20.3], [-83.7, 22.2], [-85.8, 24.0], [-87.9, 25.9], [-89.8, 27.5], [-91.1, 28.9], [-91.6, 30.2], [-91.3, 31.6], [-90.5, 33.0], [-89.5, 34.0], [-88.3, 34.8], [-87.2, 35.0], [-85.0, 35.5], [-82.6, 35.7], [-80.6, 35.7]]}, "properties": {"model": "TVCN", "label": "TVCN Consensus", "kind": "consensus", "group": "consensus", "cycle": "2021082712"}}, {"type": "Feature", "geometry": {"type": "LineString", "coordinates": [[-80.9, 19.5], [-82.9, 21.3], [-85.0, 23.0], [-87.0, 24.9], [-89.0, 26.7], [-90.7, 28.3], [-91.6, 29.6], [-91.5, 31.0], [-90.7, 32.7], [-89.4, 34.2], [-87.6, 35.2], [-85.5, 36.0], [-83.1, 36.6], [-80.7, 36.8], [-78.7, 36.2]]}, "properties": {"model": "EMXI", "label": "ECMWF", "kind": "physics", "group": "deterministic", "cycle": "2021082706"}}, {"type": "Feature", "geometry": {"type": "LineString", "coordinates": [[-81.7, 20.3], [-83.7, 22.2], [-85.8, 23.9], [-87.8, 25.7], [-89.7, 27.4], [-90.9, 28.9], [-91.3, 30.3], [-90.8, 31.8], [-90.0, 33.3], [-88.2, 34.7], [-86.4, 35.5], [-84.5, 35.6], [-82.4, 35.4], [-80.0, 35.3], [-77.8, 34.9]]}, "properties": {"model": "GFEX", "label": "GFS Ensemble Mean", "kind": "consensus", "group": "consensus", "cycle": "2021082712"}}, {"type": "Feature", "geometry": {"type": "LineString", "coordinates": [[-81.7, 20.3], [-82.1, 20.7], [-83.7, 22.2], [-85.8, 24.0], [-87.8, 25.9], [-89.7, 27.6], [-90.8, 29.0], [-91.3, 30.3], [-90.2, 33.3], [-87.1, 35.2], [-82.8, 35.4], [-78.3, 35.2]]}, "properties": {"model": "OFCL", "label": "Official", "kind": "official", "group": "official", "cycle": "2021082712"}}, {"type": "Feature", "geometry": {"type": "LineString", "coordinates": [[-80.9, 19.5], [-82.9, 21.3], [-85.0, 23.2], [-87.1, 25.1], [-89.1, 27.0], [-90.9, 28.6], [-91.9, 29.8], [-92.0, 31.0], [-91.6, 32.4], [-90.7, 33.8], [-89.7, 34.8], [-88.5, 35.3], [-87.4, 35.8]]}, "properties": {"model": "EGRI", "label": "UKMET (interpolated)", "kind": "physics", "group": "deterministic", "cycle": "2021082706"}}]}