{"type": "FeatureCollection", "features": [{"type": "Feature", "properties": {"shapefile": "al092021-005_5day_lin", "STORMNAME": "Ida", "STORMTYPE": "TS", "ADVDATE": "1100 AM EDT Fri Aug 27 2021", "ADVISNUM": "5", "STORMNUM": 9, "FCSTPRD": 120, "BASIN": "AL"}, "geometry": {"type": "LineString", "coordinates": [[-82.1, 20.7], [-83.7, 22.2], [-85.8, 24.0], [-87.8, 25.9], [-89.7, 27.6], [-90.8, 29.0], [-91.3, 30.3], [-90.2, 33.3], [-87.1, 35.2]]}}, {"type": "Feature", "properties": {"shapefile": "al092021-005_5day_pts", "ADVDATE": "1100 AM EDT Fri Aug 27 2021", "ADVISNUM": "5", "BASIN": "AL", "DATELBL": "11:00 AM Fri", "DVLBL": "S", "FCSTPRD": 120, "FLDATELBL": "2021-08-27 8:00 AM Fri EDT", "GUST": 65, "LAT": 20, "LON": -82, "MAXWIND": 55, "MSLP": 996, "SSNUM": 0, "STORMNAME": "Tropical Storm Ida", "STORMNUM": 9, "STORMSRC": "Tropical Cyclone", "STORMTYPE": "TS", "TCDVLP": "Tropical Storm", "TAU": 0, "TCDIR": 320, "TCSPD": 13, "TIMEZONE": "EDT", "VALIDTIME": "27/1200"}, "geometry": {"type": "Point", "coordinates": [-82.1, 20.7]}}, {"type": "Feature", "properties": {"shapefile": "al092021-005_5day_pts", "ADVDATE": "1100 AM EDT Fri Aug 27 2021", "ADVISNUM": "5", "BASIN": "AL", "DATELBL": "8:00 PM Fri", "DVLBL": "H", "FCSTPRD": 120, "FLDATELBL": "2021-08-27 8:00 PM Fri EDT", "GUST": 80, "LAT": 22, "LON": -83, "MAXWIND": 65, "MSLP": 9999, "SSNUM": 1, "STORMNAME": "Tropical Storm Ida", "STORMNUM": 9, "STORMSRC": "Tropical Cyclone", "STORMTYPE": "HU", "TCDVLP": "Hurricane", "TAU": 12, "TCDIR": 9999, "TCSPD": 9999, "TIMEZONE": "EDT", "VALIDTIME": "28/0000"}, "geometry": {"type": "Point", "coordinates": [-83.7, 22.2]}}, {"type": "Feature", "properties": {"shapefile": "al092021-005_5day_pts", "ADVDATE": "1100 AM EDT Fri Aug 27 2021", "ADVISNUM": "5", "BASIN": "AL", "DATELBL": "8:00 AM Sat", "DVLBL": "H", "FCSTPRD": 120, "FLDATELBL": "2021-08-28 8:00 AM Sat EDT", "GUST": 90, "LAT": 24, "LON": -85, "MAXWIND": 75, "MSLP": 9999, "SSNUM": 1, "STORMNAME": "Tropical Storm Ida", "STORMNUM": 9, "STORMSRC": "Tropical Cyclone", "STORMTYPE": "HU", "TCDVLP": "Hurricane", "TAU": 24, "TCDIR": 9999, "TCSPD": 9999, "TIMEZONE": "EDT", "VALIDTIME": "28/1200"}, "geometry": {"type": "Point", "coordinates": [-85.8, 24.0]}}, {"type": "Feature", "properties": {"shapefile": "al092021-005_5day_pts", "ADVDATE": "1100 AM EDT Fri Aug 27 2021", "ADVISNUM": "5", "BASIN": "AL", "DATELBL": "8:00 PM Sat", "DVLBL": "H", "FCSTPRD": 120, "FLDATELBL": "2021-08-28 8:00 PM Sat EDT", "GUST": 110, "LAT": 25, "LON": -87, "MAXWIND": 90, "MSLP": 9999, "SSNUM": 2, "STORMNAME": "Tropical Storm Ida", "STORMNUM": 9, "STORMSRC": "Tropical Cyclone", "STORMTYPE": "HU", "TCDVLP": "Hurricane", "TAU": 36, "TCDIR": 9999, "TCSPD": 9999, "TIMEZONE": "EDT", "VALIDTIME": "29/0000"}, "geometry": {"type": "Point", "coordinates": [-87.8, 25.9]}}, {"type": "Feature", "properties": {"shapefile": "al092021-005_5day_pts", "ADVDATE": "1100 AM EDT Fri Aug 27 2021", "ADVISNUM": "5", "BASIN": "AL", "DATELBL": "8:00 AM Sun", "DVLBL": "M", "FCSTPRD": 120, "FLDATELBL": "2021-08-29 8:00 AM Sun EDT", "GUST": 130, "LAT": 27, "LON": -89, "MAXWIND": 105, "MSLP": 9999, "SSNUM": 3, "STORMNAME": "Tropical Storm Ida", "STORMNUM": 9, "STORMSRC": "Tropical Cyclone", "STORMTYPE": "MH", "TCDVLP": "Major Hurricane", "TAU": 48, "TCDIR": 9999, "TCSPD": 9999, "TIMEZONE": "EDT", "VALIDTIME": "29/1200"}, "geometry": {"type": "Point", "coordinates": [-89.7, 27.6]}}, {"type": "Feature", "properties": {"shapefile": "al092021-005_5day_pts", "ADVDATE": "1100 AM EDT Fri Aug 27 2021", "ADVISNUM": "5", "BASIN": "AL", "DATELBL": "8:00 PM Sun", "DVLBL": "M", "FCSTPRD": 120, "FLDATELBL": "2021-08-29 8:00 PM Sun EDT", "GUST": 130, "LAT": 29, "LON": -90, "MAXWIND": 105, "MSLP": 9999, "SSNUM": 3, "STORMNAME": "Tropical Storm Ida", "STORMNUM": 9, "STORMSRC": "Tropical Cyclone", "STORMTYPE": "MH", "TCDVLP": "Major Hurricane", "TAU": 60, "TCDIR": 9999, "TCSPD": 9999, "TIMEZONE": "EDT", "VALIDTIME": "30/0000"}, "geometry": {"type": "Point", "coordinates": [-90.8, 29.0]}}, {"type": "Feature", "properties": {"shapefile": "al092021-005_5day_pts", "ADVDATE": "1100 AM EDT Fri Aug 27 2021", "ADVISNUM": "5", "BASIN": "AL", "DATELBL": "8:00 AM Mon", "DVLBL": "S", "FCSTPRD": 120, "FLDATELBL": "2021-08-30 8:00 AM Mon EDT", "GUST": 75, "LAT": 30, "LON": -91, "MAXWIND": 60, "MSLP": 9999, "SSNUM": 0, "STORMNAME": "Tropical Storm Ida", "STORMNUM": 9, "STORMSRC": "Tropical Cyclone", "STORMTYPE": "TS", "TCDVLP": "Tropical Storm", "TAU": 72, "TCDIR": 9999, "TCSPD": 9999, "TIMEZONE": "EDT", "VALIDTIME": "30/1200"}, "geometry": {"type": "Point", "coordinates": [-91.3, 30.3]}}, {"type": "Feature", "properties": {"shapefile": "al092021-005_5day_pts", "ADVDATE": "1100 AM EDT Fri Aug 27 2021", "ADVISNUM": "5", "BASIN": "AL", "DATELBL": "8:00 AM Tue", "DVLBL": "D", "FCSTPRD": 120, "FLDATELBL": "2021-08-31 8:00 AM Tue EDT", "GUST": 40, "LAT": 33, "LON": -90, "MAXWIND": 30, "MSLP": 9999, "SSNUM": 0, "STORMNAME": "Tropical Storm Ida", "STORMNUM": 9, "STORMSRC": "Tropical Cyclone", "STORMTYPE": "TD", "TCDVLP": "Tropical Depression", "TAU": 96, "TCDIR": 9999, "TCSPD": 9999, "TIMEZONE": "EDT", "VALIDTIME": "31/1200"}, "geometry": {"type": "Point", "coordinates": [-90.2, 33.3]}}, {"type": "Feature", "properties": {"shapefile": "al092021-005_5day_pts", "ADVDATE": "1100 AM EDT Fri Aug 27 2021", "ADVISNUM": "5", "BASIN": "AL", "DATELBL": "8:00 AM Wed", "DVLBL": "D", "FCSTPRD": 120, "FLDATELBL": "2021-09-01 8:00 AM Wed EDT", "GUST": 30, "LAT": 35, "LON": -87, "MAXWIND": 20, "MSLP": 9999, "SSNUM": 0, "STORMNAME": "Tropical Storm Ida", "STORMNUM": 9, "STORMSRC": "Post-Tropical Cyclone", "STORMTYPE": "STD", "TCDVLP": "Subtropical Depression", "TAU": 120, "TCDIR": 9999, "TCSPD": 9999, "TIMEZONE": "EDT", "VALIDTIME": "01/1200"}, "geometry": {"type": "Point", "coordinates": [-87.1, 35.2]}}]}