{"type": "FeatureCollection", "features": [{"type": "Feature", "properties": {"shapefile": "al092021_2021082715_initialradii", "RADII": 34, "STORMID": "al092021", "BASIN": "al", "STORMNUM": 9, "ADVNUM": "5", "VALIDTIME": "2021082715", "SYNOPTIME": "2021082712", "TIMEZONE": "UTC", "TAU": 0, "NE": 80, "SE": 60, "SW": 0, "NW": 60}, "geometry": {"type": "Polygon", "coordinates": [[[-82.0885849, 21.8651905], [-82.0665665, 21.8685188], [-82.0444336, 21.8714828], [-82.022171, 21.8740826], [-81.9997864, 21.8763142], [-81.9773026, 21.87817], [-81.9547119, 21.8796558], [-81.9320221, 21.8807621], [-81.909256, 21.8814926], [-81.8863983, 21.8818378], [-81.8634872, 21.8817997], [-81.8404999, 21.8813744], [-81.8174515, 21.8805618], [-81.7943649, 21.8793564], [-81.7712326, 21.8777599], [-81.7480698, 21.8757706], [-81.724884, 21.8733826], [-81.701683, 21.8705978], [-81.6784668, 21.8674145], [-81.6552429, 21.8638306], [-81.6320419, 21.859848], [-81.6088486, 21.8554611], [-81.5856781, 21.8506737], [-81.5625381, 21.8454819], [-81.539444, 21.8398876], [-81.5163956, 21.833889], [-81.4933853, 21.827486], [-81.470459, 21.8206806], [-81.4476089, 21.8134689], [-81.4248352, 21.8058548], [-81.4021378, 21.7978363], [-81.3795471, 21.7894154], [-81.3570709, 21.780592], [-81.3346863, 21.771368], [-81.312439, 21.7617416], [-81.2903214, 21.7517185], [-81.2683487, 21.7412968], [-81.246521, 21.7304783], [-81.2248459, 21.7192669], [-81.2033386, 21.7076607], [-81.1819839, 21.6956596], [-81.1611404, 21.6829872], [-81.1411285, 21.6693687], [-81.121994, 21.6548309], [-81.1037521, 21.6393986], [-81.0864334, 21.6230965], [-81.0700684, 21.6059475], [-81.0546722, 21.5879803], [-81.0402832, 21.5692196], [-81.0269241, 21.5496922], [-81.0142822, 21.5297127], [-81.0020676, 21.5095844], [-80.9902878, 21.4893112], [-80.9789276, 21.4688988], [-80.9680023, 21.4483566], [-80.9575119, 21.4276924], [-80.9474487, 21.4069176], [-80.9377975, 21.3860302], [-80.9285889, 21.3650475], [-80.9198151, 21.3439732], [-80.9114685, 21.3228149], [-80.9035721, 21.3015823], [-80.8960876, 21.2802753], [-80.8890533, 21.258913], [-80.8824387, 21.2374954], [-80.8762589, 21.2160301], [-80.8705139, 21.1945286], [-80.8652039, 21.1729965], [-80.8603134, 21.1514397], [-80.8558655, 21.1298676], [-80.8518448, 21.1082859], [-80.8482361, 21.0867081], [-80.8450623, 21.0651321], [-80.8423233, 21.0435696], [-80.8399963, 21.0220261], [-80.8380966, 21.0005112], [-80.8366165, 20.9790344], [-80.8355484, 20.9575958], [-80.8348923, 20.9362087], [-80.8346558, 20.9148769], [-80.8348236, 20.8936081], [-80.8353882, 20.8724079], [-80.83638, 20.851284], [-80.8377609, 20.8302441], [-80.8395462, 20.8092937], [-80.8417206, 20.7884426], [-80.8442993, 20.7676926], [-80.8472595, 20.7470493], [-80.8506012, 20.7265244], [-80.8543243, 20.7061234], [-80.858429, 20.6858463], [-80.862915, 20.6657066], [-80.8677673, 20.6457062], [-80.8729858, 20.6258545], [-80.8785706, 20.6061535], [-80.8845062, 20.5866108], [-80.8908005, 20.5672321], [-80.897438, 20.5480232], [-80.9044342, 20.5289879], [-80.9117584, 20.5101337], [-80.919426, 20.4914627], [-80.9274216, 20.4729843], [-80.9357452, 20.4547043], [-80.9443817, 20.4366226], [-80.9533386, 20.4187508], [-80.962616, 20.4010849], [-80.9721909, 20.3836365], [-80.9820633, 20.3664074], [-80.9922409, 20.3494034], [-81.0026932, 20.332634], [-81.013443, 20.3160915], [-81.0244751, 20.2997875], [-81.0357742, 20.2837296], [-81.0473328, 20.2679119], [-81.0591736, 20.252346], [-81.0712509, 20.2370338], [-81.0835876, 20.2219791], [-81.0961609, 20.2071877], [-81.1089783, 20.1926556], [-81.1220245, 20.1783886], [-81.1352921, 20.1643963], [-81.1487885, 20.1506786], [-81.1625061, 20.1372375], [-81.1764221, 20.124073], [-81.1905365, 20.1111908], [-81.2048416, 20.0985966], [-81.2193451, 20.0862865], [-81.2340393, 20.0742664], [-81.2488937, 20.0625362], [-81.2639236, 20.0511055], [-81.2791138, 20.0399666], [-81.2947693, 20.0294228], [-81.3111649, 20.0197792], [-81.3282776, 20.0110607], [-81.3460846, 20.0032864], [-81.3645477, 19.9964752], [-81.3836288, 19.9906464], [-81.4033051, 19.9858189], [-81.4235458, 19.9820099], [-81.4443283, 19.9792366], [-81.4653015, 19.9772167], [-81.4861374, 19.9756622], [-81.5068359, 19.9745674], [-81.5273895, 19.9739227], [-81.5477982, 19.9737244], [-81.5680237, 19.9739723], [-81.5880814, 19.9746552], [-81.6079407, 19.9757729], [-81.6276016, 19.977314], [-81.6470642, 19.9792709], [-81.6663132, 19.9816456], [-81.6853256, 19.9844246], [-81.7040939, 19.9876022], [-81.7226257, 19.9911747], [-81.7409134, 19.9951344], [-81.758934, 19.9994717], [-81.77668, 20.004179], [-81.7941513, 20.0092506], [-81.8113251, 20.014679], [-81.8282166, 20.0204544], [-81.8448181, 20.0265713], [-81.861084, 20.03302], [-81.8770447, 20.0397911], [-81.8926773, 20.0468826], [-81.9079895, 20.0542774], [-81.9229584, 20.0619678], [-81.9375839, 20.0699539], [-81.9518509, 20.0782146], [-81.9657745, 20.0867519], [-81.979332, 20.0955486], [-81.9925232, 20.104599], [-82.0053406, 20.1138916], [-82.0177917, 20.1234207], [-82.0298386, 20.1331768], [-82.0415192, 20.1431484], [-82.0528107, 20.1533241], [-82.0636978, 20.1636963], [-82.0741882, 20.1742535], [-82.0842667, 20.1849899], [-82.0939484, 20.1958885], [-82.1032257, 20.2069473], [-82.1120911, 20.2181492], [-82.1205292, 20.2294884], [-82.1285629, 20.2409573], [-82.1361694, 20.2525387], [-82.143364, 20.2642269], [-82.1501236, 20.2760086], [-82.1564713, 20.2878799], [-82.1623917, 20.2998219], [-82.1678772, 20.3118286], [-82.1729431, 20.3238907], [-82.1775818, 20.3359985], [-82.1817932, 20.3481388], [-82.1855774, 20.3603001], [-82.1889343, 20.3724766], [-82.191864, 20.3846588], [-82.1943665, 20.3968334], [-82.1964493, 20.408989], [-82.1981125, 20.4211159], [-82.1993561, 20.4332066], [-82.2001801, 20.4452515], [-82.2005844, 20.4572372], [-82.2005615, 20.4691544], [-82.2001343, 20.4809952], [-82.1993027, 20.4927464], [-82.1980667, 20.5044022], [-82.1964264, 20.5159531], [-82.1943893, 20.5273895], [-82.1919479, 20.5386944], [-82.1891174, 20.5498676], [-82.1859055, 20.560894], [-82.1823044, 20.5717697], [-82.1783295, 20.5824795], [-82.1739807, 20.5930195], [-82.1692657, 20.6033764], [-82.1641846, 20.6135464], [-82.1587524, 20.6235142], [-82.1529694, 20.6332798], [-82.1468353, 20.6428299], [-82.1403656, 20.652153], [-82.1335602, 20.6612453], [-82.1273727, 20.6692352], [-82.1227951, 20.6752987], [-82.1199036, 20.6794853], [-82.1187439, 20.6818581], [-82.1194077, 20.6824722], [-82.121933, 20.6813908], [-82.1264038, 20.6786728], [-82.1328812, 20.6743851], [-82.1414108, 20.6685905], [-82.1511307, 20.6622238], [-82.1610947, 20.6561642], [-82.1713028, 20.6504173], [-82.1817322, 20.6449947], [-82.1923752, 20.6398983], [-82.2032318, 20.6351376], [-82.2143021, 20.6307087], [-82.2255554, 20.6266251], [-82.2369919, 20.6228867], [-82.2486038, 20.6195049], [-82.2603836, 20.616478], [-82.2723083, 20.6138134], [-82.2843933, 20.6115112], [-82.2966003, 20.6095791], [-82.3089371, 20.6080189], [-82.3213882, 20.6068344], [-82.3339539, 20.6060333], [-82.3465881, 20.6056099], [-82.3593292, 20.6055717], [-82.3721313, 20.6059227], [-82.3850098, 20.6066647], [-82.3979263, 20.6077957], [-82.4108887, 20.6093216], [-82.4238815, 20.6112442], [-82.4368896, 20.6135635], [-82.449913, 20.6162796], [-82.4629288, 20.6193943], [-82.4759369, 20.6229095], [-82.4889221, 20.6268234], [-82.5018692, 20.6311398], [-82.5147705, 20.6358528], [-82.527626, 20.6409683], [-82.5404129, 20.6464825], [-82.5531158, 20.6523972], [-82.5657196, 20.6587086], [-82.5782471, 20.6654129], [-82.5906525, 20.6725178], [-82.6029205, 20.6800156], [-82.6150665, 20.6879025], [-82.6270752, 20.6961803], [-82.6389236, 20.7048473], [-82.6506042, 20.7138977], [-82.6621246, 20.7233315], [-82.6734467, 20.7331429], [-82.6845779, 20.7433281], [-82.695488, 20.7538853], [-82.706192, 20.7648144], [-82.7166672, 20.776104], [-82.7268982, 20.787756], [-82.7368927, 20.7997627], [-82.7466125, 20.8121204], [-82.7560654, 20.8248253], [-82.7652359, 20.8378696], [-82.7741394, 20.8512516], [-82.7827225, 20.8649654], [-82.7910004, 20.8789997], [-82.7989655, 20.8933544], [-82.8066025, 20.9080238], [-82.8138962, 20.9229965], [-82.8208466, 20.9382687], [-82.827446, 20.9538364], [-82.8336792, 20.9696865], [-82.8395386, 20.985817], [-82.8450241, 21.0022182], [-82.8501129, 21.0188828], [-82.8548126, 21.0358047], [-82.8590927, 21.0529728], [-82.8629608, 21.0703812], [-82.8664169, 21.0880203], [-82.8694305, 21.1058826], [-82.8720093, 21.1239586], [-82.8741608, 21.1422443], [-82.8758545, 21.1607227], [-82.8770828, 21.17939], [-82.8778381, 21.1982327], [-82.8781433, 21.217247], [-82.8779602, 21.2364178], [-82.8772888, 21.2557392], [-82.8761368, 21.2751999], [-82.8744965, 21.2947884], [-82.872345, 21.314497], [-82.8693848, 21.3340225], [-82.8653107, 21.3530483], [-82.8601379, 21.3715439], [-82.8538818, 21.3894749], [-82.8465729, 21.4068222], [-82.8382263, 21.4235497], [-82.8288574, 21.4396286], [-82.8184891, 21.4550343], [-82.8071442, 21.469738], [-82.7951736, 21.4840031], [-82.7828674, 21.4981136], [-82.7702408, 21.5120602], [-82.757309, 21.5258389], [-82.7440567, 21.5394402], [-82.7304993, 21.5528622], [-82.7166214, 21.5660973], [-82.7024384, 21.5791378], [-82.6879578, 21.5919781], [-82.6731796, 21.6046162], [-82.6580963, 21.6170425], [-82.6427231, 21.6292553], [-82.6270447, 21.641243], [-82.6110992, 21.6530056], [-82.5948563, 21.6645298], [-82.5783386, 21.6758175], [-82.561554, 21.6868591], [-82.544487, 21.6976528], [-82.5271606, 21.708189], [-82.5095596, 21.7184658], [-82.4917221, 21.7284737], [-82.4736176, 21.7382088], [-82.4552689, 21.7476711], [-82.436676, 21.7568474], [-82.4178467, 21.7657375], [-82.3987732, 21.7743359], [-82.3794785, 21.7826385], [-82.3599548, 21.7906418], [-82.3402176, 21.7983341], [-82.3202744, 21.8057175], [-82.3001251, 21.8127861], [-82.2797623, 21.8195343], [-82.2592239, 21.8259583], [-82.2384872, 21.8320541], [-82.2175674, 21.8378181], [-82.1964722, 21.8432446], [-82.175209, 21.8483315], [-82.1537781, 21.8530712], [-82.1321869, 21.8574619], [-82.1104584, 21.8615055], [-82.0885849, 21.8651905]]]}}, {"type": "Feature", "properties": {"shapefile": "al092021_2021082715_initialradii", "RADII": 50, "STORMID": "al092021", "BASIN": "al", "STORMNUM": 9, "ADVNUM": "5", "VALIDTIME": "2021082715", "SYNOPTIME": "2021082712", "TIMEZONE": "UTC", "TAU": 0, "NE": 30, "SE": 0, "SW": 0, "NW": 0}, "geometry": {"type": "Polygon", "coordinates": [[[-82.096962, 20.9520569], [-82.0920944, 20.9575062], [-82.0870209, 20.9628716], [-82.0817566, 20.9681492], [-82.0762787, 20.9733334], [-82.0705948, 20.9784184], [-82.0647278, 20.9834023], [-82.0586548, 20.9882755], [-82.0523987, 20.9930344], [-82.0459366, 20.9976768], [-82.039299, 21.0021954], [-82.0324783, 21.0065861], [-82.0254669, 21.0108452], [-82.01828, 21.0149632], [-82.0109177, 21.0189476], [-82.0033798, 21.0227814], [-81.9956665, 21.0264664], [-81.987793, 21.029995], [-81.9797592, 21.0333633], [-81.9715576, 21.0365715], [-81.9632034, 21.0396099], [-81.9546967, 21.0424767], [-81.9460373, 21.0451698], [-81.9372253, 21.0476818], [-81.9282837, 21.0500107], [-81.91922, 21.0521488], [-81.9100037, 21.0541], [-81.9006653, 21.0558548], [-81.8912048, 21.0574112], [-81.8816223, 21.0587673], [-81.8719177, 21.0599155], [-81.8621216, 21.0608578], [-81.852211, 21.0615864], [-81.8422012, 21.0620995], [-81.8321152, 21.062397], [-81.8219223, 21.0624733], [-81.8116531, 21.0623245], [-81.8013, 21.0619507], [-81.7908783, 21.061348], [-81.7803879, 21.0605145], [-81.7698364, 21.0594463], [-81.7597046, 21.0577126], [-81.7504883, 21.0549011], [-81.742218, 21.0510464], [-81.7349548, 21.0461712], [-81.7286987, 21.0403118], [-81.7235107, 21.0335007], [-81.7194138, 21.0257683], [-81.7164459, 21.0171547], [-81.7146301, 21.0076866], [-81.7135315, 20.9978333], [-81.712677, 20.9880409], [-81.7120819, 20.9783115], [-81.7117233, 20.9686527], [-81.7116089, 20.9590683], [-81.711731, 20.9495621], [-81.7120972, 20.940136], [-81.712677, 20.9308014], [-81.713501, 20.9215603], [-81.7145462, 20.9124165], [-81.7158127, 20.9033737], [-81.7173004, 20.8944378], [-81.7189941, 20.8856144], [-81.7209091, 20.8769054], [-81.7230377, 20.8683167], [-81.7253571, 20.8598518], [-81.7278748, 20.8515148], [-81.7305832, 20.8433075], [-81.7334976, 20.8352356], [-81.7365952, 20.8273029], [-81.7398682, 20.8195133], [-81.7433243, 20.8118706], [-81.7469559, 20.8043747], [-81.7507553, 20.7970333], [-81.7547226, 20.7898483], [-81.7588348, 20.7828217], [-81.7631149, 20.7759571], [-81.7675476, 20.7692585], [-81.7721176, 20.7627277], [-81.776825, 20.7563686], [-81.7816696, 20.7501774], [-81.7866516, 20.7441654], [-81.7917557, 20.7383327], [-81.7969742, 20.7326736], [-81.8023148, 20.7272015], [-81.8077621, 20.7219124], [-81.8133163, 20.7168102], [-81.8189774, 20.7118969], [-81.8247223, 20.7071724], [-81.8305511, 20.7026367], [-81.8364716, 20.6982937], [-81.8424606, 20.6941452], [-81.8485336, 20.6901932], [-81.8546677, 20.6864338], [-81.8608704, 20.6828747], [-81.8671112, 20.679512], [-81.8734131, 20.6763496], [-81.8797684, 20.6733856], [-81.8861542, 20.6706181], [-81.8925705, 20.6680527], [-81.8990173, 20.6656895], [-81.9055023, 20.6635227], [-81.9119873, 20.6615601], [-81.9184875, 20.6597958], [-81.9250031, 20.6582298], [-81.9315033, 20.6568661], [-81.9380188, 20.6557007], [-81.944519, 20.6547337], [-81.951004, 20.6539669], [-81.9574585, 20.6533947], [-81.9638977, 20.653019], [-81.9702988, 20.6528378], [-81.9766769, 20.6528511], [-81.9829941, 20.6530571], [-81.9892731, 20.6534557], [-81.9954987, 20.6540432], [-82.0016785, 20.6548195], [-82.007782, 20.6557846], [-82.0138245, 20.656929], [-82.0197983, 20.6582584], [-82.0256805, 20.6597691], [-82.0314865, 20.6614609], [-82.0372086, 20.6633263], [-82.0428467, 20.6653652], [-82.0483704, 20.6675797], [-82.0538025, 20.66996], [-82.0591278, 20.6725044], [-82.0643539, 20.6752129], [-82.069458, 20.6780872], [-82.07444, 20.6811142], [-82.0792999, 20.6842995], [-82.0837936, 20.6874142], [-82.0877151, 20.6902275], [-82.0910645, 20.6927223], [-82.0938568, 20.6948776], [-82.0961075, 20.6966782], [-82.0978317, 20.6981068], [-82.0990524, 20.6991482], [-82.099762, 20.6997833], [-82.1000061, 20.6999989], [-82.1000061, 20.6999989], [-82.1000061, 20.6999989], [-82.1000061, 20.6999989], [-82.1000061, 20.6999989], [-82.1000061, 20.6999989], [-82.1000061, 20.6999989], [-82.1000061, 20.6999989], [-82.1000061, 20.6999989], [-82.1000061, 20.6999989], [-82.1000061, 20.6999989], [-82.1000061, 20.6999989], [-82.1000061, 20.6999989], [-82.1000061, 20.6999989], [-82.1000061, 20.6999989], [-82.1000061, 20.6999989], [-82.1000061, 20.6999989], [-82.1000061, 20.6999989], [-82.1000061, 20.6999989], [-82.1000061, 20.6999989], [-82.1000061, 20.6999989], [-82.1000061, 20.6999989], [-82.1000061, 20.6999989], [-82.1000061, 20.6999989], [-82.1000061, 20.6999989], [-82.1000061, 20.6999989], [-82.1000061, 20.6999989], [-82.1000061, 20.6999989], [-82.1000061, 20.6999989], [-82.1000061, 20.6999989], [-82.1000061, 20.6999989], [-82.1000061, 20.6999989], [-82.1000061, 20.6999989], [-82.1000061, 20.6999989], [-82.1000061, 20.6999989], [-82.1000061, 20.6999989], [-82.1000061, 20.6999989], [-82.1000061, 20.6999989], [-82.1000061, 20.6999989], [-82.1000061, 20.6999989], [-82.1000061, 20.6999989], [-82.1000061, 20.6999989], [-82.1000061, 20.6999989], [-82.1000061, 20.6999989], [-82.1000061, 20.6999989], [-82.1000061, 20.6999989], [-82.1000061, 20.6999989], [-82.1000061, 20.6999989], [-82.1000061, 20.6999989], [-82.1000061, 20.6999989], [-82.1000061, 20.6999989], [-82.1000061, 20.6999989], [-82.1000061, 20.6999989], [-82.1000061, 20.6999989], [-82.1000061, 20.6999989], [-82.1000061, 20.6999989], [-82.1000061, 20.6999989], [-82.1000061, 20.6999989], [-82.1000061, 20.6999989], [-82.1000061, 20.6999989], [-82.1000061, 20.6999989], [-82.1000061, 20.6999989], [-82.1000061, 20.6999989], [-82.1000061, 20.6999989], [-82.1000061, 20.6999989], [-82.1000061, 20.6999989], [-82.1000061, 20.6999989], [-82.1000061, 20.6999989], [-82.1000061, 20.6999989], [-82.1000061, 20.6999989], [-82.1000061, 20.6999989], [-82.1000061, 20.6999989], [-82.1000061, 20.6999989], [-82.1000061, 20.6999989], [-82.1000061, 20.6999989], [-82.1000061, 20.6999989], [-82.1000061, 20.6999989], [-82.1000061, 20.6999989], [-82.1000061, 20.6999989], [-82.1000061, 20.6999989], [-82.1000061, 20.6999989], [-82.1000061, 20.6999989], [-82.1000061, 20.6999989], [-82.1000061, 20.6999989], [-82.1000061, 20.6999989], [-82.1000061, 20.6999989], [-82.1000061, 20.6999989], [-82.1000061, 20.6999989], [-82.1000061, 20.6999989], [-82.1000061, 20.6999989], [-82.1000061, 20.6999989], [-82.1000061, 20.6999989], [-82.1000061, 20.6999989], [-82.1000061, 20.6999989], [-82.1000061, 20.6999989], [-82.1000061, 20.6999989], [-82.1000061, 20.6999989], [-82.1000061, 20.6999989], [-82.1000061, 20.6999989], [-82.1000061, 20.6999989], [-82.1000061, 20.6999989], [-82.1000061, 20.6999989], [-82.1000061, 20.6999989], [-82.1000061, 20.6999989], [-82.1000061, 20.6999989], [-82.1000061, 20.6999989], [-82.1000061, 20.6999989], [-82.1000061, 20.6999989], [-82.1000061, 20.6999989], [-82.1000061, 20.6999989], [-82.1000061, 20.6999989], [-82.1000061, 20.6999989], [-82.1000061, 20.6999989], [-82.1000061, 20.6999989], [-82.1000061, 20.6999989], [-82.1000061, 20.6999989], [-82.1000061, 20.6999989], [-82.1000061, 20.6999989], [-82.1000061, 20.6999989], [-82.1000061, 20.6999989], [-82.1000061, 20.6999989], [-82.1000061, 20.6999989], [-82.1000061, 20.6999989], [-82.1000061, 20.6999989], [-82.1000061, 20.6999989], [-82.1000061, 20.6999989], [-82.1000061, 20.6999989], [-82.1000061, 20.6999989], [-82.1000061, 20.6999989], [-82.1000061, 20.6999989], [-82.1000061, 20.6999989], [-82.1000061, 20.6999989], [-82.1000061, 20.6999989], [-82.1000061, 20.6999989], [-82.1000061, 20.6999989], [-82.1000061, 20.6999989], [-82.1000061, 20.6999989], [-82.1000061, 20.6999989], [-82.1000061, 20.6999989], [-82.1000061, 20.6999989], [-82.1000061, 20.6999989], [-82.1000061, 20.6999989], [-82.1000061, 20.6999989], [-82.1000061, 20.6999989], [-82.1000061, 20.6999989], [-82.1000061, 20.6999989], [-82.1000061, 20.6999989], [-82.1000061, 20.6999989], [-82.1000061, 20.6999989], [-82.1000061, 20.6999989], [-82.1000061, 20.6999989], [-82.1000061, 20.6999989], [-82.1000061, 20.6999989], [-82.1000061, 20.6999989], [-82.1000061, 20.6999989], [-82.1000061, 20.6999989], [-82.1000061, 20.6999989], [-82.1000061, 20.6999989], [-82.1000061, 20.6999989], [-82.1000061, 20.6999989], [-82.1000061, 20.6999989], [-82.1000061, 20.6999989], [-82.1000061, 20.6999989], [-82.1000061, 20.6999989], [-82.1000061, 20.6999989], [-82.1000061, 20.6999989], [-82.1000061, 20.6999989], [-82.1000061, 20.6999989], [-82.1000061, 20.6999989], [-82.1000061, 20.6999989], [-82.1000061, 20.6999989], [-82.1000061, 20.6999989], [-82.100235, 20.7002182], [-82.1009216, 20.7008896], [-82.1020355, 20.7020264], [-82.1035538, 20.7036419], [-82.105484, 20.7057514], [-82.1077805, 20.7083664], [-82.1104431, 20.7115002], [-82.1134644, 20.715168], [-82.1167908, 20.7193775], [-82.1202011, 20.7239208], [-82.1234283, 20.7285824], [-82.1264954, 20.7333546], [-82.1294022, 20.7382336], [-82.1321259, 20.7432175], [-82.1346741, 20.7483006], [-82.1370392, 20.753479], [-82.1392212, 20.7587509], [-82.1412125, 20.7641029], [-82.1430206, 20.7695389], [-82.1446228, 20.7750511], [-82.1460495, 20.7806358], [-82.1472778, 20.7862892], [-82.1483002, 20.7920055], [-82.1491394, 20.7977791], [-82.1497574, 20.803606], [-82.1501846, 20.8094826], [-82.1504059, 20.815403], [-82.1504059, 20.8213615], [-82.1502151, 20.8273544], [-82.1498108, 20.8333778], [-82.1492004, 20.8394222], [-82.1483765, 20.8454895], [-82.1473389, 20.8515663], [-82.1460876, 20.8576546], [-82.1446152, 20.8637466], [-82.1429291, 20.8698349], [-82.141037, 20.8759193], [-82.1389313, 20.8819885], [-82.1366119, 20.8880444], [-82.1340637, 20.8940792], [-82.1313171, 20.9000835], [-82.1283569, 20.9060555], [-82.1251678, 20.911993], [-82.1217728, 20.9178848], [-82.1181564, 20.9237289], [-82.1143494, 20.9295216], [-82.1103134, 20.9352551], [-82.1060791, 20.9409256], [-82.1016235, 20.9465275], [-82.096962, 20.9520569]]]}}]}