{"type": "FeatureCollection", "features": [{"type": "Feature", "properties": {"shapefile": "al092021-009_5day_pgn", "STORMNAME": "Ida", "STORMTYPE": "HU", "ADVDATE": "1000 AM CDT Sat Aug 28 2021", "ADVISNUM": "9", "STORMNUM": 9, "FCSTPRD": 120, "BASIN": "AL"}, "geometry": {"type": "Polygon", "coordinates": [[[-86.13002, 24.53652], [-86.11832, 24.53579], [-86.07941, 24.53711], [-86.05322, 24.54194], [-86.01343, 24.55367], [-86.001, 24.55879], [-85.9634, 24.57579], [-85.9514, 24.58209], [-85.91689, 24.60246], [-85.89581, 24.61799], [-85.8765, 24.63528], [-85.85954, 24.65492], [-85.84491, 24.6769], [-85.83276, 24.70108], [-85.82004, 24.74211], [-85.81506, 24.77112], [-85.81331, 24.80102], [-85.81507, 24.83091], [-85.82004, 24.85992], [-85.8278, 24.88762], [-85.84404, 24.92601], [-85.85077, 24.93759], [-85.86495, 24.96001], [-85.8885, 24.99137], [-85.90576, 25.01071], [-85.92332, 25.02976], [-85.94145, 25.04822], [-85.95959, 25.06668], [-85.97803, 25.08486], [-85.99617, 25.10332], [-86.0146, 25.12149], [-86.03275, 25.13995], [-86.05117, 25.15812], [-86.06961, 25.17629], [-86.08862, 25.19388], [-86.10793, 25.21117], [-86.12811, 25.22758], [-86.14888, 25.2434], [-86.16996, 25.25894], [-86.19102, 25.27447], [-86.21179, 25.2903], [-86.23198, 25.30671], [-86.25129, 25.324], [-86.27031, 25.34159], [-86.28874, 25.35975], [-86.30717, 25.37793], [-86.32531, 25.39639], [-86.34373, 25.41456], [-86.36188, 25.43302], [-86.38031, 25.45119], [-86.39845, 25.46966], [-86.41688, 25.48783], [-86.43503, 25.50629], [-86.45346, 25.52446], [-86.4716, 25.54292], [-86.49003, 25.5611], [-86.50816, 25.57956], [-86.5266, 25.59773], [-86.54473, 25.61619], [-86.56316, 25.63436], [-86.5813, 25.65283], [-86.59974, 25.671], [-86.61787, 25.68946], [-86.62709, 25.69854], [-86.65445, 25.72609], [-86.67288, 25.74426], [-86.68195, 25.75349], [-86.70946, 25.7809], [-86.72759, 25.79936], [-86.74602, 25.81753], [-86.76416, 25.83599], [-86.78259, 25.85416], [-86.80074, 25.87263], [-86.81916, 25.8908], [-86.83731, 25.90926], [-86.85574, 25.92743], [-86.87389, 25.9459], [-86.89232, 25.96407], [-86.91045, 25.98253], [-86.92888, 26.0007], [-86.94702, 26.01916], [-86.95624, 26.02825], [-86.9836, 26.0558], [-87.00202, 26.07397], [-87.02017, 26.09243], [-87.0386, 26.1106], [-87.05675, 26.12906], [-87.07516, 26.14724], [-87.09331, 26.1657], [-87.11174, 26.18387], [-87.12988, 26.20233], [-87.1483, 26.2205], [-87.16644, 26.23896], [-87.18488, 26.25714], [-87.19394, 26.26637], [-87.22144, 26.29377], [-87.23959, 26.31223], [-87.25803, 26.3304], [-87.27617, 26.34887], [-87.28539, 26.35795], [-87.31273, 26.3855], [-87.33116, 26.40367], [-87.3493, 26.42213], [-87.36774, 26.4403], [-87.38588, 26.45877], [-87.4043, 26.47694], [-87.42245, 26.4954], [-87.43166, 26.50449], [-87.45903, 26.53204], [-87.47745, 26.55021], [-87.48653, 26.55944], [-87.51402, 26.58684], [-87.53216, 26.6053], [-87.55058, 26.62347], [-87.56873, 26.64194], [-87.58716, 26.66011], [-87.6053, 26.67857], [-87.61452, 26.68766], [-87.64188, 26.7152], [-87.65109, 26.72429], [-87.67845, 26.75184], [-87.69688, 26.77001], [-87.71501, 26.78847], [-87.73344, 26.80664], [-87.75159, 26.82511], [-87.77002, 26.84327], [-87.78816, 26.86174], [-87.80659, 26.87991], [-87.82474, 26.89837], [-87.84316, 26.91654], [-87.86131, 26.93501], [-87.87973, 26.95318], [-87.89787, 26.97164], [-87.90709, 26.98072], [-87.92537, 26.99904], [-87.95258, 27.02674], [-87.97013, 27.04579], [-87.9874, 27.06513], [-87.99559, 27.07524], [-88.01168, 27.09575], [-88.02733, 27.11671], [-88.0506, 27.14836], [-88.05849, 27.15877], [-88.08278, 27.18939], [-88.10004, 27.20873], [-88.10882, 27.21826], [-88.13573, 27.24625], [-88.15387, 27.26471], [-88.1723, 27.28288], [-88.19044, 27.30134], [-88.20887, 27.31951], [-88.22702, 27.33798], [-88.24545, 27.35615], [-88.2636, 27.37461], [-88.28201, 27.39278], [-88.30016, 27.41124], [-88.31859, 27.42942], [-88.32765, 27.43865], [-88.34595, 27.45696], [-88.37329, 27.48451], [-88.39173, 27.50268], [-88.40987, 27.52114], [-88.4283, 27.53932], [-88.44644, 27.55778], [-88.46487, 27.57595], [-88.47395, 27.58518], [-88.50145, 27.61258], [-88.51958, 27.63105], [-88.5288, 27.64013], [-88.55615, 27.66768], [-88.57458, 27.68585], [-88.59273, 27.70432], [-88.61115, 27.72248], [-88.6293, 27.74095], [-88.64744, 27.75941], [-88.65621, 27.76894], [-88.67363, 27.78813], [-88.69044, 27.80791], [-88.70653, 27.82843], [-88.72994, 27.85994], [-88.74545, 27.88104], [-88.75334, 27.89144], [-88.77763, 27.92207], [-88.78626, 27.93174], [-88.81245, 27.96046], [-88.83058, 27.97892], [-88.84872, 27.99739], [-88.86716, 28.01555], [-88.8853, 28.03402], [-88.90373, 28.05219], [-88.92187, 28.07065], [-88.93094, 28.07989], [-88.95756, 28.10817], [-88.96619, 28.11784], [-88.98302, 28.13762], [-88.9991, 28.15813], [-89.01476, 28.17909], [-89.03026, 28.20019], [-89.05382, 28.23155], [-89.06201, 28.24166], [-89.07883, 28.26144], [-89.10502, 28.29016], [-89.11394, 28.29954], [-89.13163, 28.31844], [-89.15767, 28.34731], [-89.17406, 28.36753], [-89.18196, 28.37794], [-89.19762, 28.39889], [-89.22087, 28.43054], [-89.22862, 28.4411], [-89.24428, 28.46205], [-89.26022, 28.48271], [-89.27617, 28.50337], [-89.29182, 28.52433], [-89.30733, 28.54543], [-89.33059, 28.57708], [-89.33835, 28.58763], [-89.35399, 28.60859], [-89.36993, 28.62925], [-89.38588, 28.64991], [-89.40154, 28.67086], [-89.42479, 28.70251], [-89.4403, 28.72361], [-89.45581, 28.74471], [-89.4716, 28.76552], [-89.47965, 28.77578], [-89.49559, 28.79644], [-89.51125, 28.81739], [-89.52661, 28.83864], [-89.54168, 28.86018], [-89.56377, 28.89301], [-89.57108, 28.904], [-89.59302, 28.93697], [-89.60033, 28.94796], [-89.61497, 28.96994], [-89.62959, 28.99192], [-89.65154, 29.02489], [-89.66617, 29.04687], [-89.67348, 29.05786], [-89.68811, 29.07984], [-89.71005, 29.11281], [-89.71722, 29.12395], [-89.73141, 29.14637], [-89.7453, 29.16908], [-89.76564, 29.20366], [-89.77222, 29.21539], [-89.78552, 29.23869], [-89.79913, 29.26169], [-89.81303, 29.2844], [-89.82708, 29.30697], [-89.84814, 29.34082], [-89.85501, 29.35225], [-89.86848, 29.3754], [-89.8812, 29.39929], [-89.89334, 29.42376], [-89.90504, 29.44867], [-89.91602, 29.47431], [-89.92641, 29.50054], [-89.93167, 29.51358], [-89.95229, 29.56619], [-89.95741, 29.57938], [-89.96796, 29.60546], [-89.98419, 29.64415], [-89.98931, 29.65734], [-89.9994, 29.68386], [-90.00935, 29.71053], [-90.01901, 29.73749], [-90.02822, 29.76489], [-90.03729, 29.79244], [-90.04651, 29.81984], [-90.05573, 29.84724], [-90.06479, 29.87479], [-90.07387, 29.90234], [-90.08293, 29.92989], [-90.09171, 29.95773], [-90.10004, 29.98602], [-90.10809, 30.01459], [-90.11584, 30.04346], [-90.12331, 30.07261], [-90.13048, 30.10207], [-90.13734, 30.13181], [-90.14392, 30.16185], [-90.15022, 30.19219], [-90.15622, 30.22281], [-90.16222, 30.25344], [-90.16528, 30.26868], [-90.1713, 30.2993], [-90.17992, 30.34561], [-90.18474, 30.37741], [-90.1884, 30.41038], [-90.19073, 30.44467], [-90.19205, 30.47998], [-90.19264, 30.51603], [-90.19279, 30.55252], [-90.19279, 30.58915], [-90.19264, 30.62564], [-90.19205, 30.66169], [-90.19073, 30.697], [-90.1884, 30.73129], [-90.18474, 30.76426], [-90.17976, 30.79591], [-90.17377, 30.82654], [-90.16705, 30.85643], [-90.15973, 30.88574], [-90.15183, 30.91446], [-90.14335, 30.94259], [-90.13414, 30.97], [-90.12389, 30.99637], [-90.11278, 31.02187], [-90.10136, 31.04707], [-90.08981, 31.07213], [-90.07825, 31.09719], [-90.06728, 31.12283], [-90.05689, 31.14906], [-90.04651, 31.17529], [-90.03596, 31.20137], [-90.02515, 31.22716], [-90.01345, 31.25208], [-90.00731, 31.26424], [-89.99414, 31.28768], [-89.98039, 31.31054], [-89.95932, 31.34439], [-89.94542, 31.3671], [-89.93854, 31.37853], [-89.9185, 31.41341], [-89.9052, 31.43671], [-89.89159, 31.45972], [-89.87769, 31.48243], [-89.87067, 31.49371], [-89.85634, 31.51599], [-89.84171, 31.53796], [-89.82707, 31.55995], [-89.81245, 31.58192], [-89.79782, 31.60391], [-89.78319, 31.62589], [-89.76857, 31.64787], [-89.74662, 31.68084], [-89.7393, 31.69183], [-89.72469, 31.71381], [-89.70274, 31.74678], [-89.69542, 31.75777], [-89.6808, 31.77975], [-89.65885, 31.81272], [-89.65154, 31.82371], [-89.63692, 31.84569], [-89.62228, 31.86767], [-89.60736, 31.88936], [-89.59215, 31.91075], [-89.57664, 31.93185], [-89.56084, 31.95266], [-89.54475, 31.97318], [-89.52895, 31.99398], [-89.51344, 32.01508], [-89.49077, 32.04732], [-89.48331, 32.05817], [-89.46867, 32.08015], [-89.45406, 32.10213], [-89.43942, 32.1241], [-89.42479, 32.14608], [-89.41017, 32.16806], [-89.39554, 32.19004], [-89.38091, 32.21202], [-89.35896, 32.245], [-89.35165, 32.25599], [-89.33702, 32.27797], [-89.31508, 32.31094], [-89.30777, 32.32193], [-89.29314, 32.34391], [-89.27119, 32.37688], [-89.26388, 32.38787], [-89.24925, 32.40985], [-89.23462, 32.43183], [-89.21268, 32.4648], [-89.20536, 32.47579], [-89.18343, 32.50876], [-89.1761, 32.51975], [-89.16148, 32.54173], [-89.14686, 32.56371], [-89.13194, 32.5854], [-89.11672, 32.60679], [-89.10092, 32.6276], [-89.08453, 32.64782], [-89.06728, 32.66716], [-89.04971, 32.68621], [-89.03159, 32.70468], [-89.01344, 32.72314], [-88.99501, 32.74131], [-88.97658, 32.75948], [-88.95757, 32.77707], [-88.93826, 32.79436], [-88.91807, 32.81077], [-88.89729, 32.82659], [-88.87623, 32.84213], [-88.85516, 32.85766], [-88.83409, 32.87319], [-88.81332, 32.88902], [-88.79285, 32.90514], [-88.77177, 32.92067], [-88.74983, 32.93532], [-88.72701, 32.9491], [-88.71501, 32.9554], [-88.69029, 32.96727], [-88.65153, 32.98338], [-88.63851, 32.98866], [-88.61232, 32.99907], [-88.57283, 33.01445], [-88.55996, 33.01987], [-88.53421, 33.03072], [-88.50817, 33.04127], [-88.46867, 33.05666], [-88.45566, 33.06193], [-88.42947, 33.07233], [-88.40329, 33.08274], [-88.37769, 33.09373], [-88.34024, 33.11116], [-88.31508, 33.1226], [-88.30264, 33.12846], [-88.27763, 33.14003], [-88.25203, 33.15102], [-88.22585, 33.16143], [-88.19965, 33.17183], [-88.1603, 33.18736], [-88.14714, 33.19249], [-88.10823, 33.20847], [-88.08248, 33.21931], [-88.06932, 33.22444], [-88.04298, 33.2347], [-88.00378, 33.25037], [-87.99062, 33.2555], [-87.96443, 33.26591], [-87.92625, 33.28261], [-87.91382, 33.28847], [-87.8888, 33.30005], [-87.86378, 33.31162], [-87.83878, 33.3232], [-87.81317, 33.33419], [-87.78699, 33.3446], [-87.7608, 33.355], [-87.72145, 33.37053], [-87.70828, 33.37566], [-87.68225, 33.38621], [-87.65649, 33.39705], [-87.6173, 33.41273], [-87.59097, 33.42299], [-87.57795, 33.42827], [-87.55177, 33.43867], [-87.52544, 33.44893], [-87.49939, 33.45948], [-87.47365, 33.47032], [-87.44761, 33.48087], [-87.40811, 33.49626], [-87.39509, 33.50153], [-87.3689, 33.51194], [-87.34258, 33.5222], [-87.31653, 33.53275], [-87.29079, 33.54359], [-87.26476, 33.55414], [-87.22525, 33.56953], [-87.19921, 33.58008], [-87.18605, 33.58521], [-87.15972, 33.59546], [-87.1208, 33.61143], [-87.10793, 33.61686], [-87.08189, 33.62741], [-87.0421, 33.6425], [-87.02879, 33.64748], [-86.98827, 33.66184], [-86.96077, 33.67093], [-86.94717, 33.67561], [-86.90694, 33.69027], [-86.89363, 33.69526], [-86.85399, 33.71049], [-86.84111, 33.71592], [-86.80249, 33.73218], [-86.78933, 33.73731], [-86.74954, 33.7524], [-86.73622, 33.75739], [-86.69571, 33.77174], [-86.68195, 33.77629], [-86.6407, 33.78992], [-86.62709, 33.7946], [-86.59973, 33.80384], [-86.57224, 33.81292], [-86.54488, 33.82215], [-86.50465, 33.83681], [-86.47803, 33.84677], [-86.46487, 33.8519], [-86.42595, 33.86787], [-86.40021, 33.87872], [-86.37388, 33.88897], [-86.36057, 33.89396], [-86.33394, 33.90392], [-86.30702, 33.91359], [-86.27966, 33.92282], [-86.25217, 33.93191], [-86.22481, 33.94114], [-86.19745, 33.95037], [-86.1562, 33.964], [-86.14246, 33.96854], [-86.1151, 33.97777], [-86.08774, 33.98701], [-86.04649, 34.00063], [-86.03273, 34.00518], [-86.00538, 34.0144], [-85.97803, 34.02364], [-85.95053, 34.03272], [-85.92303, 34.04181], [-85.88206, 34.05573], [-85.86832, 34.06027], [-85.84082, 34.06936], [-85.81331, 34.07844], [-85.78596, 34.08767], [-85.75861, 34.09691], [-85.71735, 34.11053], [-85.7036, 34.11507], [-85.67609, 34.12416], [-85.6483, 34.13296], [-85.62007, 34.14131], [-85.59154, 34.14936], [-85.56272, 34.15713], [-85.51927, 34.16856], [-85.50494, 34.17252], [-85.47642, 34.18058], [-85.44818, 34.18893], [-85.42024, 34.19758], [-85.3923, 34.20622], [-85.36407, 34.21458], [-85.33554, 34.22263], [-85.30673, 34.2304], [-85.27777, 34.23802], [-85.24895, 34.24578], [-85.22041, 34.25385], [-85.19218, 34.2622], [-85.15034, 34.27524], [-85.13631, 34.27949], [-85.10807, 34.28784], [-85.07954, 34.2959], [-85.05072, 34.30367], [-85.00699, 34.3148], [-84.99236, 34.31847], [-84.9631, 34.32579], [-84.93385, 34.33312], [-84.90459, 34.34045], [-84.8607, 34.35144], [-84.84593, 34.35496], [-84.81624, 34.36184], [-84.78624, 34.36843], [-84.75597, 34.37473], [-84.72539, 34.38074], [-84.69482, 34.38675], [-84.6644, 34.39291], [-84.63382, 34.39892], [-84.60281, 34.40449], [-84.57121, 34.40947], [-84.53888, 34.41372], [-84.50597, 34.41738], [-84.47305, 34.42104], [-84.44072, 34.42529], [-84.40912, 34.43027], [-84.37796, 34.4357], [-84.3468, 34.44112], [-84.33072, 34.44332], [-84.28215, 34.44962], [-84.24806, 34.45211], [-84.21339, 34.45401], [-84.17871, 34.45592], [-84.14464, 34.4584], [-84.11173, 34.46207], [-84.07999, 34.46691], [-84.04883, 34.47233], [-84.03317, 34.47497], [-83.98592, 34.48259], [-83.95301, 34.48625], [-83.91878, 34.48859], [-83.88351, 34.48991], [-83.84753, 34.4905], [-83.81111, 34.49065], [-83.77453, 34.49065], [-83.73811, 34.49079], [-83.70212, 34.49138], [-83.66687, 34.4927], [-83.63264, 34.49504], [-83.59972, 34.4987], [-83.56799, 34.50354], [-83.53682, 34.50896], [-83.50567, 34.51439], [-83.47392, 34.51922], [-83.44101, 34.52288], [-83.40678, 34.52523], [-83.37152, 34.52655], [-83.33553, 34.52714], [-83.29911, 34.52728], [-83.26254, 34.52728], [-83.22597, 34.52728], [-83.18939, 34.52728], [-83.15282, 34.52728], [-83.11626, 34.52728], [-83.07969, 34.52728], [-83.04311, 34.52728], [-83.00655, 34.52728], [-82.96996, 34.52728], [-82.9334, 34.52728], [-82.89683, 34.52728], [-82.86025, 34.52728], [-82.82368, 34.52728], [-82.78711, 34.52728], [-82.75054, 34.52728], [-82.71397, 34.52728], [-82.67741, 34.52728], [-82.64083, 34.52728], [-82.60426, 34.52728], [-82.56768, 34.52728], [-82.53111, 34.52728], [-82.49454, 34.52728], [-82.45797, 34.52728], [-82.4214, 34.52728], [-82.38483, 34.52728], [-82.34826, 34.52728], [-82.31169, 34.52728], [-82.27512, 34.52728], [-82.23855, 34.52728], [-82.20198, 34.52728], [-82.1654, 34.52728], [-82.12883, 34.52728], [-82.09226, 34.52728], [-82.05569, 34.52728], [-82.01912, 34.52728], [-81.98254, 34.52728], [-81.94598, 34.52728], [-81.90941, 34.52728], [-81.87284, 34.52728], [-81.83627, 34.52728], [-81.7997, 34.52728], [-81.76311, 34.52728], [-81.72655, 34.52728], [-81.68998, 34.52728], [-81.6534, 34.52728], [-81.61684, 34.52728], [-81.58025, 34.52728], [-81.54369, 34.52728], [-81.50712, 34.52728], [-81.47054, 34.52728], [-81.43398, 34.52728], [-81.3974, 34.52728], [-81.36083, 34.52728], [-81.32426, 34.52728], [-81.28784, 34.52743], [-81.25186, 34.52802], [-81.2166, 34.52934], [-81.18236, 34.53168], [-81.14946, 34.53534], [-81.11772, 34.54018], [-81.10221, 34.54296], [-81.0554, 34.55102], [-81.02365, 34.55585], [-80.99074, 34.55952], [-80.95651, 34.56186], [-80.92125, 34.56318], [-80.88527, 34.56377], [-80.84884, 34.56391], [-80.81227, 34.56391], [-80.77569, 34.56391], [-80.73912, 34.56391], [-80.70255, 34.56391], [-80.66598, 34.56391], [-80.62941, 34.56391], [-80.59283, 34.56391], [-80.55627, 34.56391], [-80.5197, 34.56391], [-80.48313, 34.56391], [-80.44656, 34.56391], [-80.40999, 34.56391], [-80.37341, 34.56391], [-80.33684, 34.56391], [-80.30027, 34.56391], [-80.26369, 34.56391], [-80.22713, 34.56391], [-80.19055, 34.56391], [-80.15398, 34.56391], [-80.11742, 34.56391], [-80.08085, 34.56391], [-80.04427, 34.56391], [-80.00771, 34.56391], [-79.97112, 34.56391], [-79.93456, 34.56391], [-79.89799, 34.56391], [-79.86141, 34.56391], [-79.82484, 34.56391], [-79.78841, 34.56406], [-79.75244, 34.56464], [-79.71718, 34.56596], [-79.68295, 34.56831], [-79.65004, 34.57198], [-79.61829, 34.57681], [-79.58713, 34.58223], [-79.55598, 34.58765], [-79.52423, 34.59249], [-79.49132, 34.59615], [-79.45708, 34.5985], [-79.42197, 34.59996], [-79.38657, 34.60114], [-79.35146, 34.6026], [-79.31724, 34.60494], [-79.30115, 34.60714], [-79.25258, 34.61344], [-79.22142, 34.61887], [-79.19041, 34.62444], [-79.15924, 34.62986], [-79.12766, 34.63483], [-79.09576, 34.63953], [-79.06416, 34.64451], [-79.033, 34.64993], [-79.00214, 34.65565], [-78.97157, 34.66165], [-78.94114, 34.66781], [-78.91057, 34.67381], [-78.87999, 34.67982], [-78.84956, 34.68597], [-78.81913, 34.69213], [-78.7887, 34.69828], [-78.75828, 34.70444], [-78.72771, 34.71045], [-78.69728, 34.7166], [-78.66744, 34.72334], [-78.63818, 34.73067], [-78.59532, 34.74268], [-78.56753, 34.75148], [-78.55348, 34.75573], [-78.52525, 34.76408], [-78.49672, 34.77214], [-78.4679, 34.7799], [-78.43893, 34.78753], [-78.41013, 34.79529], [-78.36741, 34.80745], [-78.35336, 34.8117], [-78.31181, 34.82504], [-78.29807, 34.82958], [-78.27057, 34.83867], [-78.24321, 34.8479], [-78.21629, 34.85757], [-78.17636, 34.87251], [-78.1632, 34.87764], [-78.13716, 34.8882], [-78.11141, 34.89904], [-78.08537, 34.90959], [-78.05904, 34.91985], [-78.03285, 34.93025], [-78.00667, 34.94065], [-77.98048, 34.95106], [-77.94231, 34.96776], [-77.92987, 34.97363], [-77.89256, 34.99121], [-77.88042, 34.99736], [-77.844, 35.01582], [-77.81943, 35.02784], [-77.79514, 35.04015], [-77.783, 35.0463], [-77.75857, 35.05847], [-77.73413, 35.07063], [-77.69771, 35.0891], [-77.67314, 35.10111], [-77.64885, 35.11342], [-77.63672, 35.11958], [-77.61229, 35.13174], [-77.58785, 35.1439], [-77.55144, 35.16236], [-77.53915, 35.16837], [-77.51471, 35.18053], [-77.47859, 35.19929], [-77.46659, 35.20559], [-77.43118, 35.22508], [-77.40837, 35.23885], [-77.38583, 35.25292], [-77.3636, 35.26728], [-77.34166, 35.28194], [-77.31972, 35.29659], [-77.29778, 35.31124], [-77.27583, 35.3259], [-77.25389, 35.34055], [-77.23195, 35.3552], [-77.21001, 35.36986], [-77.18806, 35.38451], [-77.16612, 35.39916], [-77.14418, 35.41382], [-77.12224, 35.42847], [-77.10059, 35.44342], [-77.07922, 35.45866], [-77.05816, 35.47419], [-77.03739, 35.49002], [-77.01691, 35.50613], [-76.99613, 35.52196], [-76.97507, 35.53749], [-76.954, 35.55302], [-76.93294, 35.56856], [-76.91217, 35.58438], [-76.89198, 35.6008], [-76.87267, 35.61809], [-76.85365, 35.63567], [-76.83522, 35.65384], [-76.81679, 35.67201], [-76.79865, 35.69048], [-76.78022, 35.70864], [-76.76208, 35.7271], [-76.74365, 35.74528], [-76.72551, 35.76374], [-76.70708, 35.78191], [-76.68893, 35.80038], [-76.6705, 35.81855], [-76.65236, 35.83701], [-76.63393, 35.85518], [-76.6158, 35.87364], [-76.59737, 35.89182], [-76.57922, 35.91028], [-76.56079, 35.92845], [-76.54265, 35.94691], [-76.51515, 35.97431], [-76.50608, 35.98354], [-76.48765, 36.00172], [-76.46951, 36.02018], [-76.45108, 36.03835], [-76.42387, 36.06604], [-76.41481, 36.07527], [-76.39725, 36.09433], [-76.3718, 36.12378], [-76.3636, 36.13389], [-76.3478, 36.1547], [-76.33229, 36.1758], [-76.31679, 36.1969], [-76.30128, 36.218], [-76.28548, 36.23881], [-76.26939, 36.25932], [-76.24583, 36.29068], [-76.23808, 36.30124], [-76.22287, 36.32263], [-76.20795, 36.34431], [-76.18614, 36.37743], [-76.17899, 36.38857], [-76.16494, 36.41113], [-76.14446, 36.44557], [-76.13115, 36.46887], [-76.12457, 36.48059], [-76.10423, 36.51517], [-76.09736, 36.5266], [-76.07629, 36.56046], [-76.06927, 36.57174], [-76.05522, 36.5943], [-76.0349, 36.62888], [-76.02202, 36.65263], [-76.00945, 36.67666], [-75.99701, 36.70084], [-75.98486, 36.7253], [-75.97272, 36.74977], [-75.96044, 36.7741], [-75.94844, 36.79872], [-75.93674, 36.82363], [-75.92519, 36.84869], [-75.91421, 36.87433], [-75.90382, 36.90056], [-75.89344, 36.92679], [-75.88305, 36.95302], [-75.87282, 36.97939], [-75.86228, 37.00548], [-75.85146, 37.03127], [-75.84093, 37.05735], [-75.83083, 37.08388], [-75.82102, 37.11069], [-75.81181, 37.1381], [-75.80333, 37.16623], [-75.79529, 37.1948], [-75.78753, 37.22367], [-75.78008, 37.25283], [-75.7729, 37.28229], [-75.76602, 37.31203], [-75.75945, 37.34207], [-75.75316, 37.37241], [-75.74715, 37.40303], [-75.74116, 37.43365], [-75.73501, 37.46414], [-75.72902, 37.49476], [-75.72345, 37.52583], [-75.71848, 37.55748], [-75.71423, 37.58986], [-75.71059, 37.62283], [-75.70692, 37.6558], [-75.70268, 37.68819], [-75.69771, 37.71984], [-75.69229, 37.75105], [-75.68689, 37.78226], [-75.68205, 37.81406], [-75.6784, 37.84703], [-75.67606, 37.88132], [-75.67474, 37.91663], [-75.67415, 37.95268], [-75.67401, 37.98917], [-75.67415, 38.02566], [-75.67474, 38.06171], [-75.67606, 38.09702], [-75.67839, 38.13131], [-75.68205, 38.16428], [-75.68689, 38.19608], [-75.69229, 38.22729], [-75.69771, 38.2585], [-75.70268, 38.29015], [-75.70692, 38.32254], [-75.71058, 38.35551], [-75.71423, 38.38848], [-75.71848, 38.42086], [-75.7236, 38.45237], [-75.7296, 38.48299], [-75.73632, 38.51288], [-75.74349, 38.54234], [-75.75081, 38.57165], [-75.75813, 38.60095], [-75.76543, 38.63026], [-75.77275, 38.65957], [-75.78006, 38.68887], [-75.78752, 38.71803], [-75.79529, 38.7469], [-75.80333, 38.77547], [-75.81181, 38.80361], [-75.82103, 38.83102], [-75.83083, 38.85783], [-75.84106, 38.8842], [-75.85204, 38.90985], [-75.8636, 38.93491], [-75.86931, 38.94751], [-75.88671, 38.98502], [-75.89827, 39.01008], [-75.90924, 39.03572], [-75.91963, 39.06195], [-75.93002, 39.08818], [-75.93513, 39.10137], [-75.95079, 39.14064], [-75.96175, 39.16629], [-75.97346, 39.1912], [-75.9796, 39.20336], [-75.99832, 39.23955], [-76.01178, 39.2627], [-76.02568, 39.28542], [-76.03973, 39.30798], [-76.05377, 39.33055], [-76.06767, 39.35326], [-76.08127, 39.37627], [-76.09459, 39.39957], [-76.10803, 39.42272], [-76.12209, 39.44529], [-76.1367, 39.46727], [-76.15192, 39.48866], [-76.16771, 39.50947], [-76.18367, 39.53013], [-76.19932, 39.55109], [-76.21482, 39.57219], [-76.23033, 39.59328], [-76.24583, 39.61439], [-76.26149, 39.63535], [-76.27744, 39.65601], [-76.30128, 39.68707], [-76.30904, 39.69762], [-76.32455, 39.71873], [-76.34005, 39.73983], [-76.3557, 39.76078], [-76.3718, 39.7813], [-76.38861, 39.80108], [-76.40602, 39.82027], [-76.43294, 39.84826], [-76.442, 39.85749], [-76.46951, 39.8849], [-76.48765, 39.90336], [-76.50608, 39.92152], [-76.51515, 39.93076], [-76.54265, 39.95816], [-76.55173, 39.96739], [-76.57001, 39.98571], [-76.58829, 40.00403], [-76.60658, 40.02235], [-76.63393, 40.04989], [-76.64314, 40.05898], [-76.6705, 40.08652], [-76.67972, 40.09561], [-76.69815, 40.11378], [-76.72638, 40.14045], [-76.74569, 40.15775], [-76.76588, 40.17415], [-76.77628, 40.18207], [-76.79718, 40.19775], [-76.81825, 40.21328], [-76.84985, 40.23658], [-76.86023, 40.24449], [-76.8911, 40.26852], [-76.91188, 40.28435], [-76.93294, 40.29988], [-76.94347, 40.30765], [-76.97507, 40.33095], [-76.99613, 40.34648], [-77.00652, 40.35439], [-77.02715, 40.37037], [-77.04778, 40.38634], [-77.07922, 40.40978], [-77.10059, 40.42503], [-77.12223, 40.43997], [-77.14417, 40.45462], [-77.15529, 40.4618], [-77.17767, 40.47601], [-77.20035, 40.48994], [-77.23487, 40.5103], [-77.25828, 40.52349], [-77.26984, 40.53024], [-77.2928, 40.54386], [-77.32674, 40.56482], [-77.34927, 40.57888], [-77.36053, 40.58591], [-77.39462, 40.60673], [-77.41802, 40.61991], [-77.44202, 40.63251], [-77.45401, 40.63882], [-77.49028, 40.65742], [-77.51485, 40.66944], [-77.527, 40.6756], [-77.55128, 40.6879], [-77.588, 40.70607], [-77.60014, 40.71223], [-77.63657, 40.73069], [-77.66115, 40.74271], [-77.68542, 40.75502], [-77.70971, 40.76733], [-77.73457, 40.77905], [-77.77203, 40.79649], [-77.78461, 40.8022], [-77.82381, 40.81789], [-77.83698, 40.82301], [-77.86301, 40.83356], [-77.88934, 40.84382], [-77.91568, 40.85408], [-77.94143, 40.86492], [-77.96718, 40.87576], [-77.99351, 40.88602], [-78.02013, 40.89599], [-78.04675, 40.90595], [-78.07396, 40.91533], [-78.10146, 40.92442], [-78.12897, 40.9335], [-78.16992, 40.94742], [-78.18368, 40.95196], [-78.21118, 40.96104], [-78.23868, 40.97013], [-78.28023, 40.98347], [-78.29427, 40.98772], [-78.33698, 40.99988], [-78.35132, 41.00383], [-78.39476, 41.01526], [-78.42358, 41.02303], [-78.43791, 41.02699], [-78.48035, 41.03944], [-78.49439, 41.04369], [-78.53637, 41.05659], [-78.55056, 41.06069], [-78.57953, 41.06831], [-78.60907, 41.07535], [-78.65456, 41.08472], [-78.68513, 41.09073], [-78.71556, 41.09689], [-78.73077, 41.09996], [-78.77642, 41.1092], [-78.79163, 41.11227], [-78.83742, 41.12136], [-78.85278, 41.12429], [-78.89842, 41.13352], [-78.929, 41.13953], [-78.95985, 41.14524], [-78.97537, 41.14803], [-79.02262, 41.15565], [-79.0545, 41.16034], [-79.08611, 41.16532], [-79.11726, 41.17074], [-79.14828, 41.17631], [-79.17944, 41.18173], [-79.21118, 41.18657], [-79.24409, 41.19023], [-79.27834, 41.19257], [-79.31344, 41.19403], [-79.34884, 41.19521], [-79.38394, 41.19668], [-79.41817, 41.19902], [-79.45109, 41.20268], [-79.48283, 41.20752], [-79.51399, 41.21294], [-79.54515, 41.21836], [-79.57689, 41.2232], [-79.60981, 41.22686], [-79.64404, 41.2292], [-79.66145, 41.23008], [-79.71529, 41.23111], [-79.75171, 41.23126], [-79.78828, 41.23126], [-79.82484, 41.23126], [-79.86141, 41.23126], [-79.89799, 41.23126], [-79.93456, 41.23126], [-79.97114, 41.23126], [-80.00771, 41.23126], [-80.04427, 41.23126], [-80.08085, 41.23126], [-80.11727, 41.23111], [-80.15326, 41.23053], [-80.18851, 41.22921], [-80.22274, 41.22686], [-80.25565, 41.2232], [-80.2874, 41.21836], [-80.31856, 41.21294], [-80.34972, 41.20752], [-80.38145, 41.20268], [-80.41438, 41.19902], [-80.44846, 41.19653], [-80.48313, 41.19462], [-80.51779, 41.19272], [-80.5519, 41.19023], [-80.58479, 41.18657], [-80.60045, 41.18393], [-80.6477, 41.17631], [-80.67871, 41.17074], [-80.70987, 41.16532], [-80.74147, 41.16034], [-80.77336, 41.15565], [-80.80496, 41.15067], [-80.83611, 41.14524], [-80.86713, 41.13967], [-80.89813, 41.13411], [-80.92929, 41.12868], [-80.96089, 41.1237], [-80.99278, 41.11901], [-81.02438, 41.11403], [-81.05539, 41.10846], [-81.08582, 41.10231], [-81.11567, 41.09557], [-81.14507, 41.08839], [-81.17432, 41.08106], [-81.20358, 41.07373], [-81.23283, 41.06641], [-81.26209, 41.05908], [-81.29135, 41.05175], [-81.32047, 41.04428], [-81.34927, 41.03651], [-81.37781, 41.02845], [-81.40604, 41.0201], [-81.44759, 41.00677], [-81.46133, 41.00222], [-81.50259, 40.9886], [-81.51634, 40.98405], [-81.5437, 40.97482], [-81.57104, 40.96559], [-81.59856, 40.9565], [-81.62605, 40.94742], [-81.65341, 40.93819], [-81.68076, 40.92896], [-81.72202, 40.91533], [-81.73562, 40.91064], [-81.76253, 40.90097], [-81.78916, 40.891], [-81.81564, 40.88089], [-81.84167, 40.87035], [-81.88029, 40.85408], [-81.90663, 40.84382], [-81.91994, 40.83884], [-81.94656, 40.82887], [-81.97348, 40.8192], [-82.00084, 40.80997], [-82.04208, 40.79634], [-82.05569, 40.79165], [-82.08305, 40.78242], [-82.11055, 40.77334], [-82.13791, 40.7641], [-82.16483, 40.75443], [-82.19145, 40.74447], [-82.21793, 40.73436], [-82.24396, 40.72381], [-82.26971, 40.71297], [-82.29575, 40.70241], [-82.32222, 40.6923], [-82.34885, 40.68234], [-82.37576, 40.67266], [-82.40312, 40.66344], [-82.43062, 40.65435], [-82.47157, 40.64043], [-82.48533, 40.63589], [-82.52659, 40.62226], [-82.54034, 40.61771], [-82.56769, 40.60848], [-82.59505, 40.59925], [-82.62255, 40.59016], [-82.6638, 40.57654], [-82.67741, 40.57185], [-82.70476, 40.56262], [-82.73225, 40.55354], [-82.77351, 40.5399], [-82.78711, 40.53522], [-82.81447, 40.52599], [-82.84198, 40.5169], [-82.86948, 40.50782], [-82.89683, 40.49858], [-82.92419, 40.48935], [-82.95169, 40.48026], [-82.97919, 40.47118], [-83.02014, 40.45726], [-83.0339, 40.45272], [-83.0614, 40.44363], [-83.0889, 40.43455], [-83.11626, 40.42532], [-83.15736, 40.41154], [-83.17111, 40.407], [-83.19861, 40.39791], [-83.23958, 40.38399], [-83.25333, 40.37945], [-83.28082, 40.37037], [-83.30833, 40.36128], [-83.33569, 40.35205], [-83.36304, 40.34282], [-83.39054, 40.33373], [-83.43179, 40.32011], [-83.4454, 40.31541], [-83.47275, 40.30618], [-83.50024, 40.2971], [-83.5415, 40.28347], [-83.56871, 40.27409], [-83.58246, 40.26955], [-83.60997, 40.26046], [-83.63747, 40.25138], [-83.66483, 40.24215], [-83.69218, 40.23292], [-83.71968, 40.22383], [-83.74719, 40.21474], [-83.78815, 40.20082], [-83.8019, 40.19628], [-83.82941, 40.18719], [-83.87065, 40.17357], [-83.88425, 40.16888], [-83.91161, 40.15965], [-83.93911, 40.15056], [-83.96661, 40.14148], [-84.00757, 40.12756], [-84.02132, 40.12301], [-84.04883, 40.11393], [-84.07632, 40.10484], [-84.10368, 40.09561], [-84.13104, 40.08638], [-84.15854, 40.07729], [-84.19978, 40.06367], [-84.21339, 40.05898], [-84.24075, 40.04974], [-84.26825, 40.04066], [-84.29576, 40.03158], [-84.32311, 40.02235], [-84.35046, 40.01311], [-84.37797, 40.00403], [-84.40547, 39.99494], [-84.44643, 39.98102], [-84.46017, 39.97648], [-84.48767, 39.96739], [-84.52864, 39.95347], [-84.54195, 39.94849], [-84.56857, 39.93853], [-84.60822, 39.92329], [-84.62109, 39.91786], [-84.64684, 39.90702], [-84.67287, 39.89647], [-84.69936, 39.88636], [-84.7393, 39.87141], [-84.7529, 39.86672], [-84.78025, 39.85749], [-84.82121, 39.84357], [-84.83452, 39.83859], [-84.86115, 39.82862], [-84.88762, 39.81851], [-84.92654, 39.80254], [-84.93941, 39.79712], [-84.96545, 39.78657], [-85.00523, 39.77148], [-85.01854, 39.76649], [-85.04547, 39.75682], [-85.07281, 39.74759], [-85.10017, 39.73836], [-85.12709, 39.72869], [-85.15372, 39.71872], [-85.18019, 39.70861], [-85.20624, 39.69806], [-85.23198, 39.68722], [-85.25802, 39.67667], [-85.28435, 39.66641], [-85.32355, 39.65073], [-85.33672, 39.6456], [-85.36304, 39.63535], [-85.40196, 39.61937], [-85.41483, 39.61395], [-85.44087, 39.6034], [-85.4672, 39.59314], [-85.49339, 39.58274], [-85.51958, 39.57233], [-85.54576, 39.56193], [-85.58394, 39.54523], [-85.60881, 39.5335], [-85.62139, 39.52779], [-85.64641, 39.51621], [-85.67142, 39.50463], [-85.69701, 39.49364], [-85.7232, 39.48324], [-85.76241, 39.46756], [-85.77557, 39.46243], [-85.80176, 39.45203], [-85.83994, 39.43533], [-85.85237, 39.42946], [-85.88997, 39.41217], [-85.9024, 39.40631], [-85.92741, 39.39474], [-85.95302, 39.38374], [-85.9792, 39.37334], [-86.00539, 39.36294], [-86.03157, 39.35253], [-86.05775, 39.34212], [-86.08335, 39.33114], [-86.1208, 39.3137], [-86.13324, 39.30784], [-86.16995, 39.28967], [-86.1821, 39.28352], [-86.21881, 39.26534], [-86.2431, 39.25304], [-86.25524, 39.24688], [-86.27966, 39.23472], [-86.31625, 39.2164], [-86.34052, 39.20409], [-86.35281, 39.19808], [-86.38939, 39.17977], [-86.41367, 39.16746], [-86.42596, 39.16145], [-86.45039, 39.14929], [-86.47467, 39.13698], [-86.49909, 39.12482], [-86.52353, 39.11266], [-86.55994, 39.09419], [-86.57224, 39.08818], [-86.60881, 39.06987], [-86.63309, 39.05756], [-86.64539, 39.05155], [-86.66981, 39.03939], [-86.69409, 39.02708], [-86.71852, 39.01492], [-86.7551, 38.9966], [-86.76724, 38.99044], [-86.80396, 38.97227], [-86.82824, 38.95996], [-86.84039, 38.95381], [-86.86481, 38.94165], [-86.90138, 38.92333], [-86.92537, 38.91073], [-86.93736, 38.90443], [-86.97276, 38.88493], [-86.99559, 38.87116], [-87.01811, 38.85709], [-87.04065, 38.84303], [-87.06317, 38.82896], [-87.07458, 38.82207], [-87.0977, 38.80859], [-87.13338, 38.7894], [-87.15738, 38.77679], [-87.16953, 38.77065], [-87.19395, 38.75848], [-87.21838, 38.74632], [-87.24252, 38.73386], [-87.2665, 38.72126], [-87.29021, 38.70836], [-87.31332, 38.69488], [-87.34726, 38.67393], [-87.36978, 38.65986], [-87.39232, 38.64579], [-87.40372, 38.63891], [-87.42669, 38.62528], [-87.46165, 38.60535], [-87.48477, 38.59187], [-87.49618, 38.58498], [-87.53011, 38.56403], [-87.55264, 38.54996], [-87.57517, 38.5359], [-87.59799, 38.52212], [-87.6211, 38.50864], [-87.6328, 38.50204], [-87.65607, 38.48871], [-87.69044, 38.46819], [-87.71297, 38.45412], [-87.7355, 38.44006], [-87.75803, 38.42599], [-87.76944, 38.41911], [-87.7924, 38.40548], [-87.81567, 38.39214], [-87.85048, 38.37207], [-87.87331, 38.35829], [-87.89583, 38.34422], [-87.91806, 38.32986], [-87.94, 38.31521], [-87.96194, 38.30056], [-87.98389, 38.2859], [-88.00583, 38.27125], [-88.02777, 38.2566], [-88.04971, 38.24194], [-88.07166, 38.22729], [-88.09361, 38.21264], [-88.11555, 38.19798], [-88.13749, 38.18333], [-88.15943, 38.16867], [-88.18137, 38.15402], [-88.20332, 38.13937], [-88.22526, 38.12471], [-88.2472, 38.11006], [-88.26915, 38.09541], [-88.29108, 38.08075], [-88.31303, 38.0661], [-88.33497, 38.05145], [-88.35692, 38.03679], [-88.37886, 38.02214], [-88.4008, 38.00748], [-88.42274, 37.99283], [-88.44469, 37.97818], [-88.46663, 37.96352], [-88.48857, 37.94887], [-88.51052, 37.93422], [-88.53246, 37.91956], [-88.5544, 37.90491], [-88.57634, 37.89026], [-88.59828, 37.8756], [-88.62022, 37.86095], [-88.64217, 37.8463], [-88.66411, 37.83164], [-88.68605, 37.81699], [-88.70799, 37.80234], [-88.72965, 37.78739], [-88.75101, 37.77215], [-88.77206, 37.75662], [-88.79285, 37.7408], [-88.81332, 37.72467], [-88.83409, 37.70885], [-88.85516, 37.69331], [-88.87653, 37.67808], [-88.89817, 37.66313], [-88.92011, 37.64848], [-88.94205, 37.63382], [-88.964, 37.61917], [-88.98564, 37.60422], [-89.007, 37.58898], [-89.02807, 37.57345], [-89.04884, 37.55762], [-89.06932, 37.5415], [-89.0901, 37.52568], [-89.11116, 37.51015], [-89.13223, 37.49461], [-89.15329, 37.47908], [-89.17435, 37.46355], [-89.19513, 37.44772], [-89.21561, 37.4316], [-89.23637, 37.41578], [-89.25745, 37.40025], [-89.27851, 37.38471], [-89.29958, 37.36918], [-89.32064, 37.35365], [-89.34141, 37.33782], [-89.36189, 37.3217], [-89.38266, 37.30588], [-89.40373, 37.29034], [-89.42479, 37.27481], [-89.44586, 37.25928], [-89.46693, 37.24374], [-89.4877, 37.22792], [-89.50818, 37.2118], [-89.52895, 37.19598], [-89.55002, 37.18044], [-89.57108, 37.16491], [-89.59215, 37.14938], [-89.61292, 37.13355], [-89.63311, 37.11714], [-89.65271, 37.10014], [-89.67232, 37.08315], [-89.69191, 37.06615], [-89.7121, 37.04974], [-89.73286, 37.03391], [-89.75394, 37.01838], [-89.77499, 37.00284], [-89.79576, 36.98701], [-89.81595, 36.9706], [-89.83527, 36.95332], [-89.85429, 36.93573], [-89.87302, 36.91785], [-89.89203, 36.90027], [-89.91134, 36.88298], [-89.93153, 36.86656], [-89.9523, 36.85074], [-89.97337, 36.83521], [-89.99443, 36.81967], [-90.0152, 36.80385], [-90.03539, 36.78743], [-90.0547, 36.77014], [-90.07372, 36.75256], [-90.09245, 36.73468], [-90.11145, 36.7171], [-90.13077, 36.69981], [-90.15096, 36.6834], [-90.17172, 36.66757], [-90.19279, 36.65204], [-90.21385, 36.63651], [-90.23462, 36.62068], [-90.25481, 36.60427], [-90.27412, 36.58698], [-90.29314, 36.5694], [-90.31157, 36.55122], [-90.33, 36.53305], [-90.34843, 36.51488], [-90.36745, 36.4973], [-90.38676, 36.48], [-90.40695, 36.46359], [-90.42773, 36.44777], [-90.44878, 36.43224], [-90.46986, 36.4167], [-90.50072, 36.39267], [-90.51081, 36.38447], [-90.53013, 36.36717], [-90.54913, 36.34959], [-90.56757, 36.33142], [-90.58601, 36.31325], [-90.60414, 36.29478], [-90.62257, 36.27662], [-90.64993, 36.24907], [-90.65915, 36.23998], [-90.67729, 36.22152], [-90.69572, 36.20335], [-90.71385, 36.18488], [-90.73228, 36.16671], [-90.75043, 36.14825], [-90.76886, 36.13008], [-90.787, 36.11162], [-90.80543, 36.09344], [-90.82358, 36.07498], [-90.842, 36.05681], [-90.86015, 36.03835], [-90.87857, 36.02018], [-90.89671, 36.00172], [-90.92421, 35.97431], [-90.9425, 35.95599], [-90.95171, 35.94691], [-90.96985, 35.92844], [-90.98829, 35.91028], [-91.00642, 35.89182], [-91.02486, 35.87364], [-91.043, 35.85518], [-91.06143, 35.83701], [-91.07957, 35.81855], [-91.09801, 35.80038], [-91.11614, 35.78191], [-91.13457, 35.76374], [-91.15271, 35.74528], [-91.17114, 35.72711], [-91.18929, 35.70864], [-91.20771, 35.69048], [-91.22586, 35.67201], [-91.24429, 35.65384], [-91.26244, 35.63538], [-91.28085, 35.6172], [-91.299, 35.59874], [-91.31743, 35.58057], [-91.33556, 35.56211], [-91.354, 35.54394], [-91.37213, 35.52547], [-91.39057, 35.50731], [-91.40871, 35.48884], [-91.42714, 35.47067], [-91.44528, 35.45221], [-91.46371, 35.43404], [-91.48186, 35.41557], [-91.50029, 35.3974], [-91.51842, 35.37894], [-91.53685, 35.36077], [-91.55499, 35.34231], [-91.57343, 35.32413], [-91.59157, 35.30567], [-91.60999, 35.2875], [-91.62814, 35.26904], [-91.64658, 35.25087], [-91.66472, 35.23241], [-91.68285, 35.21394], [-91.7004, 35.19489], [-91.71767, 35.17555], [-91.73405, 35.15533], [-91.74985, 35.13452], [-91.76535, 35.11342], [-91.78085, 35.09232], [-91.79666, 35.07151], [-91.81304, 35.05129], [-91.83031, 35.03195], [-91.84786, 35.01289], [-91.86571, 34.99414], [-91.89189, 34.96542], [-91.90053, 34.95575], [-91.9248, 34.92512], [-91.93271, 34.91472], [-91.95596, 34.88307], [-91.96371, 34.87252], [-91.97923, 34.85142], [-91.99503, 34.83061], [-92.01111, 34.81009], [-92.02691, 34.78928], [-92.04242, 34.76818], [-92.05763, 34.74679], [-92.07986, 34.71411], [-92.08718, 34.70312], [-92.10152, 34.68085], [-92.12244, 34.64685], [-92.13604, 34.62385], [-92.14935, 34.60055], [-92.15593, 34.58882], [-92.17627, 34.55424], [-92.18314, 34.54282], [-92.19719, 34.52025], [-92.21124, 34.49768], [-92.23215, 34.46368], [-92.24561, 34.44053], [-92.25848, 34.41679], [-92.26477, 34.40478], [-92.2835, 34.36858], [-92.28964, 34.35642], [-92.3072, 34.31905], [-92.31875, 34.29399], [-92.32973, 34.26835], [-92.34011, 34.24212], [-92.35049, 34.2159], [-92.36088, 34.18966], [-92.37111, 34.16328], [-92.38165, 34.1372], [-92.39247, 34.11141], [-92.40301, 34.08533], [-92.4131, 34.05881], [-92.42305, 34.03214], [-92.42802, 34.01881], [-92.44192, 33.97777], [-92.451, 33.95023], [-92.46007, 33.92268], [-92.46884, 33.89484], [-92.47308, 33.88077], [-92.48521, 33.83798], [-92.49297, 33.80911], [-92.50043, 33.77995], [-92.50775, 33.75064], [-92.51506, 33.72134], [-92.52238, 33.69203], [-92.52969, 33.66272], [-92.537, 33.63342], [-92.54066, 33.61876], [-92.55106, 33.57422], [-92.55763, 33.54417], [-92.56392, 33.51384], [-92.56992, 33.48322], [-92.57592, 33.45259], [-92.58208, 33.42211], [-92.58807, 33.39149], [-92.59377, 33.36057], [-92.59918, 33.32935], [-92.60415, 33.29771], [-92.60883, 33.26576], [-92.61382, 33.23411], [-92.61937, 33.20304], [-92.62552, 33.17257], [-92.63225, 33.14267], [-92.63941, 33.11322], [-92.64672, 33.08391], [-92.65404, 33.0546], [-92.66135, 33.0253], [-92.66501, 33.01064], [-92.67598, 32.96668], [-92.6833, 32.93738], [-92.68695, 32.92272], [-92.69792, 32.87876], [-92.70525, 32.84945], [-92.71255, 32.82015], [-92.71986, 32.79084], [-92.72718, 32.76154], [-92.73449, 32.73223], [-92.74181, 32.70292], [-92.74912, 32.67361], [-92.75643, 32.64431], [-92.7636, 32.61485], [-92.77048, 32.58511], [-92.77705, 32.55507], [-92.78334, 32.52473], [-92.78934, 32.49411], [-92.79534, 32.46348], [-92.8015, 32.433], [-92.80749, 32.40237], [-92.81305, 32.37131], [-92.81802, 32.33966], [-92.82226, 32.30727], [-92.82591, 32.2743], [-92.82957, 32.24133], [-92.83382, 32.20895], [-92.83879, 32.1773], [-92.84421, 32.14609], [-92.84962, 32.11488], [-92.85444, 32.08308], [-92.8581, 32.05011], [-92.8606, 32.01596], [-92.86249, 31.98123], [-92.8644, 31.9465], [-92.86688, 31.91236], [-92.87054, 31.87939], [-92.87537, 31.84759], [-92.87801, 31.83191], [-92.88618, 31.78517], [-92.89101, 31.75337], [-92.89467, 31.7204], [-92.89701, 31.68611], [-92.89833, 31.65079], [-92.89891, 31.61475], [-92.89906, 31.57826], [-92.89906, 31.54163], [-92.89906, 31.505], [-92.89906, 31.46836], [-92.89891, 31.43187], [-92.89833, 31.39582], [-92.89702, 31.36051], [-92.89467, 31.32622], [-92.89101, 31.29325], [-92.88618, 31.26145], [-92.88077, 31.23024], [-92.87536, 31.19903], [-92.87054, 31.16723], [-92.86673, 31.13441], [-92.8638, 31.1007], [-92.86118, 31.06671], [-92.85825, 31.033], [-92.85445, 31.00018], [-92.84961, 30.96838], [-92.84406, 30.93732], [-92.83806, 30.90669], [-92.83191, 30.87621], [-92.82591, 30.84559], [-92.81992, 30.81496], [-92.81363, 30.78463], [-92.80705, 30.75459], [-92.80016, 30.72484], [-92.79301, 30.69539], [-92.78569, 30.66608], [-92.77837, 30.63677], [-92.77106, 30.60747], [-92.76375, 30.57816], [-92.75643, 30.54885], [-92.74898, 30.51969], [-92.74123, 30.49083], [-92.73318, 30.46225], [-92.72484, 30.43397], [-92.71606, 30.40613], [-92.70699, 30.37858], [-92.69792, 30.35103], [-92.68871, 30.32363], [-92.67905, 30.29667], [-92.6691, 30.27], [-92.65901, 30.24347], [-92.64847, 30.21739], [-92.63765, 30.1916], [-92.62712, 30.16552], [-92.61688, 30.13914], [-92.60649, 30.11291], [-92.59612, 30.08668], [-92.58572, 30.06045], [-92.57475, 30.03481], [-92.56319, 30.00975], [-92.5515, 29.98484], [-92.53949, 29.96022], [-92.52721, 29.9359], [-92.50906, 29.89912], [-92.50293, 29.88696], [-92.49063, 29.86263], [-92.47249, 29.82585], [-92.46635, 29.81369], [-92.45406, 29.78936], [-92.44192, 29.76489], [-92.42978, 29.74042], [-92.41135, 29.70393], [-92.40535, 29.69162], [-92.3932, 29.66715], [-92.38077, 29.64297], [-92.36191, 29.60693], [-92.35532, 29.5952], [-92.34187, 29.57205], [-92.32796, 29.54934], [-92.30661, 29.51578], [-92.29198, 29.4938], [-92.28467, 29.48281], [-92.27003, 29.46083], [-92.24809, 29.42786], [-92.24078, 29.41687], [-92.22615, 29.39489], [-92.20421, 29.36192], [-92.1969, 29.35093], [-92.18227, 29.32895], [-92.16764, 29.30697], [-92.15302, 29.28499], [-92.13838, 29.26301], [-92.12376, 29.24103], [-92.10181, 29.20806], [-92.0945, 29.19707], [-92.07255, 29.1641], [-92.06509, 29.15325], [-92.05002, 29.13171], [-92.03467, 29.11046], [-92.01112, 29.07911], [-92.00307, 29.06885], [-91.97923, 29.03778], [-91.96371, 29.01668], [-91.95596, 29.00613], [-91.94046, 28.98503], [-91.92495, 28.96393], [-91.90929, 28.94297], [-91.89336, 28.92231], [-91.8774, 28.90165], [-91.86176, 28.8807], [-91.84625, 28.8596], [-91.82299, 28.82795], [-91.81509, 28.81754], [-91.799, 28.79703], [-91.78218, 28.77724], [-91.76477, 28.75805], [-91.73785, 28.73006], [-91.71971, 28.7116], [-91.70129, 28.69343], [-91.68314, 28.67496], [-91.66471, 28.65679], [-91.64656, 28.63833], [-91.62814, 28.62016], [-91.61, 28.6017], [-91.59157, 28.58353], [-91.57343, 28.56506], [-91.555, 28.54689], [-91.53687, 28.52843], [-91.51842, 28.51026], [-91.50029, 28.49179], [-91.48186, 28.47362], [-91.47278, 28.46439], [-91.44528, 28.43699], [-91.42714, 28.41853], [-91.40871, 28.40036], [-91.39057, 28.38189], [-91.37215, 28.36372], [-91.354, 28.34526], [-91.33557, 28.32709], [-91.31714, 28.30892], [-91.29813, 28.29133], [-91.27881, 28.27404], [-91.25862, 28.25763], [-91.23785, 28.24181], [-91.21679, 28.22627], [-91.19572, 28.21074], [-91.17495, 28.19492], [-91.15477, 28.1785], [-91.14511, 28.16986], [-91.11643, 28.14363], [-91.09771, 28.12575], [-91.07869, 28.10817], [-91.06903, 28.09952], [-91.03919, 28.07446], [-91.01842, 28.05864], [-90.99735, 28.04311], [-90.9763, 28.02757], [-90.95552, 28.01175], [-90.93535, 27.99533], [-90.91573, 27.97834], [-90.89613, 27.96134], [-90.87653, 27.94434], [-90.85634, 27.92793], [-90.83556, 27.9121], [-90.8145, 27.89657], [-90.79344, 27.88104], [-90.77237, 27.86551], [-90.7516, 27.84968], [-90.74136, 27.84162], [-90.71035, 27.81773], [-90.68928, 27.8022], [-90.66822, 27.78667], [-90.64715, 27.77114], [-90.62608, 27.7556], [-90.60532, 27.73978], [-90.59508, 27.73172], [-90.56406, 27.70783], [-90.543, 27.6923], [-90.52193, 27.67677], [-90.50087, 27.66124], [-90.4801, 27.64541], [-90.45991, 27.629], [-90.44031, 27.612], [-90.4207, 27.595], [-90.4011, 27.578], [-90.38091, 27.56159], [-90.36014, 27.54577], [-90.33907, 27.53023], [-90.31801, 27.5147], [-90.29694, 27.49916], [-90.27617, 27.48334], [-90.25569, 27.46722], [-90.23491, 27.4514], [-90.21385, 27.43586], [-90.19279, 27.42033], [-90.17173, 27.4048], [-90.15096, 27.38897], [-90.13078, 27.37256], [-90.11117, 27.35556], [-90.09157, 27.33856], [-90.07196, 27.32157], [-90.05177, 27.30515], [-90.031, 27.28933], [-90.00993, 27.2738], [-89.98888, 27.25826], [-89.9678, 27.24273], [-89.94704, 27.2269], [-89.92655, 27.21078], [-89.90578, 27.19496], [-89.88471, 27.17943], [-89.86366, 27.16389], [-89.84258, 27.14836], [-89.82182, 27.13254], [-89.81172, 27.12433], [-89.78202, 27.09913], [-89.77222, 27.09063], [-89.74282, 27.06513], [-89.72263, 27.04872], [-89.70186, 27.03289], [-89.6805, 27.01765], [-89.65885, 27.0027], [-89.63691, 26.98805], [-89.61497, 26.9734], [-89.59303, 26.95875], [-89.57137, 26.9438], [-89.55002, 26.92856], [-89.52925, 26.91273], [-89.50906, 26.89632], [-89.48945, 26.87932], [-89.46985, 26.86232], [-89.45024, 26.84533], [-89.43005, 26.82891], [-89.40929, 26.81309], [-89.38792, 26.79785], [-89.36628, 26.7829], [-89.34435, 26.76825], [-89.3224, 26.7536], [-89.30046, 26.73894], [-89.2788, 26.724], [-89.25745, 26.70876], [-89.23637, 26.69323], [-89.21561, 26.6774], [-89.19513, 26.66128], [-89.17435, 26.64545], [-89.15329, 26.62992], [-89.13223, 26.61439], [-89.11116, 26.59886], [-89.0901, 26.58332], [-89.06932, 26.5675], [-89.04884, 26.55138], [-89.02806, 26.53555], [-89.007, 26.52002], [-88.98564, 26.50478], [-88.964, 26.48983], [-88.94206, 26.47518], [-88.92012, 26.46053], [-88.89818, 26.44587], [-88.87652, 26.43093], [-88.85516, 26.41569], [-88.83409, 26.40015], [-88.81332, 26.38433], [-88.79285, 26.36821], [-88.77207, 26.35238], [-88.75101, 26.33685], [-88.72994, 26.32132], [-88.70888, 26.30578], [-88.68781, 26.29025], [-88.66704, 26.27443], [-88.6568, 26.26637], [-88.62578, 26.24248], [-88.60472, 26.22695], [-88.58336, 26.21171], [-88.56171, 26.19676], [-88.53978, 26.18211], [-88.51784, 26.16746], [-88.4959, 26.1528], [-88.47424, 26.13786], [-88.45288, 26.12262], [-88.43181, 26.10708], [-88.41104, 26.09126], [-88.39056, 26.07514], [-88.36979, 26.05931], [-88.34872, 26.04378], [-88.32737, 26.02854], [-88.30572, 26.01359], [-88.28378, 25.99894], [-88.26183, 25.98429], [-88.23988, 25.96963], [-88.21824, 25.95469], [-88.19688, 25.93945], [-88.17581, 25.92392], [-88.15504, 25.90809], [-88.1448, 25.90003], [-88.11379, 25.87615], [-88.09272, 25.86061], [-88.07137, 25.84537], [-88.04971, 25.83043], [-88.02777, 25.81577], [-88.00583, 25.80112], [-87.98389, 25.78647], [-87.96223, 25.77152], [-87.94089, 25.75628], [-87.91982, 25.74075], [-87.89905, 25.72492], [-87.87856, 25.7088], [-87.85779, 25.69298], [-87.83672, 25.67744], [-87.81537, 25.6622], [-87.79372, 25.64726], [-87.77177, 25.6326], [-87.74983, 25.61795], [-87.72789, 25.6033], [-87.70624, 25.58835], [-87.68488, 25.57311], [-87.66382, 25.55758], [-87.64304, 25.54175], [-87.62256, 25.52563], [-87.60179, 25.50981], [-87.58073, 25.49427], [-87.55937, 25.47903], [-87.53772, 25.46409], [-87.51579, 25.44944], [-87.49384, 25.43478], [-87.47189, 25.42013], [-87.44995, 25.40548], [-87.42801, 25.39082], [-87.40606, 25.37617], [-87.38412, 25.36152], [-87.36217, 25.34686], [-87.34053, 25.33191], [-87.31917, 25.31667], [-87.2981, 25.30114], [-87.27733, 25.28532], [-87.25685, 25.2692], [-87.23607, 25.25337], [-87.21501, 25.23784], [-87.19365, 25.2226], [-87.172, 25.20765], [-87.15007, 25.193], [-87.12813, 25.17834], [-87.10619, 25.16369], [-87.08424, 25.14904], [-87.06229, 25.13438], [-87.04035, 25.11973], [-87.01841, 25.10508], [-86.99647, 25.09042], [-86.97453, 25.07577], [-86.95258, 25.06112], [-86.93064, 25.04646], [-86.9087, 25.03181], [-86.88675, 25.01716], [-86.8651, 25.00221], [-86.84374, 24.98697], [-86.82268, 24.97144], [-86.80191, 24.95561], [-86.78143, 24.93949], [-86.76066, 24.92367], [-86.73959, 24.90813], [-86.71823, 24.89289], [-86.69658, 24.87795], [-86.67464, 24.86329], [-86.65269, 24.84864], [-86.63075, 24.83399], [-86.6088, 24.81933], [-86.58687, 24.80468], [-86.56493, 24.79003], [-86.54298, 24.77537], [-86.52104, 24.76072], [-86.4991, 24.74607], [-86.47716, 24.73141], [-86.45522, 24.71676], [-86.43327, 24.70211], [-86.41133, 24.68745], [-86.38967, 24.6725], [-86.36832, 24.65726], [-86.34726, 24.64174], [-86.32619, 24.6262], [-86.30513, 24.61067], [-86.28333, 24.59601], [-86.2608, 24.58253], [-86.22554, 24.56509], [-86.21413, 24.55967], [-86.19043, 24.55074], [-86.16673, 24.54356], [-86.13002, 24.53652]]]}}]}