{"type": "FeatureCollection", "features": [{"type": "Feature", "geometry": {"type": "LineString", "coordinates": [[-85.7, 24.6], [-86.8, 25.6], [-87.7, 26.5], [-88.9, 27.7], [-90.0, 28.6], [-90.6, 29.4], [-91.0, 30.2], [-91.4, 31.2], [-91.5, 32.2], [-91.2, 32.9], [-90.4, 33.9], [-89.9, 34.7], [-88.7, 35.6], [-87.2, 36.6], [-85.8, 36.7], [-83.6, 37.2], [-80.5, 38.2], [-78.6, 38.4], [-76.5, 38.5], [-74.0, 38.5], [-71.8, 39.0], [-67.7, 40.3], [-63.7, 42.9], [-62.1, 44.1], [-60.5, 45.0], [-58.4, 46.2], [-56.8, 46.7], [-54.5, 47.8], [-52.2, 49.6], [-50.6, 50.9], [-48.9, 51.7], [-46.7, 52.8], [-44.5, 54.1], [-42.5, 55.0], [-40.5, 57.5], [-39.4, 60.0], [-39.2, 60.7], [-37.2, 61.4], [-33.8, 62.9], [-31.6, 64.5], [-28.2, 65.9]]}, "properties": {"model": "CMC", "label": "CMC", "kind": "physics", "group": "deterministic", "cycle": "2021082812"}}, {"type": "Feature", "geometry": {"type": "LineString", "coordinates": [[-85.6, 24.4], [-86.4, 25.4], [-87.4, 26.6], [-88.6, 27.9], [-89.6, 28.8], [-90.4, 29.7], [-91.0, 30.5], [-91.4, 31.4], [-91.5, 32.4], [-91.4, 33.3], [-90.9, 34.1], [-90.2, 34.8], [-88.9, 35.7], [-87.5, 36.5], [-85.1, 37.3], [-82.0, 38.4], [-80.0, 39.0], [-77.2, 39.2], [-75.5, 39.0], [-74.2, 39.2], [-71.5, 40.4], [-68.5, 41.3], [-64.4, 42.2], [-58.0, 44.2], [-52.6, 46.0], [-48.9, 46.8], [-44.0, 47.9], [-40.6, 49.4], [-37.4, 50.4], [-34.6, 51.3], [-31.7, 52.3], [-28.1, 53.8], [-22.7, 55.5]]}, "properties": {"model": "AP01", "label": "GEFS 01", "kind": "ensemble", "group": "ensemble", "cycle": "2021082812"}}, {"type": "Feature", "geometry": {"type": "LineString", "coordinates": [[-85.6, 24.4], [-86.3, 25.3], [-87.2, 26.4], [-88.2, 27.4], [-88.9, 28.1], [-89.5, 28.8], [-89.9, 29.4], [-90.2, 29.9], [-90.3, 30.6], [-90.2, 31.4], [-89.9, 32.2], [-89.7, 33.1], [-89.2, 34.1], [-88.5, 34.9], [-87.1, 35.9], [-85.9, 36.6], [-83.7, 37.3], [-82.1, 37.3]]}, "properties": {"model": "AP03", "label": "GEFS 03", "kind": "ensemble", "group": "ensemble", "cycle": "2021082812"}}, {"type": "Feature", "geometry": {"type": "LineString", "coordinates": [[-85.8, 24.5], [-86.8, 25.4], [-87.8, 26.5], [-89.0, 27.7], [-90.0, 28.7], [-90.9, 29.6], [-91.3, 30.4], [-91.4, 31.5], [-91.6, 32.6], [-91.7, 33.3], [-91.5, 33.8], [-91.3, 34.4], [-89.9, 35.4], [-88.1, 36.4], [-86.5, 37.1], [-85.0, 37.6], [-82.9, 38.3], [-81.1, 38.9], [-80.9, 39.1], [-81.4, 38.7], [-82.5, 38.7], [-83.7, 38.0]]}, "properties": {"model": "AP04", "label": "GEFS 04", "kind": "ensemble", "group": "ensemble", "cycle": "2021082812"}}, {"type": "Feature", "geometry": {"type": "LineString", "coordinates": [[-85.5, 24.2], [-86.5, 25.4], [-87.6, 26.3], [-88.5, 27.2], [-89.5, 28.0], [-90.2, 28.6], [-90.6, 29.3], [-91.1, 30.0], [-91.1, 30.6], [-90.9, 31.4], [-90.7, 32.1], [-90.4, 32.8], [-89.9, 33.7], [-89.4, 34.4], [-88.6, 34.9], [-88.1, 35.3], [-87.6, 35.7], [-87.2, 35.6], [-87.0, 35.1], [-87.1, 34.4], [-87.1, 34.1], [-87.0, 33.6], [-86.7, 33.6], [-87.2, 33.8], [-87.9, 34.2]]}, "properties": {"model": "AP06", "label": "GEFS 06", "kind": "ensemble", "group": "ensemble", "cycle": "2021082812"}}, {"type": "Feature", "geometry": {"type": "LineString", "coordinates": [[-85.5, 24.5], [-86.6, 25.5], [-87.5, 26.7], [-88.7, 27.7], [-89.6, 28.6], [-90.3, 29.5], [-90.8, 30.4], [-91.4, 31.4], [-91.5, 32.4], [-91.0, 33.4], [-90.4, 34.6], [-90.0, 35.6], [-89.0, 36.5], [-88.2, 36.8], [-86.5, 37.7], [-84.6, 39.0], [-82.8, 39.6], [-81.6, 39.8], [-80.7, 39.6], [-79.8, 38.8], [-78.9, 38.1], [-79.2, 37.1], [-81.3, 36.1], [-83.4, 35.2], [-85.9, 34.0], [-87.0, 33.1], [-87.7, 32.6], [-88.4, 32.2], [-89.2, 32.5]]}, "properties": {"model": "AP07", "label": "GEFS 07", "kind": "ensemble", "group": "ensemble", "cycle": "2021082812"}}, {"type": "Feature", "geometry": {"type": "LineString", "coordinates": [[-85.9, 24.7], [-87.0, 25.9], [-88.1, 27.1], [-89.2, 28.2], [-89.9, 29.3], [-90.5, 30.4], [-90.8, 31.4], [-90.8, 32.3], [-90.4, 33.4], [-89.7, 34.5], [-88.8, 35.7], [-87.1, 37.2], [-84.8, 38.5], [-82.1, 39.6], [-79.4, 40.8], [-75.1, 41.8], [-72.1, 42.1], [-69.4, 42.8], [-67.1, 42.7], [-63.6, 43.5], [-59.5, 44.2], [-53.4, 44.9], [-46.8, 46.0], [-44.2, 46.5], [-41.2, 47.9], [-39.5, 49.0], [-36.7, 50.6], [-34.1, 53.0], [-31.8, 56.0], [-30.4, 58.9], [-29.0, 61.5], [-27.6, 64.1], [-29.6, 65.6]]}, "properties": {"model": "AP08", "label": "GEFS 08", "kind": "ensemble", "group": "ensemble", "cycle": "2021082812"}}, {"type": "Feature", "geometry": {"type": "LineString", "coordinates": [[-85.6, 24.4], [-86.8, 25.7], [-87.8, 26.8], [-88.9, 27.9], [-89.6, 28.9], [-90.1, 30.1], [-90.2, 31.2], [-90.6, 32.2], [-90.3, 33.0], [-89.7, 33.9], [-89.0, 34.7], [-88.4, 35.4], [-87.2, 36.1], [-86.0, 36.5], [-83.4, 37.7], [-81.5, 38.9], [-79.6, 39.3], [-76.9, 40.0], [-74.2, 40.7], [-70.7, 42.4], [-69.2, 43.2], [-67.8, 44.4], [-66.6, 45.3], [-65.3, 46.5], [-64.3, 47.6], [-63.7, 48.2], [-63.3, 48.9], [-63.5, 49.0], [-62.0, 49.4], [-60.8, 50.7], [-60.7, 51.5], [-59.8, 52.1], [-58.5, 54.7]]}, "properties": {"model": "AP13", "label": "GEFS 13", "kind": "ensemble", "group": "ensemble", "cycle": "2021082812"}}, {"type": "Feature", "geometry": {"type": "LineString", "coordinates": [[-85.8, 24.4], [-86.7, 25.5], [-87.7, 26.8], [-88.6, 27.9], [-89.4, 29.1], [-90.0, 30.0], [-90.1, 31.1], [-90.4, 32.1], [-90.1, 33.2], [-89.5, 34.2], [-88.7, 35.4], [-87.5, 36.6], [-85.8, 37.6], [-84.1, 38.2], [-82.4, 38.3]]}, "properties": {"model": "AP14", "label": "GEFS 14", "kind": "ensemble", "group": "ensemble", "cycle": "2021082812"}}, {"type": "Feature", "geometry": {"type": "LineString", "coordinates": [[-85.4, 24.2], [-86.3, 25.3], [-87.5, 26.3], [-88.7, 27.1], [-89.7, 27.7], [-90.5, 28.3], [-91.1, 28.8], [-91.7, 29.2], [-92.0, 29.8], [-92.1, 30.5], [-92.0, 31.2], [-91.9, 31.9], [-91.5, 32.9], [-91.2, 33.9], [-90.6, 34.6], [-90.3, 35.0], [-89.8, 35.4], [-89.7, 35.5], [-89.5, 35.3], [-89.7, 35.1], [-89.6, 35.5], [-90.2, 35.6], [-90.4, 35.9], [-91.2, 36.3], [-91.3, 37.0]]}, "properties": {"model": "AP15", "label": "GEFS 15", "kind": "ensemble", "group": "ensemble", "cycle": "2021082812"}}, {"type": "Feature", "geometry": {"type": "LineString", "coordinates": [[-85.7, 24.5], [-86.9, 25.5], [-88.0, 26.5], [-89.3, 27.3], [-90.2, 28.1], [-91.0, 28.9], [-91.6, 29.7], [-92.1, 30.3], [-92.3, 30.8], [-92.4, 31.5], [-92.4, 32.0], [-92.2, 32.4], [-91.4, 33.3], [-90.9, 34.2], [-90.2, 34.7], [-89.8, 35.0], [-89.3, 35.3], [-88.7, 35.0], [-87.9, 34.7], [-87.6, 34.5], [-87.4, 34.7], [-87.8, 34.7], [-88.5, 34.1], [-89.9, 34.0], [-91.4, 33.9], [-92.8, 33.8], [-93.6, 34.1]]}, "properties": {"model": "AP18", "label": "GEFS 18", "kind": "ensemble", "group": "ensemble", "cycle": "2021082812"}}, {"type": "Feature", "geometry": {"type": "LineString", "coordinates": [[-85.4, 24.3], [-86.5, 25.5], [-87.4, 26.7], [-88.6, 27.7], [-89.6, 28.6], [-90.5, 29.3], [-91.2, 30.0], [-91.8, 30.7], [-92.1, 31.3], [-91.9, 32.1], [-91.6, 33.1], [-91.2, 34.1], [-90.4, 35.1], [-89.5, 35.9], [-88.3, 36.7], [-87.6, 37.2], [-86.5, 37.3], [-85.4, 37.1], [-83.9, 37.1], [-82.4, 37.4], [-81.0, 38.2], [-81.0, 37.7], [-81.6, 36.9], [-83.7, 35.5]]}, "properties": {"model": "AP21", "label": "GEFS 21", "kind": "ensemble", "group": "ensemble", "cycle": "2021082812"}}, {"type": "Feature", "geometry": {"type": "LineString", "coordinates": [[-85.9, 24.4], [-87.0, 25.3], [-88.1, 26.3], [-89.2, 27.1], [-90.1, 27.8], [-90.9, 28.7], [-91.5, 29.5], [-91.8, 30.3], [-91.8, 31.3], [-91.6, 32.3], [-91.1, 33.3], [-90.8, 34.2], [-89.6, 35.4], [-88.3, 36.5], [-86.3, 37.7], [-84.4, 38.7], [-81.9, 39.5], [-79.5, 40.3], [-75.9, 41.0], [-72.2, 42.3], [-68.6, 43.7], [-66.8, 45.0], [-65.1, 45.7], [-62.3, 46.9], [-60.8, 47.5], [-60.0, 48.2], [-59.4, 48.4], [-58.6, 48.0], [-57.0, 47.9], [-56.5, 47.0], [-54.6, 46.7], [-52.2, 45.3], [-48.4, 46.2]]}, "properties": {"model": "AP22", "label": "GEFS 22", "kind": "ensemble", "group": "ensemble", "cycle": "2021082812"}}, {"type": "Feature", "geometry": {"type": "LineString", "coordinates": [[-85.6, 24.7], [-86.7, 25.7], [-87.8, 26.8], [-89.3, 27.7], [-90.3, 28.7], [-91.4, 29.6], [-92.2, 30.4], [-92.8, 31.3], [-92.9, 32.2], [-92.5, 33.1], [-91.8, 33.8], [-91.0, 34.5], [-90.1, 35.5], [-88.9, 36.2], [-86.7, 37.1], [-85.2, 37.3], [-84.4, 37.2], [-83.0, 37.3], [-81.5, 37.8], [-81.2, 37.7], [-80.3, 36.3]]}, "properties": {"model": "AP23", "label": "GEFS 23", "kind": "ensemble", "group": "ensemble", "cycle": "2021082812"}}, {"type": "Feature", "geometry": {"type": "LineString", "coordinates": [[-85.5, 24.3], [-86.4, 25.4], [-87.3, 26.3], [-88.5, 27.5], [-89.5, 28.3], [-90.2, 29.2], [-90.7, 29.7], [-91.0, 30.4], [-90.9, 31.2], [-90.6, 32.0], [-90.0, 33.1], [-89.6, 34.3], [-89.0, 35.3], [-88.0, 36.1], [-86.1, 36.9], [-83.2, 38.4], [-79.6, 40.2], [-76.6, 41.3], [-73.5, 41.7], [-70.0, 42.8], [-67.1, 44.0], [-63.7, 45.6], [-59.4, 47.3], [-55.5, 48.2], [-50.0, 49.5], [-46.6, 50.5], [-42.7, 51.4], [-39.3, 52.8], [-36.3, 53.7], [-32.8, 54.9], [-29.6, 56.9], [-26.7, 59.0], [-25.1, 61.4]]}, "properties": {"model": "AP25", "label": "GEFS 25", "kind": "ensemble", "group": "ensemble", "cycle": "2021082812"}}, {"type": "Feature", "geometry": {"type": "LineString", "coordinates": [[-85.6, 24.2], [-86.2, 25.5], [-87.7, 26.6], [-88.8, 27.8], [-90.0, 28.8], [-90.7, 29.6], [-91.1, 30.6], [-91.4, 31.8], [-91.6, 32.7], [-91.5, 33.6], [-91.3, 34.2], [-91.0, 34.8], [-90.1, 35.6], [-89.3, 36.1], [-87.3, 36.5], [-85.5, 37.9], [-84.2, 38.5], [-82.2, 39.1], [-81.4, 39.5], [-81.3, 39.0], [-80.9, 38.5], [-81.1, 37.9], [-82.1, 36.6]]}, "properties": {"model": "AP27", "label": "GEFS 27", "kind": "ensemble", "group": "ensemble", "cycle": "2021082812"}}, {"type": "Feature", "geometry": {"type": "LineString", "coordinates": [[-85.9, 24.4], [-86.9, 25.4], [-87.9, 26.5], [-89.1, 27.4], [-89.8, 28.4], [-90.8, 29.3], [-91.2, 30.1], [-91.6, 31.0], [-91.9, 32.0], [-91.8, 32.9], [-91.4, 33.9], [-91.2, 34.7], [-90.2, 35.5], [-89.5, 36.0], [-88.2, 36.1], [-86.8, 36.7], [-83.7, 38.0], [-81.0, 38.9], [-80.5, 38.0], [-79.2, 37.8], [-77.5, 37.5], [-75.0, 37.7], [-74.1, 37.8], [-74.2, 37.6], [-74.3, 37.2], [-74.7, 36.9], [-75.0, 36.6], [-75.1, 36.6]]}, "properties": {"model": "AP28", "label": "GEFS 28", "kind": "ensemble", "group": "ensemble", "cycle": "2021082812"}}, {"type": "Feature", "geometry": {"type": "LineString", "coordinates": [[-85.5, 24.5], [-86.5, 25.6], [-87.4, 26.7], [-88.8, 27.7], [-89.6, 28.5], [-90.5, 29.3], [-91.0, 30.0], [-91.9, 30.6], [-92.2, 31.3], [-92.2, 32.1], [-92.1, 32.8], [-92.1, 33.3], [-91.6, 34.3], [-91.0, 34.8], [-90.0, 34.8], [-89.4, 35.3], [-88.5, 35.6], [-87.3, 36.3], [-86.8, 35.7], [-85.1, 37.0], [-83.4, 38.0], [-81.5, 38.7], [-81.7, 38.4], [-83.0, 37.8], [-84.7, 37.5]]}, "properties": {"model": "AP29", "label": "GEFS 29", "kind": "ensemble", "group": "ensemble", "cycle": "2021082812"}}, {"type": "Feature", "geometry": {"type": "LineString", "coordinates": [[-85.6, 24.4], [-86.6, 25.4], [-87.6, 26.6], [-88.9, 27.6], [-89.7, 28.4], [-90.5, 29.3], [-91.0, 30.1], [-91.3, 30.8], [-91.3, 31.7], [-90.9, 32.7], [-90.5, 33.6], [-89.9, 34.4], [-88.6, 35.3], [-87.3, 36.1], [-85.7, 36.8], [-83.8, 37.6], [-81.4, 38.7], [-79.3, 38.9], [-75.6, 40.1], [-72.7, 41.0], [-69.4, 41.9], [-67.7, 42.0], [-65.6, 42.9], [-61.6, 44.8], [-56.3, 47.3], [-51.2, 49.0], [-47.3, 49.8], [-45.0, 50.6], [-42.3, 51.1], [-37.8, 53.4], [-31.2, 56.8], [-27.7, 58.4], [-24.4, 60.2], [-20.8, 62.1], [-15.5, 63.8], [-8.4, 65.8], [-1.5, 67.6], [5.9, 68.9], [13.4, 69.5], [20.3, 70.1], [27.4, 70.2]]}, "properties": {"model": "AVNO", "label": "GFS", "kind": "physics", "group": "deterministic", "cycle": "2021082812"}}, {"type": "Feature", "geometry": {"type": "LineString", "coordinates": [[-85.7, 24.4], [-87.0, 25.5], [-87.8, 26.6], [-89.1, 27.5], [-89.9, 28.5], [-90.5, 29.3], [-91.2, 30.0], [-91.4, 30.7], [-91.4, 31.5], [-91.1, 32.3], [-90.9, 33.1], [-90.2, 34.1], [-89.2, 34.7], [-87.9, 35.7], [-86.3, 36.6], [-84.6, 37.4], [-82.3, 38.3], [-80.1, 38.7], [-78.0, 38.8], [-76.3, 39.7]]}, "properties": {"model": "CTCX", "label": "COAMPS-TC", "kind": "physics", "group": "deterministic", "cycle": "2021082812"}}, {"type": "Feature", "geometry": {"type": "LineString", "coordinates": [[-85.6, 24.7], [-87.5, 26.7], [-89.7, 28.6], [-91.2, 29.7], [-91.8, 31.2], [-91.6, 32.5], [-90.0, 34.2], [-88.4, 36.0], [-86.8, 37.0], [-84.9, 37.0], [-83.6, 37.2]]}, "properties": {"model": "EGRR", "label": "UKMET", "kind": "physics", "group": "deterministic", "cycle": "2021082812"}}, {"type": "Feature", "geometry": {"type": "LineString", "coordinates": [[-85.7, 24.4], [-87.8, 26.2], [-89.8, 27.9], [-91.1, 29.4], [-91.6, 30.9], [-91.2, 32.7], [-89.9, 34.5], [-87.8, 35.8], [-85.1, 36.9], [-82.2, 37.6], [-80.1, 37.2], [-79.1, 36.5], [-78.6, 35.8], [-78.3, 35.5], [-77.4, 35.2]]}, "properties": {"model": "HCCA", "label": "HFIP Corrected Consensus", "kind": "consensus", "group": "consensus", "cycle": "2021082812"}}, {"type": "Feature", "geometry": {"type": "LineString", "coordinates": [[-85.7, 24.4], [-86.2, 24.9], [-86.9, 25.5], [-87.5, 26.0], [-88.0, 26.5], [-88.6, 26.9], [-89.2, 27.4], [-89.8, 27.8], [-90.2, 28.1], [-90.6, 28.6], [-91.0, 29.0], [-91.5, 29.4], [-91.8, 29.5], [-91.8, 29.9], [-92.2, 30.3], [-92.4, 30.7], [-92.6, 31.0], [-92.5, 31.3], [-92.4, 31.7], [-92.4, 32.2], [-92.2, 32.7], [-92.1, 33.2], [-92.0, 33.6], [-91.9, 34.0], [-91.7, 34.3], [-91.3, 34.6], [-91.0, 34.8], [-90.7, 34.8], [-89.9, 35.0], [-89.4, 35.3], [-88.2, 36.1], [-88.1, 36.7], [-88.2, 36.3], [-87.7, 36.3], [-86.8, 36.5], [-86.0, 36.8], [-85.4, 36.8], [-85.3, 36.2], [-85.2, 35.8], [-84.9, 35.7], [-84.4, 35.5], [-84.2, 35.3], [-83.7, 35.2]]}, "properties": {"model": "HMON", "label": "HMON", "kind": "physics", "group": "deterministic", "cycle": "2021082812"}}, {"type": "Feature", "geometry": {"type": "LineString", "coordinates": [[-85.7, 24.4], [-86.6, 25.4], [-87.7, 26.5], [-88.9, 27.4], [-89.8, 28.2], [-90.7, 28.9], [-91.4, 29.5], [-91.7, 30.0], [-91.8, 30.9], [-91.7, 31.7], [-91.4, 32.6], [-91.1, 33.4], [-90.3, 34.4], [-89.8, 35.0], [-88.9, 35.6], [-88.1, 36.0], [-86.9, 36.4], [-86.0, 37.1], [-85.6, 37.2], [-85.4, 37.0], [-85.1, 36.8], [-85.4, 36.8]]}, "properties": {"model": "HWRF", "label": "HWRF", "kind": "physics", "group": "deterministic", "cycle": "2021082812"}}, {"type": "Feature", "geometry": {"type": "LineString", "coordinates": [[-85.6, 24.6], [-86.3, 25.6], [-87.5, 26.7], [-88.6, 27.7], [-89.7, 28.5], [-90.6, 29.1], [-91.2, 29.8], [-91.7, 30.2], [-91.9, 31.0], [-92.2, 31.5], [-91.7, 32.2], [-91.2, 32.8], [-90.3, 33.6], [-89.6, 34.5], [-88.8, 35.2], [-88.1, 35.6], [-87.3, 36.0], [-86.8, 36.0], [-86.3, 35.7], [-85.6, 35.6], [-85.5, 35.3]]}, "properties": {"model": "UE00", "label": "ECMWF Ens 00", "kind": "ensemble", "group": "ensemble", "cycle": "2021082812"}}, {"type": "Feature", "geometry": {"type": "LineString", "coordinates": [[-85.6, 24.2], [-86.6, 25.2], [-87.8, 26.1], [-88.9, 27.0], [-89.9, 27.9], [-91.1, 28.5], [-91.8, 29.2], [-92.5, 29.8], [-92.9, 30.2], [-93.1, 30.9], [-93.0, 31.6], [-93.1, 32.2], [-92.8, 32.4], [-92.0, 32.6], [-90.8, 33.6], [-90.9, 33.2], [-90.5, 33.4], [-90.1, 33.0], [-89.9, 33.1], [-89.8, 33.0], [-89.1, 33.2], [-88.9, 33.6], [-89.5, 33.9], [-90.0, 33.8], [-90.5, 34.5]]}, "properties": {"model": "UE01", "label": "ECMWF Ens 01", "kind": "ensemble", "group": "ensemble", "cycle": "2021082812"}}, {"type": "Feature", "geometry": {"type": "LineString", "coordinates": [[-85.9, 24.4], [-86.8, 25.7], [-87.8, 26.8], [-89.1, 27.9], [-90.3, 29.0], [-91.2, 29.6], [-91.7, 30.1], [-92.0, 30.8], [-92.2, 31.5], [-92.0, 31.8], [-91.4, 32.4], [-90.8, 33.2], [-89.8, 34.1], [-89.2, 34.9], [-88.0, 35.6], [-86.7, 36.4], [-85.5, 36.8], [-84.1, 37.5], [-83.0, 37.6]]}, "properties": {"model": "UE02", "label": "ECMWF Ens 02", "kind": "ensemble", "group": "ensemble", "cycle": "2021082812"}}, {"type": "Feature", "geometry": {"type": "LineString", "coordinates": [[-85.7, 24.4], [-86.4, 25.7], [-87.4, 26.8], [-88.6, 27.8], [-89.7, 28.7], [-90.4, 29.3], [-91.1, 29.8], [-91.5, 30.4], [-91.7, 31.0], [-91.5, 31.3], [-90.3, 32.2], [-90.3, 33.8], [-89.7, 34.5], [-88.6, 35.3], [-87.4, 35.9], [-86.3, 36.8], [-85.0, 37.5], [-84.1, 37.7], [-83.3, 37.7], [-83.0, 37.6], [-82.4, 37.4]]}, "properties": {"model": "UE03", "label": "ECMWF Ens 03", "kind": "ensemble", "group": "ensemble", "cycle": "2021082812"}}, {"type": "Feature", "geometry": {"type": "LineString", "coordinates": [[-85.4, 24.1], [-86.0, 25.3], [-87.2, 26.5], [-88.6, 27.4], [-89.5, 28.2], [-90.3, 28.9], [-90.8, 29.6], [-91.4, 30.2], [-91.6, 31.0], [-91.8, 31.8], [-91.7, 32.4], [-91.6, 33.1], [-91.1, 33.3], [-90.4, 33.5], [-88.9, 34.7], [-88.5, 34.7], [-87.8, 35.0], [-87.5, 34.9], [-86.9, 34.7], [-87.1, 34.8], [-87.2, 34.7], [-87.8, 34.5], [-88.6, 34.0], [-89.7, 33.5], [-89.8, 33.2], [-90.1, 33.4]]}, "properties": {"model": "UE04", "label": "ECMWF Ens 04", "kind": "ensemble", "group": "ensemble", "cycle": "2021082812"}}, {"type": "Feature", "geometry": {"type": "LineString", "coordinates": [[-85.7, 24.1], [-86.4, 25.5], [-87.5, 26.7], [-88.8, 27.7], [-89.7, 28.4], [-90.5, 29.1], [-90.9, 30.0], [-91.2, 30.7], [-91.4, 31.6], [-91.2, 32.3], [-90.6, 33.3], [-89.8, 34.0], [-88.6, 34.9], [-87.4, 35.8], [-85.8, 36.2], [-84.1, 37.1], [-81.2, 38.2], [-79.1, 38.4], [-75.4, 39.8], [-73.2, 40.0], [-71.1, 39.9], [-64.9, 42.7], [-61.4, 44.3], [-58.8, 45.1], [-55.7, 46.1], [-52.4, 46.9], [-50.0, 47.4], [-47.8, 48.0], [-45.9, 49.0], [-43.5, 50.7], [-38.3, 50.5], [-36.9, 53.0], [-36.6, 54.2]]}, "properties": {"model": "UE05", "label": "ECMWF Ens 05", "kind": "ensemble", "group": "ensemble", "cycle": "2021082812"}}, {"type": "Feature", "geometry": {"type": "LineString", "coordinates": [[-85.6, 24.6], [-86.5, 25.7], [-87.6, 26.8], [-88.9, 27.9], [-90.0, 28.8], [-90.6, 29.4], [-91.1, 30.1], [-91.6, 30.8], [-91.9, 31.4], [-91.9, 32.1], [-91.4, 32.8], [-90.8, 33.2], [-89.5, 33.7], [-88.0, 34.5], [-86.6, 35.4], [-85.2, 36.3], [-83.6, 36.9], [-81.8, 37.6], [-79.6, 37.7], [-77.0, 39.0]]}, "properties": {"model": "UE06", "label": "ECMWF Ens 06", "kind": "ensemble", "group": "ensemble", "cycle": "2021082812"}}, {"type": "Feature", "geometry": {"type": "LineString", "coordinates": [[-85.8, 24.4], [-86.7, 25.7], [-88.0, 26.6], [-89.1, 27.6], [-90.3, 28.6], [-91.2, 29.4], [-91.9, 30.0], [-92.6, 30.6], [-93.0, 31.2], [-93.1, 31.7], [-93.0, 32.6], [-92.8, 32.8], [-92.0, 33.2], [-91.4, 33.6], [-90.6, 33.9], [-89.8, 34.3], [-89.1, 35.0], [-88.7, 34.9], [-88.3, 34.7], [-88.0, 34.7], [-87.3, 34.5], [-86.7, 34.6], [-86.6, 34.1], [-86.6, 33.9], [-86.7, 33.8], [-87.4, 33.8]]}, "properties": {"model": "UE07", "label": "ECMWF Ens 07", "kind": "ensemble", "group": "ensemble", "cycle": "2021082812"}}, {"type": "Feature", "geometry": {"type": "LineString", "coordinates": [[-85.6, 24.2], [-86.7, 25.6], [-88.0, 26.4], [-89.1, 27.2], [-90.2, 28.1], [-91.4, 28.7], [-92.0, 28.9], [-92.8, 29.3], [-93.1, 29.8], [-93.6, 30.0], [-93.7, 30.3], [-93.4, 30.6], [-92.8, 31.0], [-92.0, 31.5], [-91.1, 32.3], [-90.6, 33.0], [-90.0, 33.6], [-89.6, 33.9], [-89.2, 34.1], [-88.9, 34.3], [-88.3, 34.6], [-88.6, 34.7], [-89.1, 34.3], [-89.9, 34.3], [-90.6, 34.1]]}, "properties": {"model": "UE08", "label": "ECMWF Ens 08", "kind": "ensemble", "group": "ensemble", "cycle": "2021082812"}}, {"type": "Feature", "geometry": {"type": "LineString", "coordinates": [[-85.7, 24.6], [-86.5, 25.6], [-87.7, 26.4], [-88.8, 27.3], [-89.7, 28.4], [-91.1, 29.1], [-92.0, 29.4], [-92.5, 29.6], [-92.5, 30.1], [-92.6, 30.8], [-92.8, 31.3], [-92.4, 31.5], [-91.9, 32.1], [-91.4, 32.3], [-90.3, 33.0], [-90.0, 33.6], [-89.5, 33.6], [-88.9, 34.0], [-88.8, 34.3], [-89.2, 34.4], [-88.9, 34.4], [-88.8, 34.5]]}, "properties": {"model": "UE09", "label": "ECMWF Ens 09", "kind": "ensemble", "group": "ensemble", "cycle": "2021082812"}}, {"type": "Feature", "geometry": {"type": "LineString", "coordinates": [[-85.7, 24.6], [-86.6, 25.8], [-87.8, 26.9], [-88.9, 27.8], [-90.0, 28.7], [-90.6, 29.1], [-91.1, 29.8], [-91.7, 30.2], [-91.6, 30.8], [-91.4, 31.4], [-90.9, 31.9], [-90.3, 32.6], [-89.5, 33.2], [-88.8, 33.8], [-88.2, 34.5], [-88.0, 34.5], [-87.6, 34.5], [-87.4, 34.1], [-87.2, 33.4], [-86.9, 32.9], [-86.5, 32.8]]}, "properties": {"model": "UE10", "label": "ECMWF Ens 10", "kind": "ensemble", "group": "ensemble", "cycle": "2021082812"}}, {"type": "Feature", "geometry": {"type": "LineString", "coordinates": [[-85.5, 24.4], [-86.3, 25.5], [-87.5, 26.6], [-88.6, 27.5], [-89.9, 28.4], [-91.1, 29.0], [-91.7, 29.4], [-92.1, 30.0], [-92.5, 30.9], [-92.5, 31.5], [-92.5, 31.9], [-92.0, 32.2], [-91.5, 32.5], [-90.9, 33.0], [-90.2, 33.2], [-89.9, 33.4], [-88.9, 33.4], [-88.5, 33.4], [-88.0, 33.2], [-87.4, 33.2], [-86.3, 33.6], [-85.5, 34.1], [-86.1, 33.4], [-86.9, 32.9]]}, "properties": {"model": "UE11", "label": "ECMWF Ens 11", "kind": "ensemble", "group": "ensemble", "cycle": "2021082812"}}, {"type": "Feature", "geometry": {"type": "LineString", "coordinates": [[-85.5, 24.4], [-86.3, 25.5], [-87.4, 26.6], [-88.6, 27.7], [-89.7, 28.8], [-90.9, 29.4], [-91.7, 29.8], [-92.5, 30.1], [-92.8, 30.6], [-93.1, 31.1], [-93.5, 31.3], [-93.3, 31.5], [-92.5, 31.9], [-92.1, 32.0], [-91.4, 31.8], [-90.1, 32.8], [-88.9, 33.5], [-88.3, 33.7], [-88.0, 33.8], [-88.0, 33.7], [-87.8, 33.6]]}, "properties": {"model": "UE12", "label": "ECMWF Ens 12", "kind": "ensemble", "group": "ensemble", "cycle": "2021082812"}}, {"type": "Feature", "geometry": {"type": "LineString", "coordinates": [[-85.7, 24.4], [-86.6, 25.5], [-87.8, 26.5], [-89.1, 27.4], [-90.3, 28.1], [-91.4, 28.5], [-91.9, 28.9], [-92.3, 29.5], [-92.5, 30.2], [-92.8, 30.8], [-92.9, 31.6], [-92.8, 32.1], [-92.5, 32.8], [-92.2, 33.2], [-91.9, 33.7], [-91.7, 33.6], [-91.2, 33.7], [-91.2, 33.8], [-91.2, 33.9], [-91.6, 33.8], [-91.9, 33.9], [-92.1, 33.8]]}, "properties": {"model": "UE13", "label": "ECMWF Ens 13", "kind": "ensemble", "group": "ensemble", "cycle": "2021082812"}}, {"type": "Feature", "geometry": {"type": "LineString", "coordinates": [[-85.5, 24.4], [-86.4, 25.5], [-87.5, 26.5], [-88.6, 27.4], [-89.7, 28.3], [-90.6, 29.0], [-91.4, 29.6], [-92.2, 30.2], [-92.2, 30.9], [-92.2, 31.5], [-91.7, 32.3], [-91.3, 33.0], [-90.3, 34.0], [-89.4, 34.9], [-88.0, 36.0], [-86.6, 37.1], [-84.6, 38.2], [-83.2, 39.1], [-81.4, 39.8], [-77.7, 41.0], [-76.5, 41.3], [-74.1, 41.3], [-72.8, 41.7], [-70.4, 42.9], [-69.6, 44.6], [-70.0, 46.2], [-70.2, 46.9], [-70.1, 47.1], [-69.6, 47.6], [-69.9, 47.5], [-70.3, 47.4]]}, "properties": {"model": "UE14", "label": "ECMWF Ens 14", "kind": "ensemble", "group": "ensemble", "cycle": "2021082812"}}, {"type": "Feature", "geometry": {"type": "LineString", "coordinates": [[-85.8, 24.2], [-86.5, 25.5], [-87.5, 26.7], [-88.7, 27.8], [-89.7, 28.8], [-90.6, 29.5], [-90.8, 30.1], [-91.2, 30.8], [-91.4, 31.6], [-91.6, 32.3], [-91.1, 32.8], [-90.5, 33.4], [-89.7, 34.6], [-89.2, 35.2], [-88.5, 35.5], [-88.0, 35.4], [-86.8, 36.2], [-86.5, 35.8], [-86.6, 35.1]]}, "properties": {"model": "UE15", "label": "ECMWF Ens 15", "kind": "ensemble", "group": "ensemble", "cycle": "2021082812"}}, {"type": "Feature", "geometry": {"type": "LineString", "coordinates": [[-85.6, 24.4], [-86.4, 25.7], [-87.5, 26.6], [-88.6, 27.7], [-89.9, 28.5], [-90.8, 29.1], [-91.2, 29.5], [-91.6, 30.1], [-91.9, 30.7], [-92.0, 31.2], [-91.7, 31.5], [-91.2, 31.9], [-90.5, 32.4], [-89.7, 32.8], [-88.9, 33.4], [-87.8, 34.1], [-87.4, 34.3], [-86.5, 34.6], [-85.5, 35.5], [-84.9, 36.3], [-84.9, 35.8], [-83.0, 36.1]]}, "properties": {"model": "UE16", "label": "ECMWF Ens 16", "kind": "ensemble", "group": "ensemble", "cycle": "2021082812"}}, {"type": "Feature", "geometry": {"type": "LineString", "coordinates": [[-85.8, 24.8], [-86.7, 25.9], [-87.9, 27.0], [-88.9, 27.9], [-90.0, 28.9], [-90.9, 29.7], [-91.4, 30.3], [-91.9, 31.1], [-92.2, 31.9], [-91.9, 32.8], [-91.5, 33.9], [-91.1, 34.7], [-90.0, 35.4], [-89.1, 36.0], [-88.0, 36.9], [-86.9, 36.8], [-85.0, 37.4], [-84.0, 37.4]]}, "properties": {"model": "UE17", "label": "ECMWF Ens 17", "kind": "ensemble", "group": "ensemble", "cycle": "2021082812"}}, {"type": "Feature", "geometry": {"type": "LineString", "coordinates": [[-85.5, 24.4], [-86.4, 25.4], [-87.4, 26.4], [-88.6, 27.0], [-89.4, 27.6], [-90.1, 28.1], [-90.8, 28.6], [-91.2, 29.1], [-91.3, 29.8], [-91.4, 30.4], [-91.5, 31.1], [-91.4, 31.9], [-90.8, 32.8], [-90.3, 33.6], [-89.7, 34.3], [-89.2, 34.9], [-88.8, 35.3], [-88.0, 35.2], [-87.2, 35.8], [-87.1, 36.4], [-87.4, 36.4], [-87.5, 36.3], [-87.8, 36.0], [-88.0, 36.0], [-88.1, 36.4], [-88.6, 36.7]]}, "properties": {"model": "UE18", "label": "ECMWF Ens 18", "kind": "ensemble", "group": "ensemble", "cycle": "2021082812"}}, {"type": "Feature", "geometry": {"type": "LineString", "coordinates": [[-86.0, 24.4], [-87.2, 25.3], [-88.3, 26.0], [-89.1, 27.0], [-90.0, 28.1], [-90.9, 28.7], [-91.5, 29.1], [-91.9, 29.5], [-92.2, 30.1], [-92.4, 30.4], [-92.2, 30.8], [-91.9, 31.3], [-91.6, 32.1], [-91.2, 32.5], [-90.8, 32.7], [-90.4, 33.2], [-89.7, 33.6], [-89.4, 33.7], [-88.8, 33.9], [-88.5, 34.5], [-88.3, 34.9], [-88.4, 34.7]]}, "properties": {"model": "UE19", "label": "ECMWF Ens 19", "kind": "ensemble", "group": "ensemble", "cycle": "2021082812"}}, {"type": "Feature", "geometry": {"type": "LineString", "coordinates": [[-85.5, 24.6], [-86.6, 25.6], [-87.3, 26.6], [-88.4, 27.2], [-89.2, 28.1], [-90.2, 28.4], [-90.8, 28.9], [-91.2, 29.3], [-91.2, 29.8], [-91.3, 30.4], [-91.2, 31.0], [-91.1, 31.5], [-90.5, 31.8], [-90.0, 32.1], [-89.5, 32.4], [-89.1, 32.6], [-87.8, 33.2], [-87.2, 33.4], [-86.7, 33.8], [-86.8, 33.7], [-86.9, 33.3], [-86.9, 33.1], [-87.5, 32.8], [-88.6, 32.6]]}, "properties": {"model": "UE20", "label": "ECMWF Ens 20", "kind": "ensemble", "group": "ensemble", "cycle": "2021082812"}}, {"type": "Feature", "geometry": {"type": "LineString", "coordinates": [[-85.5, 24.4], [-86.4, 25.7], [-87.7, 26.6], [-88.6, 27.2], [-89.5, 28.1], [-90.6, 28.9], [-91.3, 29.6], [-92.0, 30.2], [-92.3, 30.9], [-92.5, 31.7], [-92.5, 32.6], [-92.5, 33.0], [-91.7, 33.8], [-90.9, 34.1], [-90.5, 34.9], [-90.1, 34.9], [-89.6, 35.0], [-88.9, 35.1], [-88.5, 35.4], [-88.6, 35.8], [-88.8, 35.7], [-89.1, 35.6], [-89.8, 35.5], [-90.9, 35.3], [-91.4, 35.3]]}, "properties": {"model": "UE21", "label": "ECMWF Ens 21", "kind": "ensemble", "group": "ensemble", "cycle": "2021082812"}}, {"type": "Feature", "geometry": {"type": "LineString", "coordinates": [[-85.7, 24.8], [-86.7, 25.7], [-87.7, 26.8], [-89.0, 27.9], [-90.1, 28.9], [-90.9, 29.6], [-91.6, 30.2], [-92.1, 30.9], [-92.5, 31.7], [-92.5, 32.2], [-92.2, 33.0], [-91.4, 33.6], [-90.8, 34.3], [-90.0, 34.9], [-89.5, 35.4], [-88.9, 35.4], [-88.0, 35.4], [-87.5, 35.9], [-86.3, 35.9], [-85.8, 36.1], [-85.8, 36.0], [-85.8, 35.5]]}, "properties": {"model": "UE22", "label": "ECMWF Ens 22", "kind": "ensemble", "group": "ensemble", "cycle": "2021082812"}}, {"type": "Feature", "geometry": {"type": "LineString", "coordinates": [[-85.8, 24.4], [-86.9, 25.3], [-88.0, 26.3], [-88.9, 27.0], [-89.7, 28.2], [-90.8, 29.1], [-91.5, 29.9], [-92.3, 30.5], [-92.3, 31.4], [-92.3, 32.2], [-92.2, 32.6], [-91.7, 32.8], [-90.5, 33.5], [-89.6, 34.3], [-88.4, 34.7], [-87.4, 35.6], [-86.3, 35.8], [-84.8, 36.8], [-84.1, 36.4], [-82.2, 37.5]]}, "properties": {"model": "UE23", "label": "ECMWF Ens 23", "kind": "ensemble", "group": "ensemble", "cycle": "2021082812"}}, {"type": "Feature", "geometry": {"type": "LineString", "coordinates": [[-85.8, 24.3], [-86.9, 25.5], [-88.3, 26.6], [-89.7, 27.5], [-90.6, 28.4], [-91.6, 29.1], [-92.3, 29.8], [-93.0, 30.4], [-93.2, 31.1], [-93.3, 31.5], [-92.6, 32.0], [-92.2, 33.0], [-91.5, 33.7], [-90.6, 34.3], [-90.1, 34.9], [-89.4, 35.0], [-88.7, 35.3], [-88.6, 35.2], [-88.9, 35.0], [-89.2, 34.8], [-89.5, 34.5], [-89.8, 34.3]]}, "properties": {"model": "UE24", "label": "ECMWF Ens 24", "kind": "ensemble", "group": "ensemble", "cycle": "2021082812"}}, {"type": "Feature", "geometry": {"type": "LineString", "coordinates": [[-85.8, 24.2], [-86.7, 25.3], [-88.0, 26.4], [-89.1, 27.2], [-89.7, 28.1], [-90.6, 28.9], [-91.2, 29.7], [-91.7, 30.3], [-91.9, 31.0], [-91.7, 31.6], [-91.2, 32.4], [-90.9, 33.2], [-90.1, 33.8], [-89.4, 34.5], [-88.6, 35.4], [-88.3, 35.4], [-87.1, 35.4], [-86.3, 35.6], [-85.5, 36.0]]}, "properties": {"model": "UE25", "label": "ECMWF Ens 25", "kind": "ensemble", "group": "ensemble", "cycle": "2021082812"}}, {"type": "Feature", "geometry": {"type": "LineString", "coordinates": [[-85.8, 24.4], [-86.9, 25.5], [-88.3, 26.4], [-89.4, 27.2], [-90.2, 28.1], [-91.1, 28.7], [-91.5, 29.4], [-92.0, 30.2], [-92.2, 30.6], [-92.2, 31.1], [-91.7, 31.8], [-91.4, 32.5], [-90.8, 33.1], [-90.3, 33.9], [-89.6, 34.3], [-89.1, 34.5], [-88.4, 34.6], [-88.0, 34.5], [-87.6, 33.9], [-86.8, 33.7], [-86.3, 33.8]]}, "properties": {"model": "UE26", "label": "ECMWF Ens 26", "kind": "ensemble", "group": "ensemble", "cycle": "2021082812"}}, {"type": "Feature", "geometry": {"type": "LineString", "coordinates": [[-86.0, 24.7], [-87.2, 25.9], [-88.3, 27.0], [-89.5, 27.9], [-90.5, 28.7], [-91.4, 29.2], [-91.7, 29.6], [-92.0, 30.2], [-92.0, 30.9], [-91.7, 31.6], [-91.4, 32.6], [-90.6, 33.4], [-89.7, 34.7], [-89.1, 35.0], [-88.0, 35.8], [-87.2, 36.0], [-86.1, 36.6], [-85.4, 36.6]]}, "properties": {"model": "UE27", "label": "ECMWF Ens 27", "kind": "ensemble", "group": "ensemble", "cycle": "2021082812"}}, {"type": "Feature", "geometry": {"type": "LineString", "coordinates": [[-85.8, 24.4], [-87.1, 25.4], [-88.1, 26.2], [-89.1, 27.0], [-90.0, 28.1], [-91.1, 28.7], [-91.8, 29.3], [-92.3, 29.6], [-92.4, 30.2], [-92.5, 30.6], [-92.1, 30.9], [-91.6, 31.7], [-91.1, 32.8], [-90.8, 33.1], [-90.0, 33.3], [-88.0, 34.4], [-86.7, 35.4], [-85.8, 36.2], [-84.4, 36.5], [-82.4, 37.4], [-78.1, 37.7], [-77.4, 38.0], [-75.9, 37.9], [-73.0, 38.7], [-70.3, 38.9], [-66.9, 39.7], [-60.4, 41.5], [-57.4, 42.7], [-55.3, 45.0], [-53.4, 46.2], [-50.9, 48.4], [-49.8, 50.4], [-49.8, 51.7]]}, "properties": {"model": "UE28", "label": "ECMWF Ens 28", "kind": "ensemble", "group": "ensemble", "cycle": "2021082812"}}, {"type": "Feature", "geometry": {"type": "LineString", "coordinates": [[-85.8, 24.4], [-86.9, 25.3], [-88.0, 26.3], [-89.1, 27.2], [-90.0, 28.2], [-90.9, 28.9], [-91.6, 29.5], [-92.0, 30.0], [-92.2, 30.7], [-92.3, 31.1], [-91.9, 31.6], [-91.2, 32.1], [-90.0, 33.0], [-89.1, 34.1], [-88.4, 35.3], [-88.1, 36.0], [-87.8, 36.4], [-87.8, 36.4], [-87.9, 36.4], [-88.6, 36.2], [-88.6, 36.3], [-88.9, 36.5]]}, "properties": {"model": "UE29", "label": "ECMWF Ens 29", "kind": "ensemble", "group": "ensemble", "cycle": "2021082812"}}, {"type": "Feature", "geometry": {"type": "LineString", "coordinates": [[-86.1, 24.6], [-87.2, 25.5], [-88.4, 26.4], [-89.7, 27.2], [-91.0, 28.1], [-92.0, 28.9], [-93.0, 29.6], [-93.6, 29.9], [-93.9, 30.2], [-93.9, 30.4], [-93.4, 30.8], [-93.0, 31.5], [-92.8, 32.1], [-91.6, 32.0], [-90.5, 32.9], [-90.3, 33.2], [-89.7, 33.4], [-89.2, 32.9], [-88.6, 32.8], [-88.1, 32.6], [-87.5, 32.7], [-86.9, 32.5], [-86.0, 32.6], [-86.2, 32.9], [-86.6, 32.5], [-87.1, 32.3]]}, "properties": {"model": "UE30", "label": "ECMWF Ens 30", "kind": "ensemble", "group": "ensemble", "cycle": "2021082812"}}, {"type": "Feature", "geometry": {"type": "LineString", "coordinates": [[-85.8, 24.2], [-87.0, 25.1], [-88.3, 26.0], [-89.5, 26.8], [-90.2, 27.6], [-91.0, 28.5], [-91.9, 29.4], [-92.7, 30.0], [-93.3, 30.4], [-93.4, 30.7], [-93.2, 31.3], [-93.1, 32.0], [-92.3, 32.7], [-91.4, 33.4], [-90.5, 34.3], [-89.8, 34.5], [-88.6, 35.3], [-88.0, 35.3], [-87.2, 35.3], [-86.6, 35.5], [-86.3, 35.3]]}, "properties": {"model": "UE31", "label": "ECMWF Ens 31", "kind": "ensemble", "group": "ensemble", "cycle": "2021082812"}}, {"type": "Feature", "geometry": {"type": "LineString", "coordinates": [[-85.6, 24.2], [-86.6, 25.4], [-87.8, 26.5], [-89.0, 27.3], [-90.3, 28.1], [-91.3, 28.5], [-92.0, 29.1], [-92.6, 29.8], [-93.0, 30.5], [-93.1, 31.1], [-92.9, 31.9], [-92.8, 32.3], [-91.9, 33.2], [-91.1, 33.9], [-90.3, 34.6], [-90.0, 34.9], [-89.1, 34.9], [-88.3, 35.1], [-87.8, 35.3], [-88.0, 35.2], [-88.3, 34.7]]}, "properties": {"model": "UE32", "label": "ECMWF Ens 32", "kind": "ensemble", "group": "ensemble", "cycle": "2021082812"}}, {"type": "Feature", "geometry": {"type": "LineString", "coordinates": [[-85.4, 24.4], [-86.7, 25.4], [-87.8, 26.4], [-88.9, 27.4], [-89.7, 28.3], [-90.8, 28.9], [-91.4, 29.6], [-91.9, 30.1], [-92.2, 30.8], [-92.3, 31.5], [-92.2, 32.0], [-91.9, 32.6], [-91.6, 33.0], [-91.2, 33.3], [-90.8, 33.7], [-90.6, 33.7], [-90.1, 33.7], [-89.9, 33.8], [-89.7, 33.5], [-89.7, 33.6], [-89.5, 33.6], [-89.5, 34.2], [-90.2, 34.1], [-90.3, 34.3], [-90.6, 35.2]]}, "properties": {"model": "UE33", "label": "ECMWF Ens 33", "kind": "ensemble", "group": "ensemble", "cycle": "2021082812"}}, {"type": "Feature", "geometry": {"type": "LineString", "coordinates": [[-85.5, 24.5], [-86.6, 25.5], [-87.8, 26.3], [-88.8, 27.0], [-89.9, 27.8], [-90.8, 28.4], [-91.4, 29.0], [-91.7, 29.6], [-92.0, 30.1], [-92.0, 30.7], [-91.7, 31.4], [-91.4, 32.1], [-90.5, 33.0], [-89.7, 33.9], [-88.6, 34.5], [-87.4, 35.0], [-86.0, 35.6], [-85.2, 36.0], [-82.5, 36.5], [-81.8, 37.5]]}, "properties": {"model": "UE34", "label": "ECMWF Ens 34", "kind": "ensemble", "group": "ensemble", "cycle": "2021082812"}}, {"type": "Feature", "geometry": {"type": "LineString", "coordinates": [[-85.7, 24.4], [-86.7, 25.4], [-87.9, 26.3], [-89.1, 27.1], [-90.0, 28.0], [-91.0, 28.7], [-91.7, 29.3], [-92.2, 29.8], [-92.5, 30.4], [-92.6, 30.9], [-92.3, 31.6], [-91.9, 32.2], [-91.3, 33.0], [-90.8, 33.8], [-90.3, 34.5], [-89.7, 34.9], [-89.2, 35.3], [-89.0, 35.3], [-88.8, 35.1], [-88.7, 35.0], [-88.3, 34.7], [-88.1, 34.7], [-88.6, 34.7], [-88.9, 34.6], [-89.7, 34.6]]}, "properties": {"model": "UE35", "label": "ECMWF Ens 35", "kind": "ensemble", "group": "ensemble", "cycle": "2021082812"}}, {"type": "Feature", "geometry": {"type": "LineString", "coordinates": [[-85.7, 24.2], [-86.7, 25.3], [-87.9, 26.4], [-89.2, 27.4], [-90.4, 28.2], [-91.3, 28.9], [-92.0, 29.6], [-92.7, 30.3], [-92.8, 31.1], [-92.9, 32.0], [-92.7, 32.7], [-92.4, 33.3], [-91.8, 33.9], [-90.9, 34.4], [-89.9, 35.0], [-89.1, 35.7], [-87.8, 36.9], [-86.9, 37.2], [-86.4, 36.4], [-86.1, 35.6], [-85.7, 35.1], [-85.8, 34.5], [-86.4, 33.9], [-87.2, 33.4], [-87.6, 33.5], [-88.3, 33.7], [-89.2, 34.5], [-90.0, 34.9], [-90.8, 35.6], [-91.3, 36.0], [-91.0, 36.3], [-91.4, 36.7], [-91.5, 37.7]]}, "properties": {"model": "AP02", "label": "GEFS 02", "kind": "ensemble", "group": "ensemble", "cycle": "2021082812"}}, {"type": "Feature", "geometry": {"type": "LineString", "coordinates": [[-85.6, 24.6], [-86.7, 25.5], [-87.8, 26.4], [-88.9, 27.2], [-89.9, 28.0], [-90.8, 28.5], [-91.5, 29.0], [-92.1, 29.6], [-92.6, 30.4], [-93.1, 31.1], [-93.1, 31.9], [-93.0, 32.6], [-92.5, 33.6], [-92.1, 34.2], [-91.2, 34.6], [-90.6, 34.9], [-90.1, 35.1], [-89.7, 35.0], [-89.1, 34.7], [-89.3, 34.6], [-89.9, 34.8], [-90.2, 35.1], [-90.9, 35.2], [-91.9, 35.9], [-93.2, 36.5], [-94.1, 37.2], [-95.0, 37.6]]}, "properties": {"model": "AP05", "label": "GEFS 05", "kind": "ensemble", "group": "ensemble", "cycle": "2021082812"}}, {"type": "Feature", "geometry": {"type": "LineString", "coordinates": [[-85.8, 24.5], [-86.9, 25.6], [-88.0, 26.7], [-89.1, 27.6], [-90.1, 28.4], [-91.0, 29.2], [-91.5, 29.9], [-92.0, 30.7], [-92.0, 31.6], [-92.0, 32.5], [-91.5, 33.2], [-91.1, 33.7], [-89.8, 34.6], [-88.6, 35.4], [-87.2, 36.2], [-86.0, 36.5], [-83.9, 36.8], [-80.6, 37.8], [-78.2, 37.6], [-77.2, 38.0], [-75.3, 37.4], [-71.1, 37.3], [-66.6, 39.0], [-61.7, 40.7], [-56.8, 43.1], [-53.5, 44.4], [-49.5, 45.2], [-46.4, 45.5], [-42.4, 47.0], [-38.9, 48.4], [-36.3, 49.4], [-33.8, 50.1], [-30.6, 51.9]]}, "properties": {"model": "AP09", "label": "GEFS 09", "kind": "ensemble", "group": "ensemble", "cycle": "2021082812"}}, {"type": "Feature", "geometry": {"type": "LineString", "coordinates": [[-85.3, 24.2], [-86.1, 25.4], [-87.2, 26.4], [-88.2, 27.3], [-89.0, 28.1], [-89.7, 29.0], [-90.4, 29.9], [-91.1, 30.7], [-91.2, 31.3], [-91.0, 31.9], [-90.7, 32.5], [-90.4, 33.0], [-89.3, 33.8], [-88.4, 34.4], [-87.2, 35.0], [-85.7, 36.3], [-82.7, 37.6], [-80.6, 38.8], [-77.7, 39.5], [-74.5, 40.8], [-72.3, 41.5], [-69.4, 42.8], [-67.2, 44.1], [-65.2, 45.7], [-64.4, 47.0], [-64.5, 47.9], [-64.8, 49.0], [-65.0, 49.8], [-64.9, 50.1], [-64.9, 50.6], [-64.4, 51.0], [-63.6, 51.4], [-62.3, 52.2]]}, "properties": {"model": "AP10", "label": "GEFS 10", "kind": "ensemble", "group": "ensemble", "cycle": "2021082812"}}, {"type": "Feature", "geometry": {"type": "LineString", "coordinates": [[-86.1, 24.5], [-87.1, 25.4], [-87.9, 26.5], [-88.7, 27.6], [-89.5, 28.5], [-90.0, 29.5], [-90.2, 30.2], [-90.5, 30.9], [-90.3, 31.8], [-89.9, 32.7], [-89.4, 33.7], [-89.0, 34.6], [-88.1, 35.8], [-87.0, 36.3], [-85.2, 36.4]]}, "properties": {"model": "AP11", "label": "GEFS 11", "kind": "ensemble", "group": "ensemble", "cycle": "2021082812"}}, {"type": "Feature", "geometry": {"type": "LineString", "coordinates": [[-85.6, 24.4], [-86.5, 25.5], [-87.5, 26.6], [-88.6, 27.6], [-89.5, 28.4], [-90.1, 29.2], [-90.6, 29.8], [-91.0, 30.5], [-91.0, 31.2], [-90.6, 32.2], [-90.1, 33.0], [-89.6, 33.6], [-88.3, 34.1], [-86.8, 34.9], [-85.1, 35.7], [-82.9, 37.0], [-81.1, 38.7], [-79.7, 38.8], [-76.8, 39.4], [-74.7, 40.3], [-71.8, 41.8], [-68.9, 44.4], [-65.6, 47.1], [-64.5, 48.4], [-64.2, 48.8], [-64.2, 50.0], [-64.4, 49.8], [-64.6, 49.5], [-63.5, 49.0], [-61.6, 49.5], [-59.6, 50.8], [-58.3, 52.2], [-56.1, 54.1]]}, "properties": {"model": "AP12", "label": "GEFS 12", "kind": "ensemble", "group": "ensemble", "cycle": "2021082812"}}, {"type": "Feature", "geometry": {"type": "LineString", "coordinates": [[-85.9, 24.8], [-87.0, 25.8], [-87.9, 26.9], [-89.2, 28.1], [-90.0, 28.8], [-90.5, 29.6], [-90.9, 30.2], [-91.2, 30.7], [-91.1, 31.5], [-91.0, 32.2], [-90.7, 32.8], [-90.3, 34.0], [-89.5, 35.1], [-89.1, 35.5], [-88.2, 34.7], [-87.1, 35.6], [-85.0, 36.3]]}, "properties": {"model": "AP16", "label": "GEFS 16", "kind": "ensemble", "group": "ensemble", "cycle": "2021082812"}}, {"type": "Feature", "geometry": {"type": "LineString", "coordinates": [[-85.6, 24.5], [-86.7, 25.4], [-87.6, 26.6], [-88.8, 27.8], [-89.6, 28.9], [-90.3, 29.7], [-90.7, 30.4], [-91.0, 31.1], [-91.0, 32.0], [-90.9, 32.6], [-90.2, 33.1], [-89.6, 33.9], [-88.3, 34.7], [-87.2, 35.5], [-85.4, 36.1], [-83.1, 36.9], [-79.7, 37.8], [-76.2, 39.1], [-73.9, 39.6], [-70.5, 40.9], [-67.8, 42.4], [-66.0, 43.5], [-63.8, 44.8], [-61.0, 46.7], [-58.8, 48.2], [-59.1, 48.5], [-58.4, 49.3], [-57.9, 50.1], [-58.3, 49.1], [-58.4, 48.2], [-58.7, 47.5], [-57.2, 46.8]]}, "properties": {"model": "AP17", "label": "GEFS 17", "kind": "ensemble", "group": "ensemble", "cycle": "2021082812"}}, {"type": "Feature", "geometry": {"type": "LineString", "coordinates": [[-85.7, 24.3], [-86.8, 25.2], [-87.8, 26.3], [-89.0, 27.3], [-89.9, 28.1], [-90.6, 29.0], [-91.2, 29.7], [-92.1, 30.5], [-92.6, 31.3], [-92.8, 31.9], [-92.6, 32.6], [-92.6, 33.4], [-91.9, 34.5], [-91.5, 35.3], [-90.1, 36.3], [-89.6, 37.2], [-88.6, 37.6], [-86.3, 38.9], [-85.6, 38.9], [-86.2, 38.4], [-87.4, 37.6], [-88.9, 36.3], [-90.0, 35.5], [-90.9, 34.9], [-91.2, 35.0], [-91.6, 35.1], [-92.4, 35.4], [-93.7, 35.8], [-95.0, 36.4]]}, "properties": {"model": "AP19", "label": "GEFS 19", "kind": "ensemble", "group": "ensemble", "cycle": "2021082812"}}, {"type": "Feature", "geometry": {"type": "LineString", "coordinates": [[-85.5, 24.3], [-86.4, 25.5], [-87.3, 26.7], [-88.5, 27.8], [-89.3, 28.9], [-89.9, 29.7], [-90.2, 30.3], [-90.4, 31.0], [-90.4, 31.7], [-90.3, 32.4], [-90.1, 33.0], [-89.8, 33.6], [-88.7, 34.5], [-87.6, 35.2], [-86.6, 35.3], [-84.4, 36.7], [-81.2, 38.0], [-78.9, 38.3], [-75.3, 39.2], [-72.0, 39.9], [-68.6, 41.0], [-65.8, 42.2], [-61.5, 43.9], [-56.4, 46.1], [-52.2, 47.7], [-48.9, 49.1], [-46.4, 49.8], [-42.9, 50.4], [-37.9, 51.9], [-31.9, 53.9]]}, "properties": {"model": "AP20", "label": "GEFS 20", "kind": "ensemble", "group": "ensemble", "cycle": "2021082812"}}, {"type": "Feature", "geometry": {"type": "LineString", "coordinates": [[-85.6, 24.6], [-86.5, 25.6], [-87.3, 26.8], [-88.4, 28.0], [-89.2, 29.0], [-89.9, 29.7], [-90.3, 30.6], [-90.8, 31.4], [-91.0, 32.2], [-90.9, 32.7], [-90.6, 33.4], [-90.1, 33.9], [-89.1, 35.2], [-88.1, 36.1], [-87.1, 36.6], [-86.3, 36.8], [-84.5, 37.5], [-82.1, 38.0], [-78.4, 39.3], [-75.4, 41.0], [-72.4, 41.5], [-70.5, 41.9], [-69.8, 42.0], [-69.0, 41.6], [-66.5, 41.5]]}, "properties": {"model": "AP24", "label": "GEFS 24", "kind": "ensemble", "group": "ensemble", "cycle": "2021082812"}}, {"type": "Feature", "geometry": {"type": "LineString", "coordinates": [[-85.7, 24.6], [-86.7, 25.6], [-87.7, 26.6], [-88.7, 27.4], [-89.5, 28.3], [-90.2, 29.0], [-90.5, 29.6], [-90.8, 30.3], [-90.6, 31.1], [-90.5, 32.1], [-90.3, 32.8], [-90.1, 33.3], [-89.4, 33.8], [-88.4, 34.5], [-87.3, 35.2], [-85.9, 36.4], [-83.7, 38.3], [-81.6, 39.1], [-79.7, 39.9], [-78.3, 39.8], [-76.9, 39.4], [-75.5, 39.3], [-73.7, 39.9], [-73.1, 39.6], [-72.0, 40.0], [-70.6, 40.7], [-69.4, 41.8]]}, "properties": {"model": "AP26", "label": "GEFS 26", "kind": "ensemble", "group": "ensemble", "cycle": "2021082812"}}, {"type": "Feature", "geometry": {"type": "LineString", "coordinates": [[-85.5, 24.4], [-86.5, 25.5], [-87.5, 26.6], [-88.6, 27.6], [-89.5, 28.5], [-90.4, 29.2], [-90.9, 29.9], [-91.4, 30.6], [-91.6, 31.3], [-91.6, 31.9], [-91.1, 32.7], [-90.7, 33.5], [-89.8, 34.5], [-88.9, 35.2], [-87.4, 36.1], [-86.3, 36.4], [-84.3, 37.1], [-82.7, 37.4], [-80.5, 38.1], [-79.0, 38.3]]}, "properties": {"model": "AP30", "label": "GEFS 30", "kind": "ensemble", "group": "ensemble", "cycle": "2021082812"}}, {"type": "Feature", "geometry": {"type": "LineString", "coordinates": [[-84.7, 23.5], [-86.7, 25.2], [-88.5, 27.4], [-89.9, 29.3], [-90.8, 31.2], [-90.9, 33.0], [-90.2, 34.6], [-88.6, 35.8], [-85.2, 37.1], [-79.8, 38.5], [-74.1, 39.4], [-67.7, 40.4], [-60.2, 42.8], [-53.6, 45.8], [-48.2, 49.0]]}, "properties": {"model": "CMCI", "label": "CMC (interpolated)", "kind": "physics", "group": "deterministic", "cycle": "2021082806"}}, {"type": "Feature", "geometry": {"type": "LineString", "coordinates": [[-85.7, 24.4], [-86.7, 25.4], [-87.6, 26.7], [-89.1, 27.5], [-89.8, 28.4], [-90.5, 29.1], [-90.8, 30.0], [-91.3, 30.9], [-91.2, 31.7], [-91.0, 32.5], [-90.7, 33.2], [-89.9, 33.9], [-88.6, 34.7], [-87.3, 35.6], [-86.1, 36.2], [-84.8, 36.4], [-83.4, 36.7], [-81.1, 37.2], [-79.5, 37.1], [-78.1, 36.5], [-77.3, 35.8]]}, "properties": {"model": "COTC", "label": "COAMPS-TC (interpolated)", "kind": "physics", "group": "deterministic", "cycle": "2021082812"}}, {"type": "Feature", "geometry": {"type": "LineString", "coordinates": [[-85.7, 24.3], [-86.5, 25.5], [-87.6, 26.7], [-89.0, 27.5], [-89.8, 28.2], [-90.5, 28.9], [-91.0, 29.4], [-91.4, 30.1], [-91.5, 30.7], [-91.5, 31.4], [-91.0, 32.2], [-90.7, 33.0], [-90.0, 33.9], [-89.3, 34.6], [-88.7, 35.4], [-88.1, 35.7], [-87.1, 36.2], [-86.2, 36.5], [-85.2, 36.7], [-84.6, 36.8], [-83.9, 36.8], [-83.6, 36.4], [-83.3, 36.2], [-83.5, 35.8], [-83.8, 35.1], [-83.7, 34.8], [-83.6, 34.7], [-84.0, 34.4]]}, "properties": {"model": "NVGM", "label": "NAVGEM", "kind": "physics", "group": "deterministic", "cycle": "2021082812"}}, {"type": "Feature", "geometry": {"type": "LineString", "coordinates": [[-85.7, 24.4], [-87.8, 26.3], [-89.7, 28.0], [-91.0, 29.4], [-91.5, 31.0], [-91.1, 32.6], [-89.9, 34.2], [-88.1, 35.5], [-85.8, 36.6], [-83.2, 37.3], [-81.6, 37.2], [-80.7, 36.8], [-80.6, 36.1], [-78.9, 35.1], [-79.2, 34.4]]}, "properties": {"model": "TVCA", "label": "Consensus", "kind": "consensus", "group": "consensus", "cycle": "2021082812"}}, {"type": "Feature", "geometry": {"type": "LineString", "coordinates": [[-85.7, 24.4], [-87.8, 26.3], [-89.7, 28.0], [-91.0, 29.4], [-91.5, 31.0], [-91.1, 32.6], [-89.9, 34.2], [-88.1, 35.5], [-85.8, 36.6], [-83.2, 37.3], [-81.6, 37.2], [-80.7, 36.8], [-80.6, 36.1], [-78.9, 35.1], [-79.2, 34.4]]}, "properties": {"model": "TVCN", "label": "TVCN Consensus", "kind": "consensus", "group": "consensus", "cycle": "2021082812"}}, {"type": "Feature", "geometry": {"type": "LineString", "coordinates": [[-84.7, 23.5], [-86.9, 25.4], [-88.9, 27.0], [-90.6, 28.4], [-91.4, 29.7], [-91.4, 31.4], [-90.7, 33.3], [-89.2, 34.9], [-86.9, 36.2], [-83.6, 37.2], [-80.3, 37.6], [-78.1, 36.6], [-76.6, 35.5], [-75.6, 34.9], [-75.8, 33.5]]}, "properties": {"model": "EMXI", "label": "ECMWF", "kind": "physics", "group": "deterministic", "cycle": "2021082806"}}, {"type": "Feature", "geometry": {"type": "LineString", "coordinates": [[-85.7, 24.4], [-87.8, 26.2], [-89.7, 27.9], [-91.0, 29.3], [-91.4, 30.9], [-91.0, 32.7], [-89.7, 34.4], [-87.5, 35.8], [-84.6, 37.0], [-81.1, 37.7], [-78.9, 37.0], [-78.3, 35.7], [-78.4, 34.7], [-79.1, 33.9], [-80.3, 32.7]]}, "properties": {"model": "GFEX", "label": "GFS Ensemble Mean", "kind": "consensus", "group": "consensus", "cycle": "2021082812"}}, {"type": "Feature", "geometry": {"type": "LineString", "coordinates": [[-85.7, 24.4], [-86.1, 24.8], [-87.9, 26.3], [-89.8, 28.0], [-91.0, 29.4], [-91.5, 31.0], [-91.0, 32.7], [-89.8, 34.4], [-85.3, 36.8], [-79.9, 37.9], [-76.0, 39.0]]}, "properties": {"model": "OFCL", "label": "Official", "kind": "official", "group": "official", "cycle": "2021082812"}}, {"type": "Feature", "geometry": {"type": "LineString", "coordinates": [[-84.7, 23.5], [-86.9, 25.2], [-89.0, 27.0], [-90.8, 28.6], [-92.1, 30.0], [-92.6, 31.5], [-92.2, 33.0], [-91.2, 34.5], [-90.0, 35.7], [-88.6, 36.4], [-87.6, 36.8], [-87.1, 37.0], [-86.5, 37.2]]}, "properties": {"model": "EGRI", "label": "UKMET (interpolated)", "kind": "physics", "group": "deterministic", "cycle": "2021082806"}}]}