{"type": "FeatureCollection", "features": [{"type": "Feature", "properties": {"shapefile": "al092021-009_5day_lin", "STORMNAME": "Ida", "STORMTYPE": "HU", "ADVDATE": "1000 AM CDT Sat Aug 28 2021", "ADVISNUM": "9", "STORMNUM": 9, "FCSTPRD": 120, "BASIN": "AL"}, "geometry": {"type": "LineString", "coordinates": [[-86.1, 24.8], [-87.9, 26.3], [-89.8, 28.0], [-91.0, 29.4], [-91.5, 31.0], [-91.0, 32.7], [-89.8, 34.4], [-85.3, 36.8], [-79.9, 37.9]]}}, {"type": "Feature", "properties": {"shapefile": "al092021-009_5day_pts", "ADVDATE": "1000 AM CDT Sat Aug 28 2021", "ADVISNUM": "9", "BASIN": "AL", "DATELBL": "10:00 AM Sat", "DVLBL": "H", "FCSTPRD": 120, "FLDATELBL": "2021-08-28 7:00 AM Sat CDT", "GUST": 90, "LAT": 24, "LON": -86, "MAXWIND": 75, "MSLP": 984, "SSNUM": 1, "STORMNAME": "Hurricane Ida", "STORMNUM": 9, "STORMSRC": "Tropical Cyclone", "STORMTYPE": "HU", "TCDVLP": "Hurricane", "TAU": 0, "TCDIR": 315, "TCSPD": 14, "TIMEZONE": "CDT", "VALIDTIME": "28/1200"}, "geometry": {"type": "Point", "coordinates": [-86.1, 24.8]}}, {"type": "Feature", "properties": {"shapefile": "al092021-009_5day_pts", "ADVDATE": "1000 AM CDT Sat Aug 28 2021", "ADVISNUM": "9", "BASIN": "AL", "DATELBL": "7:00 PM Sat", "DVLBL": "M", "FCSTPRD": 120, "FLDATELBL": "2021-08-28 7:00 PM Sat CDT", "GUST": 120, "LAT": 26, "LON": -87, "MAXWIND": 100, "MSLP": 9999, "SSNUM": 3, "STORMNAME": "Hurricane Ida", "STORMNUM": 9, "STORMSRC": "Tropical Cyclone", "STORMTYPE": "MH", "TCDVLP": "Major Hurricane", "TAU": 12, "TCDIR": 9999, "TCSPD": 9999, "TIMEZONE": "CDT", "VALIDTIME": "29/0000"}, "geometry": {"type": "Point", "coordinates": [-87.9, 26.3]}}, {"type": "Feature", "properties": {"shapefile": "al092021-009_5day_pts", "ADVDATE": "1000 AM CDT Sat Aug 28 2021", "ADVISNUM": "9", "BASIN": "AL", "DATELBL": "7:00 AM Sun", "DVLBL": "M", "FCSTPRD": 120, "FLDATELBL": "2021-08-29 7:00 AM Sun CDT", "GUST": 140, "LAT": 28, "LON": -89, "MAXWIND": 115, "MSLP": 9999, "SSNUM": 4, "STORMNAME": "Hurricane Ida", "STORMNUM": 9, "STORMSRC": "Tropical Cyclone", "STORMTYPE": "MH", "TCDVLP": "Major Hurricane", "TAU": 24, "TCDIR": 9999, "TCSPD": 9999, "TIMEZONE": "CDT", "VALIDTIME": "29/1200"}, "geometry": {"type": "Point", "coordinates": [-89.8, 28.0]}}, {"type": "Feature", "properties": {"shapefile": "al092021-009_5day_pts", "ADVDATE": "1000 AM CDT Sat Aug 28 2021", "ADVISNUM": "9", "BASIN": "AL", "DATELBL": "7:00 PM Sun", "DVLBL": "M", "FCSTPRD": 120, "FLDATELBL": "2021-08-29 7:00 PM Sun CDT", "GUST": 140, "LAT": 29, "LON": -91, "MAXWIND": 115, "MSLP": 9999, "SSNUM": 4, "STORMNAME": "Hurricane Ida", "STORMNUM": 9, "STORMSRC": "Tropical Cyclone", "STORMTYPE": "MH", "TCDVLP": "Major Hurricane", "TAU": 36, "TCDIR": 9999, "TCSPD": 9999, "TIMEZONE": "CDT", "VALIDTIME": "30/0000"}, "geometry": {"type": "Point", "coordinates": [-91.0, 29.4]}}, {"type": "Feature", "properties": {"shapefile": "al092021-009_5day_pts", "ADVDATE": "1000 AM CDT Sat Aug 28 2021", "ADVISNUM": "9", "BASIN": "AL", "DATELBL": "7:00 AM Mon", "DVLBL": "S", "FCSTPRD": 120, "FLDATELBL": "2021-08-30 7:00 AM Mon CDT", "GUST": 75, "LAT": 31, "LON": -91, "MAXWIND": 60, "MSLP": 9999, "SSNUM": 0, "STORMNAME": "Hurricane Ida", "STORMNUM": 9, "STORMSRC": "Tropical Cyclone", "STORMTYPE": "TS", "TCDVLP": "Tropical Storm", "TAU": 48, "TCDIR": 9999, "TCSPD": 9999, "TIMEZONE": "CDT", "VALIDTIME": "30/1200"}, "geometry": {"type": "Point", "coordinates": [-91.5, 31.0]}}, {"type": "Feature", "properties": {"shapefile": "al092021-009_5day_pts", "ADVDATE": "1000 AM CDT Sat Aug 28 2021", "ADVISNUM": "9", "BASIN": "AL", "DATELBL": "7:00 PM Mon", "DVLBL": "D", "FCSTPRD": 120, "FLDATELBL": "2021-08-30 7:00 PM Mon CDT", "GUST": 40, "LAT": 32, "LON": -91, "MAXWIND": 30, "MSLP": 9999, "SSNUM": 0, "STORMNAME": "Hurricane Ida", "STORMNUM": 9, "STORMSRC": "Tropical Cyclone", "STORMTYPE": "TD", "TCDVLP": "Tropical Depression", "TAU": 60, "TCDIR": 9999, "TCSPD": 9999, "TIMEZONE": "CDT", "VALIDTIME": "31/0000"}, "geometry": {"type": "Point", "coordinates": [-91.0, 32.7]}}, {"type": "Feature", "properties": {"shapefile": "al092021-009_5day_pts", "ADVDATE": "1000 AM CDT Sat Aug 28 2021", "ADVISNUM": "9", "BASIN": "AL", "DATELBL": "7:00 AM Tue", "DVLBL": "D", "FCSTPRD": 120, "FLDATELBL": "2021-08-31 7:00 AM Tue CDT", "GUST": 35, "LAT": 34, "LON": -89, "MAXWIND": 25, "MSLP": 9999, "SSNUM": 0, "STORMNAME": "Hurricane Ida", "STORMNUM": 9, "STORMSRC": "Tropical Cyclone", "STORMTYPE": "TD", "TCDVLP": "Tropical Depression", "TAU": 72, "TCDIR": 9999, "TCSPD": 9999, "TIMEZONE": "CDT", "VALIDTIME": "31/1200"}, "geometry": {"type": "Point", "coordinates": [-89.8, 34.4]}}, {"type": "Feature", "properties": {"shapefile": "al092021-009_5day_pts", "ADVDATE": "1000 AM CDT Sat Aug 28 2021", "ADVISNUM": "9", "BASIN": "AL", "DATELBL": "7:00 AM Wed", "DVLBL": "D", "FCSTPRD": 120, "FLDATELBL": "2021-09-01 7:00 AM Wed CDT", "GUST": 30, "LAT": 36, "LON": -85, "MAXWIND": 20, "MSLP": 9999, "SSNUM": 0, "STORMNAME": "Hurricane Ida", "STORMNUM": 9, "STORMSRC": "Post-Tropical Cyclone", "STORMTYPE": "STD", "TCDVLP": "Subtropical Depression", "TAU": 96, "TCDIR": 9999, "TCSPD": 9999, "TIMEZONE": "CDT", "VALIDTIME": "01/1200"}, "geometry": {"type": "Point", "coordinates": [-85.3, 36.8]}}, {"type": "Feature", "properties": {"shapefile": "al092021-009_5day_pts", "ADVDATE": "1000 AM CDT Sat Aug 28 2021", "ADVISNUM": "9", "BASIN": "AL", "DATELBL": "7:00 AM Thu", "DVLBL": "D", "FCSTPRD": 120, "FLDATELBL": "2021-09-02 7:00 AM Thu CDT", "GUST": 30, "LAT": 37, "LON": -79, "MAXWIND": 20, "MSLP": 9999, "SSNUM": 0, "STORMNAME": "Hurricane Ida", "STORMNUM": 9, "STORMSRC": "Post-Tropical Cyclone", "STORMTYPE": "STD", "TCDVLP": "Subtropical Depression", "TAU": 120, "TCDIR": 9999, "TCSPD": 9999, "TIMEZONE": "CDT", "VALIDTIME": "02/1200"}, "geometry": {"type": "Point", "coordinates": [-79.9, 37.9]}}]}