{"type": "FeatureCollection", "features": [{"type": "Feature", "properties": {"shapefile": "al092021_2021082815_initialradii", "RADII": 34, "STORMID": "al092021", "BASIN": "al", "STORMNUM": 9, "ADVNUM": "9", "VALIDTIME": "2021082815", "SYNOPTIME": "2021082812", "TIMEZONE": "UTC", "TAU": 0, "NE": 110, "SE": 100, "SW": 60, "NW": 100}, "geometry": {"type": "Polygon", "coordinates": [[[-86.0827255, 26.5459328], [-86.0486145, 26.5472355], [-86.0144501, 26.5479965], [-85.9802399, 26.548214], [-85.9459991, 26.5478897], [-85.9117279, 26.5470142], [-85.877449, 26.5455971], [-85.8431702, 26.5436325], [-85.8088913, 26.5411205], [-85.7746353, 26.5380592], [-85.7404099, 26.5344505], [-85.7062378, 26.5302944], [-85.6721115, 26.5255871], [-85.6380463, 26.5203362], [-85.6040649, 26.5145378], [-85.5701599, 26.5081959], [-85.5363617, 26.5013046], [-85.5026703, 26.4938736], [-85.4691086, 26.4858971], [-85.4356689, 26.4773788], [-85.4023743, 26.4683228], [-85.3692322, 26.4587288], [-85.3362427, 26.448595], [-85.3034439, 26.4379311], [-85.2708359, 26.4267368], [-85.2384186, 26.4150124], [-85.2061996, 26.4027596], [-85.1742096, 26.3899841], [-85.1424408, 26.3766899], [-85.1109238, 26.3628769], [-85.0796356, 26.3485489], [-85.0486221, 26.3337135], [-85.0178833, 26.3183708], [-84.9874268, 26.3025265], [-84.9572601, 26.2861843], [-84.9273987, 26.2693443], [-84.8978424, 26.2520199], [-84.8686142, 26.2342052], [-84.8397064, 26.2159157], [-84.811142, 26.1971455], [-84.7829437, 26.1779041], [-84.7552643, 26.1580582], [-84.7282944, 26.1374741], [-84.7020416, 26.116169], [-84.6765442, 26.0941601], [-84.6518173, 26.0714645], [-84.6278534, 26.0481014], [-84.6047134, 26.0240841], [-84.5823975, 25.9994335], [-84.5609131, 25.9741707], [-84.5401306, 25.948452], [-84.5198669, 25.9224339], [-84.500145, 25.8961258], [-84.4809647, 25.8695354], [-84.4623337, 25.8426743], [-84.444252, 25.8155441], [-84.4267273, 25.7881641], [-84.4097595, 25.7605381], [-84.3933792, 25.7326717], [-84.377533, 25.7045822], [-84.3622742, 25.6762695], [-84.3476028, 25.6477489], [-84.3334885, 25.61903], [-84.3199615, 25.5901222], [-84.3070221, 25.5610332], [-84.2946548, 25.5317764], [-84.2828903, 25.5023537], [-84.271698, 25.4727821], [-84.261116, 25.4430676], [-84.2511215, 25.4132175], [-84.2417145, 25.3832474], [-84.2329102, 25.3531609], [-84.2247009, 25.3229752], [-84.2170868, 25.2926903], [-84.2100677, 25.2623215], [-84.2036514, 25.2318802], [-84.1978378, 25.2013741], [-84.192627, 25.1708107], [-84.1879959, 25.1402016], [-84.1839905, 25.1095524], [-84.1805725, 25.0788803], [-84.177742, 25.0481873], [-84.1755066, 25.0174885], [-84.1738815, 24.9867916], [-84.1728516, 24.9561062], [-84.1724091, 24.925436], [-84.1725693, 24.8947983], [-84.1733093, 24.8642025], [-84.1746292, 24.8336525], [-84.1765442, 24.8031616], [-84.1790466, 24.7727394], [-84.1821289, 24.7423897], [-84.1857986, 24.7121277], [-84.190033, 24.6819592], [-84.1948471, 24.6518974], [-84.2002182, 24.6219463], [-84.2061691, 24.5921192], [-84.2126846, 24.5624199], [-84.2197571, 24.5328598], [-84.2273865, 24.5034504], [-84.2355652, 24.4741955], [-84.2442932, 24.4451065], [-84.2535706, 24.4161892], [-84.263382, 24.3874588], [-84.2737198, 24.3589153], [-84.2846146, 24.330574], [-84.2960205, 24.3024368], [-84.3079453, 24.2745152], [-84.3203812, 24.2468185], [-84.3333359, 24.2193527], [-84.3467941, 24.1921253], [-84.3607559, 24.1651459], [-84.375206, 24.1384201], [-84.3901367, 24.1119595], [-84.4055557, 24.0857677], [-84.421463, 24.0598507], [-84.4378281, 24.0342178], [-84.4546661, 24.0088749], [-84.4719543, 23.9838333], [-84.4896927, 23.9590988], [-84.5078735, 23.9346733], [-84.5265045, 23.9105682], [-84.5455627, 23.8867893], [-84.565033, 23.8633404], [-84.5849457, 23.840229], [-84.6052551, 23.8174629], [-84.6259613, 23.7950478], [-84.6470718, 23.7729893], [-84.6685638, 23.7512932], [-84.6904373, 23.729969], [-84.7126846, 23.709013], [-84.735527, 23.6886616], [-84.7591934, 23.6691475], [-84.7836456, 23.6504917], [-84.8088531, 23.6327152], [-84.8347931, 23.6158352], [-84.8614349, 23.5998669], [-84.8887711, 23.5848331], [-84.9167557, 23.5707455], [-84.9453735, 23.557621], [-84.97435, 23.5452538], [-85.0034485, 23.5334282], [-85.0326462, 23.5221424], [-85.0619354, 23.5113983], [-85.0913086, 23.5011921], [-85.1207504, 23.4915257], [-85.1502533, 23.482399], [-85.1797943, 23.4738064], [-85.2093811, 23.4657497], [-85.2389832, 23.458231], [-85.2686005, 23.4512424], [-85.2982254, 23.444788], [-85.3278351, 23.4388638], [-85.3574295, 23.4334621], [-85.3869934, 23.428587], [-85.4165192, 23.4242325], [-85.4459839, 23.4204006], [-85.4753952, 23.4170837], [-85.5047302, 23.4142838], [-85.5339661, 23.4119911], [-85.5631256, 23.4102039], [-85.5921783, 23.4089222], [-85.6211166, 23.4081402], [-85.6499329, 23.4078503], [-85.6786118, 23.4080544], [-85.7071457, 23.4087448], [-85.7355347, 23.4099197], [-85.7637482, 23.4115677], [-85.7917862, 23.4136906], [-85.8196564, 23.4162846], [-85.8473282, 23.4193401], [-85.8748016, 23.4228535], [-85.9020691, 23.4268188], [-85.9291153, 23.4312267], [-85.9559479, 23.436079], [-85.9825287, 23.4413662], [-86.0088806, 23.4470844], [-86.0349655, 23.4532242], [-86.0608139, 23.4597836], [-86.0863953, 23.4667492], [-86.1116791, 23.4741249], [-86.1366959, 23.4818935], [-86.1614227, 23.4900513], [-86.1858521, 23.4985943], [-86.2099838, 23.507515], [-86.2337952, 23.5168056], [-86.2572937, 23.5264606], [-86.2804794, 23.5364704], [-86.3033142, 23.5468273], [-86.3258286, 23.5575256], [-86.3479919, 23.5685558], [-86.3698273, 23.5799103], [-86.3912888, 23.5915833], [-86.4123993, 23.6035709], [-86.4331436, 23.6158543], [-86.4535217, 23.6284351], [-86.473526, 23.6413002], [-86.4931412, 23.6544437], [-86.5123825, 23.6678562], [-86.5312347, 23.6815319], [-86.5497055, 23.6954594], [-86.5677719, 23.7096329], [-86.5854263, 23.7240429], [-86.602684, 23.7386799], [-86.6195374, 23.7535381], [-86.6359787, 23.7686081], [-86.6520233, 23.7838783], [-86.6676331, 23.7993431], [-86.6828308, 23.8149948], [-86.6976089, 23.830822], [-86.7119598, 23.846817], [-86.7258911, 23.8629704], [-86.7393951, 23.8792782], [-86.7524719, 23.8957253], [-86.7651062, 23.9123058], [-86.7773209, 23.9290123], [-86.7891083, 23.9458351], [-86.8004608, 23.9627647], [-86.8113708, 23.9797935], [-86.8218689, 23.996912], [-86.8319092, 24.0141125], [-86.8421555, 24.0308075], [-86.8532791, 24.0464382], [-86.8653259, 24.0610352], [-86.8783264, 24.0746403], [-86.892334, 24.0872841], [-86.9073792, 24.0990009], [-86.9235153, 24.1098289], [-86.9407654, 24.119812], [-86.9591675, 24.1289825], [-86.9781265, 24.1379623], [-86.9970169, 24.1473389], [-87.0158081, 24.1571121], [-87.0344925, 24.1672859], [-87.0530701, 24.1778545], [-87.0715256, 24.1888199], [-87.089859, 24.2001858], [-87.1080399, 24.2119427], [-87.1260757, 24.2240982], [-87.143959, 24.2366409], [-87.1616745, 24.2495804], [-87.1792145, 24.2629089], [-87.1965637, 24.2766247], [-87.2137222, 24.2907276], [-87.2306747, 24.3052139], [-87.2473984, 24.3200798], [-87.2639084, 24.3353291], [-87.2801819, 24.3509521], [-87.2962112, 24.3669529], [-87.3119888, 24.3833218], [-87.3274994, 24.4000587], [-87.3427353, 24.4171581], [-87.3576965, 24.4346199], [-87.3723755, 24.4524345], [-87.3867493, 24.4706039], [-87.4008102, 24.4891224], [-87.414566, 24.5079842], [-87.4279938, 24.5271854], [-87.4410706, 24.5467243], [-87.4538116, 24.5665913], [-87.4662018, 24.5867825], [-87.4782181, 24.6072922], [-87.4898834, 24.6281166], [-87.501152, 24.64925], [-87.5120468, 24.6706886], [-87.5225372, 24.692421], [-87.5326233, 24.7144432], [-87.542305, 24.7367516], [-87.5515594, 24.7593384], [-87.5603943, 24.7821999], [-87.568779, 24.8053207], [-87.5767365, 24.8287048], [-87.5842285, 24.852335], [-87.5912781, 24.8762112], [-87.597847, 24.900322], [-87.6039505, 24.9246635], [-87.6095734, 24.9492264], [-87.6147079, 24.973999], [-87.619339, 24.9989796], [-87.6234741, 25.0241528], [-87.6271057, 25.0495186], [-87.6302261, 25.0750637], [-87.6328278, 25.1007786], [-87.634903, 25.1266594], [-87.6364441, 25.1526966], [-87.6374435, 25.178875], [-87.6379089, 25.2051926], [-87.6378326, 25.231636], [-87.6371841, 25.2581959], [-87.6360016, 25.2848625], [-87.6342468, 25.3116283], [-87.6319275, 25.3384857], [-87.6290283, 25.3654232], [-87.6255646, 25.3924294], [-87.6215057, 25.4194908], [-87.6168747, 25.4466038], [-87.6116562, 25.4737568], [-87.6058426, 25.5009384], [-87.5994492, 25.528141], [-87.592453, 25.5553474], [-87.5848541, 25.5825539], [-87.5766602, 25.6097488], [-87.5678558, 25.6369171], [-87.5584488, 25.664053], [-87.548439, 25.6911411], [-87.5378189, 25.7181778], [-87.5265884, 25.7451439], [-87.5147476, 25.7720356], [-87.5022964, 25.7988377], [-87.4892426, 25.8255386], [-87.475563, 25.8521271], [-87.4610291, 25.8783779], [-87.4454117, 25.9040489], [-87.4287338, 25.9291153], [-87.4110031, 25.9535465], [-87.3922424, 25.9773235], [-87.3724747, 26.0004196], [-87.3517151, 26.0228062], [-87.3299866, 26.0444698], [-87.3073196, 26.0653725], [-87.2839661, 26.0857182], [-87.2601929, 26.1057129], [-87.2359924, 26.1253452], [-87.2113724, 26.1446152], [-87.1863556, 26.1635094], [-87.1609268, 26.182024], [-87.1351089, 26.2001514], [-87.1089096, 26.2178822], [-87.0823212, 26.2352123], [-87.0553741, 26.25214], [-87.0280533, 26.2686539], [-87.0003891, 26.2847443], [-86.9723663, 26.3004131], [-86.9440002, 26.3156509], [-86.9153061, 26.330452], [-86.8862915, 26.3448086], [-86.8569641, 26.358717], [-86.8273239, 26.3721695], [-86.7973938, 26.3851643], [-86.7671738, 26.3976974], [-86.7366638, 26.4097557], [-86.7058945, 26.4213428], [-86.6748505, 26.4324493], [-86.6435699, 26.4430733], [-86.6120453, 26.4532089], [-86.5802917, 26.4628525], [-86.5483017, 26.4719982], [-86.516098, 26.4806442], [-86.483696, 26.4887867], [-86.4511032, 26.4964199], [-86.4183273, 26.5035381], [-86.385376, 26.5101452], [-86.3522644, 26.5162315], [-86.3189926, 26.5217972], [-86.2855835, 26.5268421], [-86.2520447, 26.5313549], [-86.2183762, 26.5353374], [-86.1846008, 26.5387917], [-86.1507263, 26.5417099], [-86.1167679, 26.5440903], [-86.0827255, 26.5459328]]]}}, {"type": "Feature", "properties": {"shapefile": "al092021_2021082815_initialradii", "RADII": 50, "STORMID": "al092021", "BASIN": "al", "STORMNUM": 9, "ADVNUM": "9", "VALIDTIME": "2021082815", "SYNOPTIME": "2021082812", "TIMEZONE": "UTC", "TAU": 0, "NE": 50, "SE": 40, "SW": 20, "NW": 30}, "geometry": {"type": "Polygon", "coordinates": [[[-86.0930862, 25.4666176], [-86.0800934, 25.4700985], [-86.0669632, 25.4733677], [-86.0536957, 25.476429], [-86.0403061, 25.4792728], [-86.0267868, 25.4818993], [-86.0131531, 25.4843063], [-85.9993973, 25.4864845], [-85.985527, 25.4884377], [-85.97155, 25.49016], [-85.9574814, 25.4916515], [-85.9433136, 25.4929066], [-85.9290466, 25.4939194], [-85.9147034, 25.4946976], [-85.9002762, 25.4952297], [-85.8857727, 25.4955177], [-85.8711853, 25.495554], [-85.8565445, 25.4953442], [-85.8418274, 25.4948807], [-85.8270645, 25.4941635], [-85.8122559, 25.4931908], [-85.7973938, 25.4919586], [-85.7825012, 25.490469], [-85.7675629, 25.4887161], [-85.752594, 25.4867001], [-85.7376175, 25.4844189], [-85.7226028, 25.4818726], [-85.7076035, 25.4790611], [-85.6925735, 25.4759808], [-85.6775513, 25.4726334], [-85.6625366, 25.4690132], [-85.6475372, 25.4651241], [-85.6325607, 25.4609623], [-85.6175919, 25.4565277], [-85.6026611, 25.4518185], [-85.5877686, 25.4468384], [-85.5729141, 25.4415855], [-85.5581207, 25.436058], [-85.5433731, 25.4302597], [-85.5286865, 25.4241848], [-85.5140686, 25.4178352], [-85.4997635, 25.4109993], [-85.4860535, 25.4034691], [-85.4729309, 25.3952675], [-85.460434, 25.3864059], [-85.4485779, 25.3769054], [-85.4373932, 25.3667831], [-85.4268951, 25.3560562], [-85.4170837, 25.3447437], [-85.40802, 25.3328667], [-85.3994598, 25.3206558], [-85.3911591, 25.3083344], [-85.38311, 25.2959099], [-85.3753281, 25.2833881], [-85.3678207, 25.270771], [-85.3605728, 25.2580624], [-85.3535919, 25.245266], [-85.3468781, 25.2323895], [-85.3404312, 25.2194366], [-85.3342667, 25.2064114], [-85.3283615, 25.1933174], [-85.3227234, 25.1801586], [-85.3173676, 25.1669445], [-85.3122787, 25.153677], [-85.3074722, 25.140358], [-85.3029404, 25.1269951], [-85.2986755, 25.1135921], [-85.2946777, 25.1001511], [-85.2909546, 25.0866814], [-85.2875137, 25.073185], [-85.2843475, 25.0596657], [-85.2814484, 25.0461292], [-85.2788315, 25.0325813], [-85.2764664, 25.0190239], [-85.2743835, 25.0054607], [-85.2725754, 24.9918995], [-85.2710342, 24.9783421], [-85.2697601, 24.9647923], [-85.2687683, 24.9512558], [-85.2680283, 24.9377384], [-85.2675476, 24.9242477], [-85.2673569, 24.910778], [-85.2674179, 24.8973408], [-85.2677307, 24.8839397], [-85.2683182, 24.870575], [-85.269165, 24.8572559], [-85.2702637, 24.8439846], [-85.2716217, 24.8307629], [-85.2732315, 24.8175964], [-85.2751083, 24.804493], [-85.2772141, 24.7914505], [-85.2795792, 24.7784767], [-85.282196, 24.7655735], [-85.2850494, 24.7527466], [-85.288147, 24.7399998], [-85.2914963, 24.727335], [-85.2950745, 24.7147579], [-85.2988815, 24.7022705], [-85.3029404, 24.6898785], [-85.3072205, 24.6775856], [-85.3117218, 24.6653919], [-85.3164444, 24.6532993], [-85.3214035, 24.6413212], [-85.3265839, 24.6294498], [-85.3319778, 24.6176987], [-85.3375854, 24.6060619], [-85.3434143, 24.5945473], [-85.3494415, 24.5831547], [-85.3556747, 24.5718937], [-85.3620987, 24.5607624], [-85.3687363, 24.5497665], [-85.3755646, 24.5389042], [-85.3825836, 24.528183], [-85.389801, 24.5176029], [-85.3972092, 24.5071697], [-85.4047852, 24.4968853], [-85.4125366, 24.4867496], [-85.4204712, 24.4767685], [-85.4285812, 24.4669418], [-85.4368591, 24.4572697], [-85.4453049, 24.4477634], [-85.4539032, 24.4384155], [-85.4626617, 24.4292374], [-85.4715805, 24.4202194], [-85.4806442, 24.411377], [-85.4898453, 24.4027023], [-85.4992142, 24.3942032], [-85.5087051, 24.3858738], [-85.5183411, 24.3777237], [-85.5280991, 24.3697586], [-85.5379868, 24.3619671], [-85.5480652, 24.3544331], [-85.5584335, 24.3472328], [-85.5690536, 24.3403702], [-85.5799255, 24.3338566], [-85.5910416, 24.3276958], [-85.6024017, 24.3218956], [-85.6139603, 24.3164539], [-85.6257477, 24.3113861], [-85.6377335, 24.3066883], [-85.6498337, 24.3022995], [-85.6619568, 24.2981377], [-85.6741028, 24.2942123], [-85.6862564, 24.2905197], [-85.6984329, 24.287056], [-85.7106094, 24.2838211], [-85.7227936, 24.2808151], [-85.7349625, 24.278038], [-85.7471313, 24.2754898], [-85.7592773, 24.2731647], [-85.7714157, 24.2710648], [-85.7835312, 24.2691879], [-85.7956085, 24.2675343], [-85.8076477, 24.2661037], [-85.8196487, 24.2648869], [-85.8316116, 24.2638931], [-85.8435364, 24.2631111], [-85.8553848, 24.2625446], [-85.8672028, 24.2621899], [-85.8789444, 24.2620449], [-85.890625, 24.2621059], [-85.9022446, 24.2623749], [-85.9137726, 24.2628479], [-85.9252243, 24.2635193], [-85.9366074, 24.2643967], [-85.9478912, 24.2654648], [-85.9590912, 24.2667294], [-85.9702072, 24.2681808], [-85.9812088, 24.2698269], [-85.9921036, 24.271656], [-86.0028992, 24.2736702], [-86.0135956, 24.2758675], [-86.0241852, 24.2782402], [-86.0346298, 24.2807865], [-86.0449677, 24.2835045], [-86.0551834, 24.2863941], [-86.0652695, 24.2894497], [-86.0752258, 24.2926674], [-86.0850525, 24.2960434], [-86.0947418, 24.2995758], [-86.1042862, 24.3032627], [-86.1136856, 24.3070984], [-86.1229477, 24.311079], [-86.1320648, 24.3152046], [-86.1410294, 24.3194656], [-86.1498489, 24.3238659], [-86.158493, 24.3283978], [-86.1669922, 24.3330574], [-86.1753235, 24.3378429], [-86.1835022, 24.3427505], [-86.1915131, 24.3477745], [-86.1993637, 24.3529129], [-86.2070389, 24.3581619], [-86.2145462, 24.3635178], [-86.2218704, 24.3689747], [-86.2290344, 24.3745289], [-86.2360229, 24.3801804], [-86.2428284, 24.3859215], [-86.2494583, 24.3917522], [-86.2559128, 24.397665], [-86.2621841, 24.403656], [-86.26828, 24.4097233], [-86.2741852, 24.4158649], [-86.2799149, 24.4220715], [-86.2854462, 24.4283409], [-86.290802, 24.4346695], [-86.2959824, 24.4410572], [-86.3009644, 24.4474964], [-86.3057632, 24.4539795], [-86.310379, 24.4605103], [-86.3147964, 24.4670792], [-86.319046, 24.4736862], [-86.3230972, 24.4803238], [-86.3269653, 24.48699], [-86.3306503, 24.4936829], [-86.334137, 24.5003948], [-86.3374405, 24.5071201], [-86.3405609, 24.5138626], [-86.3434982, 24.5206089], [-86.3462448, 24.5273647], [-86.3488083, 24.5341206], [-86.3514328, 24.5406551], [-86.3543701, 24.5467644], [-86.3576355, 24.5524597], [-86.3612366, 24.5577507], [-86.3652115, 24.5626507], [-86.3695679, 24.567173], [-86.374321, 24.5713329], [-86.3794785, 24.5751438], [-86.3850479, 24.5786209], [-86.3908234, 24.5819931], [-86.3965454, 24.5854797], [-86.4022446, 24.5890846], [-86.4078827, 24.592802], [-86.4134674, 24.5966358], [-86.4189987, 24.6005821], [-86.424469, 24.6046448], [-86.4299011, 24.60882], [-86.4352493, 24.6131058], [-86.4405365, 24.6175022], [-86.4457626, 24.622015], [-86.4509125, 24.6266327], [-86.4560013, 24.6313629], [-86.4610138, 24.636198], [-86.4659424, 24.6411438], [-86.470787, 24.6461964], [-86.4755554, 24.6513538], [-86.4802399, 24.6566162], [-86.4848328, 24.6619797], [-86.4893341, 24.6674461], [-86.4937439, 24.6730137], [-86.4980545, 24.6786785], [-86.5022736, 24.6844425], [-86.5063782, 24.6903019], [-86.5103989, 24.6962605], [-86.5143127, 24.7023106], [-86.5181046, 24.7084522], [-86.5218048, 24.7146835], [-86.5253754, 24.7210064], [-86.5288391, 24.7274151], [-86.532196, 24.7339096], [-86.5354156, 24.7404881], [-86.5385284, 24.7471504], [-86.5414963, 24.753891], [-86.5443497, 24.7607098], [-86.547081, 24.7676048], [-86.549675, 24.7745743], [-86.5521393, 24.7816124], [-86.5544739, 24.788723], [-86.5566635, 24.7959061], [-86.5587234, 24.8031521], [-86.5606384, 24.810461], [-86.5624161, 24.817831], [-86.5640488, 24.8252602], [-86.5655289, 24.8327465], [-86.566864, 24.8402863], [-86.5680618, 24.8478794], [-86.5691071, 24.8555222], [-86.5699921, 24.8632126], [-86.5707245, 24.8709488], [-86.5713043, 24.878727], [-86.5717316, 24.8865433], [-86.5719986, 24.8943977], [-86.5721054, 24.9022846], [-86.572052, 24.9102077], [-86.5718307, 24.9181557], [-86.5714569, 24.9261303], [-86.5709152, 24.9341297], [-86.5702209, 24.9421501], [-86.5693436, 24.9501877], [-86.568306, 24.9582424], [-86.5671082, 24.9663086], [-86.5657196, 24.9743843], [-86.5641785, 24.9824657], [-86.5624695, 24.9905529], [-86.560585, 24.9986362], [-86.5585251, 25.0067253], [-86.5563049, 25.0148067], [-86.5539093, 25.0228786], [-86.5513306, 25.0309372], [-86.548584, 25.0389843], [-86.5456696, 25.0470161], [-86.542572, 25.055027], [-86.5393066, 25.0630112], [-86.5358734, 25.0709743], [-86.5322571, 25.078907], [-86.5284729, 25.0868034], [-86.5245132, 25.0946693], [-86.5203781, 25.1024952], [-86.5160751, 25.110281], [-86.5116043, 25.1180191], [-86.5070267, 25.1257839], [-86.5024414, 25.1336479], [-86.4978333, 25.141613], [-86.4931946, 25.1496792], [-86.488533, 25.1578503], [-86.4838181, 25.1661282], [-86.4790726, 25.1745129], [-86.4742737, 25.1830025], [-86.4694138, 25.1916027], [-86.4644165, 25.2002373], [-86.459198, 25.2088356], [-86.4537582, 25.2173862], [-86.4480896, 25.2258892], [-86.4422226, 25.2343407], [-86.4361115, 25.2427349], [-86.4297791, 25.2510681], [-86.4232483, 25.2593327], [-86.4164734, 25.2675304], [-86.4094925, 25.2756519], [-86.4022827, 25.2836914], [-86.3948746, 25.2916489], [-86.3872375, 25.2995205], [-86.3793945, 25.3072948], [-86.3713226, 25.3149757], [-86.3630371, 25.3225536], [-86.3545609, 25.3300247], [-86.3458633, 25.3373852], [-86.3369522, 25.3446312], [-86.3278427, 25.351759], [-86.3185196, 25.3587627], [-86.3089981, 25.3656406], [-86.2992859, 25.372385], [-86.28936, 25.378994], [-86.2792511, 25.3854637], [-86.2689438, 25.3917923], [-86.2584534, 25.3979664], [-86.2477722, 25.403986], [-86.2368927, 25.4098549], [-86.2258453, 25.4155636], [-86.2146072, 25.4211044], [-86.203186, 25.4264755], [-86.1916046, 25.4316769], [-86.1798477, 25.4367008], [-86.1679382, 25.4415436], [-86.1558533, 25.4462051], [-86.1436005, 25.450676], [-86.1311951, 25.454958], [-86.1186447, 25.4590435], [-86.1059341, 25.4629307], [-86.0930862, 25.4666176]]]}}, {"type": "Feature", "properties": {"shapefile": "al092021_2021082815_initialradii", "RADII": 64, "STORMID": "al092021", "BASIN": "al", "STORMNUM": 9, "ADVNUM": "9", "VALIDTIME": "2021082815", "SYNOPTIME": "2021082812", "TIMEZONE": "UTC", "TAU": 0, "NE": 25, "SE": 20, "SW": 0, "NW": 0}, "geometry": {"type": "Polygon", "coordinates": [[[-86.0973816, 25.0100479], [-86.0932083, 25.0145912], [-86.0888519, 25.019062], [-86.0843201, 25.0234604], [-86.0796204, 25.0277786], [-86.0747528, 25.0320168], [-86.0697021, 25.0361691], [-86.0644913, 25.0402298], [-86.0591125, 25.0441971], [-86.0535736, 25.0480633], [-86.0478668, 25.0518284], [-86.0420151, 25.0554886], [-86.0359879, 25.0590343], [-86.0298157, 25.0624733], [-86.0234909, 25.0657902], [-86.0170212, 25.0689869], [-86.0103989, 25.0720558], [-86.0036316, 25.0749969], [-85.9967346, 25.0778046], [-85.9897003, 25.0804768], [-85.9825211, 25.0830078], [-85.9752197, 25.0853977], [-85.9677811, 25.0876427], [-85.9602203, 25.089735], [-85.9525375, 25.0916748], [-85.9447327, 25.0934582], [-85.936821, 25.0950813], [-85.9288025, 25.0965443], [-85.9206848, 25.0978413], [-85.9124603, 25.0989723], [-85.9041367, 25.0999279], [-85.8957214, 25.1007137], [-85.887207, 25.1013222], [-85.8786163, 25.1017513], [-85.8699417, 25.1019974], [-85.8611908, 25.1020584], [-85.8523712, 25.1019344], [-85.843483, 25.1016235], [-85.8345337, 25.1011181], [-85.825531, 25.1004257], [-85.8164673, 25.0995369], [-85.8076019, 25.0982342], [-85.7991867, 25.0963135], [-85.7912521, 25.093792], [-85.7838211, 25.0906811], [-85.7768936, 25.0869961], [-85.7705154, 25.0827522], [-85.764679, 25.0779648], [-85.7594299, 25.0726547], [-85.7547607, 25.0668354], [-85.7504654, 25.0607376], [-85.7463074, 25.0545883], [-85.7422791, 25.0483875], [-85.7383728, 25.0421352], [-85.7346115, 25.0358353], [-85.7309647, 25.0294895], [-85.7274628, 25.0231018], [-85.7240906, 25.0166721], [-85.7208557, 25.0102005], [-85.7177505, 25.0036983], [-85.7147903, 24.9971581], [-85.7119675, 24.9905872], [-85.709259, 24.9839859], [-85.7067108, 24.9773579], [-85.7042923, 24.970705], [-85.7019958, 24.9640274], [-85.6998444, 24.9573326], [-85.6978378, 24.9506187], [-85.6959534, 24.9438877], [-85.6942062, 24.9371433], [-85.6925964, 24.9303913], [-85.6911316, 24.9236259], [-85.6897888, 24.916853], [-85.688591, 24.91008], [-85.6875305, 24.9032993], [-85.6866074, 24.8965225], [-85.6858139, 24.8897438], [-85.6851501, 24.8829727], [-85.6846237, 24.8762054], [-85.6842422, 24.8694496], [-85.6839905, 24.8627014], [-85.6838684, 24.8559666], [-85.6838684, 24.8492508], [-85.6840057, 24.8425465], [-85.6842728, 24.8358631], [-85.6846695, 24.8292007], [-85.6852112, 24.8225632], [-85.6858597, 24.8159504], [-85.6866455, 24.8093643], [-85.6875458, 24.8028107], [-85.6885834, 24.7962894], [-85.689743, 24.7898006], [-85.6910477, 24.7833443], [-85.6924515, 24.776926], [-85.693985, 24.7705479], [-85.6956329, 24.7642117], [-85.6973953, 24.7579174], [-85.6992874, 24.7516689], [-85.7012939, 24.7454662], [-85.7034073, 24.7393112], [-85.7056427, 24.7332077], [-85.7079926, 24.7271595], [-85.7104492, 24.7211628], [-85.7130356, 24.7152214], [-85.7157211, 24.7093391], [-85.7184982, 24.7035141], [-85.7213974, 24.6977482], [-85.7243958, 24.6920471], [-85.7275009, 24.6864071], [-85.73069, 24.6808338], [-85.7340012, 24.6753273], [-85.7374039, 24.6698875], [-85.7409058, 24.6645184], [-85.7444992, 24.6592197], [-85.7481995, 24.6539955], [-85.751976, 24.6488457], [-85.7558365, 24.6437664], [-85.7597961, 24.6387672], [-85.7638474, 24.6338425], [-85.7679749, 24.6289997], [-85.7721939, 24.6242371], [-85.7764816, 24.6195545], [-85.7808609, 24.6149559], [-85.7853088, 24.6104393], [-85.7898407, 24.6060066], [-85.7944489, 24.6016617], [-85.7991257, 24.5974045], [-85.8038635, 24.5932274], [-85.8086853, 24.5891457], [-85.8135605, 24.5851479], [-85.8184967, 24.5812454], [-85.8236237, 24.5775433], [-85.8290405, 24.5741577], [-85.8347321, 24.5710983], [-85.8406906, 24.5683689], [-85.8469162, 24.5659847], [-85.8533783, 24.5639477], [-85.8600922, 24.5622635], [-85.8670197, 24.5609436], [-85.8741608, 24.5599899], [-85.8813782, 24.5593014], [-85.8885651, 24.5587692], [-85.8956757, 24.5583897], [-85.9027634, 24.5581608], [-85.90979, 24.5580826], [-85.9167557, 24.5581532], [-85.9236603, 24.5583706], [-85.9305115, 24.5587292], [-85.9372864, 24.5592346], [-85.9440002, 24.5598774], [-85.9506226, 24.5606575], [-85.9571762, 24.5615749], [-85.9636459, 24.5626259], [-85.9700165, 24.5638084], [-85.9763184, 24.5651207], [-85.9825287, 24.5665588], [-85.9886475, 24.5681229], [-85.9946594, 24.5698051], [-86.0005722, 24.5716076], [-86.0063934, 24.5735264], [-86.0121155, 24.5755615], [-86.0177231, 24.5777054], [-86.0232239, 24.5799618], [-86.0286026, 24.5823231], [-86.0338821, 24.5847836], [-86.039032, 24.5873432], [-86.044075, 24.5900021], [-86.0489883, 24.5927525], [-86.0537796, 24.5955963], [-86.0584564, 24.5985279], [-86.0629959, 24.6015396], [-86.0674133, 24.6046371], [-86.0716934, 24.6078129], [-86.0758438, 24.611063], [-86.0798645, 24.6143875], [-86.0837479, 24.6177788], [-86.0874939, 24.6212349], [-86.0911026, 24.624754], [-86.094574, 24.6283321], [-86.097908, 24.6319656], [-86.1011047, 24.6356506], [-86.1041565, 24.6393871], [-86.1070633, 24.6431656], [-86.1098328, 24.6469879], [-86.1124496, 24.6508465], [-86.1149139, 24.6547451], [-86.1172409, 24.6586723], [-86.1194229, 24.6626301], [-86.1214676, 24.6666107], [-86.1233444, 24.6706142], [-86.1250916, 24.674633], [-86.1266785, 24.6786709], [-86.1281357, 24.6827164], [-86.129425, 24.6867752], [-86.1305847, 24.690834], [-86.1315918, 24.6948948], [-86.1324539, 24.6989517], [-86.1331711, 24.703001], [-86.1337433, 24.7070465], [-86.1341705, 24.7110767], [-86.1344376, 24.7150936], [-86.1345749, 24.7190838], [-86.1345673, 24.7230587], [-86.1344223, 24.727005], [-86.13414, 24.7309227], [-86.1337051, 24.7348099], [-86.1331482, 24.7386589], [-86.1324463, 24.7424698], [-86.1315994, 24.7462387], [-86.1306305, 24.7499619], [-86.1295242, 24.7536373], [-86.1282806, 24.7572613], [-86.1269226, 24.7608318], [-86.1254272, 24.7643433], [-86.1238022, 24.7677956], [-86.1220551, 24.7711868], [-86.1201782, 24.7745113], [-86.1181946, 24.7777634], [-86.1160812, 24.7809448], [-86.1138611, 24.7840519], [-86.1115341, 24.7870827], [-86.1092377, 24.7898922], [-86.1071701, 24.7923355], [-86.1053391, 24.794426], [-86.1037521, 24.7961674], [-86.1024323, 24.7975731], [-86.1013794, 24.7986526], [-86.1006165, 24.799408], [-86.1001511, 24.7998562], [-86.0999908, 24.8000011], [-86.0999908, 24.8000011], [-86.0999908, 24.8000011], [-86.0999908, 24.8000011], [-86.0999908, 24.8000011], [-86.0999908, 24.8000011], [-86.0999908, 24.8000011], [-86.0999908, 24.8000011], [-86.0999908, 24.8000011], [-86.0999908, 24.8000011], [-86.0999908, 24.8000011], [-86.0999908, 24.8000011], [-86.0999908, 24.8000011], [-86.0999908, 24.8000011], [-86.0999908, 24.8000011], [-86.0999908, 24.8000011], [-86.0999908, 24.8000011], [-86.0999908, 24.8000011], [-86.0999908, 24.8000011], [-86.0999908, 24.8000011], [-86.0999908, 24.8000011], [-86.0999908, 24.8000011], [-86.0999908, 24.8000011], [-86.0999908, 24.8000011], [-86.0999908, 24.8000011], [-86.0999908, 24.8000011], [-86.0999908, 24.8000011], [-86.0999908, 24.8000011], [-86.0999908, 24.8000011], [-86.0999908, 24.8000011], [-86.0999908, 24.8000011], [-86.0999908, 24.8000011], [-86.0999908, 24.8000011], [-86.0999908, 24.8000011], [-86.0999908, 24.8000011], [-86.0999908, 24.8000011], [-86.0999908, 24.8000011], [-86.0999908, 24.8000011], [-86.0999908, 24.8000011], [-86.0999908, 24.8000011], [-86.0999908, 24.8000011], [-86.0999908, 24.8000011], [-86.0999908, 24.8000011], [-86.0999908, 24.8000011], [-86.0999908, 24.8000011], [-86.0999908, 24.8000011], [-86.0999908, 24.8000011], [-86.0999908, 24.8000011], [-86.0999908, 24.8000011], [-86.0999908, 24.8000011], [-86.0999908, 24.8000011], [-86.0999908, 24.8000011], [-86.0999908, 24.8000011], [-86.0999908, 24.8000011], [-86.0999908, 24.8000011], [-86.0999908, 24.8000011], [-86.0999908, 24.8000011], [-86.0999908, 24.8000011], [-86.0999908, 24.8000011], [-86.0999908, 24.8000011], [-86.0999908, 24.8000011], [-86.0999908, 24.8000011], [-86.0999908, 24.8000011], [-86.0999908, 24.8000011], [-86.0999908, 24.8000011], [-86.0999908, 24.8000011], [-86.0999908, 24.8000011], [-86.0999908, 24.8000011], [-86.0999908, 24.8000011], [-86.0999908, 24.8000011], [-86.0999908, 24.8000011], [-86.0999908, 24.8000011], [-86.0999908, 24.8000011], [-86.0999908, 24.8000011], [-86.0999908, 24.8000011], [-86.0999908, 24.8000011], [-86.0999908, 24.8000011], [-86.0999908, 24.8000011], [-86.0999908, 24.8000011], [-86.0999908, 24.8000011], [-86.0999908, 24.8000011], [-86.0999908, 24.8000011], [-86.1001892, 24.8001842], [-86.1007843, 24.8007431], [-86.101738, 24.8016891], [-86.1030579, 24.8030357], [-86.1047058, 24.8047924], [-86.1066742, 24.8069706], [-86.1089706, 24.8095837], [-86.1115494, 24.8126373], [-86.1144104, 24.8161469], [-86.1173401, 24.8199368], [-86.1201172, 24.8238182], [-86.1227646, 24.8277969], [-86.1252518, 24.8318653], [-86.1275864, 24.8360195], [-86.1297607, 24.8402557], [-86.1317902, 24.8445663], [-86.133667, 24.848959], [-86.1353836, 24.8534203], [-86.1369324, 24.8579483], [-86.1383209, 24.8625431], [-86.1395416, 24.867197], [-86.1405945, 24.8719082], [-86.1414719, 24.8766708], [-86.1421814, 24.8814831], [-86.1427231, 24.8863392], [-86.1430893, 24.8912373], [-86.1432724, 24.8961716], [-86.14328, 24.9011364], [-86.1431122, 24.9061317], [-86.1427689, 24.91115], [-86.1422424, 24.9161892], [-86.1415329, 24.9212418], [-86.1406403, 24.9263058], [-86.1395645, 24.9313774], [-86.1383057, 24.9364548], [-86.1368713, 24.9415302], [-86.135231, 24.9466], [-86.1334229, 24.9516602], [-86.131424, 24.9567032], [-86.1292419, 24.961731], [-86.1268845, 24.9667358], [-86.1243362, 24.971714], [-86.1216049, 24.9766617], [-86.1186905, 24.9815693], [-86.115593, 24.9864426], [-86.1123047, 24.9912682], [-86.1088562, 24.9960461], [-86.1052017, 25.0007725], [-86.101387, 25.0054417], [-86.0973816, 25.0100479]]]}}]}