{"type": "FeatureCollection", "features": [{"type": "Feature", "properties": {"shapefile": "al092021-008_5day_pgn", "STORMNAME": "Ida", "STORMTYPE": "HU", "ADVDATE": "400 AM CDT Sat Aug 28 2021", "ADVISNUM": "8", "STORMNUM": 9, "FCSTPRD": 120, "BASIN": "AL"}, "geometry": {"type": "Polygon", "coordinates": [[[-85.19691, 23.73445], [-85.17525, 23.73603], [-85.15273, 23.74049], [-85.1292, 23.74739], [-85.10537, 23.75658], [-85.0817, 23.76765], [-85.05875, 23.7803], [-85.03708, 23.79452], [-85.00711, 23.81838], [-84.98845, 23.83562], [-84.97124, 23.85431], [-84.95517, 23.87414], [-84.93536, 23.90791], [-84.92561, 23.93291], [-84.9193, 23.95993], [-84.91672, 23.98839], [-84.91801, 24.01727], [-84.92274, 24.04558], [-84.93034, 24.07274], [-84.94053, 24.09818], [-84.95947, 24.1331], [-84.96679, 24.14374], [-84.98988, 24.17449], [-85.00681, 24.19346], [-85.02403, 24.21214], [-85.03292, 24.2212], [-85.05072, 24.2393], [-85.07769, 24.26618], [-85.09547, 24.28428], [-85.11356, 24.3021], [-85.12245, 24.31116], [-85.14941, 24.33803], [-85.16721, 24.35614], [-85.18529, 24.37396], [-85.20307, 24.39207], [-85.22116, 24.40989], [-85.23894, 24.42799], [-85.25702, 24.44581], [-85.27481, 24.46392], [-85.29288, 24.48174], [-85.31067, 24.49985], [-85.32875, 24.51767], [-85.34654, 24.53577], [-85.36462, 24.5536], [-85.3735, 24.56265], [-85.40048, 24.58952], [-85.41827, 24.60763], [-85.43634, 24.62545], [-85.45413, 24.64356], [-85.47221, 24.66138], [-85.49, 24.67949], [-85.49904, 24.6884], [-85.52586, 24.71541], [-85.54395, 24.73323], [-85.55284, 24.74229], [-85.5798, 24.76916], [-85.5976, 24.78727], [-85.61568, 24.80509], [-85.63347, 24.82319], [-85.65155, 24.84101], [-85.66933, 24.85912], [-85.68741, 24.87694], [-85.7052, 24.89505], [-85.72328, 24.91287], [-85.74107, 24.93098], [-85.75915, 24.9488], [-85.77693, 24.9669], [-85.79501, 24.98473], [-85.80391, 24.99378], [-85.83087, 25.02065], [-85.84866, 25.03876], [-85.86673, 25.05658], [-85.87563, 25.06563], [-85.9026, 25.09251], [-85.92039, 25.11061], [-85.92943, 25.11952], [-85.95626, 25.14654], [-85.97433, 25.16436], [-85.99213, 25.18247], [-86.01021, 25.20029], [-86.02799, 25.2184], [-86.04608, 25.23622], [-86.06386, 25.25432], [-86.08194, 25.27214], [-86.09972, 25.29025], [-86.1178, 25.30807], [-86.13559, 25.32618], [-86.15367, 25.344], [-86.17175, 25.36182], [-86.1904, 25.37906], [-86.20934, 25.39602], [-86.22913, 25.41212], [-86.2495, 25.42764], [-86.27016, 25.44287], [-86.29082, 25.4581], [-86.3112, 25.47363], [-86.33099, 25.48972], [-86.34993, 25.50668], [-86.36858, 25.52392], [-86.37761, 25.53283], [-86.40472, 25.55956], [-86.42252, 25.57767], [-86.4406, 25.59549], [-86.45838, 25.6136], [-86.47647, 25.63142], [-86.49425, 25.64952], [-86.51233, 25.66735], [-86.53012, 25.68545], [-86.53915, 25.69436], [-86.56598, 25.72138], [-86.58406, 25.7392], [-86.60185, 25.75731], [-86.61993, 25.77513], [-86.63772, 25.79324], [-86.65579, 25.81105], [-86.67358, 25.82916], [-86.69167, 25.84698], [-86.70945, 25.86509], [-86.72753, 25.88291], [-86.74532, 25.90102], [-86.75436, 25.90993], [-86.78118, 25.93694], [-86.79926, 25.95477], [-86.81705, 25.97287], [-86.83511, 25.99069], [-86.85291, 26.0088], [-86.87099, 26.02662], [-86.88878, 26.04472], [-86.90686, 26.06255], [-86.92464, 26.08065], [-86.94272, 26.09848], [-86.96051, 26.11658], [-86.97859, 26.1344], [-86.99638, 26.15251], [-87.01447, 26.17033], [-87.03224, 26.18843], [-87.05032, 26.20626], [-87.06811, 26.22437], [-87.08618, 26.24218], [-87.10397, 26.26029], [-87.12206, 26.27811], [-87.13984, 26.29622], [-87.15793, 26.31404], [-87.1757, 26.33215], [-87.18475, 26.34105], [-87.21157, 26.36807], [-87.22964, 26.38589], [-87.24744, 26.404], [-87.25648, 26.41291], [-87.28331, 26.43993], [-87.30139, 26.45775], [-87.31028, 26.4668], [-87.33725, 26.49368], [-87.35503, 26.51178], [-87.37311, 26.5296], [-87.3909, 26.54771], [-87.40898, 26.56553], [-87.42677, 26.58363], [-87.44485, 26.60146], [-87.46263, 26.61956], [-87.48071, 26.63739], [-87.4985, 26.65549], [-87.51657, 26.67331], [-87.53436, 26.69142], [-87.55244, 26.70924], [-87.57024, 26.72734], [-87.58832, 26.74517], [-87.6061, 26.76328], [-87.62418, 26.78109], [-87.64197, 26.7992], [-87.65976, 26.81731], [-87.67697, 26.83599], [-87.6939, 26.85496], [-87.70997, 26.87479], [-87.72546, 26.8952], [-87.74067, 26.91589], [-87.74828, 26.92624], [-87.77136, 26.95699], [-87.78743, 26.97683], [-87.80437, 26.9958], [-87.82158, 27.01448], [-87.83937, 27.03259], [-87.85716, 27.05069], [-87.87524, 27.06851], [-87.89303, 27.08662], [-87.9111, 27.10444], [-87.92, 27.11349], [-87.94698, 27.14037], [-87.96476, 27.15847], [-87.98285, 27.1763], [-88.00063, 27.1944], [-88.00967, 27.20331], [-88.03649, 27.23033], [-88.04553, 27.23924], [-88.07236, 27.26626], [-88.09044, 27.28408], [-88.10822, 27.30219], [-88.12631, 27.32001], [-88.14409, 27.33811], [-88.16217, 27.35593], [-88.17995, 27.37404], [-88.19803, 27.39186], [-88.21582, 27.40997], [-88.2339, 27.42779], [-88.25169, 27.44589], [-88.26978, 27.46371], [-88.27866, 27.47277], [-88.30563, 27.49964], [-88.32342, 27.51775], [-88.33232, 27.5268], [-88.35842, 27.55454], [-88.37535, 27.57351], [-88.38339, 27.58343], [-88.40692, 27.61375], [-88.41452, 27.6241], [-88.43733, 27.65514], [-88.44508, 27.66534], [-88.46086, 27.68546], [-88.47736, 27.70486], [-88.50304, 27.73302], [-88.51193, 27.74208], [-88.53862, 27.76924], [-88.54765, 27.77815], [-88.57449, 27.80517], [-88.59256, 27.82299], [-88.61035, 27.84109], [-88.62843, 27.85892], [-88.64622, 27.87702], [-88.65526, 27.88593], [-88.67319, 27.9039], [-88.69112, 27.92186], [-88.70906, 27.93982], [-88.72684, 27.95793], [-88.74435, 27.97633], [-88.76988, 28.00464], [-88.78595, 28.02447], [-88.80145, 28.04488], [-88.80905, 28.05523], [-88.83186, 28.08627], [-88.83961, 28.09647], [-88.86342, 28.1265], [-88.87189, 28.13599], [-88.88896, 28.15481], [-88.91536, 28.18226], [-88.93314, 28.20037], [-88.94218, 28.20928], [-88.96901, 28.2363], [-88.98709, 28.25412], [-88.99599, 28.26317], [-89.02267, 28.29033], [-89.03127, 28.29967], [-89.05681, 28.32798], [-89.06485, 28.3379], [-89.08838, 28.36822], [-89.10358, 28.38892], [-89.11879, 28.40961], [-89.13428, 28.43002], [-89.14231, 28.43993], [-89.16727, 28.46882], [-89.17589, 28.47816], [-89.202, 28.50589], [-89.2106, 28.51524], [-89.22768, 28.53406], [-89.24417, 28.55346], [-89.2677, 28.58379], [-89.28291, 28.60448], [-89.29051, 28.61483], [-89.31332, 28.64587], [-89.32108, 28.65607], [-89.33671, 28.67633], [-89.36009, 28.7068], [-89.36769, 28.71715], [-89.3829, 28.73784], [-89.39811, 28.75854], [-89.42092, 28.78958], [-89.43642, 28.80999], [-89.44431, 28.82005], [-89.45979, 28.84045], [-89.47472, 28.86143], [-89.4961, 28.89391], [-89.50285, 28.90512], [-89.51604, 28.92783], [-89.5291, 28.95068], [-89.54918, 28.98445], [-89.55607, 28.99552], [-89.57672, 29.02871], [-89.58361, 29.03978], [-89.59724, 29.06205], [-89.61044, 29.08476], [-89.62306, 29.10804], [-89.6354, 29.13161], [-89.65362, 29.16725], [-89.6595, 29.17932], [-89.67141, 29.20332], [-89.68346, 29.22718], [-89.69537, 29.25117], [-89.7133, 29.2871], [-89.71933, 29.29903], [-89.73711, 29.3351], [-89.74315, 29.34703], [-89.7552, 29.37088], [-89.76695, 29.39503], [-89.77843, 29.41946], [-89.79536, 29.45639], [-89.80053, 29.46918], [-89.81071, 29.49491], [-89.8209, 29.52063], [-89.83109, 29.54636], [-89.84113, 29.57222], [-89.85146, 29.5978], [-89.85677, 29.61045], [-89.87241, 29.64868], [-89.8823, 29.67469], [-89.89191, 29.70098], [-89.90081, 29.728], [-89.90871, 29.75603], [-89.91588, 29.78477], [-89.92248, 29.81408], [-89.9285, 29.84398], [-89.93439, 29.87401], [-89.94041, 29.9039], [-89.94629, 29.93394], [-89.95174, 29.96441], [-89.95648, 29.99559], [-89.96007, 30.02793], [-89.96236, 30.06155], [-89.96365, 30.09619], [-89.96408, 30.13139], [-89.96365, 30.1666], [-89.96323, 30.18414], [-89.96007, 30.23487], [-89.95647, 30.2672], [-89.9516, 30.29824], [-89.94572, 30.32828], [-89.93912, 30.35759], [-89.93209, 30.38648], [-89.92477, 30.41508], [-89.92104, 30.42931], [-89.90927, 30.47141], [-89.90096, 30.499], [-89.89665, 30.51266], [-89.88229, 30.55218], [-89.87743, 30.56525], [-89.8615, 30.6032], [-89.85591, 30.61555], [-89.83884, 30.65234], [-89.83324, 30.6647], [-89.81616, 30.70149], [-89.8054, 30.72664], [-89.79523, 30.75237], [-89.78503, 30.77809], [-89.77485, 30.80381], [-89.76982, 30.81674], [-89.75391, 30.85469], [-89.74831, 30.86704], [-89.73683, 30.89148], [-89.71933, 30.92783], [-89.7133, 30.93976], [-89.70126, 30.96362], [-89.68346, 30.99969], [-89.67142, 31.02354], [-89.6595, 31.04754], [-89.6476, 31.07154], [-89.64157, 31.08347], [-89.62364, 31.1194], [-89.61173, 31.1434], [-89.60571, 31.15532], [-89.58792, 31.19139], [-89.58218, 31.20361], [-89.57071, 31.22804], [-89.55435, 31.26555], [-89.54416, 31.29128], [-89.53397, 31.317], [-89.52378, 31.34272], [-89.51375, 31.36859], [-89.50342, 31.39417], [-89.4981, 31.40681], [-89.48247, 31.44504], [-89.47243, 31.47091], [-89.46224, 31.49664], [-89.45206, 31.52236], [-89.44704, 31.53529], [-89.43111, 31.57323], [-89.41963, 31.59766], [-89.40773, 31.62166], [-89.4017, 31.63359], [-89.38204, 31.6678], [-89.3753, 31.679], [-89.35449, 31.71206], [-89.34747, 31.72298], [-89.32581, 31.75517], [-89.31848, 31.7658], [-89.30357, 31.78679], [-89.28808, 31.80719], [-89.27172, 31.82674], [-89.25422, 31.84513], [-89.23586, 31.86266], [-89.21634, 31.87904], [-89.19597, 31.89457], [-89.17503, 31.90951], [-89.15379, 31.92417], [-89.13228, 31.93854], [-89.11047, 31.95263], [-89.08837, 31.96642], [-89.06599, 31.97993], [-89.05466, 31.98654], [-89.02037, 32.00608], [-88.99771, 32.01931], [-88.97533, 32.03281], [-88.95323, 32.04661], [-88.93143, 32.06069], [-88.9099, 32.07507], [-88.88838, 32.08944], [-88.86687, 32.10381], [-88.84534, 32.11818], [-88.82354, 32.13226], [-88.81248, 32.13916], [-88.79025, 32.15281], [-88.75639, 32.17278], [-88.74492, 32.17925], [-88.71078, 32.19894], [-88.69958, 32.2057], [-88.66629, 32.22625], [-88.6445, 32.24033], [-88.62298, 32.2547], [-88.60146, 32.26907], [-88.57994, 32.28345], [-88.55842, 32.29781], [-88.53661, 32.3119], [-88.51451, 32.3257], [-88.50333, 32.33245], [-88.4808, 32.34581], [-88.44651, 32.36536], [-88.42384, 32.37858], [-88.41265, 32.38534], [-88.37936, 32.40588], [-88.35727, 32.41968], [-88.33518, 32.43348], [-88.32399, 32.44023], [-88.30147, 32.4536], [-88.26718, 32.47314], [-88.24451, 32.48636], [-88.22214, 32.49987], [-88.21109, 32.50677], [-88.17824, 32.52775], [-88.15672, 32.54212], [-88.13519, 32.5565], [-88.11367, 32.57086], [-88.09216, 32.58524], [-88.07034, 32.59932], [-88.04826, 32.61311], [-88.02588, 32.62662], [-88.00321, 32.63984], [-87.99174, 32.64631], [-87.96892, 32.65939], [-87.93521, 32.6795], [-87.91312, 32.6933], [-87.89102, 32.7071], [-87.86893, 32.7209], [-87.85773, 32.72765], [-87.82359, 32.74734], [-87.80006, 32.7597], [-87.7883, 32.76588], [-87.76477, 32.77824], [-87.72948, 32.79678], [-87.718, 32.80325], [-87.68414, 32.82322], [-87.66205, 32.83702], [-87.63996, 32.85081], [-87.62892, 32.85771], [-87.60667, 32.87136], [-87.57281, 32.89133], [-87.56134, 32.8978], [-87.53853, 32.91088], [-87.51601, 32.92425], [-87.48272, 32.94479], [-87.46062, 32.95859], [-87.43853, 32.97239], [-87.41615, 32.98589], [-87.40467, 32.99236], [-87.38144, 33.00501], [-87.3579, 33.01736], [-87.33423, 33.02958], [-87.31028, 33.04151], [-87.28632, 33.05344], [-87.26265, 33.06566], [-87.23912, 33.07801], [-87.20439, 33.09713], [-87.19321, 33.10388], [-87.15992, 33.12443], [-87.14887, 33.13133], [-87.11574, 33.15202], [-87.09336, 33.16553], [-87.08189, 33.172], [-87.04688, 33.19083], [-87.02335, 33.20319], [-87.01144, 33.20922], [-86.97543, 33.22704], [-86.95161, 33.23911], [-86.93971, 33.24515], [-86.91575, 33.25708], [-86.87988, 33.27504], [-86.85606, 33.28711], [-86.83197, 33.2989], [-86.82007, 33.30493], [-86.78434, 33.32304], [-86.77229, 33.32893], [-86.74832, 33.34086], [-86.71261, 33.35897], [-86.68851, 33.37075], [-86.66469, 33.38282], [-86.64088, 33.3949], [-86.62882, 33.40079], [-86.59296, 33.41875], [-86.56914, 33.43082], [-86.54504, 33.4426], [-86.53313, 33.44864], [-86.49741, 33.46675], [-86.48521, 33.4725], [-86.44862, 33.48974], [-86.42395, 33.50095], [-86.39841, 33.5113], [-86.3855, 33.51633], [-86.35982, 33.52653], [-86.33414, 33.53674], [-86.30846, 33.54694], [-86.27103, 33.56332], [-86.24663, 33.57482], [-86.23429, 33.58042], [-86.20976, 33.59177], [-86.17288, 33.60873], [-86.14735, 33.61908], [-86.12125, 33.62885], [-86.10819, 33.63374], [-86.06845, 33.64782], [-86.05497, 33.65228], [-86.01451, 33.66564], [-85.98782, 33.67484], [-85.97433, 33.67929], [-85.94736, 33.6882], [-85.92039, 33.69711], [-85.89342, 33.70602], [-85.86617, 33.71465], [-85.82457, 33.72686], [-85.8105, 33.73074], [-85.78224, 33.73836], [-85.75369, 33.74569], [-85.725, 33.75288], [-85.6963, 33.76006], [-85.66761, 33.76725], [-85.62457, 33.77802], [-85.61023, 33.78162], [-85.58139, 33.78866], [-85.55212, 33.79527], [-85.52229, 33.80131], [-85.49187, 33.80677], [-85.46088, 33.81165], [-85.4296, 33.81625], [-85.39862, 33.82114], [-85.36806, 33.82645], [-85.33765, 33.83192], [-85.30723, 33.83738], [-85.27667, 33.84269], [-85.24568, 33.84758], [-85.2144, 33.85218], [-85.18341, 33.85706], [-85.15286, 33.86238], [-85.12245, 33.86784], [-85.09189, 33.87316], [-85.0609, 33.87804], [-85.02919, 33.88221], [-84.99692, 33.88581], [-84.96463, 33.8894], [-84.93293, 33.89357], [-84.90195, 33.89845], [-84.87138, 33.90377], [-84.84082, 33.90909], [-84.80969, 33.91383], [-84.77742, 33.91742], [-84.74399, 33.91987], [-84.70999, 33.92173], [-84.67598, 33.9236], [-84.64256, 33.92604], [-84.61028, 33.92964], [-84.57915, 33.93438], [-84.54858, 33.9397], [-84.51804, 33.94501], [-84.4869, 33.94975], [-84.45462, 33.95335], [-84.42105, 33.95565], [-84.38662, 33.95708], [-84.3519, 33.95824], [-84.31747, 33.95967], [-84.28389, 33.96197], [-84.25162, 33.96556], [-84.22049, 33.97031], [-84.18993, 33.97562], [-84.15936, 33.98094], [-84.12823, 33.98568], [-84.09596, 33.98927], [-84.06239, 33.99157], [-84.02781, 33.99287], [-83.99266, 33.99358], [-83.95751, 33.99431], [-83.92294, 33.9956], [-83.88937, 33.9979], [-83.85709, 34.0015], [-83.82596, 34.00623], [-83.79541, 34.01155], [-83.76485, 34.01687], [-83.73372, 34.02161], [-83.70143, 34.0252], [-83.66786, 34.0275], [-83.63329, 34.02879], [-83.59814, 34.02952], [-83.56299, 34.03023], [-83.52841, 34.03152], [-83.49484, 34.03382], [-83.46257, 34.03741], [-83.43143, 34.04216], [-83.40088, 34.04748], [-83.37032, 34.0528], [-83.33919, 34.05754], [-83.3069, 34.06113], [-83.27333, 34.06343], [-83.23875, 34.06472], [-83.20361, 34.06544], [-83.16846, 34.06616], [-83.1339, 34.06745], [-83.10031, 34.06975], [-83.06804, 34.07335], [-83.0369, 34.07809], [-83.00635, 34.0834], [-82.97579, 34.08872], [-82.94466, 34.09346], [-82.91238, 34.09705], [-82.87881, 34.09936], [-82.84438, 34.10079], [-82.80965, 34.10194], [-82.77522, 34.10338], [-82.74165, 34.10568], [-82.70938, 34.10927], [-82.67825, 34.11401], [-82.66304, 34.11674], [-82.61713, 34.12465], [-82.586, 34.12939], [-82.55373, 34.13298], [-82.5368, 34.13399], [-82.48629, 34.1373], [-82.45229, 34.13916], [-82.41885, 34.14161], [-82.38658, 34.1452], [-82.35545, 34.14994], [-82.32489, 34.15526], [-82.29434, 34.16058], [-82.2632, 34.16532], [-82.23107, 34.16906], [-82.19807, 34.17193], [-82.18143, 34.17323], [-82.13179, 34.17739], [-82.09966, 34.18113], [-82.06852, 34.18587], [-82.03796, 34.19119], [-82.00741, 34.1965], [-81.97627, 34.20125], [-81.94414, 34.20499], [-81.91114, 34.20786], [-81.87786, 34.21045], [-81.84486, 34.21333], [-81.81273, 34.21706], [-81.78159, 34.22179], [-81.75104, 34.22712], [-81.72063, 34.23258], [-81.69006, 34.23789], [-81.65907, 34.24278], [-81.62779, 34.24738], [-81.59681, 34.25227], [-81.56639, 34.25773], [-81.53656, 34.26376], [-81.50729, 34.27037], [-81.47845, 34.27742], [-81.44976, 34.2846], [-81.42107, 34.29179], [-81.39238, 34.29897], [-81.36368, 34.30616], [-81.33499, 34.31334], [-81.3063, 34.32053], [-81.2776, 34.32771], [-81.24892, 34.3349], [-81.22021, 34.34209], [-81.19153, 34.34927], [-81.16297, 34.3566], [-81.13471, 34.36422], [-81.10674, 34.37212], [-81.07904, 34.38031], [-81.05179, 34.38893], [-81.02482, 34.39784], [-80.98436, 34.41121], [-80.97087, 34.41566], [-80.93071, 34.42931], [-80.91722, 34.43377], [-80.89025, 34.44268], [-80.84979, 34.45605], [-80.83646, 34.46065], [-80.79614, 34.47415], [-80.78265, 34.47861], [-80.75583, 34.48766], [-80.72943, 34.49715], [-80.70332, 34.50692], [-80.66444, 34.52186], [-80.63919, 34.53249], [-80.62657, 34.53781], [-80.60103, 34.54816], [-80.5752, 34.55822], [-80.54952, 34.56842], [-80.52383, 34.57863], [-80.49816, 34.58883], [-80.46072, 34.60521], [-80.44853, 34.61096], [-80.42413, 34.62246], [-80.38812, 34.64028], [-80.3643, 34.65235], [-80.35226, 34.65825], [-80.31639, 34.67621], [-80.29258, 34.68828], [-80.28053, 34.69417], [-80.25658, 34.7061], [-80.23289, 34.71832], [-80.1976, 34.73685], [-80.18613, 34.74332], [-80.16347, 34.75654], [-80.13017, 34.77709], [-80.10809, 34.79089], [-80.086, 34.80469], [-80.0748, 34.81144], [-80.04094, 34.83141], [-80.02946, 34.83788], [-79.99533, 34.85757], [-79.97294, 34.87108], [-79.95084, 34.88487], [-79.93994, 34.89192], [-79.90752, 34.91333], [-79.886, 34.9277], [-79.86449, 34.94207], [-79.84296, 34.95644], [-79.82144, 34.97081], [-79.79993, 34.98518], [-79.77869, 34.99984], [-79.75775, 35.01478], [-79.73709, 35.03002], [-79.71671, 35.04554], [-79.69662, 35.06135], [-79.67625, 35.07687], [-79.6556, 35.0921], [-79.63494, 35.10734], [-79.61429, 35.12257], [-79.59391, 35.13809], [-79.57411, 35.15418], [-79.54527, 35.17919], [-79.53566, 35.18753], [-79.51643, 35.20419], [-79.49664, 35.22029], [-79.47626, 35.23581], [-79.45561, 35.25105], [-79.43494, 35.26628], [-79.41458, 35.2818], [-79.39478, 35.29789], [-79.36652, 35.32348], [-79.35719, 35.3321], [-79.33911, 35.34992], [-79.32104, 35.36774], [-79.30325, 35.38585], [-79.28517, 35.40367], [-79.26739, 35.42177], [-79.2493, 35.43959], [-79.23152, 35.4577], [-79.21344, 35.47552], [-79.19565, 35.49363], [-79.17758, 35.51144], [-79.15979, 35.52955], [-79.142, 35.54766], [-79.12479, 35.56635], [-79.10785, 35.58531], [-79.09178, 35.60514], [-79.07629, 35.62555], [-79.05348, 35.65659], [-79.04588, 35.66694], [-79.03038, 35.68735], [-79.01431, 35.70718], [-78.99767, 35.72644], [-78.98103, 35.7457], [-78.96439, 35.76495], [-78.94832, 35.78478], [-78.93283, 35.80519], [-78.91002, 35.83623], [-78.90241, 35.84658], [-78.88721, 35.86728], [-78.87171, 35.88768], [-78.85593, 35.9078], [-78.84044, 35.9282], [-78.82523, 35.9489], [-78.80299, 35.98051], [-78.7885, 36.00193], [-78.77431, 36.02363], [-78.76038, 36.04562], [-78.74676, 36.06789], [-78.73356, 36.0906], [-78.72093, 36.11388], [-78.7086, 36.13744], [-78.6964, 36.16116], [-78.68449, 36.18516], [-78.6786, 36.19723], [-78.66054, 36.23302], [-78.64862, 36.25702], [-78.63672, 36.28101], [-78.62466, 36.30487], [-78.61276, 36.32887], [-78.60085, 36.35287], [-78.59482, 36.3648], [-78.57689, 36.40072], [-78.56499, 36.42472], [-78.55293, 36.44858], [-78.54117, 36.47272], [-78.52969, 36.49715], [-78.51836, 36.52172], [-78.5076, 36.54688], [-78.49756, 36.57274], [-78.48779, 36.5989], [-78.47833, 36.62534], [-78.4693, 36.65221], [-78.4604, 36.67923], [-78.45136, 36.70611], [-78.44232, 36.73298], [-78.43343, 36.76], [-78.42453, 36.78701], [-78.41563, 36.81403], [-78.40703, 36.84134], [-78.39885, 36.86907], [-78.39096, 36.89709], [-78.38335, 36.9254], [-78.37604, 36.954], [-78.36902, 36.98289], [-78.36241, 37.0122], [-78.35638, 37.0421], [-78.35094, 37.07256], [-78.34606, 37.10361], [-78.34147, 37.13493], [-78.33659, 37.16598], [-78.33128, 37.19659], [-78.32582, 37.22705], [-78.32053, 37.25766], [-78.31579, 37.28885], [-78.3122, 37.32118], [-78.30991, 37.35481], [-78.30861, 37.38944], [-78.30804, 37.4248], [-78.30789, 37.46058], [-78.30789, 37.49651], [-78.30789, 37.53243], [-78.30789, 37.56836], [-78.30789, 37.60429], [-78.30789, 37.64022], [-78.30789, 37.67614], [-78.30804, 37.71193], [-78.30861, 37.74728], [-78.30991, 37.78191], [-78.31219, 37.81554], [-78.31578, 37.84788], [-78.32052, 37.87906], [-78.32583, 37.90967], [-78.33128, 37.94014], [-78.33659, 37.97075], [-78.34147, 38.00179], [-78.34605, 38.03312], [-78.35094, 38.06416], [-78.35638, 38.09462], [-78.36241, 38.12452], [-78.369, 38.15384], [-78.37604, 38.18272], [-78.38335, 38.21132], [-78.38723, 38.2254], [-78.39885, 38.26765], [-78.40703, 38.29539], [-78.41563, 38.32269], [-78.42453, 38.34971], [-78.42898, 38.36322], [-78.44232, 38.40374], [-78.45135, 38.43062], [-78.4604, 38.45749], [-78.4693, 38.4845], [-78.47833, 38.51138], [-78.48779, 38.53783], [-78.49756, 38.56398], [-78.50759, 38.58985], [-78.51836, 38.615], [-78.52409, 38.62721], [-78.54117, 38.66401], [-78.5472, 38.67593], [-78.56499, 38.71201], [-78.57689, 38.736], [-78.5888, 38.76], [-78.60085, 38.78386], [-78.61276, 38.80786], [-78.62466, 38.83186], [-78.63686, 38.85557], [-78.6492, 38.87914], [-78.66183, 38.90242], [-78.67502, 38.92513], [-78.69554, 38.95847], [-78.70242, 38.96953], [-78.7162, 38.99166], [-78.72983, 39.01394], [-78.74316, 39.0365], [-78.75623, 39.05935], [-78.76942, 39.08205], [-78.78319, 39.10419], [-78.79755, 39.12574], [-78.81245, 39.14672], [-78.82795, 39.16713], [-78.84359, 39.18739], [-78.85893, 39.20795], [-78.87415, 39.22864], [-78.88935, 39.24934], [-78.90471, 39.26988], [-78.92049, 39.29], [-78.93698, 39.3094], [-78.95406, 39.32823], [-78.97142, 39.34677], [-78.98877, 39.3653], [-79.00584, 39.38413], [-79.02235, 39.40353], [-79.03812, 39.42365], [-79.05348, 39.4442], [-79.06868, 39.4649], [-79.08405, 39.48544], [-79.09982, 39.50557], [-79.10828, 39.51505], [-79.13339, 39.54379], [-79.15089, 39.56219], [-79.16869, 39.5803], [-79.18661, 39.59827], [-79.20468, 39.61608], [-79.22305, 39.63361], [-79.25131, 39.65919], [-79.26122, 39.66724], [-79.2813, 39.68305], [-79.30182, 39.69843], [-79.32247, 39.71366], [-79.35317, 39.73679], [-79.36307, 39.74484], [-79.38245, 39.76137], [-79.40124, 39.77847], [-79.41974, 39.79586], [-79.43825, 39.81325], [-79.45705, 39.83035], [-79.48631, 39.85493], [-79.50668, 39.87045], [-79.52734, 39.88568], [-79.548, 39.90091], [-79.56866, 39.91615], [-79.57885, 39.9239], [-79.60912, 39.94747], [-79.62949, 39.96299], [-79.63982, 39.97061], [-79.6711, 39.99318], [-79.68171, 40.0005], [-79.70309, 40.01502], [-79.7246, 40.02939], [-79.75688, 40.05095], [-79.77841, 40.06532], [-79.79993, 40.07969], [-79.81068, 40.08687], [-79.84325, 40.10814], [-79.86534, 40.12194], [-79.87653, 40.12869], [-79.8992, 40.14191], [-79.9342, 40.16074], [-79.95773, 40.1731], [-79.98126, 40.18546], [-79.99303, 40.19164], [-80.02774, 40.21075], [-80.05012, 40.22426], [-80.07222, 40.23805], [-80.09431, 40.25185], [-80.10535, 40.25875], [-80.13879, 40.27916], [-80.15026, 40.28562], [-80.18556, 40.30416], [-80.20966, 40.31594], [-80.23434, 40.32715], [-80.25987, 40.3375], [-80.29846, 40.35273], [-80.31123, 40.35791], [-80.33705, 40.36797], [-80.36259, 40.37831], [-80.38727, 40.38952], [-80.39946, 40.39527], [-80.43633, 40.41223], [-80.44852, 40.41798], [-80.49817, 40.44011], [-80.51093, 40.44528], [-80.53676, 40.45534], [-80.56229, 40.46569], [-80.58812, 40.47575], [-80.61395, 40.48581], [-80.63919, 40.49644], [-80.66444, 40.50708], [-80.69026, 40.51714], [-80.71638, 40.52691], [-80.74248, 40.53668], [-80.76917, 40.54588], [-80.80963, 40.55924], [-80.82311, 40.5637], [-80.86386, 40.57677], [-80.87762, 40.58094], [-80.91952, 40.59287], [-80.94778, 40.60049], [-80.97619, 40.60796], [-81.00445, 40.61558], [-81.01851, 40.61946], [-81.06012, 40.63168], [-81.07388, 40.63584], [-81.10114, 40.64447], [-81.14261, 40.65682], [-81.17058, 40.66473], [-81.18465, 40.66861], [-81.22739, 40.67968], [-81.24174, 40.68327], [-81.28535, 40.69347], [-81.31476, 40.69994], [-81.34446, 40.70612], [-81.37445, 40.71201], [-81.40443, 40.7179], [-81.43427, 40.72393], [-81.46425, 40.72983], [-81.49452, 40.73544], [-81.50973, 40.73817], [-81.55607, 40.74564], [-81.58734, 40.75023], [-81.61833, 40.75512], [-81.6489, 40.76044], [-81.67931, 40.7659], [-81.70985, 40.77122], [-81.741, 40.77596], [-81.77313, 40.77969], [-81.80612, 40.78257], [-81.8394, 40.78516], [-81.87241, 40.78803], [-81.90454, 40.79177], [-81.93567, 40.79651], [-81.96623, 40.80183], [-81.99678, 40.80714], [-82.02792, 40.81189], [-82.0602, 40.81548], [-82.09377, 40.81778], [-82.12834, 40.81907], [-82.16364, 40.81964], [-82.19936, 40.81979], [-82.23523, 40.81979], [-82.2711, 40.81979], [-82.30696, 40.81979], [-82.34283, 40.81979], [-82.37868, 40.81979], [-82.41456, 40.81979], [-82.45042, 40.81979], [-82.48629, 40.81979], [-82.52216, 40.81979], [-82.55802, 40.81979], [-82.59389, 40.81979], [-82.62976, 40.81979], [-82.66563, 40.81979], [-82.70149, 40.81979], [-82.73735, 40.81979], [-82.77322, 40.81979], [-82.80908, 40.81979], [-82.84481, 40.81964], [-82.8801, 40.81907], [-82.91468, 40.81778], [-82.94825, 40.81548], [-82.98053, 40.81189], [-83.01166, 40.80714], [-83.04222, 40.80183], [-83.07277, 40.79651], [-83.10391, 40.79177], [-83.13604, 40.78803], [-83.16904, 40.78516], [-83.20232, 40.78257], [-83.23532, 40.7797], [-83.26746, 40.77596], [-83.29858, 40.77122], [-83.32915, 40.7659], [-83.35956, 40.76044], [-83.39012, 40.75512], [-83.4211, 40.75024], [-83.45238, 40.74564], [-83.48337, 40.74075], [-83.51378, 40.73529], [-83.54362, 40.72926], [-83.57289, 40.72264], [-83.60173, 40.7156], [-83.63042, 40.70842], [-83.65926, 40.70137], [-83.68838, 40.69462], [-83.71779, 40.68816], [-83.74748, 40.68197], [-83.77747, 40.67608], [-83.80731, 40.67004], [-83.83658, 40.66344], [-83.86526, 40.65625], [-83.89339, 40.64849], [-83.92094, 40.64016], [-83.94833, 40.63168], [-83.97603, 40.62348], [-84.004, 40.61558], [-84.03226, 40.60796], [-84.06067, 40.60049], [-84.08893, 40.59288], [-84.13083, 40.58095], [-84.14445, 40.57664], [-84.18448, 40.56284], [-84.21059, 40.55307], [-84.2235, 40.54803], [-84.24904, 40.53769], [-84.27429, 40.52705], [-84.29982, 40.5167], [-84.33884, 40.5019], [-84.3519, 40.49702], [-84.3783, 40.48753], [-84.40513, 40.47848], [-84.43195, 40.46942], [-84.45835, 40.45994], [-84.48446, 40.45016], [-84.52306, 40.43494], [-84.53539, 40.42933], [-84.57211, 40.41222], [-84.58431, 40.40648], [-84.60841, 40.3947], [-84.63223, 40.38262], [-84.66824, 40.36481], [-84.69205, 40.35274], [-84.70396, 40.3467], [-84.72792, 40.33477], [-84.75188, 40.32285], [-84.7757, 40.31077], [-84.79965, 40.29884], [-84.83552, 40.28088], [-84.85933, 40.26881], [-84.87138, 40.26292], [-84.89534, 40.25099], [-84.91916, 40.23891], [-84.95517, 40.2211], [-84.97898, 40.20903], [-84.99074, 40.20285], [-85.02604, 40.18431], [-85.04899, 40.17138], [-85.06018, 40.16462], [-85.09348, 40.14407], [-85.11557, 40.13027], [-85.12661, 40.12337], [-85.16003, 40.10297], [-85.17151, 40.0965], [-85.20651, 40.07767], [-85.21828, 40.0715], [-85.24196, 40.05928], [-85.27796, 40.04146], [-85.28987, 40.03542], [-85.31369, 40.02335], [-85.34969, 40.00553], [-85.3616, 39.9995], [-85.39732, 39.98139], [-85.40937, 39.97549], [-85.43333, 39.96357], [-85.45715, 39.9515], [-85.4811, 39.93957], [-85.51697, 39.92161], [-85.54079, 39.90953], [-85.55284, 39.90364], [-85.58871, 39.88568], [-85.61253, 39.8736], [-85.63663, 39.86182], [-85.64853, 39.85579], [-85.67235, 39.84371], [-85.70834, 39.8259], [-85.73218, 39.81383], [-85.74408, 39.80779], [-85.76804, 39.79586], [-85.8039, 39.7779], [-85.8392, 39.75935], [-85.85096, 39.75318], [-85.86244, 39.74671], [-85.89629, 39.72674], [-85.90734, 39.71984], [-85.94048, 39.69915], [-85.95168, 39.69239], [-85.98582, 39.6727], [-85.99772, 39.66667], [-86.0346, 39.64971], [-86.04736, 39.64454], [-86.08566, 39.62901], [-86.09857, 39.62399], [-86.13702, 39.60861], [-86.14935, 39.603], [-86.1739, 39.59165], [-86.19829, 39.58015], [-86.23429, 39.56233], [-86.2581, 39.55026], [-86.28221, 39.53848], [-86.30603, 39.52641], [-86.32956, 39.51405], [-86.34132, 39.50787], [-86.36456, 39.49522], [-86.38722, 39.482], [-86.4205, 39.46144], [-86.43155, 39.45455], [-86.45364, 39.44075], [-86.48708, 39.42035], [-86.49856, 39.41388], [-86.53356, 39.39505], [-86.54533, 39.38888], [-86.569, 39.37666], [-86.59296, 39.36473], [-86.61691, 39.3528], [-86.64073, 39.34074], [-86.67673, 39.32291], [-86.68864, 39.31688], [-86.72437, 39.29877], [-86.73642, 39.29288], [-86.77229, 39.27492], [-86.7961, 39.26284], [-86.82021, 39.25106], [-86.83211, 39.24503], [-86.86784, 39.22691], [-86.89194, 39.21513], [-86.90384, 39.2091], [-86.92766, 39.19703], [-86.96367, 39.1792], [-86.98749, 39.16713], [-86.9994, 39.16109], [-87.0354, 39.14328], [-87.05921, 39.1312], [-87.07112, 39.12517], [-87.10713, 39.10735], [-87.11903, 39.10131], [-87.14272, 39.0891], [-87.16624, 39.07674], [-87.20096, 39.05762], [-87.22334, 39.04411], [-87.23438, 39.03722], [-87.25648, 39.02342], [-87.27857, 39.00962], [-87.312, 38.98922], [-87.32348, 38.98275], [-87.34671, 38.9701], [-87.37025, 38.95774], [-87.39392, 38.94553], [-87.41787, 38.9336], [-87.45374, 38.91564], [-87.47726, 38.90328], [-87.48903, 38.8971], [-87.51228, 38.88445], [-87.54613, 38.86448], [-87.55718, 38.85758], [-87.59032, 38.83689], [-87.61241, 38.82309], [-87.6236, 38.81634], [-87.65746, 38.79636], [-87.68042, 38.78343], [-87.69175, 38.77682], [-87.72546, 38.7567], [-87.73651, 38.7498], [-87.76965, 38.72911], [-87.79174, 38.71531], [-87.81412, 38.7018], [-87.83679, 38.68858], [-87.85974, 38.67564], [-87.88242, 38.66242], [-87.8936, 38.65567], [-87.91584, 38.64201], [-87.93793, 38.62822], [-87.96003, 38.61443], [-87.98227, 38.60077], [-88.01612, 38.5808], [-88.0276, 38.57433], [-88.06174, 38.55464], [-88.08412, 38.54113], [-88.09517, 38.53423], [-88.12802, 38.51325], [-88.14954, 38.49888], [-88.17106, 38.48451], [-88.19258, 38.47014], [-88.2141, 38.45577], [-88.23563, 38.44139], [-88.25714, 38.42702], [-88.27866, 38.41265], [-88.30018, 38.39828], [-88.3217, 38.38391], [-88.34322, 38.36954], [-88.36473, 38.35517], [-88.38626, 38.3408], [-88.40778, 38.32643], [-88.4293, 38.31206], [-88.45082, 38.29769], [-88.48296, 38.27599], [-88.49358, 38.26866], [-88.51452, 38.25372], [-88.53518, 38.23848], [-88.55555, 38.22296], [-88.57563, 38.20715], [-88.59601, 38.19163], [-88.61667, 38.1764], [-88.6376, 38.16145], [-88.65884, 38.14679], [-88.68036, 38.13242], [-88.70187, 38.11805], [-88.7234, 38.10368], [-88.74463, 38.08902], [-88.76557, 38.07408], [-88.78595, 38.05856], [-88.80575, 38.04246], [-88.82498, 38.02579], [-88.84419, 38.00912], [-88.86342, 37.99245], [-88.88321, 37.97635], [-88.90359, 37.96083], [-88.92426, 37.9456], [-88.94492, 37.93037], [-88.96529, 37.91485], [-88.98508, 37.89875], [-89.0043, 37.88208], [-89.02353, 37.86541], [-89.04276, 37.84874], [-89.06255, 37.83264], [-89.08292, 37.81713], [-89.10358, 37.80189], [-89.12424, 37.78666], [-89.15451, 37.76309], [-89.1644, 37.75504], [-89.18334, 37.73808], [-89.202, 37.72084], [-89.22036, 37.70331], [-89.23901, 37.68606], [-89.25795, 37.66911], [-89.27774, 37.65301], [-89.29812, 37.63749], [-89.31877, 37.62225], [-89.33943, 37.60703], [-89.35981, 37.5915], [-89.37961, 37.57541], [-89.39854, 37.55844], [-89.41719, 37.5412], [-89.44431, 37.51447], [-89.45334, 37.50556], [-89.47113, 37.48745], [-89.49811, 37.46058], [-89.51604, 37.44262], [-89.53412, 37.4248], [-89.54315, 37.41589], [-89.5618, 37.39864], [-89.58074, 37.38168], [-89.60054, 37.36559], [-89.62092, 37.35007], [-89.6519, 37.32722], [-89.66223, 37.3196], [-89.6826, 37.30408], [-89.70239, 37.28799], [-89.72133, 37.27103], [-89.73999, 37.25378], [-89.76711, 37.22705], [-89.78503, 37.20908], [-89.80296, 37.19112], [-89.8209, 37.17316], [-89.83884, 37.1552], [-89.84787, 37.14629], [-89.8747, 37.11926], [-89.89264, 37.1013], [-89.91057, 37.08334], [-89.9285, 37.06538], [-89.94643, 37.04741], [-89.95547, 37.0385], [-89.97326, 37.0204], [-89.99133, 37.00257], [-90.01817, 36.97556], [-90.02721, 36.96665], [-90.04499, 36.94854], [-90.07197, 36.92167], [-90.0899, 36.90371], [-90.09894, 36.89479], [-90.12576, 36.86778], [-90.1348, 36.85887], [-90.16163, 36.83185], [-90.17067, 36.82294], [-90.18846, 36.80483], [-90.21543, 36.77796], [-90.23337, 36.76], [-90.2424, 36.75109], [-90.26019, 36.73298], [-90.28716, 36.70611], [-90.29605, 36.69705], [-90.31384, 36.67894], [-90.33105, 36.66026], [-90.34799, 36.64129], [-90.36406, 36.62146], [-90.37955, 36.60105], [-90.39476, 36.58036], [-90.40997, 36.55966], [-90.42546, 36.53926], [-90.44153, 36.51942], [-90.45846, 36.50046], [-90.47568, 36.48177], [-90.49347, 36.46367], [-90.51125, 36.44556], [-90.52933, 36.42774], [-90.54712, 36.40963], [-90.5652, 36.39182], [-90.58298, 36.37371], [-90.60107, 36.35588], [-90.61885, 36.33778], [-90.63664, 36.31967], [-90.66232, 36.2915], [-90.67078, 36.28202], [-90.68685, 36.26219], [-90.70234, 36.24178], [-90.71756, 36.22109], [-90.73277, 36.20039], [-90.74826, 36.17999], [-90.76433, 36.16016], [-90.78125, 36.14118], [-90.79846, 36.1225], [-90.81625, 36.10439], [-90.83405, 36.08628], [-90.85184, 36.06818], [-90.86905, 36.04949], [-90.88599, 36.03053], [-90.90205, 36.01069], [-90.91754, 35.99029], [-90.93275, 35.9696], [-90.94796, 35.9489], [-90.96345, 35.9285], [-90.97952, 35.90866], [-90.99644, 35.88969], [-91.01366, 35.87101], [-91.03117, 35.85262], [-91.04839, 35.83393], [-91.07334, 35.80505], [-91.08912, 35.78493], [-91.09686, 35.77472], [-91.11208, 35.75403], [-91.12729, 35.73333], [-91.14279, 35.71293], [-91.15885, 35.6931], [-91.17549, 35.67384], [-91.19214, 35.65458], [-91.20877, 35.63532], [-91.22484, 35.61549], [-91.24794, 35.58474], [-91.25554, 35.57439], [-91.27075, 35.5537], [-91.28596, 35.533], [-91.30145, 35.5126], [-91.31723, 35.49248], [-91.33273, 35.47207], [-91.35555, 35.44103], [-91.36314, 35.43069], [-91.37835, 35.40999], [-91.39355, 35.3893], [-91.40906, 35.36889], [-91.42484, 35.34877], [-91.44034, 35.32836], [-91.45554, 35.30767], [-91.47074, 35.28698], [-91.48595, 35.26628], [-91.50116, 35.24559], [-91.51665, 35.22518], [-91.53243, 35.20506], [-91.55553, 35.1743], [-91.5706, 35.15347], [-91.57806, 35.14297], [-91.59985, 35.11092], [-91.60703, 35.10015], [-91.62854, 35.06782], [-91.63572, 35.05704], [-91.65036, 35.03577], [-91.66528, 35.01479], [-91.68048, 34.99409], [-91.69598, 34.97369], [-91.71176, 34.95357], [-91.72726, 34.93316], [-91.74246, 34.91247], [-91.75739, 34.89149], [-91.772, 34.87022], [-91.78636, 34.84866], [-91.80788, 34.81633], [-91.81506, 34.80555], [-91.83657, 34.77322], [-91.85092, 34.75166], [-91.86526, 34.73009], [-91.87244, 34.71932], [-91.89397, 34.68699], [-91.90831, 34.66543], [-91.92265, 34.64388], [-91.92982, 34.63309], [-91.95134, 34.60076], [-91.95851, 34.58998], [-91.98004, 34.55764], [-91.99438, 34.53609], [-92.00859, 34.51439], [-92.02251, 34.4924], [-92.03613, 34.47013], [-92.04948, 34.44757], [-92.05608, 34.43621], [-92.07558, 34.40187], [-92.08893, 34.3793], [-92.10255, 34.35703], [-92.11633, 34.3349], [-92.1301, 34.31277], [-92.14374, 34.2905], [-92.15694, 34.26778], [-92.16956, 34.24451], [-92.18189, 34.22094], [-92.19423, 34.19737], [-92.20039, 34.18559], [-92.21919, 34.15052], [-92.22565, 34.13902], [-92.23914, 34.1166], [-92.2598, 34.0834], [-92.26668, 34.07234], [-92.2872, 34.039], [-92.29395, 34.02779], [-92.31359, 33.99358], [-92.32664, 33.97074], [-92.33324, 33.95938], [-92.34673, 33.93697], [-92.36754, 33.90392], [-92.38174, 33.88222], [-92.38891, 33.87144], [-92.41043, 33.8391], [-92.42478, 33.81754], [-92.43898, 33.79585], [-92.4529, 33.77386], [-92.46652, 33.75158], [-92.47987, 33.72902], [-92.48647, 33.71767], [-92.50598, 33.68332], [-92.51258, 33.67197], [-92.53296, 33.63848], [-92.54672, 33.61635], [-92.5605, 33.59422], [-92.57413, 33.57195], [-92.58733, 33.54924], [-92.59981, 33.52581], [-92.61171, 33.50182], [-92.62318, 33.47739], [-92.63394, 33.45223], [-92.64413, 33.42651], [-92.65432, 33.40079], [-92.66451, 33.37506], [-92.67469, 33.34934], [-92.67986, 33.33655], [-92.69679, 33.29961], [-92.70811, 33.27504], [-92.71945, 33.25047], [-92.73079, 33.22589], [-92.74155, 33.20074], [-92.75159, 33.17487], [-92.76134, 33.14872], [-92.76622, 33.13564], [-92.77985, 33.09541], [-92.78874, 33.06838], [-92.79318, 33.05488], [-92.80625, 33.01406], [-92.81443, 32.98633], [-92.82231, 32.95831], [-92.82993, 32.93], [-92.83723, 32.9014], [-92.84427, 32.87251], [-92.85086, 32.84319], [-92.85689, 32.8133], [-92.86234, 32.78284], [-92.86722, 32.75179], [-92.87181, 32.72047], [-92.87669, 32.68942], [-92.882, 32.65881], [-92.88745, 32.62835], [-92.89017, 32.61311], [-92.89749, 32.56655], [-92.90108, 32.53422], [-92.90337, 32.5006], [-92.90466, 32.46595], [-92.90524, 32.4306], [-92.90538, 32.39482], [-92.90538, 32.35889], [-92.90538, 32.32296], [-92.90538, 32.28704], [-92.90538, 32.25111], [-92.90538, 32.21518], [-92.90538, 32.17926], [-92.90538, 32.14333], [-92.90538, 32.1074], [-92.90538, 32.07148], [-92.90538, 32.03555], [-92.90524, 31.99976], [-92.90466, 31.96441], [-92.90337, 31.92978], [-92.90108, 31.89615], [-92.89749, 31.86381], [-92.89275, 31.83263], [-92.88744, 31.80202], [-92.88214, 31.77141], [-92.87741, 31.74022], [-92.87382, 31.70789], [-92.87296, 31.69079], [-92.87022, 31.63963], [-92.86966, 31.60427], [-92.86951, 31.56849], [-92.86951, 31.53256], [-92.86951, 31.49663], [-92.86951, 31.46071], [-92.86951, 31.42478], [-92.86951, 31.38885], [-92.86951, 31.35292], [-92.86951, 31.317], [-92.86951, 31.28107], [-92.86951, 31.24514], [-92.86951, 31.20922], [-92.86951, 31.17329], [-92.86951, 31.13736], [-92.86951, 31.10143], [-92.86951, 31.06551], [-92.86937, 31.02972], [-92.8688, 30.99437], [-92.86751, 30.95974], [-92.86521, 30.92611], [-92.86163, 30.89377], [-92.85689, 30.86259], [-92.85158, 30.83198], [-92.84627, 30.80137], [-92.8414, 30.77032], [-92.83723, 30.73857], [-92.83365, 30.70623], [-92.83006, 30.6739], [-92.8259, 30.64214], [-92.82102, 30.6111], [-92.81557, 30.58063], [-92.80969, 30.55059], [-92.80367, 30.5207], [-92.79778, 30.49067], [-92.7919, 30.46063], [-92.78573, 30.43089], [-92.77927, 30.40142], [-92.77254, 30.37225], [-92.7655, 30.34336], [-92.75446, 30.30054], [-92.75058, 30.28646], [-92.74269, 30.25843], [-92.73451, 30.23069], [-92.72605, 30.20325], [-92.71759, 30.1758], [-92.70941, 30.14806], [-92.70152, 30.12004], [-92.69377, 30.09187], [-92.68588, 30.06385], [-92.67755, 30.03626], [-92.66866, 30.00924], [-92.65906, 29.98294], [-92.64887, 29.95722], [-92.63869, 29.93149], [-92.62865, 29.90562], [-92.61845, 29.8799], [-92.60827, 29.85418], [-92.59808, 29.82846], [-92.58173, 29.79095], [-92.57025, 29.76651], [-92.56451, 29.7543], [-92.55275, 29.73016], [-92.53468, 29.69437], [-92.52894, 29.68216], [-92.51746, 29.65773], [-92.50612, 29.63316], [-92.48991, 29.5955], [-92.4846, 29.58286], [-92.4737, 29.55785], [-92.46237, 29.53328], [-92.45045, 29.50928], [-92.43784, 29.486], [-92.42478, 29.46314], [-92.40498, 29.42908], [-92.39852, 29.41759], [-92.38589, 29.39431], [-92.37357, 29.37074], [-92.36122, 29.34717], [-92.34271, 29.31182], [-92.33626, 29.30032], [-92.32306, 29.27762], [-92.30943, 29.25534], [-92.29565, 29.23321], [-92.27499, 29.20001], [-92.26825, 29.1888], [-92.24831, 29.15489], [-92.24186, 29.14339], [-92.22881, 29.12054], [-92.20872, 29.08677], [-92.20184, 29.0757], [-92.18793, 29.05372], [-92.17372, 29.03202], [-92.15923, 29.0106], [-92.14445, 28.98948], [-92.12938, 28.96864], [-92.11404, 28.94809], [-92.09051, 28.91777], [-92.08276, 28.90756], [-92.05981, 28.87667], [-92.05221, 28.86632], [-92.037, 28.84563], [-92.02179, 28.82493], [-91.99869, 28.79418], [-91.98291, 28.77406], [-91.97516, 28.76385], [-91.95981, 28.74331], [-91.9446, 28.72261], [-91.9294, 28.70192], [-91.9063, 28.67116], [-91.89827, 28.66125], [-91.88177, 28.64185], [-91.85609, 28.61368], [-91.83858, 28.59528], [-91.82997, 28.58594], [-91.8129, 28.56712], [-91.78837, 28.5378], [-91.77288, 28.51739], [-91.75766, 28.4967], [-91.75006, 28.48635], [-91.72696, 28.4556], [-91.71893, 28.44568], [-91.69397, 28.4168], [-91.67676, 28.39811], [-91.65897, 28.38], [-91.65007, 28.37095], [-91.62309, 28.34408], [-91.60531, 28.32597], [-91.59627, 28.31706], [-91.57834, 28.2991], [-91.5604, 28.28114], [-91.53358, 28.25412], [-91.5155, 28.2363], [-91.50661, 28.22724], [-91.47964, 28.20037], [-91.46185, 28.18226], [-91.44377, 28.16444], [-91.43488, 28.15539], [-91.4079, 28.12851], [-91.39011, 28.11041], [-91.38107, 28.1015], [-91.36314, 28.08353], [-91.33617, 28.05666], [-91.32727, 28.04761], [-91.30934, 28.02964], [-91.28251, 28.00262], [-91.26443, 27.98481], [-91.25554, 27.97575], [-91.23761, 27.95779], [-91.21968, 27.93982], [-91.20174, 27.92186], [-91.18367, 27.90404], [-91.15598, 27.87788], [-91.13704, 27.86093], [-91.11725, 27.84483], [-91.09687, 27.82931], [-91.07622, 27.81408], [-91.05556, 27.79884], [-91.03518, 27.78333], [-91.01538, 27.76723], [-90.99644, 27.75027], [-90.9778, 27.73302], [-90.95944, 27.71549], [-90.94079, 27.69825], [-90.92184, 27.68129], [-90.90205, 27.66519], [-90.88168, 27.64967], [-90.86102, 27.63444], [-90.84036, 27.61921], [-90.8197, 27.60397], [-90.79933, 27.58846], [-90.77924, 27.57265], [-90.75887, 27.55713], [-90.7382, 27.54189], [-90.71755, 27.52666], [-90.6969, 27.51143], [-90.67624, 27.49619], [-90.66605, 27.48843], [-90.63577, 27.46486], [-90.6154, 27.44934], [-90.59474, 27.43411], [-90.57409, 27.41888], [-90.55344, 27.40364], [-90.53278, 27.38841], [-90.51241, 27.37289], [-90.49232, 27.35708], [-90.47195, 27.34156], [-90.45128, 27.32632], [-90.43034, 27.31138], [-90.4091, 27.29672], [-90.38759, 27.28235], [-90.36606, 27.26798], [-90.34454, 27.25361], [-90.32303, 27.23924], [-90.30151, 27.22487], [-90.27998, 27.21049], [-90.25847, 27.19613], [-90.23695, 27.18176], [-90.21542, 27.16739], [-90.19391, 27.15302], [-90.17239, 27.13864], [-90.15086, 27.12427], [-90.12935, 27.1099], [-90.10811, 27.09525], [-90.08717, 27.0803], [-90.06651, 27.06506], [-90.04614, 27.04955], [-90.02605, 27.03374], [-90.00568, 27.01822], [-89.98502, 27.00298], [-89.96408, 26.98804], [-89.94285, 26.97337], [-89.93208, 26.96619], [-89.89981, 26.94463], [-89.87829, 26.93026], [-89.85677, 26.91589], [-89.83525, 26.90152], [-89.81373, 26.88715], [-89.79221, 26.87278], [-89.78145, 26.8656], [-89.74917, 26.84404], [-89.72765, 26.82967], [-89.70613, 26.8153], [-89.68461, 26.80093], [-89.66309, 26.78656], [-89.64157, 26.77218], [-89.62006, 26.75781], [-89.59853, 26.74344], [-89.57701, 26.72907], [-89.5555, 26.7147], [-89.53397, 26.70033], [-89.51245, 26.68596], [-89.49094, 26.67159], [-89.46941, 26.65722], [-89.44789, 26.64285], [-89.42665, 26.62819], [-89.40572, 26.61324], [-89.38505, 26.59801], [-89.36469, 26.58249], [-89.35464, 26.57458], [-89.32423, 26.55116], [-89.30357, 26.53593], [-89.28291, 26.52069], [-89.26225, 26.50546], [-89.24158, 26.49022], [-89.22122, 26.4747], [-89.20114, 26.4589], [-89.18076, 26.44337], [-89.1601, 26.42814], [-89.13916, 26.4132], [-89.11792, 26.39854], [-89.09641, 26.38417], [-89.07489, 26.3698], [-89.05337, 26.35543], [-89.03214, 26.34077], [-89.0112, 26.32582], [-88.99053, 26.31059], [-88.97016, 26.29507], [-88.95008, 26.27926], [-88.9297, 26.26374], [-88.90904, 26.2485], [-88.88809, 26.23356], [-88.86687, 26.2189], [-88.84534, 26.20453], [-88.82382, 26.19016], [-88.80231, 26.17579], [-88.78107, 26.16113], [-88.76013, 26.14618], [-88.73947, 26.13095], [-88.7191, 26.11543], [-88.69901, 26.09962], [-88.67863, 26.0841], [-88.65797, 26.06887], [-88.63703, 26.05392], [-88.61581, 26.03926], [-88.59428, 26.02489], [-88.57277, 26.01052], [-88.55124, 25.99615], [-88.53, 25.98149], [-88.50906, 25.96655], [-88.4884, 25.95131], [-88.46803, 25.93579], [-88.44795, 25.91999], [-88.42757, 25.90446], [-88.40691, 25.88923], [-88.38597, 25.87429], [-88.36474, 25.85963], [-88.34322, 25.84526], [-88.3217, 25.83089], [-88.30019, 25.81651], [-88.27895, 25.80186], [-88.258, 25.78691], [-88.23734, 25.77168], [-88.21697, 25.75616], [-88.19689, 25.74035], [-88.17651, 25.72483], [-88.15585, 25.70959], [-88.1349, 25.69465], [-88.11367, 25.67999], [-88.09216, 25.66562], [-88.07063, 25.65125], [-88.04912, 25.63688], [-88.02789, 25.62222], [-88.00694, 25.60728], [-87.98627, 25.59204], [-87.96591, 25.57652], [-87.94583, 25.56071], [-87.92545, 25.54519], [-87.90479, 25.52996], [-87.88383, 25.51501], [-87.86261, 25.50035], [-87.84109, 25.48598], [-87.81957, 25.47161], [-87.79805, 25.45724], [-87.77654, 25.44287], [-87.75501, 25.4285], [-87.73349, 25.41413], [-87.71198, 25.39976], [-87.69046, 25.38539], [-87.66922, 25.37073], [-87.64828, 25.35578], [-87.62762, 25.34055], [-87.60725, 25.32503], [-87.58717, 25.30922], [-87.5668, 25.2937], [-87.54613, 25.27847], [-87.52518, 25.26352], [-87.50395, 25.24886], [-87.48244, 25.23449], [-87.46091, 25.22012], [-87.43939, 25.20575], [-87.41788, 25.19138], [-87.39635, 25.17701], [-87.37483, 25.16264], [-87.35332, 25.14827], [-87.3318, 25.1339], [-87.31027, 25.11953], [-87.28876, 25.10516], [-87.26723, 25.09078], [-87.24571, 25.07641], [-87.2242, 25.06204], [-87.20296, 25.04738], [-87.18202, 25.03244], [-87.16135, 25.0172], [-87.14099, 25.00168], [-87.1209, 24.98587], [-87.10053, 24.97035], [-87.07987, 24.95512], [-87.05893, 24.94017], [-87.0377, 24.92552], [-87.01617, 24.91115], [-86.99466, 24.89677], [-86.97314, 24.8824], [-86.95161, 24.86803], [-86.9301, 24.85366], [-86.90858, 24.83929], [-86.88705, 24.82492], [-86.86554, 24.81055], [-86.8443, 24.79589], [-86.82336, 24.78094], [-86.8027, 24.76571], [-86.78233, 24.75019], [-86.76224, 24.73438], [-86.74187, 24.71886], [-86.72121, 24.70363], [-86.70026, 24.68868], [-86.67904, 24.67403], [-86.65752, 24.65965], [-86.636, 24.64528], [-86.61447, 24.63091], [-86.59296, 24.61654], [-86.57143, 24.60217], [-86.54992, 24.5878], [-86.5284, 24.57343], [-86.50688, 24.55906], [-86.48535, 24.54469], [-86.46384, 24.53032], [-86.44232, 24.51595], [-86.4208, 24.50157], [-86.39928, 24.4872], [-86.37776, 24.47283], [-86.35624, 24.45846], [-86.33472, 24.44409], [-86.3132, 24.42972], [-86.29169, 24.41535], [-86.27016, 24.40098], [-86.24864, 24.3866], [-86.22713, 24.37223], [-86.2056, 24.35786], [-86.18408, 24.34349], [-86.16284, 24.32883], [-86.14191, 24.31389], [-86.12125, 24.29866], [-86.10088, 24.28313], [-86.0808, 24.26733], [-86.06042, 24.25181], [-86.03976, 24.23657], [-86.01881, 24.22163], [-85.99758, 24.20697], [-85.97606, 24.1926], [-85.95454, 24.17823], [-85.93301, 24.16386], [-85.9115, 24.14949], [-85.88998, 24.13512], [-85.86846, 24.12074], [-85.84694, 24.10637], [-85.82542, 24.092], [-85.80389, 24.07763], [-85.78238, 24.06326], [-85.76086, 24.04889], [-85.73935, 24.03452], [-85.71783, 24.02015], [-85.6963, 24.00578], [-85.67479, 23.99141], [-85.65327, 23.97704], [-85.63174, 23.96266], [-85.61023, 23.94829], [-85.58871, 23.93392], [-85.56718, 23.91955], [-85.54567, 23.90518], [-85.52414, 23.89081], [-85.50262, 23.87643], [-85.48111, 23.86207], [-85.45959, 23.84769], [-85.43806, 23.83332], [-85.41626, 23.81924], [-85.39388, 23.80573], [-85.35902, 23.78676], [-85.34725, 23.78073], [-85.31038, 23.76477], [-85.28614, 23.75515], [-85.2626, 23.74681], [-85.24008, 23.74035], [-85.22975, 23.73819], [-85.19691, 23.73445]]]}}]}