{"type": "FeatureCollection", "features": [{"type": "Feature", "properties": {"shapefile": "al092021-008_5day_lin", "STORMNAME": "Ida", "STORMTYPE": "HU", "ADVDATE": "400 AM CDT Sat Aug 28 2021", "ADVISNUM": "8", "STORMNUM": 9, "FCSTPRD": 120, "BASIN": "AL"}, "geometry": {"type": "LineString", "coordinates": [[-85.2, 24.0], [-86.9, 25.4], [-88.9, 27.1], [-90.5, 28.6], [-91.3, 30.1], [-91.2, 31.6], [-90.5, 33.2], [-87.0, 36.0], [-82.5, 37.5]]}}, {"type": "Feature", "properties": {"shapefile": "al092021-008_5day_pts", "ADVDATE": "400 AM CDT Sat Aug 28 2021", "ADVISNUM": "8", "BASIN": "AL", "DATELBL": "4:00 AM Sat", "DVLBL": "H", "FCSTPRD": 120, "FLDATELBL": "2021-08-28 1:00 AM Sat CDT", "GUST": 85, "LAT": 24, "LON": -85, "MAXWIND": 70, "MSLP": 987, "SSNUM": 1, "STORMNAME": "Hurricane Ida", "STORMNUM": 9, "STORMSRC": "Tropical Cyclone", "STORMTYPE": "HU", "TCDVLP": "Hurricane", "TAU": 0, "TCDIR": 315, "TCSPD": 14, "TIMEZONE": "CDT", "VALIDTIME": "28/0600"}, "geometry": {"type": "Point", "coordinates": [-85.2, 24.0]}}, {"type": "Feature", "properties": {"shapefile": "al092021-008_5day_pts", "ADVDATE": "400 AM CDT Sat Aug 28 2021", "ADVISNUM": "8", "BASIN": "AL", "DATELBL": "1:00 PM Sat", "DVLBL": "H", "FCSTPRD": 120, "FLDATELBL": "2021-08-28 1:00 PM Sat CDT", "GUST": 105, "LAT": 25, "LON": -86, "MAXWIND": 85, "MSLP": 9999, "SSNUM": 2, "STORMNAME": "Hurricane Ida", "STORMNUM": 9, "STORMSRC": "Tropical Cyclone", "STORMTYPE": "HU", "TCDVLP": "Hurricane", "TAU": 12, "TCDIR": 9999, "TCSPD": 9999, "TIMEZONE": "CDT", "VALIDTIME": "28/1800"}, "geometry": {"type": "Point", "coordinates": [-86.9, 25.4]}}, {"type": "Feature", "properties": {"shapefile": "al092021-008_5day_pts", "ADVDATE": "400 AM CDT Sat Aug 28 2021", "ADVISNUM": "8", "BASIN": "AL", "DATELBL": "1:00 AM Sun", "DVLBL": "M", "FCSTPRD": 120, "FLDATELBL": "2021-08-29 1:00 AM Sun CDT", "GUST": 130, "LAT": 27, "LON": -88, "MAXWIND": 105, "MSLP": 9999, "SSNUM": 3, "STORMNAME": "Hurricane Ida", "STORMNUM": 9, "STORMSRC": "Tropical Cyclone", "STORMTYPE": "MH", "TCDVLP": "Major Hurricane", "TAU": 24, "TCDIR": 9999, "TCSPD": 9999, "TIMEZONE": "CDT", "VALIDTIME": "29/0600"}, "geometry": {"type": "Point", "coordinates": [-88.9, 27.1]}}, {"type": "Feature", "properties": {"shapefile": "al092021-008_5day_pts", "ADVDATE": "400 AM CDT Sat Aug 28 2021", "ADVISNUM": "8", "BASIN": "AL", "DATELBL": "1:00 PM Sun", "DVLBL": "M", "FCSTPRD": 120, "FLDATELBL": "2021-08-29 1:00 PM Sun CDT", "GUST": 145, "LAT": 28, "LON": -90, "MAXWIND": 120, "MSLP": 9999, "SSNUM": 4, "STORMNAME": "Hurricane Ida", "STORMNUM": 9, "STORMSRC": "Tropical Cyclone", "STORMTYPE": "MH", "TCDVLP": "Major Hurricane", "TAU": 36, "TCDIR": 9999, "TCSPD": 9999, "TIMEZONE": "CDT", "VALIDTIME": "29/1800"}, "geometry": {"type": "Point", "coordinates": [-90.5, 28.6]}}, {"type": "Feature", "properties": {"shapefile": "al092021-008_5day_pts", "ADVDATE": "400 AM CDT Sat Aug 28 2021", "ADVISNUM": "8", "BASIN": "AL", "DATELBL": "1:00 AM Mon", "DVLBL": "H", "FCSTPRD": 120, "FLDATELBL": "2021-08-30 1:00 AM Mon CDT", "GUST": 105, "LAT": 30, "LON": -91, "MAXWIND": 85, "MSLP": 9999, "SSNUM": 2, "STORMNAME": "Hurricane Ida", "STORMNUM": 9, "STORMSRC": "Tropical Cyclone", "STORMTYPE": "HU", "TCDVLP": "Hurricane", "TAU": 48, "TCDIR": 9999, "TCSPD": 9999, "TIMEZONE": "CDT", "VALIDTIME": "30/0600"}, "geometry": {"type": "Point", "coordinates": [-91.3, 30.1]}}, {"type": "Feature", "properties": {"shapefile": "al092021-008_5day_pts", "ADVDATE": "400 AM CDT Sat Aug 28 2021", "ADVISNUM": "8", "BASIN": "AL", "DATELBL": "1:00 PM Mon", "DVLBL": "S", "FCSTPRD": 120, "FLDATELBL": "2021-08-30 1:00 PM Mon CDT", "GUST": 55, "LAT": 31, "LON": -91, "MAXWIND": 45, "MSLP": 9999, "SSNUM": 0, "STORMNAME": "Hurricane Ida", "STORMNUM": 9, "STORMSRC": "Tropical Cyclone", "STORMTYPE": "TS", "TCDVLP": "Tropical Storm", "TAU": 60, "TCDIR": 9999, "TCSPD": 9999, "TIMEZONE": "CDT", "VALIDTIME": "30/1800"}, "geometry": {"type": "Point", "coordinates": [-91.2, 31.6]}}, {"type": "Feature", "properties": {"shapefile": "al092021-008_5day_pts", "ADVDATE": "400 AM CDT Sat Aug 28 2021", "ADVISNUM": "8", "BASIN": "AL", "DATELBL": "1:00 AM Tue", "DVLBL": "D", "FCSTPRD": 120, "FLDATELBL": "2021-08-31 1:00 AM Tue CDT", "GUST": 40, "LAT": 33, "LON": -90, "MAXWIND": 30, "MSLP": 9999, "SSNUM": 0, "STORMNAME": "Hurricane Ida", "STORMNUM": 9, "STORMSRC": "Tropical Cyclone", "STORMTYPE": "TD", "TCDVLP": "Tropical Depression", "TAU": 72, "TCDIR": 9999, "TCSPD": 9999, "TIMEZONE": "CDT", "VALIDTIME": "31/0600"}, "geometry": {"type": "Point", "coordinates": [-90.5, 33.2]}}, {"type": "Feature", "properties": {"shapefile": "al092021-008_5day_pts", "ADVDATE": "400 AM CDT Sat Aug 28 2021", "ADVISNUM": "8", "BASIN": "AL", "DATELBL": "1:00 AM Wed", "DVLBL": "D", "FCSTPRD": 120, "FLDATELBL": "2021-09-01 1:00 AM Wed CDT", "GUST": 35, "LAT": 36, "LON": -87, "MAXWIND": 25, "MSLP": 9999, "SSNUM": 0, "STORMNAME": "Hurricane Ida", "STORMNUM": 9, "STORMSRC": "Tropical Cyclone", "STORMTYPE": "TD", "TCDVLP": "Tropical Depression", "TAU": 96, "TCDIR": 9999, "TCSPD": 9999, "TIMEZONE": "CDT", "VALIDTIME": "01/0600"}, "geometry": {"type": "Point", "coordinates": [-87.0, 36.0]}}, {"type": "Feature", "properties": {"shapefile": "al092021-008_5day_pts", "ADVDATE": "400 AM CDT Sat Aug 28 2021", "ADVISNUM": "8", "BASIN": "AL", "DATELBL": "1:00 AM Thu", "DVLBL": "D", "FCSTPRD": 120, "FLDATELBL": "2021-09-02 1:00 AM Thu CDT", "GUST": 30, "LAT": 37, "LON": -82, "MAXWIND": 20, "MSLP": 9999, "SSNUM": 0, "STORMNAME": "Hurricane Ida", "STORMNUM": 9, "STORMSRC": "Post-Tropical Cyclone", "STORMTYPE": "STD", "TCDVLP": "Subtropical Depression", "TAU": 120, "TCDIR": 9999, "TCSPD": 9999, "TIMEZONE": "CDT", "VALIDTIME": "02/0600"}, "geometry": {"type": "Point", "coordinates": [-82.5, 37.5]}}]}