{"type": "FeatureCollection", "features": [{"type": "Feature", "properties": {"shapefile": "al092021_2021082809_initialradii", "RADII": 34, "STORMID": "al092021", "BASIN": "al", "STORMNUM": 9, "ADVNUM": "8", "VALIDTIME": "2021082809", "SYNOPTIME": "2021082806", "TIMEZONE": "UTC", "TAU": 0, "NE": 100, "SE": 60, "SW": 40, "NW": 70}, "geometry": {"type": "Polygon", "coordinates": [[[-85.1856232, 25.4153957], [-85.1581116, 25.4204845], [-85.1304016, 25.4251328], [-85.1025009, 25.4293327], [-85.0744095, 25.4330807], [-85.0461502, 25.4363708], [-85.0177155, 25.4391994], [-84.9891205, 25.4415627], [-84.9603882, 25.4434547], [-84.9315109, 25.4448757], [-84.9024963, 25.4458179], [-84.8733826, 25.4462814], [-84.8441391, 25.4462509], [-84.8148041, 25.4457378], [-84.7853775, 25.4447346], [-84.7558823, 25.4432335], [-84.7263107, 25.4412365], [-84.6966858, 25.4387417], [-84.6670151, 25.4357395], [-84.6372986, 25.4322357], [-84.6075592, 25.4282265], [-84.5778046, 25.4237061], [-84.5480576, 25.4186764], [-84.5182953, 25.4131336], [-84.4885559, 25.4070759], [-84.4588547, 25.4005013], [-84.429184, 25.3934135], [-84.3995667, 25.3858109], [-84.3700104, 25.3776894], [-84.3405304, 25.369051], [-84.3111267, 25.35989], [-84.2818222, 25.3502121], [-84.2526169, 25.3400211], [-84.2235413, 25.3293076], [-84.1945801, 25.3180771], [-84.1657639, 25.3063316], [-84.137085, 25.2940712], [-84.1085815, 25.2812939], [-84.0802612, 25.2680054], [-84.0521088, 25.2542038], [-84.0241623, 25.239893], [-83.9969864, 25.224575], [-83.9712143, 25.2077827], [-83.9468689, 25.1895523], [-83.9240112, 25.1699257], [-83.9026794, 25.1489449], [-83.8829346, 25.1266518], [-83.8647995, 25.1030941], [-83.8483353, 25.0783157], [-83.8335724, 25.0523605], [-83.8199768, 25.0257759], [-83.8069839, 24.9990768], [-83.7946014, 24.9722824], [-83.7828217, 24.9453964], [-83.7716522, 24.9184341], [-83.7611008, 24.8914013], [-83.7511444, 24.8643131], [-83.7417908, 24.837183], [-83.7330322, 24.8100185], [-83.7248764, 24.7828274], [-83.7173157, 24.7556229], [-83.7103577, 24.7284184], [-83.7039871, 24.7012196], [-83.6982117, 24.6740379], [-83.6930084, 24.6468887], [-83.6883926, 24.6197758], [-83.6843567, 24.5927143], [-83.6808929, 24.5657101], [-83.678009, 24.5387764], [-83.6756897, 24.5119209], [-83.6739349, 24.4851532], [-83.6727371, 24.4584866], [-83.6720886, 24.4319248], [-83.6719971, 24.4054813], [-83.6724472, 24.3791656], [-83.6734314, 24.3529873], [-83.6749573, 24.3269539], [-83.677002, 24.3010731], [-83.6795731, 24.2753544], [-83.6826553, 24.2498074], [-83.6862564, 24.2244415], [-83.6903534, 24.1992626], [-83.6949463, 24.1742821], [-83.7000427, 24.1495056], [-83.7056122, 24.1249428], [-83.7116699, 24.1005993], [-83.7181854, 24.0764847], [-83.725174, 24.0526066], [-83.7326126, 24.0289726], [-83.7405014, 24.0055885], [-83.7488327, 23.9824619], [-83.7575989, 23.9595985], [-83.7667847, 23.9370079], [-83.7763901, 23.9146957], [-83.7864075, 23.8926716], [-83.7968369, 23.8709335], [-83.8076477, 23.849493], [-83.81884, 23.8283558], [-83.8304138, 23.8075275], [-83.8423615, 23.7870102], [-83.85466, 23.7668152], [-83.8673172, 23.7469444], [-83.8803024, 23.7274055], [-83.893631, 23.7081985], [-83.9072952, 23.689333], [-83.9212494, 23.6708107], [-83.9355316, 23.6526356], [-83.9501114, 23.6348133], [-83.9649734, 23.6173477], [-83.9801178, 23.6002426], [-83.9955292, 23.5835037], [-84.0112076, 23.5671291], [-84.0271301, 23.5511265], [-84.0432968, 23.5354977], [-84.0597, 23.5202427], [-84.0763245, 23.5053711], [-84.0931702, 23.490881], [-84.1102066, 23.4767704], [-84.127449, 23.4630508], [-84.1448669, 23.4497185], [-84.162468, 23.4367771], [-84.1802292, 23.4242268], [-84.1981583, 23.4120712], [-84.2162323, 23.4003086], [-84.2344437, 23.3889408], [-84.2527771, 23.3779678], [-84.2712402, 23.3673935], [-84.2898178, 23.3572159], [-84.3084869, 23.3474369], [-84.32724, 23.3380585], [-84.3460999, 23.3290749], [-84.3648529, 23.3203411], [-84.3833771, 23.3117027], [-84.4016571, 23.303154], [-84.4197006, 23.2946777], [-84.4375229, 23.2862663], [-84.455101, 23.2779102], [-84.4724655, 23.2695999], [-84.4896011, 23.2613297], [-84.5065308, 23.2530823], [-84.5233917, 23.2449989], [-84.5403442, 23.2372265], [-84.5573883, 23.2297649], [-84.5745163, 23.2226162], [-84.591713, 23.2157784], [-84.6089783, 23.2092514], [-84.6263123, 23.2030373], [-84.6436844, 23.197134], [-84.6611176, 23.1915398], [-84.6786041, 23.1862602], [-84.6961136, 23.1812916], [-84.7136536, 23.1766338], [-84.7312164, 23.1722889], [-84.7487793, 23.1682491], [-84.7663727, 23.1645203], [-84.7839584, 23.1610966], [-84.8015518, 23.1579819], [-84.8191299, 23.1551723], [-84.8367004, 23.1526661], [-84.8542404, 23.150465], [-84.8717499, 23.1485653], [-84.8892365, 23.146965], [-84.9066696, 23.1456642], [-84.9240799, 23.1446609], [-84.9414215, 23.1439514], [-84.9587097, 23.1435356], [-84.9759369, 23.1434097], [-84.9930878, 23.1435719], [-85.0101776, 23.144022], [-85.0271835, 23.1447582], [-85.0440979, 23.1457767], [-85.060936, 23.1470718], [-85.0776596, 23.1486473], [-85.0942841, 23.1504955], [-85.1108093, 23.1526146], [-85.1272125, 23.1550045], [-85.1435089, 23.1576576], [-85.1596832, 23.1605721], [-85.1757278, 23.1637497], [-85.1916351, 23.1671829], [-85.2074203, 23.1708698], [-85.223053, 23.1748047], [-85.2385406, 23.1789856], [-85.2538757, 23.1834087], [-85.2690582, 23.1880722], [-85.2840805, 23.1929741], [-85.2989349, 23.1981087], [-85.3136292, 23.2034683], [-85.3281479, 23.2090549], [-85.3424911, 23.2148609], [-85.3566513, 23.2208824], [-85.370636, 23.2271194], [-85.384407, 23.2335606], [-85.3980026, 23.2402115], [-85.4114151, 23.2470608], [-85.424614, 23.2541046], [-85.4376221, 23.261343], [-85.4504089, 23.2687664], [-85.4630127, 23.2763748], [-85.4753876, 23.2841587], [-85.4875488, 23.2921238], [-85.4995041, 23.3002548], [-85.5112228, 23.3085518], [-85.522728, 23.3170071], [-85.5340042, 23.3256207], [-85.5450516, 23.3343849], [-85.5558701, 23.3432941], [-85.566452, 23.3523483], [-85.5768127, 23.3615398], [-85.5869293, 23.370863], [-85.596817, 23.3803158], [-85.6064606, 23.3898907], [-85.6158524, 23.3995857], [-85.625, 23.4093914], [-85.6339035, 23.4193077], [-85.6425705, 23.429327], [-85.6509933, 23.4394455], [-85.6591568, 23.4496574], [-85.6670837, 23.459959], [-85.6747437, 23.4703445], [-85.6821594, 23.4808102], [-85.6897125, 23.4909897], [-85.6978378, 23.500536], [-85.7065506, 23.5094681], [-85.7158813, 23.5178146], [-85.725853, 23.5255871], [-85.7364807, 23.5328178], [-85.7478027, 23.5395279], [-85.7598343, 23.5457382], [-85.7726059, 23.5514812], [-85.7857285, 23.5571365], [-85.7987976, 23.5630741], [-85.8118286, 23.5692959], [-85.8247986, 23.5757999], [-85.8377151, 23.5825901], [-85.8505554, 23.5896645], [-85.8633194, 23.5970173], [-85.8760147, 23.6046543], [-85.8886032, 23.6125736], [-85.9011078, 23.620779], [-85.9135056, 23.6292629], [-85.9257889, 23.6380253], [-85.9379578, 23.647068], [-85.9499969, 23.6563854], [-85.9619141, 23.665987], [-85.9736862, 23.6758595], [-85.985321, 23.6860085], [-85.9967957, 23.6964264], [-86.0081177, 23.7071171], [-86.0192719, 23.7180748], [-86.0302582, 23.7293015], [-86.0410614, 23.7407875], [-86.0516815, 23.7525406], [-86.0621109, 23.7645493], [-86.0723495, 23.7768173], [-86.0823669, 23.7893391], [-86.0921783, 23.8021107], [-86.1017761, 23.815134], [-86.1111374, 23.8283997], [-86.1202774, 23.8419075], [-86.1291733, 23.8556519], [-86.137825, 23.8696327], [-86.1462097, 23.8838425], [-86.1543503, 23.8982811], [-86.1622467, 23.9129448], [-86.1698532, 23.927824], [-86.1771927, 23.9429245], [-86.1842422, 23.958231], [-86.1910172, 23.9737473], [-86.1974869, 23.9894638], [-86.2036667, 24.0053768], [-86.2095413, 24.0214806], [-86.2150879, 24.0377731], [-86.2203369, 24.0542507], [-86.2252579, 24.0709038], [-86.2298584, 24.0877304], [-86.2341385, 24.104723], [-86.2380676, 24.1218777], [-86.2416534, 24.139183], [-86.2448959, 24.1566448], [-86.2477875, 24.1742496], [-86.2503128, 24.1919937], [-86.2524948, 24.2098656], [-86.254303, 24.2278671], [-86.2557449, 24.2459888], [-86.2568054, 24.2642212], [-86.2574921, 24.2825623], [-86.2577972, 24.3010044], [-86.2577209, 24.3195438], [-86.2572632, 24.3381691], [-86.2564087, 24.3568726], [-86.2551575, 24.3756523], [-86.2535019, 24.3944988], [-86.251442, 24.4134064], [-86.2489853, 24.4323654], [-86.2461243, 24.4513702], [-86.2428436, 24.4704151], [-86.2391586, 24.4894924], [-86.2350464, 24.5085907], [-86.2305222, 24.5277081], [-86.2255707, 24.546833], [-86.2201996, 24.5659599], [-86.2144165, 24.5850811], [-86.2081985, 24.604187], [-86.2015533, 24.6232758], [-86.1944885, 24.6423302], [-86.1869812, 24.6613522], [-86.1790543, 24.6803284], [-86.1707001, 24.6992512], [-86.1619186, 24.7181149], [-86.1526947, 24.736908], [-86.1430359, 24.7556267], [-86.1329575, 24.7742615], [-86.1224365, 24.7928066], [-86.1114883, 24.8112469], [-86.1001053, 24.8295822], [-86.0882874, 24.8477974], [-86.0760651, 24.8658886], [-86.0633926, 24.883852], [-86.0503006, 24.9016724], [-86.0367737, 24.9193439], [-86.0228348, 24.9368572], [-86.008461, 24.9542103], [-85.9936752, 24.9713879], [-85.9784698, 24.9883842], [-85.9628448, 25.0051899], [-85.9468079, 25.0217991], [-85.9303665, 25.038208], [-85.9135208, 25.0544033], [-85.8962479, 25.0703754], [-85.8785782, 25.0861206], [-85.860527, 25.1016273], [-85.8420715, 25.116888], [-85.8232269, 25.1319027], [-85.8039932, 25.1466541], [-85.7843781, 25.1611385], [-85.7643738, 25.1753483], [-85.7440186, 25.1892738], [-85.7232819, 25.2029114], [-85.702179, 25.2162533], [-85.6807251, 25.2292881], [-85.6589127, 25.242012], [-85.6367569, 25.2544174], [-85.6142502, 25.2664928], [-85.5914154, 25.2782364], [-85.5682526, 25.2896385], [-85.5447464, 25.3006954], [-85.5209351, 25.3113956], [-85.4968033, 25.3217373], [-85.4723816, 25.3317127], [-85.4476624, 25.3413143], [-85.4226456, 25.3505325], [-85.3973465, 25.3593655], [-85.3717575, 25.3678036], [-85.3459091, 25.3758469], [-85.3197937, 25.383482], [-85.2934341, 25.3907089], [-85.2668304, 25.3975182], [-85.2399902, 25.4039078], [-85.2129211, 25.4098682], [-85.1856232, 25.4153957]]]}}, {"type": "Feature", "properties": {"shapefile": "al092021_2021082809_initialradii", "RADII": 50, "STORMID": "al092021", "BASIN": "al", "STORMNUM": 9, "ADVNUM": "8", "VALIDTIME": "2021082809", "SYNOPTIME": "2021082806", "TIMEZONE": "UTC", "TAU": 0, "NE": 50, "SE": 30, "SW": 0, "NW": 30}, "geometry": {"type": "Polygon", "coordinates": [[[-85.1931458, 24.6666145], [-85.1802292, 24.6700954], [-85.1671906, 24.6733665], [-85.154007, 24.6764278], [-85.1407089, 24.6792717], [-85.1272812, 24.6818981], [-85.1137314, 24.6843052], [-85.1000671, 24.6864853], [-85.0862885, 24.6884384], [-85.0724182, 24.6901627], [-85.0584335, 24.6916523], [-85.0443497, 24.6929073], [-85.0301819, 24.693924], [-85.0159225, 24.6947002], [-85.0015869, 24.6952343], [-84.987175, 24.6955204], [-84.9726868, 24.6955624], [-84.9581528, 24.6953506], [-84.9435349, 24.6948891], [-84.9288635, 24.6941719], [-84.9141464, 24.6931992], [-84.8993835, 24.691967], [-84.8845749, 24.6904793], [-84.8697357, 24.6887283], [-84.8548737, 24.6867142], [-84.8399887, 24.6844349], [-84.8250809, 24.6818924], [-84.8101578, 24.6790791], [-84.7952423, 24.6760006], [-84.7803116, 24.6726513], [-84.7654037, 24.669035], [-84.7504959, 24.665144], [-84.7356186, 24.6609859], [-84.7207489, 24.6565533], [-84.7059174, 24.6518497], [-84.691124, 24.6468735], [-84.6763687, 24.6416206], [-84.6616592, 24.636095], [-84.6470108, 24.6302948], [-84.6324158, 24.6242218], [-84.6178894, 24.6178741], [-84.6037598, 24.6109695], [-84.5903625, 24.6032333], [-84.5777435, 24.5946846], [-84.565918, 24.5853539], [-84.554924, 24.5752563], [-84.5447693, 24.5644226], [-84.5354919, 24.5528717], [-84.5271149, 24.5406284], [-84.5196533, 24.5277195], [-84.5128021, 24.5144577], [-84.5062561, 24.5011387], [-84.5000229, 24.4877663], [-84.494072, 24.47435], [-84.4884338, 24.4608936], [-84.4831009, 24.4474049], [-84.4780579, 24.4338837], [-84.47332, 24.4203396], [-84.4688721, 24.4067764], [-84.4647293, 24.3931999], [-84.4608765, 24.3796158], [-84.4573212, 24.3660278], [-84.454071, 24.3524437], [-84.4511032, 24.3388672], [-84.4484329, 24.325304], [-84.4460449, 24.3117599], [-84.4439545, 24.2982388], [-84.4421463, 24.2847443], [-84.4406357, 24.2712822], [-84.4393845, 24.2578602], [-84.4384308, 24.2444801], [-84.4377518, 24.2311478], [-84.4373474, 24.2178707], [-84.4372177, 24.2046471], [-84.4373627, 24.1914883], [-84.4377747, 24.1783943], [-84.4384537, 24.1653709], [-84.4394073, 24.1524258], [-84.4406052, 24.1395588], [-84.4420776, 24.1267776], [-84.4438019, 24.1140842], [-84.4457703, 24.1014862], [-84.447998, 24.0889816], [-84.45047, 24.07658], [-84.4531784, 24.0642872], [-84.4561386, 24.0520992], [-84.4593201, 24.0400257], [-84.462738, 24.0280685], [-84.4664001, 24.0162315], [-84.4702835, 24.0045242], [-84.4743805, 23.992939], [-84.4786987, 23.9814854], [-84.4832306, 23.9701691], [-84.4879684, 23.958992], [-84.4929276, 23.9479523], [-84.4980774, 23.9370613], [-84.5034256, 23.9263172], [-84.5089645, 23.9157219], [-84.5146942, 23.9052811], [-84.5206146, 23.8949966], [-84.5267334, 23.8848686], [-84.53302, 23.8749104], [-84.5394669, 23.8651104], [-84.5460892, 23.8554783], [-84.5528793, 23.8460159], [-84.5598297, 23.8367233], [-84.5669327, 23.8276081], [-84.5741882, 23.8186703], [-84.5815811, 23.8099041], [-84.5891266, 23.8013229], [-84.596817, 23.7929211], [-84.6046143, 23.7847042], [-84.6125565, 23.7766743], [-84.6206207, 23.7688255], [-84.6288071, 23.7611713], [-84.6371078, 23.7537041], [-84.6455078, 23.7464294], [-84.6540222, 23.7393436], [-84.6626282, 23.7324524], [-84.6713333, 23.7257576], [-84.68013, 23.7192554], [-84.689003, 23.7129536], [-84.6979675, 23.7068443], [-84.7070007, 23.7009335], [-84.7161026, 23.6952209], [-84.7252731, 23.6897049], [-84.7345123, 23.684391], [-84.7437973, 23.6792755], [-84.7531433, 23.6743584], [-84.7625351, 23.6696396], [-84.7719574, 23.665123], [-84.7815018, 23.660881], [-84.7912445, 23.6569862], [-84.8011551, 23.6534443], [-84.8112259, 23.6502609], [-84.8214493, 23.6474419], [-84.8318176, 23.6449909], [-84.8423157, 23.6429081], [-84.8529434, 23.6411991], [-84.863678, 23.6398697], [-84.8744278, 23.6388454], [-84.8851166, 23.638052], [-84.8957367, 23.6374893], [-84.9062805, 23.6371536], [-84.9167557, 23.6370449], [-84.927124, 23.6371536], [-84.9374161, 23.6374836], [-84.9476013, 23.6380291], [-84.9576874, 23.6387882], [-84.9676819, 23.6397572], [-84.9775543, 23.640934], [-84.9872894, 23.6423111], [-84.996933, 23.6438942], [-85.0064392, 23.6456699], [-85.0158234, 23.647644], [-85.0250549, 23.6498032], [-85.0341568, 23.652153], [-85.043129, 23.6546803], [-85.0519485, 23.6573887], [-85.0606155, 23.6602707], [-85.0691223, 23.6633263], [-85.0774689, 23.666544], [-85.0856628, 23.6699276], [-85.0936737, 23.6734638], [-85.101532, 23.6771584], [-85.1092072, 23.6810017], [-85.1167145, 23.6849899], [-85.1240234, 23.6891232], [-85.1311722, 23.6933842], [-85.1381302, 23.6977806], [-85.1449051, 23.7023067], [-85.151474, 23.7069511], [-85.1578598, 23.7117157], [-85.164032, 23.7165909], [-85.1700211, 23.7215767], [-85.1758118, 23.7266617], [-85.1813965, 23.7318497], [-85.1867676, 23.7371292], [-85.1919403, 23.7424965], [-85.196907, 23.7479439], [-85.2016602, 23.7534714], [-85.2061996, 23.7590733], [-85.2105331, 23.7647438], [-85.2146454, 23.7704811], [-85.218544, 23.7762718], [-85.2222366, 23.782114], [-85.225708, 23.7880058], [-85.2289505, 23.7939377], [-85.231987, 23.7999134], [-85.2347946, 23.8059177], [-85.2373886, 23.8119488], [-85.2397614, 23.8180027], [-85.2419205, 23.8240738], [-85.243866, 23.8301563], [-85.245575, 23.8362465], [-85.2470779, 23.8423367], [-85.2483597, 23.8484211], [-85.2494354, 23.8544998], [-85.2502823, 23.8605633], [-85.2509155, 23.8666096], [-85.2513351, 23.8726311], [-85.2515411, 23.878624], [-85.2515259, 23.8845844], [-85.2513046, 23.8905029], [-85.250885, 23.8963795], [-85.2502518, 23.9022102], [-85.2494049, 23.9079819], [-85.2483597, 23.9137001], [-85.2471008, 23.9193516], [-85.2456589, 23.9249363], [-85.2440109, 23.9304523], [-85.242157, 23.9358902], [-85.2401276, 23.9412441], [-85.2378998, 23.9465103], [-85.2354813, 23.9516907], [-85.2328796, 23.9567776], [-85.2300949, 23.9617577], [-85.2271423, 23.9666386], [-85.223999, 23.9714127], [-85.2206802, 23.976078], [-85.2171936, 23.9806232], [-85.2140274, 23.9846191], [-85.2116776, 23.987648], [-85.2101974, 23.9897423], [-85.20961, 23.9909286], [-85.209938, 23.9912357], [-85.211235, 23.990696], [-85.2135315, 23.9893379], [-85.2168503, 23.9871922], [-85.2212219, 23.9842968], [-85.2261887, 23.9811134], [-85.2312927, 23.9780846], [-85.2365189, 23.9752102], [-85.2418518, 23.9724998], [-85.2473145, 23.9699574], [-85.2528687, 23.9675732], [-85.2585373, 23.9653645], [-85.2643127, 23.9633217], [-85.2701645, 23.9614563], [-85.2761078, 23.9597664], [-85.2821426, 23.9582558], [-85.2882538, 23.9569263], [-85.2944412, 23.9557762], [-85.3006897, 23.954813], [-85.3070145, 23.9540348], [-85.3133926, 23.9534492], [-85.3198166, 23.9530487], [-85.3262939, 23.9528427], [-85.3328094, 23.9528275], [-85.3393784, 23.9530067], [-85.3459625, 23.9533806], [-85.3525772, 23.9539528], [-85.3592148, 23.9547195], [-85.3658752, 23.9556847], [-85.3725281, 23.9568481], [-85.3791962, 23.9582119], [-85.3858643, 23.9597759], [-85.3925247, 23.9615402], [-85.3991699, 23.963501], [-85.4057922, 23.9656658], [-85.4124069, 23.968029], [-85.4189835, 23.9705925], [-85.4255219, 23.9733562], [-85.4320297, 23.9763184], [-85.4384842, 23.9794827], [-85.4448853, 23.9828415], [-85.4512329, 23.9864006], [-85.4575043, 23.9901562], [-85.4637222, 23.9941082], [-85.4698715, 23.9982548], [-85.4759293, 24.0025959], [-85.4819031, 24.0071297], [-85.487793, 24.0118504], [-85.4935837, 24.0167637], [-85.4992752, 24.0218658], [-85.5048447, 24.027153], [-85.5103149, 24.0326233], [-85.5156631, 24.0382786], [-85.5208969, 24.0441113], [-85.5259933, 24.0501232], [-85.5309677, 24.0563087], [-85.5357971, 24.0626678], [-85.5404739, 24.0691986], [-85.5450058, 24.0758972], [-85.5494003, 24.0827599], [-85.5536194, 24.0897827], [-85.5576782, 24.0969696], [-85.5615768, 24.1043091], [-85.5652847, 24.1118011], [-85.5688248, 24.1194439], [-85.5721893, 24.1272335], [-85.5753632, 24.1351643], [-85.5783463, 24.1432362], [-85.5811386, 24.1514416], [-85.5837173, 24.1597786], [-85.5860977, 24.1682415], [-85.5882797, 24.1768303], [-85.5902405, 24.1855392], [-85.5919876, 24.1943607], [-85.5935135, 24.2032967], [-85.5948181, 24.2123375], [-85.5958862, 24.2214794], [-85.5967255, 24.2307205], [-85.5973358, 24.240057], [-85.5977097, 24.2494793], [-85.5978394, 24.2589874], [-85.5977249, 24.2685738], [-85.5973587, 24.2782345], [-85.5967636, 24.2879639], [-85.5959015, 24.2977562], [-85.5947723, 24.3076096], [-85.5933151, 24.3174419], [-85.5914459, 24.3271713], [-85.5891647, 24.3367939], [-85.5864639, 24.3462925], [-85.5833817, 24.3556595], [-85.5798874, 24.3648872], [-85.5759964, 24.3739605], [-85.5717163, 24.3828735], [-85.5670547, 24.3916187], [-85.5620956, 24.4002552], [-85.5569, 24.4088516], [-85.5514984, 24.4174023], [-85.5458679, 24.4259052], [-85.5400238, 24.4343567], [-85.5339661, 24.442749], [-85.5276794, 24.4510803], [-85.5211792, 24.4593449], [-85.5144424, 24.4675407], [-85.507515, 24.4756603], [-85.5003433, 24.4837017], [-85.492981, 24.4916592], [-85.4853897, 24.4995251], [-85.4775848, 24.5073032], [-85.469574, 24.5149822], [-85.4613495, 24.5225563], [-85.4529114, 24.5300274], [-85.4442825, 24.5373898], [-85.4354324, 24.5446377], [-85.4263763, 24.5517654], [-85.4171219, 24.5587692], [-85.4076538, 24.5656471], [-85.397995, 24.5723915], [-85.3881454, 24.5789986], [-85.3780899, 24.5854683], [-85.3678589, 24.5917892], [-85.3574295, 24.5979691], [-85.346817, 24.6039925], [-85.3360062, 24.6098576], [-85.3250351, 24.6155624], [-85.3138733, 24.6211014], [-85.302536, 24.6264763], [-85.2910309, 24.6316757], [-85.2793427, 24.6367016], [-85.2674942, 24.6415443], [-85.2554855, 24.6462021], [-85.2433167, 24.6506748], [-85.2309952, 24.6549549], [-85.2185364, 24.6590424], [-85.2059021, 24.6629295], [-85.1931458, 24.6666145]]]}}, {"type": "Feature", "properties": {"shapefile": "al092021_2021082809_initialradii", "RADII": 64, "STORMID": "al092021", "BASIN": "al", "STORMNUM": 9, "ADVNUM": "8", "VALIDTIME": "2021082809", "SYNOPTIME": "2021082806", "TIMEZONE": "UTC", "TAU": 0, "NE": 20, "SE": 0, "SW": 0, "NW": 0}, "geometry": {"type": "Polygon", "coordinates": [[[-85.197937, 24.1680374], [-85.1946106, 24.1716709], [-85.1911469, 24.1752491], [-85.1875534, 24.1787663], [-85.183815, 24.1822224], [-85.1799469, 24.1856117], [-85.1759338, 24.1889343], [-85.1717987, 24.1921825], [-85.1675186, 24.1953564], [-85.1631241, 24.1984501], [-85.1585999, 24.2014618], [-85.1539383, 24.2043915], [-85.1491547, 24.2072315], [-85.1442566, 24.20998], [-85.1392288, 24.2126331], [-85.1340866, 24.215189], [-85.1288223, 24.2176476], [-85.1234436, 24.2200012], [-85.1179581, 24.2222481], [-85.1123734, 24.2243881], [-85.1066742, 24.2264156], [-85.1008606, 24.2283268], [-85.0949554, 24.2301235], [-85.0889511, 24.2317982], [-85.0828476, 24.2333508], [-85.0766525, 24.2347813], [-85.0703659, 24.2360821], [-85.064003, 24.2372532], [-85.0575562, 24.2382927], [-85.0510101, 24.2391987], [-85.0444031, 24.2399635], [-85.0377197, 24.240593], [-85.0309601, 24.2410812], [-85.0241318, 24.2414246], [-85.0172424, 24.2416286], [-85.0102844, 24.2416821], [-85.0032654, 24.2415848], [-84.9962006, 24.2413406], [-84.9890976, 24.240942], [-84.9819489, 24.240387], [-84.9747467, 24.2396774], [-84.9678268, 24.2385235], [-84.9615326, 24.2366524], [-84.9558945, 24.2340832], [-84.9509277, 24.2308369], [-84.9466553, 24.2269325], [-84.9431152, 24.2223911], [-84.9403305, 24.2172375], [-84.9383011, 24.2114964], [-84.9370499, 24.2051888], [-84.9363022, 24.1986179], [-84.9357147, 24.1920891], [-84.9353027, 24.1856022], [-84.9350586, 24.179163], [-84.934967, 24.1727734], [-84.935051, 24.1664352], [-84.9352951, 24.1601524], [-84.9356995, 24.1539307], [-84.9362488, 24.1477699], [-84.9369583, 24.1416721], [-84.9378204, 24.135643], [-84.9388275, 24.1296883], [-84.9399948, 24.1238022], [-84.9412918, 24.1179962], [-84.9427414, 24.1122684], [-84.9443054, 24.1066246], [-84.9460297, 24.1010666], [-84.9478836, 24.0955944], [-84.9498672, 24.0902138], [-84.9519806, 24.0849228], [-84.9542084, 24.0797291], [-84.9565735, 24.0746346], [-84.9590454, 24.0696373], [-84.9616318, 24.0647373], [-84.9643326, 24.059948], [-84.9671478, 24.0552616], [-84.9700623, 24.050684], [-84.9730835, 24.0462151], [-84.9762039, 24.0418606], [-84.9794083, 24.0376186], [-84.9827194, 24.0334949], [-84.9861145, 24.0294838], [-84.9895935, 24.0255928], [-84.9931564, 24.021822], [-84.9967957, 24.0181675], [-85.0005188, 24.0146427], [-85.0043106, 24.01124], [-85.0081711, 24.0079613], [-85.0120926, 24.0048103], [-85.0160751, 24.0017891], [-85.0201111, 23.9988918], [-85.0242004, 23.9961243], [-85.0283432, 23.9934883], [-85.0325241, 23.9909801], [-85.0367584, 23.9886055], [-85.0410233, 23.9863625], [-85.0453262, 23.9842529], [-85.0496597, 23.9822769], [-85.0540237, 23.9804306], [-85.058403, 23.9787197], [-85.0628128, 23.9771404], [-85.0672226, 23.9756966], [-85.0716553, 23.9743862], [-85.0761032, 23.9732094], [-85.0805435, 23.9721642], [-85.0849915, 23.9712563], [-85.0894318, 23.9704781], [-85.0938644, 23.9698334], [-85.0982895, 23.9693184], [-85.1026993, 23.9689369], [-85.1070862, 23.9686871], [-85.1114655, 23.9685631], [-85.1158142, 23.9685726], [-85.1201324, 23.9687119], [-85.1244202, 23.9689732], [-85.1286697, 23.969368], [-85.1328888, 23.969883], [-85.1370544, 23.9705238], [-85.1411743, 23.9712868], [-85.1452484, 23.9721756], [-85.1492691, 23.9731827], [-85.1532288, 23.974308], [-85.157135, 23.9755516], [-85.1609955, 23.9769115], [-85.1647644, 23.9783859], [-85.1684875, 23.9799728], [-85.1721115, 23.9816685], [-85.1756744, 23.9834766], [-85.1791611, 23.9853897], [-85.1825562, 23.9874096], [-85.1858749, 23.9895325], [-85.188942, 23.9916096], [-85.1916199, 23.9934864], [-85.1939163, 23.9951477], [-85.195816, 23.9965858], [-85.1973572, 23.9977856], [-85.1985321, 23.9987392], [-85.1993637, 23.9994316], [-85.1998596, 23.9998569], [-85.2000122, 24.0000019], [-85.2000122, 24.0000019], [-85.2000122, 24.0000019], [-85.2000122, 24.0000019], [-85.2000122, 24.0000019], [-85.2000122, 24.0000019], [-85.2000122, 24.0000019], [-85.2000122, 24.0000019], [-85.2000122, 24.0000019], [-85.2000122, 24.0000019], [-85.2000122, 24.0000019], [-85.2000122, 24.0000019], [-85.2000122, 24.0000019], [-85.2000122, 24.0000019], [-85.2000122, 24.0000019], [-85.2000122, 24.0000019], [-85.2000122, 24.0000019], [-85.2000122, 24.0000019], [-85.2000122, 24.0000019], [-85.2000122, 24.0000019], [-85.2000122, 24.0000019], [-85.2000122, 24.0000019], [-85.2000122, 24.0000019], [-85.2000122, 24.0000019], [-85.2000122, 24.0000019], [-85.2000122, 24.0000019], [-85.2000122, 24.0000019], [-85.2000122, 24.0000019], [-85.2000122, 24.0000019], [-85.2000122, 24.0000019], [-85.2000122, 24.0000019], [-85.2000122, 24.0000019], [-85.2000122, 24.0000019], [-85.2000122, 24.0000019], [-85.2000122, 24.0000019], [-85.2000122, 24.0000019], [-85.2000122, 24.0000019], [-85.2000122, 24.0000019], [-85.2000122, 24.0000019], [-85.2000122, 24.0000019], [-85.2000122, 24.0000019], [-85.2000122, 24.0000019], [-85.2000122, 24.0000019], [-85.2000122, 24.0000019], [-85.2000122, 24.0000019], [-85.2000122, 24.0000019], [-85.2000122, 24.0000019], [-85.2000122, 24.0000019], [-85.2000122, 24.0000019], [-85.2000122, 24.0000019], [-85.2000122, 24.0000019], [-85.2000122, 24.0000019], [-85.2000122, 24.0000019], [-85.2000122, 24.0000019], [-85.2000122, 24.0000019], [-85.2000122, 24.0000019], [-85.2000122, 24.0000019], [-85.2000122, 24.0000019], [-85.2000122, 24.0000019], [-85.2000122, 24.0000019], [-85.2000122, 24.0000019], [-85.2000122, 24.0000019], [-85.2000122, 24.0000019], [-85.2000122, 24.0000019], [-85.2000122, 24.0000019], [-85.2000122, 24.0000019], [-85.2000122, 24.0000019], [-85.2000122, 24.0000019], [-85.2000122, 24.0000019], [-85.2000122, 24.0000019], [-85.2000122, 24.0000019], [-85.2000122, 24.0000019], [-85.2000122, 24.0000019], [-85.2000122, 24.0000019], [-85.2000122, 24.0000019], [-85.2000122, 24.0000019], [-85.2000122, 24.0000019], [-85.2000122, 24.0000019], [-85.2000122, 24.0000019], [-85.2000122, 24.0000019], [-85.2000122, 24.0000019], [-85.2000122, 24.0000019], [-85.2000122, 24.0000019], [-85.2000122, 24.0000019], [-85.2000122, 24.0000019], [-85.2000122, 24.0000019], [-85.2000122, 24.0000019], [-85.2000122, 24.0000019], [-85.2000122, 24.0000019], [-85.2000122, 24.0000019], [-85.2000122, 24.0000019], [-85.2000122, 24.0000019], [-85.2000122, 24.0000019], [-85.2000122, 24.0000019], [-85.2000122, 24.0000019], [-85.2000122, 24.0000019], [-85.2000122, 24.0000019], [-85.2000122, 24.0000019], [-85.2000122, 24.0000019], [-85.2000122, 24.0000019], [-85.2000122, 24.0000019], [-85.2000122, 24.0000019], [-85.2000122, 24.0000019], [-85.2000122, 24.0000019], [-85.2000122, 24.0000019], [-85.2000122, 24.0000019], [-85.2000122, 24.0000019], [-85.2000122, 24.0000019], [-85.2000122, 24.0000019], [-85.2000122, 24.0000019], [-85.2000122, 24.0000019], [-85.2000122, 24.0000019], [-85.2000122, 24.0000019], [-85.2000122, 24.0000019], [-85.2000122, 24.0000019], [-85.2000122, 24.0000019], [-85.2000122, 24.0000019], [-85.2000122, 24.0000019], [-85.2000122, 24.0000019], [-85.2000122, 24.0000019], [-85.2000122, 24.0000019], [-85.2000122, 24.0000019], [-85.2000122, 24.0000019], [-85.2000122, 24.0000019], [-85.2000122, 24.0000019], [-85.2000122, 24.0000019], [-85.2000122, 24.0000019], [-85.2000122, 24.0000019], [-85.2000122, 24.0000019], [-85.2000122, 24.0000019], [-85.2000122, 24.0000019], [-85.2000122, 24.0000019], [-85.2000122, 24.0000019], [-85.2000122, 24.0000019], [-85.2000122, 24.0000019], [-85.2000122, 24.0000019], [-85.2000122, 24.0000019], [-85.2000122, 24.0000019], [-85.2000122, 24.0000019], [-85.2000122, 24.0000019], [-85.2000122, 24.0000019], [-85.2000122, 24.0000019], [-85.2000122, 24.0000019], [-85.2000122, 24.0000019], [-85.2000122, 24.0000019], [-85.2000122, 24.0000019], [-85.2000122, 24.0000019], [-85.2000122, 24.0000019], [-85.2000122, 24.0000019], [-85.2000122, 24.0000019], [-85.2000122, 24.0000019], [-85.2000122, 24.0000019], [-85.2000122, 24.0000019], [-85.2000122, 24.0000019], [-85.2000122, 24.0000019], [-85.2000122, 24.0000019], [-85.2000122, 24.0000019], [-85.2000122, 24.0000019], [-85.2000122, 24.0000019], [-85.2000122, 24.0000019], [-85.2000122, 24.0000019], [-85.2000122, 24.0000019], [-85.2000122, 24.0000019], [-85.2000122, 24.0000019], [-85.2000122, 24.0000019], [-85.2000122, 24.0000019], [-85.2000122, 24.0000019], [-85.2000122, 24.0000019], [-85.2000122, 24.0000019], [-85.2000122, 24.0000019], [-85.2000122, 24.0000019], [-85.2000122, 24.0000019], [-85.2001648, 24.0001469], [-85.2006302, 24.0005951], [-85.2013931, 24.0013523], [-85.2024307, 24.00243], [-85.2037506, 24.0038357], [-85.2053223, 24.0055771], [-85.2071457, 24.0076675], [-85.209198, 24.0101109], [-85.2114716, 24.0129185], [-85.2137909, 24.0159473], [-85.216011, 24.0190525], [-85.2181015, 24.0222359], [-85.2200775, 24.0254879], [-85.2219467, 24.0288124], [-85.223671, 24.0322018], [-85.2252884, 24.0356541], [-85.2267761, 24.0391655], [-85.2281342, 24.0427341], [-85.2293701, 24.0463581], [-85.2304764, 24.0500336], [-85.2314453, 24.0537548], [-85.2322769, 24.0575237], [-85.2329788, 24.0613346], [-85.2335434, 24.0651836], [-85.2339706, 24.0690708], [-85.2342606, 24.0729904], [-85.2344131, 24.0769367], [-85.2344208, 24.0809097], [-85.2342834, 24.0849056], [-85.2340088, 24.0889206], [-85.2335815, 24.0929489], [-85.233017, 24.0969925], [-85.2323074, 24.1010456], [-85.2314606, 24.1051044], [-85.2304459, 24.1091652], [-85.2293091, 24.1132259], [-85.2280121, 24.1172791], [-85.2265778, 24.1213264], [-85.2249908, 24.1253605], [-85.2232513, 24.129385], [-85.2213745, 24.1333904], [-85.2193527, 24.1373711], [-85.217186, 24.1413288], [-85.2148743, 24.145256], [-85.21241, 24.1491528], [-85.2098083, 24.1530151], [-85.2070465, 24.1568375], [-85.204155, 24.1606178], [-85.2011185, 24.1643524], [-85.197937, 24.1680374]]]}}]}