{"type": "FeatureCollection", "features": [{"type": "Feature", "properties": {"shapefile": "al092021-013_5day_pgn", "STORMNAME": "Ida", "STORMTYPE": "HU", "ADVDATE": "700 AM CDT Sun Aug 29 2021", "ADVISNUM": "13", "STORMNUM": 9, "FCSTPRD": 120, "BASIN": "AL"}, "geometry": {"type": "Polygon", "coordinates": [[[-89.58835, 28.23792], [-89.56648, 28.23995], [-89.54394, 28.24414], [-89.52045, 28.25009], [-89.49655, 28.25766], [-89.47293, 28.26686], [-89.45039, 28.27781], [-89.4192, 28.29728], [-89.40059, 28.31242], [-89.38303, 28.32865], [-89.36684, 28.34623], [-89.35172, 28.36489], [-89.33296, 28.3968], [-89.32324, 28.42086], [-89.31622, 28.44736], [-89.31204, 28.47589], [-89.31068, 28.50564], [-89.31203, 28.53539], [-89.31622, 28.56392], [-89.32324, 28.59042], [-89.33295, 28.61449], [-89.35172, 28.6464], [-89.36684, 28.66506], [-89.38277, 28.6829], [-89.3995, 28.69994], [-89.41624, 28.71698], [-89.43324, 28.73375], [-89.45, 28.75078], [-89.4585, 28.75916], [-89.48373, 28.78458], [-89.49225, 28.79296], [-89.51748, 28.81839], [-89.5345, 28.83515], [-89.55122, 28.85219], [-89.56824, 28.86895], [-89.58496, 28.88599], [-89.60197, 28.90276], [-89.6187, 28.9198], [-89.62721, 28.92818], [-89.65245, 28.9536], [-89.66095, 28.96198], [-89.67784, 28.97888], [-89.6947, 28.99578], [-89.71996, 29.0212], [-89.72832, 29.02972], [-89.75288, 29.05582], [-89.76085, 29.06474], [-89.77637, 29.08299], [-89.79851, 29.11152], [-89.81282, 29.13099], [-89.82712, 29.15047], [-89.83427, 29.1602], [-89.856, 29.18914], [-89.86343, 29.1986], [-89.88542, 29.22726], [-89.89258, 29.237], [-89.90675, 29.25661], [-89.92065, 29.27648], [-89.94105, 29.30677], [-89.95428, 29.32732], [-89.95414, 29.32746], [-89.97992, 29.36924], [-89.986, 29.38005], [-89.99788, 29.40196], [-90.00948, 29.42413], [-90.02096, 29.44644], [-90.03215, 29.46902], [-90.04337, 29.4916], [-90.0547, 29.51405], [-90.07117, 29.54826], [-90.07657, 29.55975], [-90.08722, 29.58287], [-90.09736, 29.60653], [-90.10694, 29.63074], [-90.11652, 29.65494], [-90.12611, 29.67914], [-90.1357, 29.70334], [-90.14095, 29.71497], [-90.15646, 29.75013], [-90.16714, 29.77325], [-90.1778, 29.79637], [-90.18846, 29.81949], [-90.19859, 29.84315], [-90.20804, 29.86749], [-90.21721, 29.8921], [-90.22612, 29.91698], [-90.23463, 29.94226], [-90.243, 29.96768], [-90.2515, 29.99297], [-90.25999, 30.01825], [-90.26837, 30.04367], [-90.27675, 30.06909], [-90.28511, 30.09451], [-90.29321, 30.1202], [-90.3009, 30.1463], [-90.30833, 30.17266], [-90.31549, 30.1993], [-90.32237, 30.22621], [-90.32912, 30.25325], [-90.33588, 30.28029], [-90.34262, 30.30733], [-90.34937, 30.33438], [-90.35274, 30.3479], [-90.36272, 30.3886], [-90.36893, 30.41618], [-90.37447, 30.44444], [-90.37906, 30.47364], [-90.38243, 30.50406], [-90.3846, 30.53571], [-90.38582, 30.56829], [-90.38635, 30.60155], [-90.38648, 30.63522], [-90.38648, 30.66903], [-90.38648, 30.70283], [-90.38648, 30.73663], [-90.38648, 30.77043], [-90.38634, 30.8041], [-90.3858, 30.83736], [-90.38458, 30.86995], [-90.38243, 30.90159], [-90.37906, 30.93201], [-90.3746, 30.96135], [-90.36961, 30.99015], [-90.36449, 31.01882], [-90.3595, 31.04762], [-90.3549, 31.07682], [-90.35057, 31.1063], [-90.34598, 31.1355], [-90.34085, 31.16417], [-90.33519, 31.19229], [-90.32899, 31.21988], [-90.32237, 31.24705], [-90.31548, 31.27396], [-90.30833, 31.3006], [-90.3009, 31.32696], [-90.29321, 31.35306], [-90.28929, 31.36604], [-90.28093, 31.39146], [-90.27256, 31.41688], [-90.26419, 31.4423], [-90.25555, 31.46745], [-90.24637, 31.49205], [-90.23247, 31.52883], [-90.22275, 31.5529], [-90.21776, 31.5648], [-90.20776, 31.5886], [-90.1936, 31.6251], [-90.18887, 31.63727], [-90.17442, 31.67351], [-90.16484, 31.69771], [-90.15998, 31.70974], [-90.14946, 31.733], [-90.13838, 31.75572], [-90.12704, 31.77816], [-90.10855, 31.81034], [-90.09573, 31.8313], [-90.08278, 31.85212], [-90.07629, 31.86254], [-90.05699, 31.8939], [-90.04445, 31.91513], [-90.03216, 31.93663], [-90.01988, 31.95813], [-90.00732, 31.97936], [-89.99449, 32.00031], [-89.98802, 32.01073], [-89.96804, 32.04142], [-89.96129, 32.05156], [-89.94104, 32.08198], [-89.92754, 32.10226], [-89.91405, 32.12254], [-89.90055, 32.14283], [-89.8938, 32.15297], [-89.88003, 32.17298], [-89.85884, 32.20245], [-89.84439, 32.22179], [-89.83711, 32.23139], [-89.82227, 32.25032], [-89.80769, 32.26952], [-89.79338, 32.28899], [-89.77191, 32.31819], [-89.76476, 32.32793], [-89.75046, 32.3474], [-89.73588, 32.3666], [-89.72102, 32.38553], [-89.6993, 32.41447], [-89.69214, 32.4242], [-89.67783, 32.44367], [-89.65623, 32.47275], [-89.64894, 32.48235], [-89.63383, 32.501], [-89.6179, 32.51885], [-89.6017, 32.53643], [-89.58496, 32.55347], [-89.56824, 32.5705], [-89.54286, 32.59579], [-89.5345, 32.6043], [-89.51748, 32.62107], [-89.50075, 32.63811], [-89.48373, 32.65488], [-89.467, 32.67191], [-89.44999, 32.68867], [-89.43324, 32.70571], [-89.41624, 32.72248], [-89.39951, 32.73952], [-89.38249, 32.75629], [-89.36576, 32.77332], [-89.34874, 32.79008], [-89.33202, 32.80712], [-89.315, 32.82389], [-89.29826, 32.84092], [-89.28127, 32.85769], [-89.26425, 32.87445], [-89.2467, 32.89068], [-89.22889, 32.90664], [-89.21027, 32.92178], [-89.19109, 32.93639], [-89.17165, 32.95072], [-89.15222, 32.96505], [-89.13304, 32.97965], [-89.11442, 32.9948], [-89.09633, 33.01048], [-89.07825, 33.02617], [-89.06016, 33.04185], [-89.04153, 33.05699], [-89.02236, 33.07159], [-89.00293, 33.08593], [-88.98349, 33.10026], [-88.96406, 33.11459], [-88.9449, 33.1292], [-88.92599, 33.14407], [-88.90683, 33.15868], [-88.88738, 33.173], [-88.86795, 33.18733], [-88.84851, 33.20167], [-88.82907, 33.216], [-88.80991, 33.23061], [-88.79102, 33.24548], [-88.77184, 33.26009], [-88.7524, 33.27441], [-88.7327, 33.28848], [-88.71272, 33.30226], [-88.70259, 33.30903], [-88.68234, 33.32255], [-88.66209, 33.33607], [-88.63173, 33.35635], [-88.61148, 33.36987], [-88.60136, 33.37663], [-88.57098, 33.39691], [-88.55074, 33.41044], [-88.54062, 33.4172], [-88.51025, 33.43748], [-88.49001, 33.451], [-88.46948, 33.46425], [-88.45909, 33.47074], [-88.42764, 33.48994], [-88.40631, 33.50238], [-88.39552, 33.50846], [-88.36339, 33.52699], [-88.34233, 33.5397], [-88.33194, 33.54618], [-88.30076, 33.56566], [-88.27998, 33.57864], [-88.26944, 33.58499], [-88.23759, 33.60379], [-88.22679, 33.60987], [-88.19467, 33.6284], [-88.18414, 33.63475], [-88.15282, 33.65408], [-88.13203, 33.66707], [-88.12164, 33.67356], [-88.10072, 33.6864], [-88.0686, 33.70493], [-88.04646, 33.71655], [-88.02432, 33.72818], [-88.00218, 33.73981], [-87.99111, 33.74562], [-87.95845, 33.76361], [-87.94792, 33.76997], [-87.92699, 33.78281], [-87.9062, 33.79578], [-87.88542, 33.80877], [-87.85397, 33.82797], [-87.84318, 33.83405], [-87.81024, 33.85176], [-87.79918, 33.85758], [-87.7769, 33.86907], [-87.74302, 33.88583], [-87.73181, 33.89152], [-87.6982, 33.90855], [-87.67552, 33.91964], [-87.66432, 33.92532], [-87.63072, 33.94236], [-87.60805, 33.95345], [-87.59683, 33.95912], [-87.56323, 33.97616], [-87.5519, 33.9817], [-87.52935, 33.99293], [-87.50694, 34.00428], [-87.4844, 34.01551], [-87.46185, 34.02673], [-87.42824, 34.04377], [-87.4169, 34.04931], [-87.39436, 34.06053], [-87.37196, 34.07189], [-87.34943, 34.08311], [-87.31567, 34.10001], [-87.29326, 34.11137], [-87.28192, 34.11692], [-87.24818, 34.13382], [-87.23698, 34.1395], [-87.20309, 34.15627], [-87.19189, 34.16194], [-87.16948, 34.1733], [-87.14694, 34.18452], [-87.1244, 34.19574], [-87.09079, 34.21278], [-87.06812, 34.22386], [-87.05692, 34.22955], [-87.0233, 34.24658], [-87.00035, 34.2574], [-86.98888, 34.26281], [-86.95419, 34.27876], [-86.93017, 34.2885], [-86.90587, 34.29797], [-86.89386, 34.30283], [-86.86969, 34.31243], [-86.84554, 34.32203], [-86.8103, 34.33744], [-86.79883, 34.34285], [-86.76441, 34.35907], [-86.742, 34.37044], [-86.7308, 34.37611], [-86.70811, 34.3872], [-86.67371, 34.40343], [-86.6621, 34.4087], [-86.62646, 34.42371], [-86.60217, 34.43317], [-86.59015, 34.43804], [-86.56599, 34.44764], [-86.5417, 34.4571], [-86.51767, 34.46684], [-86.49391, 34.47685], [-86.46989, 34.48658], [-86.44559, 34.49605], [-86.42142, 34.50565], [-86.39726, 34.51525], [-86.37297, 34.52471], [-86.34895, 34.53445], [-86.32518, 34.54445], [-86.30116, 34.55419], [-86.27686, 34.56365], [-86.2527, 34.57325], [-86.22855, 34.58285], [-86.20424, 34.59232], [-86.18021, 34.60205], [-86.15646, 34.61206], [-86.13243, 34.62179], [-86.108, 34.63113], [-86.08344, 34.64032], [-86.05859, 34.64924], [-86.03336, 34.65776], [-86.00798, 34.66615], [-85.97018, 34.67899], [-85.9575, 34.68318], [-85.93212, 34.69156], [-85.90675, 34.69994], [-85.8815, 34.70847], [-85.85628, 34.71698], [-85.83089, 34.72537], [-85.80565, 34.73389], [-85.78081, 34.74281], [-85.75624, 34.75201], [-85.7318, 34.76133], [-85.70778, 34.77106], [-85.68402, 34.78107], [-85.66, 34.79081], [-85.62329, 34.80473], [-85.61101, 34.80933], [-85.58617, 34.81826], [-85.56093, 34.82677], [-85.53554, 34.83516], [-85.51031, 34.84367], [-85.48506, 34.8522], [-85.45969, 34.86058], [-85.43431, 34.86896], [-85.40907, 34.87748], [-85.38383, 34.886], [-85.35846, 34.89438], [-85.32039, 34.90695], [-85.30784, 34.91128], [-85.28259, 34.9198], [-85.25722, 34.92818], [-85.23184, 34.93657], [-85.20647, 34.94495], [-85.18082, 34.95306], [-85.15477, 34.96077], [-85.12845, 34.9682], [-85.10186, 34.97537], [-85.07513, 34.9824], [-85.04854, 34.98957], [-85.02222, 34.99701], [-84.99617, 35.00471], [-84.97052, 35.01283], [-84.94514, 35.02121], [-84.91976, 35.02959], [-84.89439, 35.03798], [-84.86914, 35.04649], [-84.84391, 35.05501], [-84.81853, 35.0634], [-84.78047, 35.07597], [-84.76791, 35.0803], [-84.74268, 35.08881], [-84.70461, 35.10139], [-84.69193, 35.10558], [-84.65413, 35.11842], [-84.64143, 35.12262], [-84.60338, 35.13519], [-84.578, 35.14357], [-84.56531, 35.14777], [-84.53966, 35.15588], [-84.51361, 35.16358], [-84.48729, 35.17102], [-84.46071, 35.17818], [-84.43398, 35.18522], [-84.40738, 35.19238], [-84.38106, 35.19982], [-84.35501, 35.20753], [-84.3164, 35.21956], [-84.30344, 35.22348], [-84.27739, 35.23119], [-84.25107, 35.23862], [-84.22448, 35.2458], [-84.19762, 35.25269], [-84.17062, 35.25945], [-84.14363, 35.26621], [-84.11663, 35.27297], [-84.08963, 35.27973], [-84.06264, 35.28649], [-84.03551, 35.29312], [-84.0081, 35.29947], [-83.98044, 35.30556], [-83.9525, 35.31137], [-83.92429, 35.31692], [-83.89607, 35.32246], [-83.86813, 35.32827], [-83.84046, 35.33435], [-83.81306, 35.34071], [-83.78593, 35.34734], [-83.75894, 35.3541], [-83.7318, 35.36072], [-83.7044, 35.36708], [-83.67673, 35.37316], [-83.64879, 35.37897], [-83.62057, 35.38452], [-83.59236, 35.39006], [-83.56442, 35.39588], [-83.53676, 35.40196], [-83.50935, 35.40832], [-83.48222, 35.41494], [-83.45523, 35.4217], [-83.42809, 35.42833], [-83.4007, 35.43468], [-83.37302, 35.44077], [-83.34508, 35.44658], [-83.31686, 35.45213], [-83.28866, 35.45767], [-83.26072, 35.46349], [-83.23305, 35.46957], [-83.20564, 35.47592], [-83.17852, 35.48255], [-83.15152, 35.48931], [-83.1244, 35.49593], [-83.09699, 35.50229], [-83.06932, 35.50838], [-83.04138, 35.51419], [-83.01317, 35.51974], [-82.98495, 35.52528], [-82.95701, 35.53109], [-82.92934, 35.53717], [-82.90194, 35.54353], [-82.87482, 35.55016], [-82.84782, 35.55692], [-82.82069, 35.56354], [-82.79329, 35.5699], [-82.76562, 35.57598], [-82.73767, 35.58179], [-82.70946, 35.58734], [-82.68125, 35.59288], [-82.65331, 35.59869], [-82.62563, 35.60478], [-82.59824, 35.61114], [-82.57111, 35.61776], [-82.54411, 35.62452], [-82.50334, 35.63439], [-82.48958, 35.6375], [-82.46191, 35.64359], [-82.43396, 35.6494], [-82.40575, 35.65495], [-82.37754, 35.66049], [-82.34959, 35.66631], [-82.32193, 35.67239], [-82.29453, 35.67874], [-82.2674, 35.68537], [-82.2404, 35.69213], [-82.21327, 35.69875], [-82.18587, 35.70511], [-82.1582, 35.7112], [-82.13026, 35.71701], [-82.10205, 35.72255], [-82.07384, 35.7281], [-82.0459, 35.73391], [-82.01822, 35.73999], [-81.99082, 35.74635], [-81.96368, 35.75297], [-81.9367, 35.75973], [-81.90956, 35.76636], [-81.88217, 35.77271], [-81.85449, 35.77879], [-81.82655, 35.78461], [-81.79834, 35.79015], [-81.77013, 35.7957], [-81.74219, 35.80151], [-81.71452, 35.80759], [-81.68712, 35.81395], [-81.65999, 35.82058], [-81.633, 35.82734], [-81.60586, 35.83397], [-81.57846, 35.84032], [-81.55078, 35.84641], [-81.52284, 35.85222], [-81.49463, 35.85776], [-81.46642, 35.8633], [-81.43848, 35.86912], [-81.41081, 35.8752], [-81.38341, 35.88156], [-81.34279, 35.89156], [-81.32928, 35.89494], [-81.30215, 35.90157], [-81.27475, 35.90792], [-81.24709, 35.91401], [-81.21914, 35.91982], [-81.19093, 35.92536], [-81.16272, 35.93091], [-81.13477, 35.93672], [-81.1071, 35.94281], [-81.0797, 35.94917], [-81.05258, 35.95579], [-81.02557, 35.96255], [-80.99858, 35.96931], [-80.97159, 35.97607], [-80.94458, 35.98283], [-80.91759, 35.98959], [-80.89059, 35.99635], [-80.86348, 36.00298], [-80.83607, 36.00933], [-80.8084, 36.01542], [-80.78046, 36.02123], [-80.75224, 36.02677], [-80.72403, 36.03232], [-80.69608, 36.03813], [-80.66841, 36.04422], [-80.64101, 36.05057], [-80.61389, 36.0572], [-80.58689, 36.06396], [-80.55977, 36.07058], [-80.53236, 36.07693], [-80.50469, 36.08302], [-80.47675, 36.08884], [-80.44853, 36.09438], [-80.42033, 36.09992], [-80.39238, 36.10574], [-80.36472, 36.11182], [-80.33731, 36.11818], [-80.31018, 36.1248], [-80.28319, 36.13156], [-80.25606, 36.13819], [-80.22865, 36.14455], [-80.20098, 36.15063], [-80.17303, 36.15644], [-80.14482, 36.16198], [-80.11662, 36.16753], [-80.08867, 36.17334], [-80.061, 36.17943], [-80.0336, 36.18578], [-80.00647, 36.19241], [-79.97948, 36.19917], [-79.95235, 36.2058], [-79.92494, 36.21215], [-79.89728, 36.21823], [-79.86934, 36.22404], [-79.84113, 36.22959], [-79.81291, 36.23514], [-79.78497, 36.24095], [-79.75729, 36.24704], [-79.7299, 36.25339], [-79.70276, 36.26001], [-79.67577, 36.26677], [-79.64864, 36.2734], [-79.62125, 36.27975], [-79.59357, 36.28584], [-79.56563, 36.29166], [-79.53741, 36.2972], [-79.5092, 36.30274], [-79.48126, 36.30856], [-79.45359, 36.31464], [-79.42619, 36.321], [-79.38556, 36.331], [-79.37207, 36.33438], [-79.34493, 36.341], [-79.31754, 36.34737], [-79.28986, 36.35345], [-79.26192, 36.35926], [-79.2337, 36.3648], [-79.20549, 36.37035], [-79.17755, 36.37616], [-79.14989, 36.38225], [-79.12248, 36.3886], [-79.09536, 36.39523], [-79.06836, 36.40199], [-79.04137, 36.40874], [-79.01437, 36.41551], [-78.98737, 36.42227], [-78.96037, 36.42903], [-78.93338, 36.43579], [-78.90624, 36.44241], [-78.87885, 36.44878], [-78.85117, 36.45486], [-78.82323, 36.46067], [-78.79501, 36.46621], [-78.76681, 36.47176], [-78.73887, 36.47757], [-78.7112, 36.48366], [-78.68379, 36.49001], [-78.65667, 36.49664], [-78.62967, 36.5034], [-78.60255, 36.51002], [-78.57514, 36.51637], [-78.54747, 36.52246], [-78.51953, 36.52827], [-78.49132, 36.53382], [-78.4631, 36.53936], [-78.43516, 36.54517], [-78.40749, 36.55126], [-78.38009, 36.55761], [-78.35297, 36.56424], [-78.32597, 36.571], [-78.29884, 36.57763], [-78.27144, 36.58398], [-78.24377, 36.59007], [-78.21582, 36.59588], [-78.18761, 36.60143], [-78.1594, 36.60697], [-78.13145, 36.61278], [-78.10379, 36.61887], [-78.07639, 36.62522], [-78.04926, 36.63185], [-78.02226, 36.63861], [-77.99527, 36.64537], [-77.96826, 36.65213], [-77.94127, 36.65889], [-77.91428, 36.66565], [-77.87405, 36.67606], [-77.86082, 36.67971], [-77.8345, 36.68715], [-77.80846, 36.69485], [-77.78281, 36.70296], [-77.75743, 36.71135], [-77.73206, 36.71973], [-77.70682, 36.72825], [-77.68198, 36.73717], [-77.6574, 36.74637], [-77.62083, 36.76043], [-77.60895, 36.76543], [-77.58519, 36.77544], [-77.54901, 36.78991], [-77.53687, 36.79464], [-77.5127, 36.80424], [-77.48854, 36.81384], [-77.46439, 36.82344], [-77.44077, 36.83358], [-77.41768, 36.84426], [-77.39473, 36.85508], [-77.36086, 36.87184], [-77.34966, 36.87753], [-77.31577, 36.89429], [-77.29336, 36.90565], [-77.27095, 36.91701], [-77.25961, 36.92255], [-77.23707, 36.93377], [-77.20348, 36.95081], [-77.19213, 36.95635], [-77.16959, 36.96758], [-77.14731, 36.97907], [-77.12518, 36.99069], [-77.09251, 37.00868], [-77.07146, 37.02139], [-77.05067, 37.03437], [-77.04041, 37.04099], [-77.0099, 37.06114], [-76.98965, 37.07466], [-76.95929, 37.09494], [-76.94916, 37.10171], [-76.92891, 37.11523], [-76.89867, 37.13564], [-76.88869, 37.14254], [-76.85927, 37.16377], [-76.84955, 37.17094], [-76.83038, 37.18554], [-76.8019, 37.20771], [-76.79231, 37.21501], [-76.76315, 37.23651], [-76.75344, 37.24368], [-76.72442, 37.26531], [-76.70552, 37.28018], [-76.69621, 37.28775], [-76.67839, 37.30371], [-76.66084, 37.31993], [-76.64384, 37.3367], [-76.61845, 37.36198], [-76.60159, 37.37889], [-76.59308, 37.38727], [-76.57634, 37.40431], [-76.55934, 37.42108], [-76.5341, 37.4465], [-76.52559, 37.45488], [-76.50035, 37.4803], [-76.49185, 37.48868], [-76.47511, 37.50572], [-76.45811, 37.52249], [-76.43286, 37.5479], [-76.42436, 37.55629], [-76.40762, 37.57332], [-76.39088, 37.59036], [-76.36671, 37.61686], [-76.3512, 37.63511], [-76.34364, 37.64444], [-76.32191, 37.67338], [-76.31476, 37.68311], [-76.30045, 37.70258], [-76.28614, 37.72205], [-76.27156, 37.74126], [-76.24942, 37.76979], [-76.23499, 37.78912], [-76.22783, 37.79886], [-76.21379, 37.8186], [-76.19328, 37.84875], [-76.18652, 37.85889], [-76.17329, 37.87944], [-76.15399, 37.91081], [-76.14157, 37.93217], [-76.1355, 37.94299], [-76.11809, 37.97625], [-76.10661, 37.99856], [-76.09541, 38.02114], [-76.08421, 38.04372], [-76.07287, 38.06617], [-76.06166, 38.08875], [-76.05046, 38.11133], [-76.04478, 38.12255], [-76.02805, 38.15649], [-76.01726, 38.17947], [-76.01186, 38.19097], [-75.99648, 38.22626], [-75.98702, 38.2506], [-75.97784, 38.27521], [-75.96893, 38.30008], [-75.96043, 38.32537], [-75.95206, 38.35079], [-75.9437, 38.37621], [-75.93573, 38.40203], [-75.92844, 38.42854], [-75.92169, 38.45558], [-75.91548, 38.48316], [-75.90981, 38.51128], [-75.90427, 38.53954], [-75.89861, 38.56767], [-75.89307, 38.59593], [-75.88795, 38.62459], [-75.88349, 38.65393], [-75.88012, 38.68436], [-75.87782, 38.71586], [-75.87607, 38.7479], [-75.87431, 38.77995], [-75.87202, 38.81145], [-75.86878, 38.84174], [-75.86487, 38.87054], [-75.86108, 38.89812], [-75.85825, 38.92476], [-75.85717, 38.95072], [-75.85825, 38.97668], [-75.86108, 39.00332], [-75.86486, 39.0309], [-75.86877, 39.0597], [-75.87202, 39.08999], [-75.87431, 39.12149], [-75.87607, 39.15353], [-75.87782, 39.18559], [-75.88011, 39.21709], [-75.88348, 39.24751], [-75.88808, 39.27671], [-75.89362, 39.30497], [-75.89983, 39.33256], [-75.90643, 39.35973], [-75.91332, 39.38664], [-75.92048, 39.41328], [-75.9279, 39.43964], [-75.93559, 39.46574], [-75.9437, 39.49143], [-75.95206, 39.51685], [-75.96043, 39.54227], [-75.96893, 39.56755], [-75.97784, 39.59244], [-75.98702, 39.61704], [-75.99188, 39.62908], [-76.00659, 39.66504], [-76.01726, 39.68816], [-76.02264, 39.69966], [-76.03912, 39.73386], [-76.05046, 39.75631], [-76.06166, 39.77889], [-76.07286, 39.80148], [-76.08434, 39.82378], [-76.09595, 39.84595], [-76.10202, 39.85677], [-76.11417, 39.87841], [-76.13306, 39.91018], [-76.14615, 39.93087], [-76.15291, 39.94101], [-76.17302, 39.97157], [-76.18652, 39.99185], [-76.19327, 40.00199], [-76.21352, 40.03241], [-76.23376, 40.06283], [-76.24065, 40.07284], [-76.26157, 40.10258], [-76.26873, 40.11232], [-76.27602, 40.12192], [-76.29788, 40.15073], [-76.31259, 40.16978], [-76.32704, 40.18913], [-76.34134, 40.20859], [-76.35565, 40.22806], [-76.37009, 40.24739], [-76.38495, 40.26633], [-76.40047, 40.28458], [-76.41653, 40.30229], [-76.433, 40.3196], [-76.44973, 40.33664], [-76.46661, 40.35354], [-76.48347, 40.37044], [-76.50887, 40.39573], [-76.51736, 40.40411], [-76.54341, 40.42872], [-76.55231, 40.4367], [-76.57985, 40.45982], [-76.58944, 40.46712], [-76.60873, 40.48158], [-76.62817, 40.49592], [-76.64748, 40.51038], [-76.66638, 40.52526], [-76.68474, 40.54067], [-76.70283, 40.55636], [-76.72996, 40.57988], [-76.73927, 40.58746], [-76.75816, 40.60233], [-76.78746, 40.62369], [-76.79744, 40.63058], [-76.82768, 40.651], [-76.83781, 40.65776], [-76.85806, 40.67129], [-76.8783, 40.68481], [-76.89854, 40.69833], [-76.91879, 40.71185], [-76.94943, 40.73186], [-76.97021, 40.74484], [-76.99129, 40.75755], [-77.0126, 40.76999], [-77.0234, 40.77608], [-77.05553, 40.7946], [-77.07658, 40.80731], [-77.09737, 40.82029], [-77.10777, 40.82678], [-77.13895, 40.84625], [-77.1708, 40.86504], [-77.1816, 40.87113], [-77.204, 40.88249], [-77.22668, 40.89357], [-77.24989, 40.90412], [-77.27393, 40.91386], [-77.29823, 40.92332], [-77.32225, 40.93306], [-77.35856, 40.94739], [-77.37057, 40.95226], [-77.39378, 40.9628], [-77.41673, 40.97362], [-77.45143, 40.98957], [-77.46291, 40.99498], [-77.48611, 41.00553], [-77.52243, 41.01986], [-77.53471, 41.02446], [-77.55928, 41.03365], [-77.58438, 41.0423], [-77.60976, 41.05069], [-77.64768, 41.0634], [-77.67293, 41.07191], [-77.6983, 41.08031], [-77.71099, 41.0845], [-77.74906, 41.09707], [-77.76175, 41.10126], [-77.78766, 41.1091], [-77.82707, 41.12032], [-77.85367, 41.12749], [-77.86703, 41.131], [-77.90753, 41.14114], [-77.93452, 41.14791], [-77.94801, 41.15129], [-77.97501, 41.15805], [-78.0155, 41.16819], [-78.04264, 41.17481], [-78.05627, 41.17805], [-78.09825, 41.18671], [-78.12686, 41.19185], [-78.15602, 41.19645], [-78.18546, 41.20078], [-78.21461, 41.20537], [-78.24335, 41.21038], [-78.25766, 41.21294], [-78.28627, 41.21808], [-78.33002, 41.22498], [-78.36024, 41.22849], [-78.3913, 41.2312], [-78.42262, 41.23363], [-78.45366, 41.23634], [-78.48389, 41.23985], [-78.49873, 41.24187], [-78.52763, 41.24675], [-78.57068, 41.25432], [-78.59998, 41.25878], [-78.63034, 41.26216], [-78.66193, 41.26432], [-78.69446, 41.26554], [-78.72766, 41.26608], [-78.76128, 41.26622], [-78.79502, 41.26622], [-78.82877, 41.26622], [-78.86251, 41.26622], [-78.89626, 41.26622], [-78.93001, 41.26622], [-78.96375, 41.26622], [-78.9975, 41.26622], [-79.03123, 41.26622], [-79.06499, 41.26622], [-79.0986, 41.26608], [-79.1318, 41.26554], [-79.16433, 41.26432], [-79.19591, 41.26216], [-79.22629, 41.25878], [-79.25558, 41.25432], [-79.28432, 41.24931], [-79.31308, 41.24431], [-79.34237, 41.23985], [-79.3726, 41.23634], [-79.40366, 41.23363], [-79.43497, 41.23119], [-79.45036, 41.22971], [-79.49625, 41.22498], [-79.52554, 41.22051], [-79.55415, 41.21538], [-79.58236, 41.20983], [-79.61044, 41.20415], [-79.63864, 41.19861], [-79.66686, 41.19307], [-79.6948, 41.18725], [-79.72247, 41.18117], [-79.74988, 41.17481], [-79.77701, 41.16819], [-79.804, 41.16143], [-79.83099, 41.15467], [-79.85799, 41.1479], [-79.88499, 41.14114], [-79.91199, 41.13438], [-79.93884, 41.12749], [-79.96544, 41.12032], [-79.99176, 41.11289], [-80.01781, 41.10518], [-80.04346, 41.09706], [-80.08153, 41.08449], [-80.09422, 41.0803], [-80.11958, 41.07191], [-80.14484, 41.0634], [-80.17007, 41.05488], [-80.19544, 41.04649], [-80.22069, 41.03798], [-80.24551, 41.02905], [-80.27009, 41.01986], [-80.29452, 41.01053], [-80.33043, 40.9958], [-80.3423, 40.99079], [-80.37848, 40.97632], [-80.39062, 40.97159], [-80.4268, 40.95712], [-80.43895, 40.95239], [-80.46311, 40.94279], [-80.48673, 40.93265], [-80.50981, 40.92197], [-80.53276, 40.91116], [-80.56664, 40.89439], [-80.58905, 40.88303], [-80.60039, 40.87748], [-80.63414, 40.86058], [-80.64534, 40.8549], [-80.66788, 40.84368], [-80.69042, 40.83246], [-80.71282, 40.8211], [-80.73537, 40.80988], [-80.76912, 40.79298], [-80.78032, 40.7873], [-80.80286, 40.77608], [-80.83661, 40.75917], [-80.84781, 40.75349], [-80.87035, 40.74227], [-80.9041, 40.72537], [-80.9265, 40.71401], [-80.93784, 40.70847], [-80.97159, 40.69157], [-80.99399, 40.68021], [-81.00533, 40.67467], [-81.02787, 40.66344], [-81.05028, 40.65208], [-81.08415, 40.63532], [-81.10657, 40.62396], [-81.11777, 40.61828], [-81.15166, 40.60152], [-81.17406, 40.59016], [-81.19646, 40.5788], [-81.20779, 40.57326], [-81.23035, 40.56203], [-81.25275, 40.55067], [-81.27529, 40.53946], [-81.30904, 40.52255], [-81.33144, 40.5112], [-81.34291, 40.50579], [-81.36586, 40.49497], [-81.38895, 40.48429], [-81.41257, 40.47415], [-81.44888, 40.45982], [-81.46089, 40.45495], [-81.48505, 40.44535], [-81.50922, 40.43575], [-81.54445, 40.42033], [-81.55592, 40.41492], [-81.57887, 40.40411], [-81.60154, 40.39302], [-81.63515, 40.37598], [-81.65782, 40.3649], [-81.68024, 40.35354], [-81.69144, 40.34786], [-81.71397, 40.33664], [-81.73652, 40.32542], [-81.77013, 40.30838], [-81.78146, 40.30283], [-81.80402, 40.29161], [-81.83762, 40.27457], [-81.8603, 40.26349], [-81.8715, 40.25781], [-81.89391, 40.24645], [-81.91644, 40.23523], [-81.93899, 40.22401], [-81.9614, 40.21265], [-81.98395, 40.20142], [-82.01768, 40.18452], [-82.02888, 40.17885], [-82.05143, 40.16763], [-82.08517, 40.15073], [-82.09638, 40.14504], [-82.13053, 40.12855], [-82.14201, 40.12314], [-82.16508, 40.11246], [-82.18871, 40.10232], [-82.21287, 40.09272], [-82.23702, 40.08311], [-82.26119, 40.07351], [-82.28535, 40.06392], [-82.30898, 40.05378], [-82.33206, 40.04309], [-82.36648, 40.02687], [-82.37769, 40.02119], [-82.40009, 40.00983], [-82.43397, 39.99307], [-82.45638, 39.9817], [-82.46758, 39.97603], [-82.49011, 39.96481], [-82.52386, 39.94791], [-82.53506, 39.94222], [-82.5576, 39.93101], [-82.58015, 39.91978], [-82.61375, 39.90274], [-82.63644, 39.89166], [-82.65884, 39.88029], [-82.67005, 39.87462], [-82.70393, 39.85786], [-82.71513, 39.85218], [-82.74873, 39.83514], [-82.76021, 39.82973], [-82.79463, 39.81351], [-82.80624, 39.80824], [-82.82986, 39.7981], [-82.85403, 39.78849], [-82.87819, 39.77889], [-82.90234, 39.76929], [-82.92651, 39.75969], [-82.95013, 39.74955], [-82.97321, 39.73887], [-82.99615, 39.72805], [-83.01883, 39.71696], [-83.05244, 39.69993], [-83.07512, 39.68884], [-83.08633, 39.68316], [-83.10873, 39.67181], [-83.13127, 39.66058], [-83.15382, 39.64936], [-83.17622, 39.638], [-83.21011, 39.62123], [-83.23251, 39.60988], [-83.25491, 39.59852], [-83.26625, 39.59298], [-83.2888, 39.58175], [-83.3224, 39.56471], [-83.33374, 39.55917], [-83.36749, 39.54227], [-83.37869, 39.53659], [-83.41286, 39.5201], [-83.43579, 39.50928], [-83.4474, 39.50401], [-83.48303, 39.489], [-83.49518, 39.48426], [-83.51935, 39.47466], [-83.55565, 39.46033], [-83.57968, 39.4506], [-83.59129, 39.44533], [-83.61436, 39.43465], [-83.63731, 39.42383], [-83.65999, 39.41274], [-83.6936, 39.39571], [-83.70494, 39.39016], [-83.72749, 39.37894], [-83.74989, 39.36758], [-83.77243, 39.35636], [-83.79498, 39.34513], [-83.82858, 39.32809], [-83.85126, 39.31701], [-83.86246, 39.31133], [-83.89607, 39.2943], [-83.90741, 39.28875], [-83.94116, 39.27185], [-83.95236, 39.26617], [-83.98624, 39.2494], [-84.00865, 39.23804], [-84.01985, 39.23237], [-84.05373, 39.2156], [-84.06494, 39.20992], [-84.08735, 39.19856], [-84.12122, 39.1818], [-84.14363, 39.17044], [-84.16603, 39.15908], [-84.17737, 39.15354], [-84.19991, 39.14231], [-84.23354, 39.12527], [-84.24487, 39.11974], [-84.27861, 39.10283], [-84.28981, 39.09715], [-84.31236, 39.08593], [-84.3461, 39.06903], [-84.35731, 39.06335], [-84.37984, 39.05213], [-84.41359, 39.03523], [-84.43599, 39.02387], [-84.44733, 39.01833], [-84.46988, 39.0071], [-84.50349, 38.99007], [-84.51483, 38.98452], [-84.53737, 38.9733], [-84.55977, 38.96194], [-84.59366, 38.94518], [-84.60486, 38.9395], [-84.63847, 38.92246], [-84.66115, 38.91138], [-84.67236, 38.90569], [-84.70595, 38.88866], [-84.71729, 38.88311], [-84.73984, 38.87189], [-84.77345, 38.85485], [-84.78479, 38.84931], [-84.81853, 38.83241], [-84.84093, 38.82105], [-84.85228, 38.81551], [-84.88602, 38.79861], [-84.89722, 38.79293], [-84.93111, 38.77617], [-84.95351, 38.7648], [-84.96471, 38.75913], [-84.98726, 38.7479], [-85.02101, 38.731], [-85.04341, 38.71965], [-85.05475, 38.7141], [-85.07729, 38.70288], [-85.1109, 38.68584], [-85.12224, 38.68031], [-85.14478, 38.66908], [-85.16719, 38.65772], [-85.18973, 38.64649], [-85.22347, 38.62959], [-85.23467, 38.62392], [-85.25722, 38.61269], [-85.29097, 38.59579], [-85.31337, 38.58443], [-85.32471, 38.5789], [-85.35846, 38.56199], [-85.36966, 38.55631], [-85.40354, 38.53955], [-85.42595, 38.52818], [-85.44836, 38.51683], [-85.45969, 38.51128], [-85.49344, 38.49438], [-85.51585, 38.48302], [-85.53853, 38.47194], [-85.54973, 38.46626], [-85.58333, 38.44922], [-85.59467, 38.44368], [-85.62842, 38.42677], [-85.63948, 38.42096], [-85.66162, 38.40933], [-85.69429, 38.39135], [-85.71561, 38.37891], [-85.73694, 38.36647], [-85.75854, 38.35431], [-85.76961, 38.34849], [-85.79214, 38.33727], [-85.82684, 38.32131], [-85.83871, 38.31631], [-85.86247, 38.3063], [-85.88596, 38.29603], [-85.90891, 38.28521], [-85.93144, 38.27399], [-85.95345, 38.26222], [-85.98531, 38.24343], [-86.00609, 38.23045], [-86.02688, 38.21747], [-86.04766, 38.20449], [-86.0582, 38.19814], [-86.07951, 38.18569], [-86.11246, 38.16798], [-86.12352, 38.16217], [-86.157, 38.145], [-86.17967, 38.13391], [-86.19089, 38.12823], [-86.22449, 38.11119], [-86.24717, 38.10011], [-86.26958, 38.08875], [-86.28078, 38.08307], [-86.31493, 38.06657], [-86.3264, 38.06116], [-86.34949, 38.05048], [-86.37311, 38.04034], [-86.39726, 38.03074], [-86.42142, 38.02114], [-86.44559, 38.01154], [-86.46974, 38.00195], [-86.49338, 37.9918], [-86.52792, 37.97571], [-86.5394, 37.9703], [-86.57328, 37.95354], [-86.58449, 37.94786], [-86.61836, 37.93109], [-86.62957, 37.92542], [-86.65198, 37.91405], [-86.67451, 37.90284], [-86.70827, 37.88593], [-86.71947, 37.88026], [-86.75334, 37.86349], [-86.77574, 37.85213], [-86.79816, 37.84077], [-86.80949, 37.83523], [-86.83203, 37.82401], [-86.86565, 37.80697], [-86.88832, 37.79588], [-86.89953, 37.7902], [-86.93315, 37.77316], [-86.94449, 37.76762], [-86.96703, 37.7564], [-87.00063, 37.73936], [-87.01196, 37.73382], [-87.04572, 37.71692], [-87.05692, 37.71124], [-87.0908, 37.69447], [-87.1132, 37.68311], [-87.13561, 37.67175], [-87.15829, 37.66067], [-87.18069, 37.64931], [-87.20284, 37.63768], [-87.21391, 37.63187], [-87.23577, 37.61997], [-87.26762, 37.60118], [-87.27802, 37.59469], [-87.3092, 37.57522], [-87.31959, 37.56873], [-87.35104, 37.54953], [-87.36183, 37.54344], [-87.39477, 37.52573], [-87.41691, 37.5141], [-87.42812, 37.50842], [-87.45065, 37.4972], [-87.4732, 37.48598], [-87.49547, 37.47448], [-87.51761, 37.46286], [-87.53947, 37.45096], [-87.57133, 37.43216], [-87.59212, 37.41918], [-87.60251, 37.41269], [-87.63368, 37.39322], [-87.64421, 37.38686], [-87.66541, 37.37429], [-87.69767, 37.3559], [-87.71899, 37.34346], [-87.72952, 37.3371], [-87.76084, 37.31777], [-87.78163, 37.30479], [-87.79202, 37.2983], [-87.82347, 37.2791], [-87.83414, 37.27288], [-87.86639, 37.25449], [-87.88772, 37.24205], [-87.90878, 37.22934], [-87.92957, 37.21637], [-87.96021, 37.19635], [-87.97032, 37.18959], [-87.99057, 37.17607], [-88.01082, 37.16255], [-88.03107, 37.14903], [-88.05132, 37.13551], [-88.07157, 37.12199], [-88.09181, 37.10847], [-88.11206, 37.09495], [-88.14243, 37.07467], [-88.14243, 37.07467], [-88.18279, 37.04749], [-88.20263, 37.03356], [-88.21248, 37.02653], [-88.23192, 37.0122], [-88.2415, 37.00489], [-88.26999, 36.98272], [-88.29887, 36.96095], [-88.30859, 36.95378], [-88.33829, 36.93282], [-88.34828, 36.92593], [-88.36852, 36.91241], [-88.38877, 36.89889], [-88.40901, 36.88536], [-88.429, 36.87157], [-88.44871, 36.85751], [-88.46814, 36.84319], [-88.49675, 36.82114], [-88.5062, 36.81371], [-88.52537, 36.7991], [-88.54482, 36.78477], [-88.57396, 36.76328], [-88.59327, 36.7488], [-88.61217, 36.73393], [-88.62148, 36.72636], [-88.63956, 36.71068], [-88.65765, 36.69499], [-88.67574, 36.67931], [-88.69436, 36.66416], [-88.71353, 36.64956], [-88.73297, 36.63522], [-88.74269, 36.62806], [-88.77184, 36.60656], [-88.791, 36.59196], [-88.80991, 36.57709], [-88.82907, 36.56248], [-88.84852, 36.54815], [-88.87767, 36.52665], [-88.88739, 36.51949], [-88.90656, 36.50488], [-88.92519, 36.48974], [-88.95232, 36.46622], [-88.96136, 36.45837], [-88.97945, 36.44269], [-88.99806, 36.42754], [-89.01724, 36.41294], [-89.03667, 36.39861], [-89.05611, 36.38427], [-89.07555, 36.36994], [-89.09471, 36.35534], [-89.11362, 36.34047], [-89.13278, 36.32586], [-89.15222, 36.31153], [-89.17166, 36.2972], [-89.1911, 36.28287], [-89.21027, 36.26826], [-89.2289, 36.25312], [-89.24698, 36.23743], [-89.26506, 36.22175], [-89.28315, 36.20607], [-89.30177, 36.19092], [-89.32095, 36.17632], [-89.34038, 36.16198], [-89.35982, 36.14765], [-89.3694, 36.14035], [-89.39761, 36.1179], [-89.41544, 36.10195], [-89.43298, 36.08573], [-89.45026, 36.06923], [-89.4678, 36.05301], [-89.48562, 36.03705], [-89.50425, 36.02191], [-89.52341, 36.00731], [-89.54286, 35.99297], [-89.56229, 35.97864], [-89.58145, 35.96404], [-89.60008, 35.94889], [-89.6179, 35.93294], [-89.63545, 35.91671], [-89.65245, 35.89995], [-89.66946, 35.88318], [-89.6862, 35.86614], [-89.7032, 35.84938], [-89.72021, 35.83261], [-89.73776, 35.81638], [-89.75558, 35.80043], [-89.77422, 35.78529], [-89.79338, 35.77068], [-89.81282, 35.75635], [-89.83225, 35.74202], [-89.85141, 35.72742], [-89.87004, 35.71227], [-89.88786, 35.69632], [-89.90541, 35.6801], [-89.92241, 35.66333], [-89.93942, 35.64656], [-89.95616, 35.62952], [-89.97317, 35.61276], [-89.98991, 35.59572], [-90.00691, 35.57895], [-90.02365, 35.56192], [-90.04066, 35.54515], [-90.0659, 35.51973], [-90.07442, 35.51135], [-90.09964, 35.48593], [-90.10815, 35.47754], [-90.12489, 35.46051], [-90.14189, 35.44374], [-90.15863, 35.4267], [-90.17564, 35.40994], [-90.19237, 35.3929], [-90.20938, 35.37614], [-90.22612, 35.3591], [-90.24313, 35.34233], [-90.25987, 35.3253], [-90.27687, 35.30853], [-90.29362, 35.2915], [-90.31062, 35.27473], [-90.32736, 35.2577], [-90.34438, 35.24093], [-90.36111, 35.22389], [-90.37813, 35.20712], [-90.40335, 35.18171], [-90.41187, 35.17332], [-90.42859, 35.15629], [-90.4456, 35.13952], [-90.46233, 35.12248], [-90.47935, 35.10571], [-90.49608, 35.08868], [-90.51309, 35.07191], [-90.52983, 35.05488], [-90.54683, 35.03811], [-90.56358, 35.02107], [-90.58058, 35.0043], [-90.59732, 34.98727], [-90.61433, 34.9705], [-90.63107, 34.95347], [-90.64809, 34.9367], [-90.66481, 34.91966], [-90.68182, 34.9029], [-90.69856, 34.88586], [-90.72339, 34.86003], [-90.73149, 34.85125], [-90.74742, 34.8334], [-90.76982, 34.80515], [-90.77711, 34.79554], [-90.79857, 34.76633], [-90.81302, 34.747], [-90.8203, 34.7374], [-90.83543, 34.71874], [-90.85945, 34.6921], [-90.86755, 34.68331], [-90.88402, 34.66601], [-90.90819, 34.63951], [-90.92371, 34.62125], [-90.93126, 34.61192], [-90.953, 34.58299], [-90.96015, 34.57326], [-90.98175, 34.54419], [-90.98904, 34.53458], [-91.00415, 34.51592], [-91.01981, 34.4978], [-91.03546, 34.47969], [-91.05869, 34.45224], [-91.07353, 34.4333], [-91.08082, 34.42371], [-91.10228, 34.3945], [-91.1166, 34.37503], [-91.13103, 34.3557], [-91.13832, 34.3461], [-91.15318, 34.32717], [-91.17491, 34.29823], [-91.18206, 34.2885], [-91.1961, 34.26875], [-91.21661, 34.23861], [-91.23011, 34.21832], [-91.23686, 34.20818], [-91.25035, 34.1879], [-91.2706, 34.15748], [-91.27734, 34.14734], [-91.29085, 34.12706], [-91.30434, 34.10677], [-91.32459, 34.07635], [-91.33809, 34.05607], [-91.34484, 34.04593], [-91.36496, 34.01537], [-91.37157, 34.0051], [-91.39088, 33.97372], [-91.40343, 33.9525], [-91.41571, 33.931], [-91.42799, 33.9095], [-91.44054, 33.88828], [-91.45336, 33.86732], [-91.46632, 33.8465], [-91.47929, 33.82567], [-91.48576, 33.81526], [-91.50453, 33.78335], [-91.5106, 33.77254], [-91.52802, 33.73927], [-91.53949, 33.71696], [-91.55069, 33.69438], [-91.55623, 33.68302], [-91.57323, 33.64935], [-91.58443, 33.62677], [-91.59564, 33.60419], [-91.60698, 33.58175], [-91.61804, 33.55904], [-91.62885, 33.53605], [-91.6395, 33.51292], [-91.64963, 33.48927], [-91.65921, 33.46506], [-91.6688, 33.44086], [-91.67838, 33.41666], [-91.6831, 33.40449], [-91.69809, 33.36879], [-91.70876, 33.34567], [-91.71941, 33.32255], [-91.73007, 33.29942], [-91.74075, 33.27631], [-91.75087, 33.25264], [-91.76031, 33.2283], [-91.76949, 33.2037], [-91.7784, 33.17882], [-91.78272, 33.16624], [-91.79527, 33.12811], [-91.80378, 33.10283], [-91.8081, 33.09026], [-91.82066, 33.05212], [-91.82484, 33.03941], [-91.83321, 33.014], [-91.84184, 32.98885], [-91.85439, 32.95072], [-91.86276, 32.9253], [-91.87114, 32.89988], [-91.87923, 32.87419], [-91.88692, 32.84809], [-91.89435, 32.82172], [-91.9015, 32.79509], [-91.90839, 32.76818], [-91.91501, 32.74101], [-91.92134, 32.71356], [-91.92741, 32.68584], [-91.93323, 32.65785], [-91.93876, 32.62959], [-91.9443, 32.60133], [-91.94997, 32.5732], [-91.95564, 32.54508], [-91.9613, 32.51696], [-91.96696, 32.48883], [-91.9725, 32.46057], [-91.97804, 32.43232], [-91.98088, 32.41825], [-91.98924, 32.37593], [-91.99437, 32.34727], [-91.99883, 32.31792], [-92.00234, 32.28764], [-92.00504, 32.25654], [-92.00746, 32.22517], [-92.01016, 32.19408], [-92.01367, 32.16378], [-92.01813, 32.13445], [-92.02312, 32.10565], [-92.02812, 32.07684], [-92.03258, 32.04751], [-92.03595, 32.01708], [-92.03812, 31.98544], [-92.03932, 31.95286], [-92.03986, 31.91959], [-92.03999, 31.88593], [-92.03999, 31.85212], [-92.03999, 31.81832], [-92.03999, 31.78452], [-92.03999, 31.75071], [-92.03999, 31.71691], [-92.03986, 31.68325], [-92.03931, 31.64998], [-92.0381, 31.6174], [-92.03593, 31.58576], [-92.03256, 31.55534], [-92.02811, 31.526], [-92.02312, 31.49719], [-92.01813, 31.4684], [-92.01367, 31.43905], [-92.01016, 31.40877], [-92.00747, 31.37767], [-92.00504, 31.3463], [-92.00233, 31.3152], [-91.99883, 31.28491], [-91.99437, 31.25557], [-91.98938, 31.22677], [-91.98425, 31.1981], [-91.97925, 31.16931], [-91.97466, 31.1401], [-91.97034, 31.11063], [-91.96576, 31.08142], [-91.96063, 31.05276], [-91.95496, 31.02463], [-91.94875, 30.99705], [-91.94213, 30.96987], [-91.93876, 30.95635], [-91.92863, 30.91578], [-91.92188, 30.88874], [-91.91513, 30.8617], [-91.90839, 30.83466], [-91.9015, 30.80775], [-91.89435, 30.78111], [-91.88692, 30.75475], [-91.87923, 30.72865], [-91.87114, 30.70296], [-91.86276, 30.67754], [-91.85439, 30.65212], [-91.84602, 30.6267], [-91.83752, 30.60142], [-91.82903, 30.57613], [-91.82065, 30.55071], [-91.81227, 30.5253], [-91.80377, 30.50001], [-91.79527, 30.47472], [-91.78691, 30.44931], [-91.7784, 30.42402], [-91.76949, 30.39914], [-91.76031, 30.37453], [-91.75087, 30.3502], [-91.74074, 30.32653], [-91.73009, 30.30341], [-91.71928, 30.28043], [-91.70254, 30.24649], [-91.69687, 30.23527], [-91.68567, 30.21269], [-91.66879, 30.17888], [-91.66312, 30.16766], [-91.65193, 30.14508], [-91.64072, 30.1225], [-91.62938, 30.10006], [-91.61818, 30.07747], [-91.60698, 30.05489], [-91.5955, 30.03258], [-91.5839, 30.01041], [-91.57201, 29.98851], [-91.55959, 29.96714], [-91.5403, 29.93577], [-91.52707, 29.91522], [-91.52032, 29.90508], [-91.50682, 29.8848], [-91.49332, 29.86452], [-91.47308, 29.83409], [-91.46632, 29.82395], [-91.44608, 29.79353], [-91.43258, 29.77325], [-91.41908, 29.75297], [-91.41234, 29.74283], [-91.39208, 29.7124], [-91.37859, 29.69212], [-91.36481, 29.67211], [-91.35078, 29.65237], [-91.34363, 29.64263], [-91.3219, 29.6137], [-91.30705, 29.59477], [-91.29247, 29.57557], [-91.27816, 29.5561], [-91.27101, 29.54637], [-91.24955, 29.51716], [-91.23524, 29.49769], [-91.22795, 29.48809], [-91.20583, 29.45956], [-91.19124, 29.44036], [-91.18408, 29.43062], [-91.16262, 29.40142], [-91.15547, 29.39168], [-91.13374, 29.36275], [-91.11861, 29.34409], [-91.10268, 29.32624], [-91.09459, 29.31745], [-91.06975, 29.29163], [-91.05302, 29.27459], [-91.04465, 29.26607], [-91.02008, 29.23997], [-91.00415, 29.22213], [-90.99659, 29.2128], [-90.98174, 29.19387], [-90.96014, 29.1648], [-90.94584, 29.14532], [-90.93126, 29.12613], [-90.91615, 29.10747], [-90.90022, 29.08962], [-90.89212, 29.08083], [-90.87566, 29.06353], [-90.85054, 29.03797], [-90.83354, 29.0212], [-90.82517, 29.01268], [-90.80829, 28.99578], [-90.79143, 28.97888], [-90.76604, 28.9536], [-90.75768, 28.94508], [-90.7323, 28.9198], [-90.71556, 28.90276], [-90.69856, 28.88599], [-90.68182, 28.86896], [-90.66481, 28.85219], [-90.65645, 28.84367], [-90.63957, 28.82677], [-90.61406, 28.80162], [-90.59651, 28.78539], [-90.5876, 28.77742], [-90.56007, 28.7543], [-90.54089, 28.73969], [-90.52146, 28.72536], [-90.50202, 28.71103], [-90.48259, 28.6967], [-90.46342, 28.68209], [-90.44453, 28.66722], [-90.42509, 28.65289], [-90.40511, 28.6391], [-90.3846, 28.62585], [-90.36354, 28.61314], [-90.34193, 28.60097], [-90.32062, 28.58853], [-90.29955, 28.57582], [-90.27876, 28.56284], [-90.25798, 28.54986], [-90.23719, 28.53688], [-90.21614, 28.52417], [-90.19453, 28.512], [-90.1724, 28.50037], [-90.15026, 28.48874], [-90.11652, 28.47184], [-90.10518, 28.46629], [-90.08278, 28.45494], [-90.06037, 28.44358], [-90.02649, 28.42681], [-90.01528, 28.42113], [-89.99287, 28.40978], [-89.95899, 28.39301], [-89.94778, 28.38733], [-89.92566, 28.3757], [-89.90352, 28.36407], [-89.88193, 28.35191], [-89.86086, 28.3392], [-89.84007, 28.32622], [-89.81929, 28.31324], [-89.78731, 28.29458], [-89.77637, 28.28849], [-89.75342, 28.2774], [-89.72926, 28.26767], [-89.69173, 28.25537], [-89.66704, 28.24833], [-89.64314, 28.24292], [-89.63154, 28.24157], [-89.58835, 28.23792]]]}}]}