{"type": "FeatureCollection", "features": [{"type": "Feature", "geometry": {"type": "LineString", "coordinates": [[-89.6, 28.6], [-90.3, 29.2], [-90.6, 29.9], [-91.0, 30.7], [-90.9, 31.6], [-90.7, 32.5], [-90.2, 33.5], [-89.5, 34.3], [-88.4, 35.0], [-87.1, 36.0], [-85.5, 36.8], [-83.5, 37.4], [-81.0, 38.0], [-79.2, 38.6], [-77.0, 38.9], [-74.5, 39.5], [-71.5, 40.6], [-69.0, 41.8], [-67.1, 43.1], [-66.1, 44.4], [-65.8, 45.5], [-65.2, 46.4], [-64.7, 46.2], [-64.0, 46.2], [-62.9, 46.2], [-60.9, 46.8], [-58.5, 48.1], [-56.2, 49.3], [-55.8, 51.7]]}, "properties": {"model": "CMC", "label": "CMC", "kind": "physics", "group": "deterministic", "cycle": "2021082912"}}, {"type": "Feature", "geometry": {"type": "LineString", "coordinates": [[-89.6, 28.5], [-90.1, 29.3], [-90.4, 30.0], [-90.8, 30.7], [-90.5, 31.6], [-90.2, 32.4], [-89.3, 33.4], [-88.8, 34.2], [-87.5, 34.9], [-85.9, 35.8], [-84.0, 37.4], [-81.8, 38.5], [-80.5, 39.0], [-78.8, 39.0], [-77.1, 39.1], [-75.0, 40.0], [-72.4, 41.0], [-70.8, 41.7], [-69.0, 42.1], [-68.3, 42.5], [-68.3, 42.4], [-68.9, 42.9], [-68.8, 42.7], [-68.3, 42.6], [-68.1, 42.6], [-68.1, 42.5], [-66.9, 42.4], [-65.0, 41.8], [-61.9, 42.1], [-57.9, 45.3], [-56.6, 48.8], [-55.1, 50.9], [-53.7, 50.4]]}, "properties": {"model": "AP01", "label": "GEFS 01", "kind": "ensemble", "group": "ensemble", "cycle": "2021082912"}}, {"type": "Feature", "geometry": {"type": "LineString", "coordinates": [[-89.7, 28.6], [-90.3, 29.3], [-90.7, 29.9], [-91.0, 30.7], [-90.7, 31.5], [-90.5, 32.5], [-90.0, 33.4], [-89.5, 34.1], [-88.3, 35.0], [-86.9, 36.0], [-85.1, 36.8], [-82.2, 38.5], [-80.2, 39.5], [-78.1, 40.0], [-75.1, 41.4], [-72.7, 42.4], [-69.2, 43.9], [-64.7, 46.0], [-61.9, 47.3], [-58.1, 48.8], [-55.5, 49.2], [-51.1, 50.4], [-46.3, 51.6], [-40.8, 53.1], [-36.8, 55.0], [-34.5, 56.5], [-34.0, 58.5], [-32.6, 59.1], [-31.3, 60.3], [-32.3, 61.5], [-33.0, 61.9], [-32.6, 61.7], [-31.3, 62.0]]}, "properties": {"model": "AP03", "label": "GEFS 03", "kind": "ensemble", "group": "ensemble", "cycle": "2021082912"}}, {"type": "Feature", "geometry": {"type": "LineString", "coordinates": [[-89.5, 28.5], [-90.3, 29.1], [-90.6, 29.6], [-91.0, 30.3], [-91.2, 30.9], [-90.7, 31.6], [-90.2, 32.7], [-90.1, 33.7], [-89.4, 34.5], [-88.5, 35.1], [-87.3, 35.6], [-85.8, 36.5], [-83.2, 38.1], [-80.9, 39.4], [-78.5, 39.8], [-76.2, 40.2], [-73.3, 40.8], [-69.9, 41.5], [-66.3, 42.9], [-61.6, 44.6], [-56.2, 46.6], [-51.5, 48.2], [-47.8, 48.6], [-43.1, 49.8], [-38.5, 50.7], [-34.3, 52.0], [-29.8, 53.0], [-24.8, 53.8], [-18.6, 55.2], [-11.9, 57.4], [-7.9, 60.3], [-4.7, 61.6]]}, "properties": {"model": "AP04", "label": "GEFS 04", "kind": "ensemble", "group": "ensemble", "cycle": "2021082912"}}, {"type": "Feature", "geometry": {"type": "LineString", "coordinates": [[-89.4, 28.7], [-90.1, 29.6], [-90.3, 30.4], [-90.5, 31.3], [-90.4, 32.0], [-89.7, 32.8], [-88.7, 33.8], [-87.9, 34.8], [-86.6, 35.8], [-85.2, 36.5], [-83.7, 36.1], [-80.6, 37.2], [-77.9, 38.7], [-74.8, 40.1], [-72.7, 40.5], [-69.2, 41.7], [-66.3, 43.2], [-64.3, 45.0], [-61.2, 47.1], [-59.4, 48.3], [-57.6, 49.1], [-54.0, 51.3], [-53.0, 52.1], [-51.8, 53.2], [-49.6, 53.4], [-46.4, 55.2], [-43.3, 55.1], [-40.2, 55.6], [-36.7, 56.4], [-33.3, 57.6], [-30.2, 59.3], [-26.6, 61.0], [-24.4, 62.4]]}, "properties": {"model": "AP06", "label": "GEFS 06", "kind": "ensemble", "group": "ensemble", "cycle": "2021082912"}}, {"type": "Feature", "geometry": {"type": "LineString", "coordinates": [[-89.7, 28.5], [-90.4, 29.1], [-90.8, 29.8], [-91.0, 30.4], [-90.8, 31.2], [-90.4, 32.2], [-89.7, 33.3], [-89.2, 34.2], [-87.8, 35.5], [-86.4, 36.2], [-85.0, 36.9], [-82.4, 38.3], [-79.5, 39.7], [-76.5, 40.3], [-73.6, 41.2], [-73.0, 40.8]]}, "properties": {"model": "AP07", "label": "GEFS 07", "kind": "ensemble", "group": "ensemble", "cycle": "2021082912"}}, {"type": "Feature", "geometry": {"type": "LineString", "coordinates": [[-89.7, 28.7], [-90.5, 29.5], [-91.0, 30.1], [-91.3, 30.9], [-91.3, 31.9], [-91.1, 32.8], [-90.5, 34.0], [-89.9, 34.8], [-88.8, 35.6], [-87.3, 36.3], [-85.7, 37.2], [-84.1, 37.6], [-81.1, 39.0], [-78.0, 40.0], [-74.4, 41.6], [-72.0, 42.5], [-70.3, 43.1], [-68.5, 43.9], [-67.0, 44.8], [-65.5, 45.5], [-64.3, 46.4], [-62.8, 46.6], [-60.3, 47.8], [-58.1, 49.4], [-55.7, 51.7], [-54.5, 52.5], [-52.0, 53.0], [-49.9, 53.3], [-46.9, 53.5], [-44.4, 55.2], [-39.6, 56.6], [-34.6, 59.3], [-32.8, 62.9]]}, "properties": {"model": "AP08", "label": "GEFS 08", "kind": "ensemble", "group": "ensemble", "cycle": "2021082912"}}, {"type": "Feature", "geometry": {"type": "LineString", "coordinates": [[-89.9, 28.5], [-90.6, 29.0], [-91.0, 29.6], [-91.4, 30.4], [-91.3, 31.3], [-91.2, 32.2], [-90.8, 33.0], [-90.7, 33.4], [-90.1, 33.7], [-89.3, 33.9], [-88.1, 34.3], [-87.2, 35.3], [-86.4, 35.7], [-85.6, 35.7], [-85.2, 34.1], [-85.3, 33.6], [-84.2, 34.5], [-84.8, 33.8], [-85.5, 32.6], [-86.8, 32.0], [-88.5, 31.3], [-89.6, 31.3], [-90.4, 31.1], [-91.1, 31.8], [-92.3, 32.2]]}, "properties": {"model": "AP13", "label": "GEFS 13", "kind": "ensemble", "group": "ensemble", "cycle": "2021082912"}}, {"type": "Feature", "geometry": {"type": "LineString", "coordinates": [[-89.6, 28.5], [-90.4, 29.4], [-90.8, 29.9], [-91.3, 30.7], [-91.2, 31.7], [-90.9, 32.5], [-90.4, 33.6], [-90.0, 34.4], [-89.0, 35.0], [-87.6, 35.4], [-85.7, 36.3], [-84.3, 37.4], [-82.3, 38.0], [-79.5, 39.0], [-75.9, 40.0], [-73.6, 41.1], [-71.2, 42.1], [-68.9, 43.2], [-67.3, 44.2], [-66.1, 45.2], [-65.2, 46.4], [-65.5, 46.8], [-64.1, 47.0], [-63.1, 49.0], [-64.0, 49.9], [-63.6, 50.3], [-61.7, 50.5], [-60.5, 50.7], [-58.5, 50.6], [-56.6, 50.8], [-53.8, 50.2], [-50.9, 50.4], [-48.0, 50.9]]}, "properties": {"model": "AP14", "label": "GEFS 14", "kind": "ensemble", "group": "ensemble", "cycle": "2021082912"}}, {"type": "Feature", "geometry": {"type": "LineString", "coordinates": [[-89.5, 28.5], [-90.1, 29.2], [-90.3, 29.8], [-90.5, 30.5], [-90.4, 31.2], [-89.9, 32.2], [-89.3, 33.3], [-89.2, 34.1], [-88.3, 34.6], [-87.3, 35.1], [-85.7, 36.2], [-83.1, 37.9], [-82.1, 38.7], [-81.8, 38.5], [-81.8, 37.7], [-82.2, 36.5]]}, "properties": {"model": "AP15", "label": "GEFS 15", "kind": "ensemble", "group": "ensemble", "cycle": "2021082912"}}, {"type": "Feature", "geometry": {"type": "LineString", "coordinates": [[-89.6, 28.4], [-90.3, 29.2], [-90.9, 29.8], [-91.5, 30.2], [-91.6, 30.9], [-91.5, 31.7], [-91.3, 32.4], [-91.1, 33.0], [-90.8, 33.5], [-90.2, 33.8], [-89.2, 34.1], [-87.9, 35.2], [-86.3, 35.8], [-83.9, 37.0], [-80.4, 38.2], [-77.8, 38.5], [-73.6, 39.2], [-71.4, 39.3], [-68.8, 40.1], [-65.2, 41.2], [-60.4, 42.6], [-56.1, 45.0], [-54.6, 46.1], [-52.7, 46.5], [-50.6, 46.9], [-48.2, 47.2], [-45.0, 47.9], [-41.2, 49.0], [-35.9, 50.5], [-32.5, 51.2]]}, "properties": {"model": "AP18", "label": "GEFS 18", "kind": "ensemble", "group": "ensemble", "cycle": "2021082912"}}, {"type": "Feature", "geometry": {"type": "LineString", "coordinates": [[-89.5, 28.6], [-90.4, 29.4], [-90.7, 30.2], [-91.1, 30.8], [-91.0, 31.6], [-90.4, 32.2], [-89.7, 33.0], [-88.9, 33.8], [-87.7, 34.4], [-86.5, 35.1], [-84.8, 35.7], [-83.0, 36.9], [-81.4, 38.0], [-79.9, 38.1], [-77.8, 38.1], [-75.4, 39.1], [-74.4, 39.1]]}, "properties": {"model": "AP21", "label": "GEFS 21", "kind": "ensemble", "group": "ensemble", "cycle": "2021082912"}}, {"type": "Feature", "geometry": {"type": "LineString", "coordinates": [[-89.8, 28.2], [-90.4, 28.8], [-90.9, 29.4], [-91.1, 29.9], [-90.9, 30.6], [-90.8, 31.4], [-90.3, 32.3], [-90.1, 33.0], [-89.4, 33.5], [-88.4, 34.1], [-87.5, 34.8], [-86.9, 34.9], [-85.7, 35.4], [-83.2, 36.3], [-82.3, 36.1], [-82.6, 35.3], [-82.7, 34.0], [-83.5, 33.4], [-84.1, 32.6], [-86.1, 31.6], [-88.3, 31.5], [-88.9, 31.4], [-89.5, 31.3], [-90.6, 30.7]]}, "properties": {"model": "AP22", "label": "GEFS 22", "kind": "ensemble", "group": "ensemble", "cycle": "2021082912"}}, {"type": "Feature", "geometry": {"type": "LineString", "coordinates": [[-89.6, 28.5], [-90.1, 29.1], [-90.4, 29.8], [-90.6, 30.3], [-90.3, 31.0], [-89.9, 31.7], [-89.3, 32.3], [-89.0, 33.1], [-88.4, 33.6], [-87.3, 34.0], [-86.3, 34.5], [-86.0, 34.7], [-85.4, 34.7], [-84.4, 35.3]]}, "properties": {"model": "AP23", "label": "GEFS 23", "kind": "ensemble", "group": "ensemble", "cycle": "2021082912"}}, {"type": "Feature", "geometry": {"type": "LineString", "coordinates": [[-89.6, 28.6], [-90.3, 29.2], [-90.6, 29.8], [-90.7, 30.4], [-90.7, 31.4], [-90.4, 32.0], [-89.9, 32.8], [-89.6, 33.4], [-88.3, 34.2], [-87.0, 35.0], [-85.6, 36.1], [-83.3, 37.3], [-80.9, 38.5], [-78.7, 39.2], [-77.0, 39.4], [-73.3, 40.2], [-71.3, 40.9], [-68.3, 42.0], [-65.1, 43.3], [-61.3, 44.5], [-58.0, 45.6], [-54.4, 46.5], [-51.9, 47.1], [-49.0, 48.2], [-45.3, 49.6], [-41.1, 51.0], [-36.8, 53.4], [-33.4, 55.8], [-31.5, 58.6], [-30.9, 60.1], [-31.1, 61.2], [-32.0, 62.2], [-30.7, 62.7]]}, "properties": {"model": "AP25", "label": "GEFS 25", "kind": "ensemble", "group": "ensemble", "cycle": "2021082912"}}, {"type": "Feature", "geometry": {"type": "LineString", "coordinates": [[-89.4, 28.4], [-90.2, 29.2], [-90.5, 29.9], [-90.7, 30.8], [-90.7, 31.6], [-90.5, 32.6], [-89.9, 33.5], [-89.4, 34.4], [-88.1, 35.2], [-86.9, 36.2], [-85.3, 37.2], [-83.8, 38.3], [-81.9, 39.4], [-80.3, 39.4], [-77.9, 39.4], [-75.9, 39.8], [-73.8, 40.8], [-72.0, 42.9], [-70.3, 44.3]]}, "properties": {"model": "AP27", "label": "GEFS 27", "kind": "ensemble", "group": "ensemble", "cycle": "2021082912"}}, {"type": "Feature", "geometry": {"type": "LineString", "coordinates": [[-89.5, 28.5], [-90.2, 29.2], [-90.5, 29.8], [-90.5, 30.5], [-90.4, 31.5], [-90.0, 32.5], [-89.5, 33.4], [-88.9, 33.8], [-87.6, 34.3], [-86.3, 34.9], [-84.8, 35.7], [-82.2, 37.7], [-80.2, 38.7], [-77.7, 39.4], [-74.6, 40.3], [-72.8, 41.0], [-69.7, 42.4], [-67.8, 43.9], [-67.2, 44.5], [-67.5, 44.3], [-66.9, 44.2], [-67.2, 44.8], [-66.3, 43.8], [-65.8, 45.8], [-65.9, 48.5], [-67.0, 50.5], [-66.9, 51.7], [-65.6, 52.5], [-64.2, 52.5], [-62.0, 51.9], [-60.7, 51.1], [-59.9, 50.6], [-58.7, 50.5]]}, "properties": {"model": "AP28", "label": "GEFS 28", "kind": "ensemble", "group": "ensemble", "cycle": "2021082912"}}, {"type": "Feature", "geometry": {"type": "LineString", "coordinates": [[-89.6, 28.3], [-90.1, 28.9], [-90.5, 29.6], [-91.0, 30.4], [-91.2, 31.2], [-91.1, 32.0], [-90.6, 33.0], [-90.2, 33.9], [-89.4, 34.7], [-88.6, 35.3], [-87.6, 35.6], [-86.4, 36.0], [-85.4, 36.3]]}, "properties": {"model": "AP29", "label": "GEFS 29", "kind": "ensemble", "group": "ensemble", "cycle": "2021082912"}}, {"type": "Feature", "geometry": {"type": "LineString", "coordinates": [[-89.5, 28.5], [-90.2, 29.2], [-90.5, 29.9], [-90.8, 30.6], [-90.6, 31.5], [-90.2, 32.5], [-89.6, 33.4], [-88.9, 34.1], [-87.7, 34.9], [-86.6, 35.7], [-85.3, 36.6], [-83.2, 37.9], [-80.9, 39.6], [-79.1, 39.8], [-75.8, 40.6], [-72.6, 41.7], [-69.9, 42.7], [-67.4, 44.4], [-65.8, 45.7], [-64.4, 47.0], [-63.6, 47.9], [-63.2, 48.4], [-63.1, 48.2], [-62.5, 47.9], [-61.3, 48.0], [-60.0, 47.4], [-57.9, 46.5], [-56.0, 45.2], [-54.1, 44.6], [-52.7, 44.1], [-51.4, 43.1], [-50.6, 42.3], [-50.0, 41.0]]}, "properties": {"model": "AVNO", "label": "GFS", "kind": "physics", "group": "deterministic", "cycle": "2021082912"}}, {"type": "Feature", "geometry": {"type": "LineString", "coordinates": [[-89.6, 28.5], [-90.6, 29.3], [-91.0, 30.1], [-90.9, 30.9], [-90.8, 31.8], [-90.3, 32.6], [-89.8, 33.6], [-88.7, 34.3], [-87.7, 35.2], [-85.8, 36.2], [-83.9, 36.8], [-81.7, 37.8], [-79.3, 38.4], [-76.8, 39.1], [-74.8, 39.7], [-72.7, 40.6], [-70.6, 41.6], [-67.4, 43.3], [-65.0, 45.8], [-64.6, 47.2], [-64.1, 48.0], [-64.0, 48.7]]}, "properties": {"model": "CTCX", "label": "COAMPS-TC", "kind": "physics", "group": "deterministic", "cycle": "2021082912"}}, {"type": "Feature", "geometry": {"type": "LineString", "coordinates": [[-89.6, 28.6], [-90.6, 29.7], [-91.1, 31.3], [-90.8, 32.8], [-89.1, 34.1], [-87.1, 35.8], [-84.4, 37.0], [-80.5, 38.8], [-77.5, 39.2]]}, "properties": {"model": "EGRR", "label": "UKMET", "kind": "physics", "group": "deterministic", "cycle": "2021082912"}}, {"type": "Feature", "geometry": {"type": "LineString", "coordinates": [[-89.6, 28.5], [-90.7, 29.9], [-90.8, 31.4], [-90.0, 33.1], [-88.3, 34.8], [-85.5, 36.5], [-82.1, 37.9], [-78.0, 38.9], [-74.2, 39.8], [-70.8, 40.6], [-69.0, 42.2], [-67.4, 42.5], [-64.8, 43.2], [-61.2, 45.0], [-57.4, 48.0]]}, "properties": {"model": "HCCA", "label": "HFIP Corrected Consensus", "kind": "consensus", "group": "consensus", "cycle": "2021082912"}}, {"type": "Feature", "geometry": {"type": "LineString", "coordinates": [[-89.6, 28.5], [-89.9, 28.8], [-90.3, 29.3], [-90.6, 29.7], [-90.6, 30.0], [-90.8, 30.4], [-91.0, 30.8], [-91.2, 31.2], [-91.2, 31.5], [-91.1, 31.8], [-90.9, 32.3], [-90.7, 32.9], [-90.4, 33.4], [-90.4, 33.6], [-90.1, 33.8], [-89.5, 34.1], [-88.9, 34.6], [-88.3, 35.0], [-87.7, 35.5], [-87.1, 35.8], [-86.4, 36.2], [-85.8, 36.5], [-85.2, 36.9], [-84.6, 37.2], [-83.6, 37.7], [-82.8, 37.9], [-82.1, 37.9], [-80.7, 38.6], [-79.3, 38.7], [-77.5, 39.3], [-75.7, 39.9], [-74.7, 40.0], [-72.9, 40.9], [-70.7, 41.9], [-68.0, 42.9], [-65.9, 44.0], [-64.3, 44.3], [-63.8, 44.7], [-63.0, 45.0], [-63.0, 44.9], [-62.7, 44.8], [-62.7, 45.0], [-62.1, 44.9]]}, "properties": {"model": "HMON", "label": "HMON", "kind": "physics", "group": "deterministic", "cycle": "2021082912"}}, {"type": "Feature", "geometry": {"type": "LineString", "coordinates": [[-89.6, 28.5], [-90.2, 29.2], [-90.6, 30.1], [-91.0, 30.9], [-90.9, 31.8], [-90.6, 32.7], [-90.1, 33.6], [-89.4, 34.3], [-88.2, 35.2], [-87.1, 35.9], [-85.8, 36.7], [-84.7, 37.1], [-82.9, 37.7], [-81.5, 38.5], [-80.2, 39.2], [-79.5, 39.3], [-78.7, 38.0], [-78.0, 37.8], [-79.6, 35.9], [-80.3, 34.7], [-80.8, 33.9], [-81.8, 33.1]]}, "properties": {"model": "HWRF", "label": "HWRF", "kind": "physics", "group": "deterministic", "cycle": "2021082912"}}, {"type": "Feature", "geometry": {"type": "LineString", "coordinates": [[-89.6, 28.5], [-90.3, 29.0], [-90.6, 29.8], [-91.1, 30.4], [-91.2, 31.3], [-91.2, 31.9], [-90.8, 32.8], [-90.3, 33.5], [-89.2, 34.1], [-88.3, 34.9], [-87.2, 35.7], [-86.3, 36.4], [-85.0, 36.9], [-83.6, 37.5], [-81.5, 38.5], [-78.7, 39.0]]}, "properties": {"model": "UE00", "label": "ECMWF Ens 00", "kind": "ensemble", "group": "ensemble", "cycle": "2021082912"}}, {"type": "Feature", "geometry": {"type": "LineString", "coordinates": [[-89.5, 28.3], [-90.5, 29.1], [-90.8, 29.6], [-91.1, 30.1], [-91.1, 30.8], [-90.8, 31.5], [-90.6, 32.5], [-90.3, 33.0], [-89.4, 33.4], [-88.3, 34.0], [-87.2, 35.3], [-86.4, 35.8], [-85.2, 36.4], [-83.5, 37.0], [-82.2, 37.9], [-80.7, 38.4], [-80.0, 37.0]]}, "properties": {"model": "UE01", "label": "ECMWF Ens 01", "kind": "ensemble", "group": "ensemble", "cycle": "2021082912"}}, {"type": "Feature", "geometry": {"type": "LineString", "coordinates": [[-90.0, 28.5], [-90.8, 29.1], [-91.1, 29.6], [-91.4, 30.2], [-91.6, 30.8], [-91.6, 31.2], [-90.9, 31.9], [-90.0, 33.0], [-89.2, 33.6], [-88.0, 34.2], [-86.4, 35.3], [-85.2, 36.0], [-83.3, 37.0], [-80.7, 38.6], [-78.1, 38.6], [-75.9, 39.0], [-71.4, 40.4], [-67.1, 41.9], [-63.3, 43.5], [-60.2, 45.4], [-58.4, 47.1], [-56.5, 47.9], [-53.7, 49.8], [-52.6, 50.3], [-50.1, 50.8], [-46.9, 51.8], [-43.4, 53.2], [-39.6, 54.6]]}, "properties": {"model": "UE02", "label": "ECMWF Ens 02", "kind": "ensemble", "group": "ensemble", "cycle": "2021082912"}}, {"type": "Feature", "geometry": {"type": "LineString", "coordinates": [[-89.5, 28.4], [-90.3, 29.2], [-91.0, 29.5], [-91.2, 30.0], [-91.4, 30.7], [-91.2, 31.5], [-90.8, 32.5], [-90.3, 33.4], [-89.6, 34.1], [-88.8, 34.7], [-87.8, 35.6], [-86.7, 36.1], [-85.4, 36.8], [-84.1, 37.1], [-81.3, 38.1], [-78.7, 38.6], [-77.1, 38.8], [-76.5, 38.5], [-76.0, 37.7], [-75.7, 37.1], [-75.7, 36.3]]}, "properties": {"model": "UE03", "label": "ECMWF Ens 03", "kind": "ensemble", "group": "ensemble", "cycle": "2021082912"}}, {"type": "Feature", "geometry": {"type": "LineString", "coordinates": [[-89.4, 28.1], [-90.0, 29.1], [-90.6, 29.8], [-91.2, 30.4], [-91.5, 31.3], [-91.7, 31.7], [-91.0, 32.3], [-90.9, 33.0], [-90.0, 33.5], [-88.9, 34.5], [-88.0, 35.6], [-87.1, 36.2], [-86.1, 36.5], [-85.0, 36.9], [-83.9, 37.0]]}, "properties": {"model": "UE04", "label": "ECMWF Ens 04", "kind": "ensemble", "group": "ensemble", "cycle": "2021082912"}}, {"type": "Feature", "geometry": {"type": "LineString", "coordinates": [[-89.7, 28.3], [-90.6, 29.0], [-91.0, 29.5], [-91.3, 30.0], [-91.3, 30.8], [-91.2, 31.5], [-90.6, 32.4], [-89.9, 33.1], [-89.1, 34.1], [-88.0, 34.7], [-86.7, 35.6], [-85.3, 36.2], [-83.8, 36.7], [-81.1, 38.1], [-78.9, 38.3], [-76.5, 39.0]]}, "properties": {"model": "UE05", "label": "ECMWF Ens 05", "kind": "ensemble", "group": "ensemble", "cycle": "2021082912"}}, {"type": "Feature", "geometry": {"type": "LineString", "coordinates": [[-89.9, 28.5], [-90.5, 29.3], [-90.9, 30.0], [-91.3, 30.8], [-91.4, 31.7], [-91.4, 32.6], [-90.9, 33.4], [-90.2, 33.9], [-88.9, 34.4], [-87.5, 35.0], [-85.5, 35.8], [-84.2, 37.0], [-82.4, 37.4], [-79.9, 39.3], [-78.2, 39.5], [-76.6, 39.7], [-75.9, 39.4], [-74.2, 39.4], [-72.8, 38.7], [-70.9, 38.8], [-68.8, 39.0]]}, "properties": {"model": "UE06", "label": "ECMWF Ens 06", "kind": "ensemble", "group": "ensemble", "cycle": "2021082912"}}, {"type": "Feature", "geometry": {"type": "LineString", "coordinates": [[-89.5, 28.5], [-90.3, 29.3], [-90.9, 30.0], [-91.2, 30.7], [-91.4, 31.7], [-91.4, 32.5], [-91.1, 33.2], [-90.5, 33.9], [-89.7, 34.6], [-88.3, 35.1], [-86.9, 36.0], [-85.8, 36.8], [-84.9, 37.2], [-81.2, 38.2], [-80.4, 38.6], [-77.9, 38.8], [-76.4, 39.2], [-75.5, 38.6], [-75.6, 37.8], [-75.1, 37.5], [-74.8, 36.5], [-73.4, 36.0], [-71.9, 36.0], [-70.0, 36.2]]}, "properties": {"model": "UE07", "label": "ECMWF Ens 07", "kind": "ensemble", "group": "ensemble", "cycle": "2021082912"}}, {"type": "Feature", "geometry": {"type": "LineString", "coordinates": [[-89.7, 28.3], [-90.6, 29.2], [-91.2, 29.8], [-92.0, 30.4], [-92.3, 31.2], [-92.3, 31.9], [-91.9, 32.5], [-91.4, 33.1], [-90.0, 33.7], [-88.8, 34.3], [-87.4, 35.0], [-85.5, 35.8], [-84.1, 36.6], [-82.7, 36.6], [-79.9, 37.0], [-77.7, 37.9], [-75.5, 38.9], [-73.8, 39.7], [-73.2, 38.3], [-71.2, 39.4], [-68.9, 40.9], [-68.1, 42.8], [-68.3, 43.4], [-68.6, 43.7], [-68.9, 43.8], [-69.3, 43.5], [-69.4, 42.7], [-68.9, 42.2], [-67.8, 41.6]]}, "properties": {"model": "UE08", "label": "ECMWF Ens 08", "kind": "ensemble", "group": "ensemble", "cycle": "2021082912"}}, {"type": "Feature", "geometry": {"type": "LineString", "coordinates": [[-89.4, 28.3], [-90.2, 29.2], [-90.6, 29.6], [-90.9, 30.2], [-91.0, 31.0], [-90.9, 31.7], [-90.8, 32.6], [-90.1, 33.0], [-89.1, 34.1], [-88.4, 35.0], [-87.5, 35.9], [-86.6, 36.7], [-85.5, 37.1], [-84.4, 37.5], [-83.0, 38.2], [-80.0, 39.3]]}, "properties": {"model": "UE09", "label": "ECMWF Ens 09", "kind": "ensemble", "group": "ensemble", "cycle": "2021082912"}}, {"type": "Feature", "geometry": {"type": "LineString", "coordinates": [[-89.7, 28.5], [-90.3, 29.1], [-90.6, 29.8], [-90.8, 30.4], [-90.9, 31.3], [-90.8, 32.0], [-90.3, 32.9], [-89.7, 33.6], [-88.8, 34.1], [-87.8, 34.5], [-86.7, 35.1], [-85.4, 35.9], [-83.8, 36.7], [-81.3, 36.8], [-78.3, 38.2], [-76.1, 38.8], [-70.9, 40.8], [-67.0, 41.6]]}, "properties": {"model": "UE10", "label": "ECMWF Ens 10", "kind": "ensemble", "group": "ensemble", "cycle": "2021082912"}}, {"type": "Feature", "geometry": {"type": "LineString", "coordinates": [[-89.5, 28.4], [-90.4, 29.3], [-91.0, 29.6], [-91.2, 30.1], [-91.1, 30.7], [-91.1, 31.7], [-90.9, 32.6], [-90.5, 33.0], [-89.2, 33.8], [-88.6, 34.5], [-87.7, 35.3], [-86.8, 35.5], [-85.5, 35.7], [-84.4, 36.1], [-81.7, 35.8], [-78.8, 37.2], [-77.8, 37.7], [-74.9, 38.6], [-74.0, 37.7]]}, "properties": {"model": "UE11", "label": "ECMWF Ens 11", "kind": "ensemble", "group": "ensemble", "cycle": "2021082912"}}, {"type": "Feature", "geometry": {"type": "LineString", "coordinates": [[-89.7, 28.5], [-90.5, 29.3], [-90.9, 29.8], [-91.4, 30.4], [-91.5, 31.3], [-91.6, 32.1], [-91.3, 32.9], [-90.9, 33.5], [-90.1, 34.0], [-89.1, 34.4], [-88.1, 35.4], [-87.2, 35.6], [-86.3, 36.0], [-85.6, 36.2], [-84.7, 35.9]]}, "properties": {"model": "UE12", "label": "ECMWF Ens 12", "kind": "ensemble", "group": "ensemble", "cycle": "2021082912"}}, {"type": "Feature", "geometry": {"type": "LineString", "coordinates": [[-89.7, 28.3], [-90.3, 28.9], [-90.6, 29.5], [-90.9, 30.1], [-91.0, 30.8], [-90.9, 31.6], [-90.8, 32.5], [-90.5, 33.1], [-89.9, 33.6], [-89.4, 34.0], [-88.7, 34.5], [-88.3, 34.9], [-87.5, 35.1], [-86.9, 35.0], [-86.1, 34.9]]}, "properties": {"model": "UE13", "label": "ECMWF Ens 13", "kind": "ensemble", "group": "ensemble", "cycle": "2021082912"}}, {"type": "Feature", "geometry": {"type": "LineString", "coordinates": [[-89.5, 28.3], [-90.3, 29.1], [-90.8, 29.6], [-91.2, 30.2], [-91.2, 31.1], [-91.4, 31.9], [-90.9, 32.6], [-90.3, 33.4], [-89.4, 34.0], [-88.3, 34.9], [-87.2, 36.0], [-85.9, 36.6], [-84.2, 37.3], [-82.3, 38.1], [-78.3, 38.6], [-76.3, 39.4], [-71.9, 40.8]]}, "properties": {"model": "UE14", "label": "ECMWF Ens 14", "kind": "ensemble", "group": "ensemble", "cycle": "2021082912"}}, {"type": "Feature", "geometry": {"type": "LineString", "coordinates": [[-89.6, 28.5], [-90.3, 29.3], [-90.7, 30.0], [-91.1, 30.4], [-90.9, 31.1], [-90.8, 31.9], [-90.5, 32.6], [-89.7, 33.4], [-88.9, 34.3], [-88.3, 34.9], [-87.1, 35.4], [-85.8, 35.6], [-84.4, 36.5], [-82.7, 37.3], [-81.3, 37.6], [-78.7, 39.0], [-77.4, 39.5], [-76.4, 39.1], [-74.3, 39.3], [-73.1, 39.7]]}, "properties": {"model": "UE15", "label": "ECMWF Ens 15", "kind": "ensemble", "group": "ensemble", "cycle": "2021082912"}}, {"type": "Feature", "geometry": {"type": "LineString", "coordinates": [[-89.7, 28.4], [-90.5, 29.1], [-90.9, 29.6], [-91.4, 30.3], [-91.6, 31.1], [-91.6, 31.7], [-91.1, 32.5], [-90.3, 33.2], [-89.2, 33.8], [-88.0, 34.7], [-86.8, 35.5], [-85.5, 35.6], [-83.3, 36.0], [-82.0, 37.6], [-80.7, 38.4], [-78.6, 39.2], [-77.2, 40.0], [-76.7, 39.5], [-76.3, 39.0], [-75.9, 38.1], [-74.8, 38.6], [-74.3, 39.4], [-74.3, 40.1], [-75.3, 40.5], [-75.9, 41.0]]}, "properties": {"model": "UE16", "label": "ECMWF Ens 16", "kind": "ensemble", "group": "ensemble", "cycle": "2021082912"}}, {"type": "Feature", "geometry": {"type": "LineString", "coordinates": [[-89.4, 28.5], [-90.1, 29.1], [-90.6, 29.8], [-91.1, 30.3], [-91.2, 31.0], [-91.0, 31.8], [-90.5, 32.9], [-89.8, 33.9], [-88.9, 34.9], [-88.1, 35.8], [-87.4, 36.0], [-86.3, 36.0], [-85.1, 36.4], [-82.0, 37.9], [-80.6, 38.6], [-80.3, 38.9], [-78.9, 38.2], [-78.9, 36.9]]}, "properties": {"model": "UE17", "label": "ECMWF Ens 17", "kind": "ensemble", "group": "ensemble", "cycle": "2021082912"}}, {"type": "Feature", "geometry": {"type": "LineString", "coordinates": [[-89.9, 28.5], [-90.8, 28.9], [-91.2, 29.4], [-91.4, 30.1], [-91.7, 31.1], [-91.9, 31.9], [-91.5, 32.6], [-90.8, 33.4], [-89.7, 34.7], [-88.5, 35.8], [-87.2, 36.6], [-86.0, 36.6], [-83.6, 37.5], [-81.0, 38.5], [-77.9, 39.5], [-76.2, 39.9], [-75.8, 39.0], [-75.1, 37.9]]}, "properties": {"model": "UE18", "label": "ECMWF Ens 18", "kind": "ensemble", "group": "ensemble", "cycle": "2021082912"}}, {"type": "Feature", "geometry": {"type": "LineString", "coordinates": [[-89.8, 28.5], [-90.6, 29.0], [-90.9, 29.4], [-91.3, 30.2], [-91.6, 31.0], [-91.7, 31.6], [-91.4, 32.4], [-91.2, 33.1], [-90.6, 33.8], [-89.9, 34.1], [-88.1, 34.7], [-87.4, 35.6], [-86.3, 36.0], [-85.0, 36.5], [-84.0, 37.1], [-83.3, 37.3], [-82.7, 37.3]]}, "properties": {"model": "UE19", "label": "ECMWF Ens 19", "kind": "ensemble", "group": "ensemble", "cycle": "2021082912"}}, {"type": "Feature", "geometry": {"type": "LineString", "coordinates": [[-89.1, 28.5], [-90.0, 29.2], [-90.4, 29.9], [-90.8, 30.6], [-90.6, 31.4], [-90.6, 32.4], [-90.3, 33.1], [-89.7, 33.8], [-88.8, 34.7], [-88.0, 35.5], [-86.8, 36.0], [-85.5, 36.0], [-83.8, 37.0], [-81.7, 38.0], [-80.4, 38.5], [-78.5, 38.2], [-77.0, 38.3], [-75.5, 38.0], [-75.5, 36.7], [-75.1, 36.5], [-74.0, 36.8]]}, "properties": {"model": "UE20", "label": "ECMWF Ens 20", "kind": "ensemble", "group": "ensemble", "cycle": "2021082912"}}, {"type": "Feature", "geometry": {"type": "LineString", "coordinates": [[-89.7, 28.5], [-90.5, 29.1], [-90.9, 29.7], [-91.2, 30.3], [-91.4, 31.3], [-91.5, 32.1], [-91.3, 33.0], [-90.8, 33.8], [-90.2, 34.5], [-89.2, 35.1], [-88.3, 35.6], [-87.2, 35.9], [-86.0, 36.6], [-84.7, 37.0], [-83.0, 37.4], [-81.2, 38.2], [-79.8, 37.6]]}, "properties": {"model": "UE21", "label": "ECMWF Ens 21", "kind": "ensemble", "group": "ensemble", "cycle": "2021082912"}}, {"type": "Feature", "geometry": {"type": "LineString", "coordinates": [[-89.7, 28.7], [-90.5, 29.2], [-90.9, 29.8], [-91.4, 30.7], [-91.6, 31.6], [-91.7, 32.1], [-91.2, 32.8], [-90.6, 33.5], [-89.5, 34.1], [-88.1, 34.9], [-86.9, 35.7], [-85.5, 36.4], [-84.4, 36.7], [-83.1, 36.6], [-81.0, 38.1], [-79.6, 37.6], [-78.0, 38.0]]}, "properties": {"model": "UE22", "label": "ECMWF Ens 22", "kind": "ensemble", "group": "ensemble", "cycle": "2021082912"}}, {"type": "Feature", "geometry": {"type": "LineString", "coordinates": [[-89.5, 28.5], [-90.5, 29.1], [-91.1, 30.0], [-91.7, 30.9], [-91.7, 31.7], [-91.5, 32.6], [-91.2, 33.4], [-90.5, 33.9], [-89.4, 34.8], [-88.1, 35.5], [-86.3, 36.8], [-84.6, 37.5], [-82.2, 38.6], [-80.8, 39.3], [-78.0, 39.5], [-76.5, 39.4]]}, "properties": {"model": "UE23", "label": "ECMWF Ens 23", "kind": "ensemble", "group": "ensemble", "cycle": "2021082912"}}, {"type": "Feature", "geometry": {"type": "LineString", "coordinates": [[-90.0, 28.7], [-90.8, 29.3], [-91.4, 29.8], [-91.7, 30.5], [-91.7, 31.2], [-91.7, 31.9], [-91.4, 32.7], [-90.6, 33.4], [-89.7, 34.3], [-88.9, 34.8], [-87.6, 35.5], [-86.7, 35.8], [-85.6, 36.0], [-84.7, 36.2], [-83.3, 37.7], [-83.6, 37.0], [-83.3, 37.1]]}, "properties": {"model": "UE24", "label": "ECMWF Ens 24", "kind": "ensemble", "group": "ensemble", "cycle": "2021082912"}}, {"type": "Feature", "geometry": {"type": "LineString", "coordinates": [[-89.5, 28.5], [-90.4, 29.2], [-91.1, 30.0], [-91.5, 30.7], [-91.7, 31.5], [-91.9, 32.0], [-91.4, 32.9], [-90.9, 33.8], [-90.0, 34.5], [-88.8, 35.3], [-87.8, 36.2], [-86.9, 36.7], [-85.5, 37.2], [-84.2, 37.9], [-80.4, 38.8], [-78.8, 39.3], [-78.6, 38.8], [-77.9, 38.5]]}, "properties": {"model": "UE25", "label": "ECMWF Ens 25", "kind": "ensemble", "group": "ensemble", "cycle": "2021082912"}}, {"type": "Feature", "geometry": {"type": "LineString", "coordinates": [[-89.7, 28.5], [-90.6, 29.1], [-91.1, 29.6], [-91.5, 30.2], [-91.7, 31.0], [-91.7, 31.6], [-91.4, 32.4], [-90.6, 33.4], [-89.8, 34.3], [-89.2, 34.9], [-88.0, 35.5], [-86.9, 36.1], [-85.5, 36.8], [-84.4, 37.3], [-81.4, 38.6], [-80.4, 38.8], [-79.2, 37.9]]}, "properties": {"model": "UE26", "label": "ECMWF Ens 26", "kind": "ensemble", "group": "ensemble", "cycle": "2021082912"}}, {"type": "Feature", "geometry": {"type": "LineString", "coordinates": [[-90.0, 28.7], [-90.8, 29.2], [-91.2, 29.9], [-91.7, 30.6], [-91.5, 31.4], [-91.4, 32.0], [-91.1, 32.8], [-90.5, 33.4], [-89.4, 34.1], [-88.0, 34.7], [-86.6, 35.6], [-85.2, 36.3], [-83.5, 37.0], [-80.5, 38.7], [-77.6, 39.0], [-73.8, 40.6], [-71.8, 41.7], [-70.1, 42.0], [-67.8, 42.9], [-66.9, 44.1], [-65.8, 44.3], [-63.4, 46.9], [-61.3, 47.9], [-60.1, 48.4]]}, "properties": {"model": "UE27", "label": "ECMWF Ens 27", "kind": "ensemble", "group": "ensemble", "cycle": "2021082912"}}, {"type": "Feature", "geometry": {"type": "LineString", "coordinates": [[-90.0, 28.6], [-90.8, 29.1], [-91.2, 29.8], [-91.5, 30.8], [-91.7, 31.7], [-91.7, 32.4], [-91.2, 33.1], [-90.6, 33.8], [-89.8, 34.7], [-88.9, 35.3], [-87.8, 35.6], [-86.3, 36.0], [-84.9, 36.9], [-83.8, 37.3], [-81.3, 38.1], [-80.6, 36.5], [-79.5, 36.8]]}, "properties": {"model": "UE28", "label": "ECMWF Ens 28", "kind": "ensemble", "group": "ensemble", "cycle": "2021082912"}}, {"type": "Feature", "geometry": {"type": "LineString", "coordinates": [[-89.6, 28.6], [-90.3, 29.3], [-90.9, 30.0], [-91.4, 30.6], [-91.5, 31.5], [-91.6, 32.3], [-91.4, 32.9], [-90.8, 33.4], [-89.7, 33.9], [-88.6, 34.5], [-87.3, 35.5], [-86.3, 36.5], [-85.0, 36.9], [-83.9, 37.1], [-81.6, 37.9], [-78.6, 38.7], [-76.6, 39.2], [-70.5, 41.7], [-68.1, 42.4], [-65.6, 43.5], [-61.5, 45.6], [-59.7, 46.8], [-58.5, 47.0], [-56.6, 46.9], [-53.1, 48.9], [-48.7, 51.4], [-44.9, 50.9]]}, "properties": {"model": "UE29", "label": "ECMWF Ens 29", "kind": "ensemble", "group": "ensemble", "cycle": "2021082912"}}, {"type": "Feature", "geometry": {"type": "LineString", "coordinates": [[-90.1, 28.5], [-91.0, 28.9], [-91.5, 29.5], [-91.9, 30.0], [-92.0, 30.6], [-91.9, 31.4], [-91.5, 32.5], [-91.2, 33.3], [-90.3, 34.0], [-89.4, 34.7], [-88.1, 35.3], [-87.3, 35.6], [-85.8, 36.2], [-84.3, 36.7], [-82.0, 38.4], [-81.2, 38.1], [-79.0, 37.6]]}, "properties": {"model": "UE30", "label": "ECMWF Ens 30", "kind": "ensemble", "group": "ensemble", "cycle": "2021082912"}}, {"type": "Feature", "geometry": {"type": "LineString", "coordinates": [[-90.0, 28.2], [-90.8, 28.8], [-91.4, 29.4], [-92.0, 30.1], [-92.3, 30.7], [-92.3, 31.4], [-91.9, 32.3], [-91.2, 33.2], [-90.2, 34.1], [-88.9, 34.9], [-87.5, 35.8], [-86.3, 36.4], [-84.7, 37.1], [-83.3, 37.7], [-81.3, 38.1], [-79.1, 37.5]]}, "properties": {"model": "UE31", "label": "ECMWF Ens 31", "kind": "ensemble", "group": "ensemble", "cycle": "2021082912"}}, {"type": "Feature", "geometry": {"type": "LineString", "coordinates": [[-89.9, 28.1], [-90.6, 28.7], [-91.1, 29.3], [-91.6, 30.0], [-91.9, 30.9], [-92.0, 31.6], [-91.7, 32.5], [-91.4, 33.4], [-90.3, 34.1], [-89.4, 35.1], [-88.6, 36.0], [-87.8, 36.2], [-86.6, 36.9], [-85.8, 36.8], [-82.0, 37.8], [-81.0, 38.4]]}, "properties": {"model": "UE32", "label": "ECMWF Ens 32", "kind": "ensemble", "group": "ensemble", "cycle": "2021082912"}}, {"type": "Feature", "geometry": {"type": "LineString", "coordinates": [[-89.7, 28.5], [-90.4, 29.2], [-90.9, 29.8], [-91.4, 30.5], [-91.6, 31.4], [-91.9, 32.1], [-91.4, 32.8], [-91.0, 33.4], [-90.2, 33.8], [-89.5, 34.6], [-88.9, 34.9], [-88.3, 35.1], [-88.1, 35.0], [-87.5, 34.4], [-86.6, 34.1], [-86.0, 33.9], [-85.4, 33.8], [-85.5, 33.8], [-85.6, 33.5], [-85.8, 33.6], [-86.3, 34.1], [-87.7, 34.3]]}, "properties": {"model": "UE33", "label": "ECMWF Ens 33", "kind": "ensemble", "group": "ensemble", "cycle": "2021082912"}}, {"type": "Feature", "geometry": {"type": "LineString", "coordinates": [[-89.5, 28.3], [-90.2, 29.0], [-90.8, 29.9], [-91.5, 30.8], [-91.8, 31.7], [-91.9, 32.2], [-91.4, 33.0], [-90.6, 33.8], [-89.4, 34.6], [-88.1, 35.4], [-86.6, 36.3], [-85.4, 36.9], [-82.7, 38.1], [-81.9, 38.1], [-79.7, 37.5], [-77.8, 37.9], [-76.1, 38.2]]}, "properties": {"model": "UE34", "label": "ECMWF Ens 34", "kind": "ensemble", "group": "ensemble", "cycle": "2021082912"}}, {"type": "Feature", "geometry": {"type": "LineString", "coordinates": [[-89.7, 28.5], [-90.6, 29.1], [-91.1, 29.8], [-91.5, 30.4], [-91.6, 31.2], [-91.7, 31.9], [-91.2, 32.6], [-90.8, 33.4], [-89.7, 34.1], [-88.6, 34.8], [-87.4, 35.8], [-86.3, 36.4], [-84.6, 37.3], [-82.9, 37.9], [-81.0, 38.5], [-78.6, 38.6], [-76.9, 38.8], [-75.4, 38.1]]}, "properties": {"model": "UE35", "label": "ECMWF Ens 35", "kind": "ensemble", "group": "ensemble", "cycle": "2021082912"}}, {"type": "Feature", "geometry": {"type": "LineString", "coordinates": [[-89.7, 28.7], [-90.4, 29.5], [-91.0, 30.2], [-91.1, 31.0], [-90.9, 31.7], [-90.8, 32.4], [-90.1, 32.8], [-89.7, 33.4], [-88.6, 34.1], [-87.9, 34.3], [-86.4, 34.4], [-84.5, 35.7], [-83.7, 36.6], [-83.1, 36.5], [-82.1, 35.3], [-81.0, 35.0], [-77.6, 34.3], [-75.5, 35.1], [-74.1, 35.9], [-72.8, 36.2], [-71.6, 36.2], [-70.6, 36.1], [-69.7, 35.7], [-69.2, 35.4], [-68.6, 35.0], [-68.0, 34.5], [-67.2, 33.7], [-66.1, 33.7], [-64.6, 33.4], [-63.3, 33.1], [-61.9, 32.9], [-60.8, 32.5], [-59.5, 32.4]]}, "properties": {"model": "AP02", "label": "GEFS 02", "kind": "ensemble", "group": "ensemble", "cycle": "2021082912"}}, {"type": "Feature", "geometry": {"type": "LineString", "coordinates": [[-89.3, 28.4], [-90.1, 29.2], [-90.6, 29.8], [-91.1, 30.5], [-91.1, 31.2], [-90.7, 32.1], [-90.1, 33.1], [-89.3, 33.9], [-88.0, 34.6], [-86.3, 35.7], [-84.7, 36.7], [-83.2, 37.7], [-81.2, 38.6], [-79.3, 39.0], [-76.3, 40.1], [-74.6, 40.4], [-72.0, 40.9], [-68.7, 42.5], [-66.8, 43.5], [-65.8, 43.7], [-63.5, 44.6], [-61.6, 45.7], [-60.3, 47.6], [-59.1, 47.3], [-58.4, 47.3], [-57.7, 46.5], [-56.1, 46.5], [-54.5, 47.3], [-52.4, 48.7], [-51.6, 48.9], [-50.5, 48.6], [-48.8, 48.4], [-46.3, 49.0]]}, "properties": {"model": "AP05", "label": "GEFS 05", "kind": "ensemble", "group": "ensemble", "cycle": "2021082912"}}, {"type": "Feature", "geometry": {"type": "LineString", "coordinates": [[-89.6, 28.4], [-90.6, 29.2], [-91.1, 29.8], [-91.5, 30.4], [-91.6, 31.0], [-91.5, 31.8], [-91.1, 32.5], [-90.7, 33.4], [-89.9, 34.2], [-89.0, 34.8], [-87.8, 35.2], [-87.1, 35.4], [-85.8, 35.8], [-84.7, 35.2], [-82.1, 35.7], [-80.6, 36.0], [-80.9, 35.0], [-81.2, 34.6], [-81.7, 33.7], [-82.1, 32.9], [-83.2, 33.0], [-84.1, 33.3], [-85.4, 33.0], [-87.0, 33.3]]}, "properties": {"model": "AP09", "label": "GEFS 09", "kind": "ensemble", "group": "ensemble", "cycle": "2021082912"}}, {"type": "Feature", "geometry": {"type": "LineString", "coordinates": [[-89.3, 28.3], [-89.9, 29.2], [-90.3, 29.7], [-90.6, 30.2], [-90.5, 30.9], [-90.3, 31.7], [-89.7, 32.3], [-89.3, 33.3], [-88.6, 34.2], [-87.9, 35.0], [-86.8, 35.7], [-85.8, 36.4], [-84.3, 37.2], [-82.2, 38.3], [-79.7, 40.0], [-77.8, 40.1], [-74.6, 41.6], [-72.7, 43.2], [-72.1, 43.1], [-71.6, 43.7], [-70.7, 44.7], [-70.9, 45.4], [-71.0, 45.3], [-70.8, 45.3], [-69.8, 45.5], [-68.5, 45.5], [-66.9, 46.3], [-65.6, 48.0], [-64.9, 48.8], [-62.1, 49.6], [-61.1, 50.2], [-60.2, 50.2], [-57.6, 50.2]]}, "properties": {"model": "AP10", "label": "GEFS 10", "kind": "ensemble", "group": "ensemble", "cycle": "2021082912"}}, {"type": "Feature", "geometry": {"type": "LineString", "coordinates": [[-89.8, 28.4], [-90.4, 29.0], [-90.8, 29.7], [-91.1, 30.4], [-91.2, 31.3], [-91.1, 32.3], [-90.6, 33.2], [-90.2, 34.0], [-89.2, 34.7], [-88.0, 35.4], [-86.5, 36.0], [-85.3, 36.6], [-83.8, 37.4], [-81.8, 38.7], [-80.0, 39.3], [-78.0, 39.8], [-76.2, 39.9], [-74.6, 39.8], [-73.3, 40.6], [-71.9, 41.2], [-70.5, 42.2], [-69.4, 43.0], [-67.9, 43.4], [-66.7, 44.1], [-64.8, 45.1], [-62.9, 46.4], [-61.0, 47.8], [-59.4, 49.2], [-57.2, 50.6], [-55.0, 53.6], [-53.1, 54.2], [-51.7, 55.1], [-50.0, 55.6]]}, "properties": {"model": "AP11", "label": "GEFS 11", "kind": "ensemble", "group": "ensemble", "cycle": "2021082912"}}, {"type": "Feature", "geometry": {"type": "LineString", "coordinates": [[-89.6, 28.5], [-90.2, 29.1], [-90.5, 29.7], [-90.9, 30.3], [-91.0, 31.0], [-90.8, 31.8], [-90.5, 32.6], [-90.4, 33.2], [-89.7, 33.9], [-88.9, 34.1], [-86.8, 35.4], [-86.4, 36.1], [-84.4, 37.2], [-82.7, 37.8], [-80.8, 38.2], [-80.4, 37.5], [-80.2, 36.4], [-80.3, 35.6], [-80.5, 34.7], [-82.1, 34.1]]}, "properties": {"model": "AP12", "label": "GEFS 12", "kind": "ensemble", "group": "ensemble", "cycle": "2021082912"}}, {"type": "Feature", "geometry": {"type": "LineString", "coordinates": [[-89.6, 28.8], [-90.3, 29.5], [-90.6, 30.4], [-90.9, 31.3], [-90.7, 32.2], [-90.4, 33.3], [-89.7, 34.3], [-88.9, 34.9], [-87.8, 35.7], [-86.6, 36.4], [-85.1, 36.9], [-83.0, 38.1], [-80.3, 39.8], [-78.3, 39.8], [-74.9, 41.1], [-72.0, 42.1], [-68.6, 43.3], [-66.5, 43.8], [-63.7, 45.1], [-60.6, 46.5], [-58.5, 47.4], [-57.7, 47.7], [-55.7, 47.7], [-51.8, 49.7], [-48.8, 50.4], [-46.8, 50.8], [-44.4, 50.2], [-42.1, 48.5]]}, "properties": {"model": "AP16", "label": "GEFS 16", "kind": "ensemble", "group": "ensemble", "cycle": "2021082912"}}, {"type": "Feature", "geometry": {"type": "LineString", "coordinates": [[-89.6, 28.5], [-90.3, 29.2], [-90.6, 29.9], [-91.1, 30.7], [-91.1, 31.6], [-90.8, 32.4], [-90.5, 33.4], [-90.3, 34.2], [-89.5, 34.7], [-88.1, 35.5], [-86.4, 37.1], [-85.1, 37.8], [-82.3, 39.3], [-79.6, 40.6], [-76.0, 41.5], [-73.0, 42.7], [-71.2, 43.3], [-69.1, 44.1], [-67.9, 45.8], [-67.3, 46.8], [-66.4, 47.9], [-66.5, 49.1], [-65.7, 49.6], [-65.2, 50.2], [-64.9, 49.7], [-64.4, 49.3], [-63.4, 49.6], [-63.0, 49.5], [-61.9, 49.4], [-60.6, 48.8], [-57.8, 48.5]]}, "properties": {"model": "AP17", "label": "GEFS 17", "kind": "ensemble", "group": "ensemble", "cycle": "2021082912"}}, {"type": "Feature", "geometry": {"type": "LineString", "coordinates": [[-89.5, 28.5], [-90.3, 29.3], [-90.7, 30.0], [-91.1, 30.7], [-91.0, 31.5], [-90.5, 32.2], [-89.6, 33.2], [-89.3, 34.0], [-88.8, 34.2], [-87.5, 34.7], [-86.5, 35.3], [-85.5, 35.8], [-83.4, 36.7], [-81.8, 37.9], [-81.2, 37.6], [-80.5, 36.0], [-79.4, 35.8], [-78.5, 35.9], [-76.3, 36.6], [-72.2, 38.5], [-68.5, 41.0], [-65.8, 42.8], [-64.2, 44.1], [-62.9, 45.5], [-61.6, 46.7], [-61.6, 46.9], [-60.3, 46.7], [-58.1, 47.1], [-55.6, 48.0], [-52.6, 49.6], [-50.0, 50.3], [-48.0, 50.6], [-46.9, 50.5]]}, "properties": {"model": "AP19", "label": "GEFS 19", "kind": "ensemble", "group": "ensemble", "cycle": "2021082912"}}, {"type": "Feature", "geometry": {"type": "LineString", "coordinates": [[-89.6, 28.6], [-90.1, 29.3], [-90.1, 29.9], [-90.3, 30.5], [-90.2, 31.2], [-89.9, 31.8], [-89.3, 32.5], [-89.0, 33.6], [-88.7, 34.1], [-87.9, 35.0], [-86.8, 35.5], [-84.4, 36.7], [-81.9, 38.6], [-80.1, 39.5], [-78.3, 39.6], [-76.0, 39.8], [-72.5, 40.6], [-68.5, 41.9], [-66.8, 42.8], [-64.7, 43.4]]}, "properties": {"model": "AP20", "label": "GEFS 20", "kind": "ensemble", "group": "ensemble", "cycle": "2021082912"}}, {"type": "Feature", "geometry": {"type": "LineString", "coordinates": [[-89.6, 28.7], [-90.5, 29.4], [-90.8, 30.3], [-91.1, 31.2], [-90.9, 32.1], [-90.3, 32.9], [-89.4, 33.9], [-88.7, 34.6], [-87.5, 35.5], [-85.9, 36.4], [-83.0, 37.8], [-80.6, 38.6], [-78.3, 39.2], [-75.9, 39.7], [-74.0, 39.3], [-71.4, 40.3], [-69.0, 41.6], [-67.1, 42.7], [-64.5, 44.3], [-62.5, 45.7], [-61.1, 47.9], [-60.9, 48.5], [-59.7, 49.4], [-58.1, 50.8], [-57.0, 52.8], [-57.1, 53.9], [-56.6, 54.1], [-55.2, 54.3], [-53.8, 54.4], [-52.0, 54.7], [-49.8, 55.4], [-47.3, 55.7], [-44.7, 56.7]]}, "properties": {"model": "AP24", "label": "GEFS 24", "kind": "ensemble", "group": "ensemble", "cycle": "2021082912"}}, {"type": "Feature", "geometry": {"type": "LineString", "coordinates": [[-89.8, 28.6], [-90.3, 29.2], [-90.6, 29.8], [-90.7, 30.4], [-90.6, 31.3], [-90.4, 32.2], [-90.1, 33.0], [-89.8, 33.5], [-89.1, 33.8], [-88.1, 34.2], [-86.5, 35.1], [-85.4, 36.6], [-83.5, 37.6], [-81.2, 38.9], [-79.7, 38.9], [-77.4, 38.9], [-74.8, 39.6], [-73.5, 39.6], [-70.6, 40.3], [-68.2, 41.7], [-66.0, 42.9], [-63.4, 44.7], [-59.6, 47.2]]}, "properties": {"model": "AP26", "label": "GEFS 26", "kind": "ensemble", "group": "ensemble", "cycle": "2021082912"}}, {"type": "Feature", "geometry": {"type": "LineString", "coordinates": [[-89.5, 28.7], [-90.2, 29.4], [-90.6, 30.0], [-90.8, 30.8], [-90.7, 31.6], [-90.4, 32.6], [-90.0, 33.5], [-89.6, 34.2], [-88.5, 34.8], [-87.3, 35.5], [-85.9, 36.3], [-84.2, 37.7], [-82.3, 38.7], [-80.5, 39.9], [-79.1, 40.0], [-77.8, 40.2], [-76.9, 39.9], [-75.9, 40.0], [-75.5, 39.3], [-74.9, 38.6], [-74.4, 37.2], [-74.3, 36.5], [-73.2, 36.5]]}, "properties": {"model": "AP30", "label": "GEFS 30", "kind": "ensemble", "group": "ensemble", "cycle": "2021082912"}}, {"type": "Feature", "geometry": {"type": "LineString", "coordinates": [[-88.7, 27.6], [-90.3, 29.3], [-91.0, 31.0], [-90.9, 32.7], [-89.7, 34.4], [-87.5, 36.0], [-84.0, 37.4], [-79.5, 38.6], [-75.1, 39.6], [-69.6, 41.3], [-63.9, 44.3], [-61.1, 46.5], [-59.8, 47.1], [-57.4, 47.3], [-52.9, 49.3]]}, "properties": {"model": "CMCI", "label": "CMC (interpolated)", "kind": "physics", "group": "deterministic", "cycle": "2021082906"}}, {"type": "Feature", "geometry": {"type": "LineString", "coordinates": [[-89.6, 28.5], [-90.4, 29.3], [-90.8, 29.8], [-90.7, 30.5], [-90.4, 31.4], [-90.2, 32.2], [-89.2, 33.1], [-88.9, 34.3], [-88.1, 35.0], [-86.2, 35.8], [-84.0, 36.7], [-82.4, 37.6], [-80.2, 38.2], [-77.3, 38.4], [-75.1, 38.8], [-73.7, 39.0], [-72.0, 39.0], [-70.0, 39.1], [-67.0, 39.3], [-64.0, 40.3], [-59.4, 43.2]]}, "properties": {"model": "COTC", "label": "COAMPS-TC (interpolated)", "kind": "physics", "group": "deterministic", "cycle": "2021082912"}}, {"type": "Feature", "geometry": {"type": "LineString", "coordinates": [[-89.6, 28.3], [-90.2, 29.2], [-90.8, 29.7], [-91.0, 30.3], [-91.0, 30.9], [-90.7, 31.7], [-90.3, 32.5], [-89.9, 33.4], [-89.0, 34.4], [-88.0, 35.2], [-86.7, 35.8], [-85.4, 36.3], [-83.5, 36.7], [-81.5, 37.5], [-79.8, 37.8], [-78.4, 37.9], [-77.9, 37.2], [-77.8, 36.5], [-77.7, 35.8], [-78.2, 35.2], [-78.8, 34.6], [-79.5, 34.1], [-80.0, 33.8], [-80.4, 33.7], [-81.0, 33.8], [-81.6, 33.8], [-82.3, 33.8], [-82.7, 34.0]]}, "properties": {"model": "NVGM", "label": "NAVGEM", "kind": "physics", "group": "deterministic", "cycle": "2021082912"}}, {"type": "Feature", "geometry": {"type": "LineString", "coordinates": [[-89.6, 28.5], [-90.7, 30.0], [-91.0, 31.5], [-90.3, 33.1], [-88.6, 34.7], [-86.0, 36.3], [-82.6, 37.7], [-79.0, 38.7], [-75.3, 39.5], [-71.9, 40.4], [-68.8, 41.5], [-67.0, 41.9], [-62.1, 43.2], [-56.7, 45.4], [-50.9, 49.0]]}, "properties": {"model": "TVCA", "label": "Consensus", "kind": "consensus", "group": "consensus", "cycle": "2021082912"}}, {"type": "Feature", "geometry": {"type": "LineString", "coordinates": [[-89.6, 28.5], [-90.7, 30.0], [-91.0, 31.5], [-90.3, 33.1], [-88.6, 34.7], [-86.0, 36.3], [-82.6, 37.7], [-79.0, 38.7], [-75.3, 39.5], [-71.9, 40.4], [-68.8, 41.5], [-67.0, 41.9], [-62.1, 43.2], [-56.7, 45.4], [-50.9, 49.0]]}, "properties": {"model": "TVCN", "label": "TVCN Consensus", "kind": "consensus", "group": "consensus", "cycle": "2021082912"}}, {"type": "Feature", "geometry": {"type": "LineString", "coordinates": [[-88.7, 27.6], [-90.3, 29.0], [-91.0, 30.3], [-90.7, 31.8], [-89.7, 33.4], [-87.7, 35.0], [-85.0, 36.3], [-81.5, 37.5], [-77.7, 38.6], [-74.0, 39.4], [-71.1, 40.0], [-68.8, 40.6], [-66.4, 41.0], [-62.9, 42.1], [-57.7, 44.9]]}, "properties": {"model": "EMXI", "label": "ECMWF", "kind": "physics", "group": "deterministic", "cycle": "2021082906"}}, {"type": "Feature", "geometry": {"type": "LineString", "coordinates": [[-89.6, 28.5], [-90.7, 30.0], [-90.8, 31.5], [-90.0, 33.1], [-88.2, 34.8], [-85.5, 36.5], [-81.7, 38.1], [-77.2, 39.4], [-72.7, 40.7], [-67.9, 42.6], [-64.5, 43.9], [-61.7, 44.3], [-57.0, 45.4], [-49.7, 48.3], [-42.1, 53.0]]}, "properties": {"model": "GFEX", "label": "GFS Ensemble Mean", "kind": "consensus", "group": "consensus", "cycle": "2021082912"}}, {"type": "Feature", "geometry": {"type": "LineString", "coordinates": [[-89.6, 28.5], [-90.0, 28.8], [-90.8, 30.0], [-91.0, 31.6], [-90.3, 33.2], [-88.5, 34.9], [-85.9, 36.4], [-82.5, 37.8], [-74.2, 40.5], [-67.0, 43.5]]}, "properties": {"model": "OFCL", "label": "Official", "kind": "official", "group": "official", "cycle": "2021082912"}}, {"type": "Feature", "geometry": {"type": "LineString", "coordinates": [[-88.7, 27.6], [-90.3, 29.1], [-91.3, 30.4], [-91.4, 31.7], [-90.5, 33.3], [-88.9, 34.9], [-86.7, 36.4], [-83.9, 37.4], [-80.7, 38.0], [-77.5, 38.6]]}, "properties": {"model": "EGRI", "label": "UKMET (interpolated)", "kind": "physics", "group": "deterministic", "cycle": "2021082906"}}]}