{"type": "FeatureCollection", "features": [{"type": "Feature", "properties": {"shapefile": "al092021_2021082912_initialradii", "RADII": 34, "STORMID": "al092021", "BASIN": "al", "STORMNUM": 9, "ADVNUM": "13", "VALIDTIME": "2021082912", "SYNOPTIME": "2021082906", "TIMEZONE": "UTC", "TAU": 0, "NE": 120, "SE": 100, "SW": 80, "NW": 110}, "geometry": {"type": "Polygon", "coordinates": [[[-89.5804138, 30.4121132], [-89.5416641, 30.4133644], [-89.5028687, 30.4140148], [-89.4640274, 30.414072], [-89.425148, 30.4135303], [-89.386261, 30.4123917], [-89.3473587, 30.4106483], [-89.3084564, 30.4083042], [-89.2695847, 30.405365], [-89.2307281, 30.4018211], [-89.191925, 30.3976784], [-89.153183, 30.392931], [-89.114502, 30.3875866], [-89.0759125, 30.3816395], [-89.0374146, 30.3750992], [-88.9990158, 30.3679543], [-88.9607468, 30.3602161], [-88.9226151, 30.351881], [-88.884613, 30.3429527], [-88.8467865, 30.3334312], [-88.8091202, 30.3233242], [-88.771637, 30.3126259], [-88.7343597, 30.3013401], [-88.6972885, 30.2894726], [-88.6604309, 30.277029], [-88.6238098, 30.2639999], [-88.5874329, 30.2504044], [-88.5513077, 30.2362289], [-88.5154648, 30.2214966], [-88.4798889, 30.2061939], [-88.4446182, 30.1903381], [-88.4096527, 30.1739197], [-88.375, 30.1569519], [-88.3406677, 30.1394386], [-88.3066711, 30.1213818], [-88.273056, 30.1027908], [-88.2397766, 30.083662], [-88.2068787, 30.0640087], [-88.1743698, 30.0438366], [-88.1422577, 30.0231457], [-88.1105499, 30.0019455], [-88.0795135, 29.9800282], [-88.0494308, 29.9571972], [-88.02034, 29.9334755], [-87.9922638, 29.9088879], [-87.9652023, 29.8834572], [-87.939209, 29.8572083], [-87.9142914, 29.830162], [-87.8904877, 29.8023472], [-87.8677979, 29.7737904], [-87.8460159, 29.7447281], [-87.8248825, 29.7153835], [-87.8043976, 29.6857738], [-87.7845612, 29.6559048], [-87.7653809, 29.6257896], [-87.7468567, 29.5954456], [-87.7289963, 29.5648708], [-87.7118149, 29.5340805], [-87.6952896, 29.5030918], [-87.6794434, 29.4719105], [-87.6642685, 29.4405441], [-87.6497498, 29.4090099], [-87.6359253, 29.3773193], [-87.6227722, 29.3454723], [-87.6103058, 29.3134937], [-87.5985107, 29.2813892], [-87.5873871, 29.2491665], [-87.5769577, 29.216835], [-87.5672073, 29.1844082], [-87.558136, 29.1519032], [-87.5497284, 29.1193199], [-87.5420303, 29.0866776], [-87.5350037, 29.0539818], [-87.5286484, 29.0212498], [-87.5229645, 28.9884853], [-87.5179596, 28.955698], [-87.5136337, 28.922905], [-87.5099716, 28.8901157], [-87.5069885, 28.8573399], [-87.5046692, 28.824585], [-87.5030136, 28.7918625], [-87.5020218, 28.759182], [-87.5016785, 28.7265549], [-87.5020065, 28.6939926], [-87.5029907, 28.6615067], [-87.5046158, 28.6291027], [-87.506897, 28.5967941], [-87.5098114, 28.5645924], [-87.513382, 28.5325012], [-87.5175629, 28.500536], [-87.5223846, 28.4686985], [-87.527832, 28.4370079], [-87.5338974, 28.4054699], [-87.5405731, 28.3740921], [-87.5478745, 28.3428879], [-87.5557632, 28.3118629], [-87.5642624, 28.2810268], [-87.573349, 28.2503891], [-87.5830383, 28.2199612], [-87.5932999, 28.1897469], [-87.6041336, 28.1597557], [-87.6155472, 28.1299992], [-87.6275177, 28.1004868], [-87.6400452, 28.0712204], [-87.6531296, 28.0422153], [-87.6667557, 28.0134792], [-87.6809311, 27.9850121], [-87.6956253, 27.956831], [-87.7108307, 27.9289379], [-87.7265701, 27.9013443], [-87.7428131, 27.874052], [-87.759552, 27.8470745], [-87.7767944, 27.8204155], [-87.7945099, 27.7940884], [-87.8127136, 27.7680893], [-87.8313751, 27.7424316], [-87.8504944, 27.717123], [-87.8700867, 27.6921635], [-87.8901062, 27.6675663], [-87.9105682, 27.6433334], [-87.9314575, 27.6194763], [-87.9527664, 27.5959949], [-87.9744873, 27.5728989], [-87.9966125, 27.5501919], [-88.0191345, 27.5278797], [-88.0420227, 27.5059662], [-88.0652847, 27.4844589], [-88.0889282, 27.4633636], [-88.1129227, 27.4426804], [-88.1372681, 27.4224186], [-88.1619492, 27.4025822], [-88.1869583, 27.383173], [-88.2122955, 27.3641987], [-88.2379379, 27.3456612], [-88.2638779, 27.3275642], [-88.2901154, 27.3099136], [-88.3166199, 27.2927094], [-88.3434143, 27.2759609], [-88.3704605, 27.2596626], [-88.3977585, 27.2438259], [-88.4253006, 27.2284489], [-88.4530792, 27.2135391], [-88.4810867, 27.1990948], [-88.5093002, 27.1851196], [-88.5377121, 27.1716156], [-88.56633, 27.1585865], [-88.5951233, 27.1460304], [-88.6240921, 27.133955], [-88.6532288, 27.1223545], [-88.6825256, 27.1112366], [-88.7119598, 27.100605], [-88.7415237, 27.0904541], [-88.7712173, 27.0807877], [-88.8010406, 27.0716076], [-88.8309555, 27.0629101], [-88.8609695, 27.0547009], [-88.8910751, 27.0469799], [-88.9212418, 27.0397472], [-88.9514847, 27.0330009], [-88.9817734, 27.026741], [-89.0121155, 27.0209656], [-89.0425034, 27.0156784], [-89.0729065, 27.0108795], [-89.1033325, 27.0065651], [-89.1337585, 27.0027351], [-89.1641998, 26.9993896], [-89.1946106, 26.9965248], [-89.2250137, 26.9941425], [-89.2553787, 26.992239], [-89.2857208, 26.9908123], [-89.3160019, 26.9898605], [-89.3462219, 26.9893875], [-89.3763809, 26.9893875], [-89.4064636, 26.989851], [-89.4364624, 26.9907913], [-89.466362, 26.9921875], [-89.4961624, 26.9940529], [-89.5258484, 26.996376], [-89.5554199, 26.999155], [-89.5848618, 27.0023899], [-89.6141663, 27.0060787], [-89.6433105, 27.0102139], [-89.6723099, 27.0147915], [-89.7011414, 27.0198097], [-89.729805, 27.0252628], [-89.7582779, 27.0311527], [-89.7865677, 27.0374718], [-89.8146667, 27.0442162], [-89.8425522, 27.0513821], [-89.870224, 27.0589638], [-89.8976898, 27.0669575], [-89.9249191, 27.0753613], [-89.9519196, 27.0841637], [-89.9786682, 27.0933685], [-90.0051651, 27.1029663], [-90.0314102, 27.1129532], [-90.0573883, 27.1233215], [-90.0830917, 27.1340714], [-90.1085205, 27.145195], [-90.133667, 27.1566849], [-90.1585236, 27.168539], [-90.1830673, 27.180748], [-90.2073135, 27.1933098], [-90.2312469, 27.2062149], [-90.2548676, 27.2194595], [-90.2781677, 27.2330399], [-90.3011398, 27.2469444], [-90.3237686, 27.2611732], [-90.3460617, 27.2757168], [-90.3680038, 27.2905693], [-90.3895874, 27.3057251], [-90.41082, 27.3211765], [-90.431694, 27.3369217], [-90.4521942, 27.3529453], [-90.4723282, 27.3692455], [-90.4920807, 27.3858204], [-90.5114441, 27.4026546], [-90.5304337, 27.4197464], [-90.5490265, 27.4370899], [-90.5672302, 27.4546719], [-90.5850296, 27.4724941], [-90.6028442, 27.4901772], [-90.6210861, 27.5073776], [-90.6397858, 27.5241108], [-90.6589661, 27.5403976], [-90.6786499, 27.5562572], [-90.6988678, 27.5717087], [-90.719635, 27.5867729], [-90.7409668, 27.6014786], [-90.7628937, 27.6158371], [-90.7850189, 27.6302414], [-90.8069153, 27.6450539], [-90.8286133, 27.6602764], [-90.8500671, 27.6759033], [-90.8712845, 27.6919384], [-90.8922501, 27.7083702], [-90.9129715, 27.7251987], [-90.9334106, 27.7424278], [-90.9535828, 27.760046], [-90.9734573, 27.7780495], [-90.9930267, 27.7964401], [-91.0123138, 27.8152122], [-91.0312805, 27.8343601], [-91.0499344, 27.8538837], [-91.0682373, 27.8737717], [-91.0862045, 27.8940258], [-91.1038208, 27.9146385], [-91.1210785, 27.9356079], [-91.13797, 27.9569244], [-91.1544876, 27.9785862], [-91.1706238, 28.0005894], [-91.1863556, 28.0229263], [-91.2016907, 28.0455914], [-91.2166061, 28.0685806], [-91.2311096, 28.0918865], [-91.2452011, 28.1155033], [-91.2588348, 28.1394272], [-91.2720337, 28.1636467], [-91.2847748, 28.1881599], [-91.2970581, 28.2129593], [-91.308876, 28.238039], [-91.3202286, 28.2633896], [-91.3310928, 28.2890053], [-91.3414764, 28.3148804], [-91.3513565, 28.3410034], [-91.3607254, 28.3673687], [-91.3695984, 28.3939743], [-91.3779526, 28.420805], [-91.3857727, 28.447855], [-91.393074, 28.4751205], [-91.3998337, 28.5025902], [-91.406044, 28.5302525], [-91.4117126, 28.5581017], [-91.4168167, 28.5861301], [-91.4213638, 28.6143322], [-91.4253464, 28.6426964], [-91.4287491, 28.6712074], [-91.4315872, 28.6998672], [-91.4338379, 28.7286587], [-91.4354935, 28.7575779], [-91.4365768, 28.7866116], [-91.4370422, 28.8157558], [-91.4369202, 28.8449974], [-91.4361877, 28.8743248], [-91.4348373, 28.9037304], [-91.4328842, 28.9332066], [-91.4302979, 28.9627419], [-91.4270935, 28.9923267], [-91.4232864, 29.0219498], [-91.4188385, 29.0515957], [-91.4137497, 29.0812683], [-91.4080429, 29.1109486], [-91.4017029, 29.140625], [-91.3947144, 29.1702881], [-91.3871002, 29.1999302], [-91.3788376, 29.2295399], [-91.3699265, 29.2591038], [-91.3603745, 29.2886181], [-91.3501816, 29.3180637], [-91.3393402, 29.3474388], [-91.3278503, 29.3767223], [-91.3157196, 29.4059143], [-91.3029404, 29.4349937], [-91.2895126, 29.4639626], [-91.2754288, 29.4927979], [-91.2607117, 29.521492], [-91.2453461, 29.5500355], [-91.229332, 29.5784225], [-91.212677, 29.6066284], [-91.1953812, 29.6346569], [-91.1774521, 29.6624928], [-91.158699, 29.6899796], [-91.1389999, 29.7169495], [-91.1183319, 29.7433872], [-91.096756, 29.7692699], [-91.0742493, 29.7945786], [-91.0508423, 29.8192959], [-91.0265579, 29.8433971], [-91.0013962, 29.8668652], [-90.9753876, 29.8896828], [-90.9487152, 29.911974], [-90.9215698, 29.9338722], [-90.8939362, 29.9553699], [-90.8658218, 29.9764633], [-90.8372498, 29.9971409], [-90.8082352, 30.017395], [-90.7787781, 30.0372219], [-90.7488708, 30.0566101], [-90.7185364, 30.0755539], [-90.6877823, 30.0940514], [-90.6566238, 30.1120872], [-90.625061, 30.1296597], [-90.5931015, 30.146759], [-90.5607529, 30.1633816], [-90.528038, 30.1795177], [-90.494957, 30.1951675], [-90.4615173, 30.2103176], [-90.4277344, 30.224966], [-90.3936157, 30.239109], [-90.359169, 30.252737], [-90.3244247, 30.2658463], [-90.28936, 30.278429], [-90.2539978, 30.2904873], [-90.2183609, 30.3020058], [-90.182457, 30.3129883], [-90.146286, 30.3234253], [-90.1098785, 30.3333168], [-90.0732193, 30.3426552], [-90.0363388, 30.3514328], [-89.9992447, 30.3596535], [-89.9619446, 30.3673096], [-89.9244614, 30.3743973], [-89.8867874, 30.3809109], [-89.8489609, 30.3868504], [-89.8109512, 30.3922157], [-89.7728271, 30.3969994], [-89.7345581, 30.4011974], [-89.6961746, 30.4048119], [-89.6576767, 30.4078369], [-89.6190872, 30.4102707], [-89.5804138, 30.4121132]]]}}, {"type": "Feature", "properties": {"shapefile": "al092021_2021082912_initialradii", "RADII": 50, "STORMID": "al092021", "BASIN": "al", "STORMNUM": 9, "ADVNUM": "13", "VALIDTIME": "2021082912", "SYNOPTIME": "2021082906", "TIMEZONE": "UTC", "TAU": 0, "NE": 70, "SE": 60, "SW": 40, "NW": 60}, "geometry": {"type": "Polygon", "coordinates": [[[-89.5888977, 29.5811691], [-89.5671539, 29.5826817], [-89.5453415, 29.5838547], [-89.523468, 29.5846939], [-89.5015411, 29.5851955], [-89.4795761, 29.5853539], [-89.4575653, 29.5851746], [-89.4355316, 29.5846519], [-89.4134827, 29.5837879], [-89.3914108, 29.5825806], [-89.369339, 29.5810337], [-89.3472595, 29.5791359], [-89.3251801, 29.5768967], [-89.3031235, 29.5743141], [-89.2810898, 29.5713768], [-89.2590714, 29.5681019], [-89.2370911, 29.564476], [-89.2151642, 29.5605068], [-89.1932678, 29.5561867], [-89.1714478, 29.551527], [-89.1496811, 29.5465221], [-89.1279831, 29.5411682], [-89.106369, 29.535471], [-89.0848389, 29.5294323], [-89.0634079, 29.5230484], [-89.0420837, 29.5163269], [-89.0208511, 29.509264], [-88.9997406, 29.5018539], [-88.9787521, 29.4941139], [-88.9578934, 29.4860363], [-88.9371643, 29.4776211], [-88.9165955, 29.4688759], [-88.8961639, 29.459795], [-88.8758926, 29.450388], [-88.8557892, 29.4406528], [-88.8358459, 29.4305897], [-88.8160934, 29.4202061], [-88.796524, 29.4094982], [-88.7771378, 29.3984756], [-88.7579651, 29.3871326], [-88.7389908, 29.3754787], [-88.7204132, 29.3633728], [-88.7023849, 29.3506737], [-88.6849518, 29.3374119], [-88.6681213, 29.3235874], [-88.6519012, 29.3092213], [-88.636322, 29.2943287], [-88.621376, 29.2789173], [-88.6071091, 29.26301], [-88.5935364, 29.2466221], [-88.5804749, 29.2299118], [-88.5677795, 29.213026], [-88.5554504, 29.1959763], [-88.5434952, 29.1787643], [-88.5319061, 29.1613998], [-88.5206909, 29.1438828], [-88.5098495, 29.1262283], [-88.4993973, 29.1084366], [-88.4893112, 29.0905151], [-88.4796143, 29.0724659], [-88.4702988, 29.0543041], [-88.4613724, 29.0360317], [-88.4528198, 29.0176487], [-88.444664, 28.9991684], [-88.4368896, 28.9805984], [-88.429512, 28.961937], [-88.4225159, 28.9431973], [-88.4159241, 28.9243813], [-88.4097214, 28.9054966], [-88.4039001, 28.8865528], [-88.3984756, 28.8675499], [-88.3934631, 28.8485012], [-88.3888245, 28.8294067], [-88.3845825, 28.810276], [-88.3807373, 28.7911148], [-88.3772888, 28.771925], [-88.3742142, 28.7527199], [-88.3715439, 28.7335033], [-88.3692551, 28.7142811], [-88.367363, 28.695055], [-88.36586, 28.6758385], [-88.3647461, 28.6566296], [-88.3640366, 28.6374378], [-88.363678, 28.6182728], [-88.3637238, 28.5991383], [-88.364151, 28.5800381], [-88.3649597, 28.5609779], [-88.3661499, 28.5419693], [-88.3677139, 28.5230103], [-88.3696594, 28.5041122], [-88.3719788, 28.485281], [-88.3746643, 28.4665184], [-88.3777161, 28.4478283], [-88.3811493, 28.4292259], [-88.3849335, 28.4107075], [-88.3890839, 28.3922825], [-88.3935928, 28.3739548], [-88.3984604, 28.3557358], [-88.4036713, 28.3376198], [-88.4092407, 28.3196239], [-88.4151611, 28.3017445], [-88.4214172, 28.283989], [-88.4280319, 28.2663631], [-88.434967, 28.2488766], [-88.4422379, 28.2315254], [-88.449852, 28.2143192], [-88.4577713, 28.1972675], [-88.4660263, 28.1803665], [-88.4745865, 28.1636276], [-88.4834824, 28.1470509], [-88.4926834, 28.1306458], [-88.502182, 28.1144123], [-88.5119934, 28.0983562], [-88.5221024, 28.0824833], [-88.5325012, 28.0667953], [-88.54319, 28.0513], [-88.5541687, 28.0359993], [-88.5654221, 28.0208969], [-88.5769577, 28.0059967], [-88.5887527, 27.9913044], [-88.6008224, 27.9768257], [-88.6131592, 27.9625587], [-88.6257553, 27.9485092], [-88.6385956, 27.9346848], [-88.6516876, 27.9210835], [-88.6650238, 27.9077091], [-88.6785965, 27.8945713], [-88.6923981, 27.8816662], [-88.7064285, 27.8690014], [-88.7206726, 27.8565769], [-88.7351379, 27.8443985], [-88.7498856, 27.8325424], [-88.765007, 27.8210831], [-88.7804794, 27.8100357], [-88.7962875, 27.799408], [-88.8124237, 27.7892017], [-88.8288879, 27.7794228], [-88.8456421, 27.7700844], [-88.8626938, 27.7611866], [-88.8800201, 27.752739], [-88.8975372, 27.7446747], [-88.9151459, 27.7369175], [-88.9328537, 27.7294731], [-88.9506454, 27.7223396], [-88.9685135, 27.7155151], [-88.9864426, 27.7090034], [-89.0044327, 27.7028027], [-89.0224838, 27.6969109], [-89.0405731, 27.6913319], [-89.0587234, 27.6860638], [-89.0769119, 27.6811104], [-89.0951233, 27.676466], [-89.1133575, 27.6721268], [-89.1316071, 27.6681023], [-89.1498718, 27.6643848], [-89.1681213, 27.6609726], [-89.1863861, 27.6578674], [-89.204628, 27.6550674], [-89.2228622, 27.6525707], [-89.2410736, 27.6503811], [-89.2592621, 27.6484909], [-89.2774124, 27.6468983], [-89.295517, 27.6456051], [-89.3135681, 27.6446056], [-89.3315811, 27.6439018], [-89.3495255, 27.6434937], [-89.3674011, 27.6433735], [-89.3852158, 27.6435432], [-89.4029465, 27.6439972], [-89.4205933, 27.6447372], [-89.4381561, 27.6457596], [-89.4556274, 27.6470585], [-89.4729919, 27.6486378], [-89.4902649, 27.650486], [-89.5074158, 27.6526089], [-89.5244446, 27.6549969], [-89.5413513, 27.6576538], [-89.558136, 27.6605701], [-89.574791, 27.6637497], [-89.591301, 27.6671829], [-89.6076889, 27.670866], [-89.6239243, 27.6748028], [-89.6399994, 27.6789837], [-89.6559219, 27.6834087], [-89.6716843, 27.6880722], [-89.6872787, 27.6929703], [-89.7026978, 27.698101], [-89.7179489, 27.7034607], [-89.733017, 27.7090454], [-89.7479095, 27.7148476], [-89.7626114, 27.7208691], [-89.7771301, 27.7271004], [-89.7914505, 27.7335396], [-89.8055725, 27.7401829], [-89.8194885, 27.7470303], [-89.8331909, 27.7540684], [-89.8466949, 27.761301], [-89.8599854, 27.7687225], [-89.8730545, 27.7763233], [-89.8859024, 27.7841053], [-89.8985367, 27.7920628], [-89.9109497, 27.8001881], [-89.9231262, 27.8084774], [-89.9350815, 27.8169289], [-89.9467926, 27.8255386], [-89.9582748, 27.8342972], [-89.9695129, 27.8432045], [-89.9805069, 27.852253], [-89.9912643, 27.8614368], [-90.0017776, 27.8707561], [-90.0120468, 27.8802032], [-90.0220642, 27.8897743], [-90.0318298, 27.8994598], [-90.0413513, 27.9092617], [-90.0506058, 27.9191704], [-90.0596085, 27.9291859], [-90.0683517, 27.9392986], [-90.0768433, 27.9495068], [-90.0850754, 27.9598026], [-90.0930481, 27.9701843], [-90.1007462, 27.9806442], [-90.1085281, 27.9908905], [-90.1167297, 28.0006466], [-90.1253586, 28.0099201], [-90.1344528, 28.0187359], [-90.1440125, 28.0271072], [-90.1540833, 28.0350513], [-90.1646805, 28.0425892], [-90.1758041, 28.0497379], [-90.1874771, 28.0565147], [-90.1994019, 28.0632267], [-90.211235, 28.0701733], [-90.2229843, 28.0773506], [-90.2346268, 28.0847569], [-90.24617, 28.0923939], [-90.2575989, 28.1002579], [-90.2689209, 28.1083469], [-90.2801208, 28.1166649], [-90.2911987, 28.125206], [-90.3021393, 28.1339722], [-90.3129501, 28.1429615], [-90.3236084, 28.1521683], [-90.3341293, 28.1615906], [-90.3444824, 28.1712341], [-90.3547058, 28.1810913], [-90.3647385, 28.1911621], [-90.3746109, 28.2014446], [-90.3843155, 28.211937], [-90.393837, 28.2226334], [-90.4031754, 28.233532], [-90.412323, 28.2446365], [-90.4212723, 28.2559376], [-90.4300232, 28.2674351], [-90.4385681, 28.2791271], [-90.446907, 28.291008], [-90.4550247, 28.3030834], [-90.4629211, 28.3153381], [-90.4705963, 28.327776], [-90.4780426, 28.3403912], [-90.4852524, 28.3531818], [-90.492218, 28.3661423], [-90.4989395, 28.3792763], [-90.5054092, 28.3925705], [-90.5116272, 28.4060307], [-90.517601, 28.4196434], [-90.5232925, 28.4334126], [-90.5287247, 28.4473305], [-90.5338898, 28.4613914], [-90.5387802, 28.4755955], [-90.5433807, 28.4899368], [-90.5477066, 28.5044117], [-90.5517502, 28.5190125], [-90.5555038, 28.5337391], [-90.5589371, 28.548584], [-90.5620956, 28.5635452], [-90.5649338, 28.5786133], [-90.5674744, 28.5937881], [-90.5697021, 28.609066], [-90.5716248, 28.6244373], [-90.5732193, 28.6399021], [-90.5745087, 28.6554527], [-90.57547, 28.6710815], [-90.5761108, 28.6867847], [-90.576416, 28.7025623], [-90.5763855, 28.718401], [-90.5760345, 28.7343006], [-90.5753479, 28.7502537], [-90.5743027, 28.7662563], [-90.5729218, 28.7823009], [-90.5712051, 28.7983837], [-90.5691452, 28.8145008], [-90.5667419, 28.8306408], [-90.5639877, 28.8468056], [-90.5608749, 28.8629837], [-90.5574036, 28.8791714], [-90.5535889, 28.895359], [-90.5494232, 28.9115429], [-90.5448914, 28.927721], [-90.5400085, 28.9438858], [-90.5347672, 28.9600296], [-90.5291595, 28.9761448], [-90.5232086, 28.9922276], [-90.5168762, 29.0082703], [-90.5102081, 29.024271], [-90.5031662, 29.0402222], [-90.4957581, 29.0561123], [-90.4879913, 29.0719395], [-90.479866, 29.087698], [-90.4713669, 29.1033802], [-90.4625244, 29.1189804], [-90.4533081, 29.1344948], [-90.4436646, 29.1498413], [-90.4334946, 29.1649342], [-90.4228058, 29.1797695], [-90.4116058, 29.1943283], [-90.3999252, 29.2086086], [-90.3877411, 29.2225914], [-90.3750916, 29.2362747], [-90.3619537, 29.2496414], [-90.3483429, 29.2626781], [-90.3343811, 29.2754593], [-90.3201065, 29.2880383], [-90.3055725, 29.3004227], [-90.290741, 29.3125992], [-90.27565, 29.324564], [-90.2602844, 29.3363171], [-90.2446442, 29.3478527], [-90.2287521, 29.3591576], [-90.2125931, 29.3702431], [-90.1961899, 29.3810902], [-90.1795197, 29.3917007], [-90.1626205, 29.4020729], [-90.1454773, 29.4121933], [-90.1280899, 29.4220715], [-90.1104889, 29.4316883], [-90.0926437, 29.4410534], [-90.0745697, 29.4501553], [-90.0562973, 29.458992], [-90.0378036, 29.467556], [-90.019104, 29.475853], [-90.000206, 29.4838696], [-89.9811096, 29.4916039], [-89.9618225, 29.499054], [-89.9423523, 29.5062218], [-89.922699, 29.5130997], [-89.9028778, 29.5196762], [-89.8828964, 29.5259571], [-89.8627319, 29.5319424], [-89.8424301, 29.5376205], [-89.8219757, 29.5429955], [-89.8013687, 29.5480576], [-89.780632, 29.5528126], [-89.7597733, 29.557251], [-89.7387848, 29.5613747], [-89.7176819, 29.5651779], [-89.6964493, 29.5686607], [-89.6751175, 29.5718174], [-89.6537018, 29.5746498], [-89.6321869, 29.5771561], [-89.6105804, 29.5793285], [-89.5888977, 29.5811691]]]}}, {"type": "Feature", "properties": {"shapefile": "al092021_2021082912_initialradii", "RADII": 64, "STORMID": "al092021", "BASIN": "al", "STORMNUM": 9, "ADVNUM": "13", "VALIDTIME": "2021082912", "SYNOPTIME": "2021082906", "TIMEZONE": "UTC", "TAU": 0, "NE": 45, "SE": 35, "SW": 20, "NW": 30}, "geometry": {"type": "Polygon", "coordinates": [[[-89.593399, 29.1246071], [-89.5808411, 29.1271763], [-89.568161, 29.1295567], [-89.5553894, 29.1317348], [-89.5425262, 29.1337147], [-89.5295715, 29.1354942], [-89.5165176, 29.1370678], [-89.5033875, 29.1384373], [-89.4901886, 29.1395969], [-89.4768982, 29.1405468], [-89.4635315, 29.1412792], [-89.4501038, 29.1418056], [-89.436615, 29.1421108], [-89.4230728, 29.1421986], [-89.4094696, 29.142067], [-89.3958206, 29.141716], [-89.3821259, 29.14114], [-89.3684006, 29.1403408], [-89.3546295, 29.1393127], [-89.3408279, 29.1380653], [-89.3270035, 29.1365833], [-89.3131714, 29.1348743], [-89.299324, 29.1329308], [-89.2854462, 29.1307602], [-89.2715759, 29.1283569], [-89.2577209, 29.1257191], [-89.2438583, 29.1228504], [-89.230011, 29.1197433], [-89.2161636, 29.1164036], [-89.2023544, 29.1128311], [-89.1885681, 29.1090164], [-89.1748047, 29.1049709], [-89.1611023, 29.100687], [-89.1474152, 29.0961685], [-89.1338043, 29.0914097], [-89.1202087, 29.086422], [-89.1066971, 29.0811939], [-89.0932465, 29.0757313], [-89.0798645, 29.0700302], [-89.0665588, 29.0640945], [-89.0533295, 29.0579262], [-89.0403976, 29.0513401], [-89.0279846, 29.0441761], [-89.0161209, 29.0364456], [-89.0048141, 29.0281582], [-88.9940872, 29.0193386], [-88.9839478, 29.0099926], [-88.9744339, 29.0001354], [-88.9655457, 28.9897938], [-88.9573059, 28.9789772], [-88.9495087, 28.9678783], [-88.9419556, 28.9566879], [-88.9346619, 28.9454117], [-88.9276276, 28.9340477], [-88.9208298, 28.9226074], [-88.9142914, 28.9110851], [-88.9079971, 28.899498], [-88.9019623, 28.8878441], [-88.8961868, 28.8761215], [-88.8906555, 28.8643417], [-88.885376, 28.8525085], [-88.8803558, 28.8406239], [-88.8755951, 28.8286877], [-88.8710938, 28.8167152], [-88.8668518, 28.8047047], [-88.862854, 28.7926598], [-88.859108, 28.7805824], [-88.8556213, 28.7684803], [-88.8523941, 28.7563572], [-88.8494263, 28.744215], [-88.8467102, 28.7320633], [-88.8442612, 28.719902], [-88.8420563, 28.7077332], [-88.8401031, 28.6955643], [-88.8383865, 28.6833973], [-88.8369446, 28.6712379], [-88.8357468, 28.6590881], [-88.8348007, 28.6469555], [-88.8340988, 28.6348362], [-88.8336487, 28.6227493], [-88.8334503, 28.6106834], [-88.8334885, 28.5986462], [-88.8337784, 28.586647], [-88.8343048, 28.5746861], [-88.8350677, 28.5627651], [-88.8360748, 28.5508938], [-88.8373184, 28.5390663], [-88.8387985, 28.5272961], [-88.8405228, 28.5155811], [-88.8424759, 28.5039272], [-88.8446579, 28.4923325], [-88.8470688, 28.480814], [-88.8497009, 28.4693604], [-88.852562, 28.4579811], [-88.8556366, 28.446682], [-88.8589401, 28.435463], [-88.8624573, 28.424324], [-88.8661957, 28.4132767], [-88.8701401, 28.4023228], [-88.8742981, 28.3914604], [-88.8786469, 28.3806953], [-88.8832169, 28.3700294], [-88.8879852, 28.3594646], [-88.8929596, 28.3490067], [-88.8981171, 28.3386593], [-88.9034805, 28.3284225], [-88.9090424, 28.3183041], [-88.914772, 28.3082981], [-88.9206924, 28.2984161], [-88.926796, 28.2886524], [-88.9330826, 28.2790146], [-88.9395447, 28.2695084], [-88.9461823, 28.260128], [-88.9529724, 28.2508831], [-88.959938, 28.2417736], [-88.9670715, 28.2327995], [-88.9743576, 28.2239647], [-88.9817963, 28.2152729], [-88.9894028, 28.2067242], [-88.9971542, 28.1983223], [-89.0050354, 28.1900673], [-89.0130692, 28.1819611], [-89.0212402, 28.1740055], [-89.0295486, 28.1662064], [-89.0379791, 28.1585598], [-89.0465469, 28.1510715], [-89.0552444, 28.1437416], [-89.0640564, 28.1365719], [-89.0729752, 28.1295643], [-89.082016, 28.1227169], [-89.0911636, 28.1160355], [-89.1004562, 28.1095543], [-89.1099319, 28.1033192], [-89.1195908, 28.0973263], [-89.1294098, 28.0915833], [-89.1393814, 28.0860939], [-89.1495132, 28.0808563], [-89.1598053, 28.0758801], [-89.1702194, 28.0711651], [-89.1807632, 28.0667152], [-89.1914062, 28.0624924], [-89.2020645, 28.0584679], [-89.2127762, 28.0546341], [-89.2235107, 28.0509949], [-89.2342758, 28.0475483], [-89.2450562, 28.0442924], [-89.2558517, 28.041235], [-89.2666702, 28.0383663], [-89.2774887, 28.0356884], [-89.2883072, 28.0332031], [-89.2991333, 28.0309086], [-89.3099442, 28.0288029], [-89.3207474, 28.026886], [-89.331543, 28.025156], [-89.3423233, 28.023613], [-89.3530807, 28.0222569], [-89.3638077, 28.0210857], [-89.3745117, 28.0200958], [-89.3851852, 28.019289], [-89.3958206, 28.0186634], [-89.4064102, 28.0182171], [-89.4169617, 28.0179501], [-89.4274597, 28.0178585], [-89.4379044, 28.0179424], [-89.4482956, 28.0181999], [-89.4586334, 28.0186291], [-89.4689026, 28.019228], [-89.4791031, 28.0199966], [-89.4892349, 28.0209274], [-89.4992905, 28.0220261], [-89.5092697, 28.0232868], [-89.519165, 28.0247059], [-89.5289764, 28.0262833], [-89.5387115, 28.0280209], [-89.5483627, 28.0299091], [-89.5578995, 28.03195], [-89.5673523, 28.0341396], [-89.5767059, 28.0364761], [-89.5859604, 28.0389614], [-89.595108, 28.041584], [-89.6041489, 28.0443497], [-89.6130753, 28.0472527], [-89.6218796, 28.0502872], [-89.6305847, 28.0534554], [-89.6391602, 28.0567551], [-89.6476364, 28.0601788], [-89.6559677, 28.0637283], [-89.6641693, 28.0674], [-89.6722641, 28.0711899], [-89.6802139, 28.0750961], [-89.6880417, 28.079113], [-89.6957321, 28.0832424], [-89.7032852, 28.0874786], [-89.710701, 28.0918198], [-89.7179794, 28.096262], [-89.7251129, 28.1008034], [-89.7320938, 28.1054382], [-89.738945, 28.1101665], [-89.7456436, 28.1149826], [-89.7521973, 28.1198902], [-89.7585983, 28.124876], [-89.7648621, 28.1299458], [-89.7709656, 28.1350899], [-89.7769165, 28.1403103], [-89.7827148, 28.1455994], [-89.788353, 28.150959], [-89.7938385, 28.1563797], [-89.7991638, 28.1618652], [-89.8043365, 28.1674099], [-89.8093567, 28.173008], [-89.814209, 28.1786556], [-89.8189011, 28.184351], [-89.8234406, 28.1900978], [-89.8278122, 28.1958828], [-89.8320312, 28.2017097], [-89.8360901, 28.2075729], [-89.8399887, 28.2134686], [-89.8437195, 28.2193966], [-89.84729, 28.2253456], [-89.8506927, 28.2313213], [-89.8539581, 28.2373161], [-89.8572617, 28.2431507], [-89.8608093, 28.2486477], [-89.8646622, 28.2538166], [-89.8688049, 28.2586689], [-89.8732376, 28.263216], [-89.878006, 28.2674675], [-89.8830948, 28.2714386], [-89.8885422, 28.2751369], [-89.8943481, 28.2785721], [-89.9003067, 28.2819424], [-89.9062347, 28.2854271], [-89.9121094, 28.2890282], [-89.9179382, 28.2927456], [-89.9237061, 28.2965775], [-89.9294128, 28.3005238], [-89.9350815, 28.3045826], [-89.9406738, 28.308754], [-89.9462128, 28.3130398], [-89.9516754, 28.3174381], [-89.9570694, 28.3219471], [-89.9624023, 28.326561], [-89.9676514, 28.3312893], [-89.9728165, 28.3361244], [-89.9779129, 28.3410683], [-89.9829254, 28.346117], [-89.9878464, 28.3512707], [-89.992691, 28.3565292], [-89.9974442, 28.3618946], [-90.0020905, 28.3673573], [-90.0066528, 28.372921], [-90.0111084, 28.3785858], [-90.0154648, 28.384346], [-90.0197144, 28.3902054], [-90.0238647, 28.3961601], [-90.0279083, 28.4022083], [-90.0318298, 28.4083481], [-90.0356598, 28.4145794], [-90.0393448, 28.4208984], [-90.042923, 28.4273071], [-90.0463867, 28.4338017], [-90.0497208, 28.4403782], [-90.0529404, 28.4470387], [-90.0560226, 28.4537754], [-90.0589752, 28.4605942], [-90.0617981, 28.4674854], [-90.0644836, 28.474453], [-90.0670471, 28.481493], [-90.0694504, 28.4886036], [-90.0717163, 28.4957809], [-90.0738449, 28.5030251], [-90.0758362, 28.5103359], [-90.0776672, 28.517704], [-90.0793686, 28.5251331], [-90.0809021, 28.5326157], [-90.0822906, 28.5401573], [-90.0835266, 28.5477524], [-90.0845947, 28.5553932], [-90.0855255, 28.5630836], [-90.0862885, 28.5708179], [-90.0868988, 28.5785961], [-90.0873337, 28.5864124], [-90.087616, 28.594265], [-90.087738, 28.6021519], [-90.0876846, 28.6100731], [-90.0874786, 28.618021], [-90.0870819, 28.6259995], [-90.0865326, 28.6339989], [-90.0858154, 28.6420193], [-90.0849228, 28.6500587], [-90.083847, 28.6581116], [-90.0826111, 28.6661816], [-90.081192, 28.6742554], [-90.0796127, 28.6823387], [-90.0778427, 28.6904259], [-90.0759048, 28.698513], [-90.0737839, 28.7066002], [-90.0714874, 28.7146835], [-90.0690079, 28.7227554], [-90.0663605, 28.7308178], [-90.06353, 28.7388687], [-90.060524, 28.7469006], [-90.0573349, 28.7549095], [-90.0539703, 28.7628994], [-90.0504227, 28.7708645], [-90.0466919, 28.7787991], [-90.0427856, 28.7866993], [-90.0386963, 28.7945652], [-90.0344315, 28.8023911], [-90.0299835, 28.8101768], [-90.0253601, 28.8179188], [-90.0205994, 28.8256493], [-90.0157471, 28.8334045], [-90.010788, 28.8411865], [-90.005722, 28.8489857], [-90.0005722, 28.8568077], [-89.9952927, 28.8646507], [-89.9899063, 28.8725147], [-89.9844055, 28.8804016], [-89.9787979, 28.8883018], [-89.9730301, 28.896183], [-89.9670715, 28.9040089], [-89.9608994, 28.9117661], [-89.9545364, 28.9194603], [-89.9479675, 28.927084], [-89.9412079, 28.9346352], [-89.9342575, 28.9421082], [-89.9271088, 28.949501], [-89.9197693, 28.9568043], [-89.9122162, 28.9640198], [-89.9044952, 28.9711475], [-89.8965683, 28.9781761], [-89.8884583, 28.9851074], [-89.8801575, 28.99193], [-89.8716736, 28.9986496], [-89.862999, 29.0052586], [-89.8541565, 29.0117531], [-89.8451309, 29.0181313], [-89.8359222, 29.0243835], [-89.8265381, 29.0305138], [-89.8169861, 29.03652], [-89.807251, 29.0423889], [-89.7973557, 29.0481262], [-89.7872925, 29.0537243], [-89.7770615, 29.0591812], [-89.7666702, 29.0644913], [-89.7561188, 29.0696507], [-89.7454147, 29.0746632], [-89.7345505, 29.0795193], [-89.7235413, 29.084219], [-89.7123795, 29.0887547], [-89.7010803, 29.0931301], [-89.6896286, 29.0973301], [-89.6780472, 29.1013699], [-89.6663361, 29.1052284], [-89.65448, 29.1089134], [-89.6425018, 29.1124191], [-89.6304016, 29.1157455], [-89.6181793, 29.1188889], [-89.6058502, 29.1218433], [-89.593399, 29.1246071]]]}}]}