{"type": "FeatureCollection", "features": [{"type": "Feature", "properties": {"shapefile": "al092021-012_5day_pgn", "STORMNAME": "Ida", "STORMTYPE": "HU", "ADVDATE": "400 AM CDT Sun Aug 29 2021", "ADVISNUM": "12", "STORMNUM": 9, "FCSTPRD": 120, "BASIN": "AL"}, "geometry": {"type": "Polygon", "coordinates": [[[-89.17999, 27.75286], [-89.15473, 27.74901], [-89.12742, 27.74723], [-89.09832, 27.74723], [-89.06853, 27.74901], [-89.03917, 27.75286], [-89.01103, 27.75878], [-88.98454, 27.76661], [-88.94844, 27.78201], [-88.92675, 27.79466], [-88.90644, 27.80869], [-88.8875, 27.82409], [-88.87019, 27.84113], [-88.85428, 27.85956], [-88.84055, 27.88018], [-88.82504, 27.9162], [-88.8179, 27.94315], [-88.81364, 27.97216], [-88.81228, 28.00241], [-88.81364, 28.03265], [-88.8179, 28.06167], [-88.82504, 28.08862], [-88.83493, 28.11309], [-88.84728, 28.13509], [-88.86169, 28.15502], [-88.88557, 28.18266], [-88.90233, 28.20026], [-88.91056, 28.20919], [-88.93499, 28.23628], [-88.94267, 28.24577], [-88.96519, 28.27478], [-88.97973, 28.29457], [-88.99428, 28.31437], [-89.00911, 28.3339], [-89.0168, 28.34338], [-89.04068, 28.37102], [-89.05714, 28.38889], [-89.06566, 28.39756], [-89.08267, 28.41488], [-89.10847, 28.44059], [-89.1255, 28.45791], [-89.13414, 28.46643], [-89.15131, 28.48362], [-89.17711, 28.50933], [-89.18562, 28.51799], [-89.21143, 28.5437], [-89.22844, 28.56103], [-89.24574, 28.57808], [-89.26276, 28.5954], [-89.28004, 28.61245], [-89.28856, 28.62111], [-89.31436, 28.64682], [-89.33139, 28.66415], [-89.34868, 28.6812], [-89.36571, 28.69852], [-89.383, 28.71557], [-89.40001, 28.73289], [-89.40852, 28.74156], [-89.42527, 28.75916], [-89.4497, 28.78624], [-89.46507, 28.80521], [-89.47248, 28.81498], [-89.48717, 28.83464], [-89.50171, 28.85443], [-89.52382, 28.88386], [-89.53151, 28.89334], [-89.55539, 28.92098], [-89.57185, 28.93885], [-89.58861, 28.95645], [-89.60507, 28.97433], [-89.62127, 28.99248], [-89.62895, 29.00196], [-89.64405, 29.02121], [-89.65874, 29.04087], [-89.67328, 29.06067], [-89.68784, 29.08047], [-89.70993, 29.10989], [-89.71748, 29.11952], [-89.73985, 29.14867], [-89.7544, 29.16846], [-89.76868, 29.18854], [-89.78268, 29.20889], [-89.78954, 29.2192], [-89.80313, 29.23996], [-89.82303, 29.27158], [-89.82947, 29.28231], [-89.84828, 29.31503], [-89.85419, 29.3263], [-89.86599, 29.34885], [-89.87766, 29.37153], [-89.88905, 29.3945], [-89.90044, 29.41746], [-89.91197, 29.44028], [-89.92337, 29.46324], [-89.93476, 29.4862], [-89.94629, 29.50903], [-89.95768, 29.53199], [-89.96344, 29.5434], [-89.9806, 29.57777], [-89.99199, 29.60073], [-90.00339, 29.62369], [-90.01491, 29.64651], [-90.02631, 29.66948], [-90.03769, 29.69244], [-90.04923, 29.71526], [-90.06062, 29.73822], [-90.07201, 29.76118], [-90.08354, 29.78401], [-90.0948, 29.8071], [-90.10577, 29.83048], [-90.11662, 29.85399], [-90.12691, 29.87805], [-90.13652, 29.9028], [-90.14586, 29.92782], [-90.15491, 29.95312], [-90.16356, 29.97883], [-90.17221, 30.00454], [-90.18126, 30.02984], [-90.1906, 30.05486], [-90.20007, 30.07975], [-90.20982, 30.10436], [-90.21956, 30.12897], [-90.22876, 30.15413], [-90.23727, 30.17998], [-90.24522, 30.20638], [-90.25264, 30.23332], [-90.25607, 30.24707], [-90.2665, 30.28818], [-90.27337, 30.31568], [-90.28023, 30.34318], [-90.28366, 30.35693], [-90.29382, 30.39831], [-90.30013, 30.42636], [-90.30576, 30.4551], [-90.31042, 30.48479], [-90.31386, 30.51573], [-90.31605, 30.5479], [-90.31729, 30.58104], [-90.31783, 30.61486], [-90.31797, 30.64909], [-90.31797, 30.68347], [-90.31797, 30.71784], [-90.31797, 30.75221], [-90.31797, 30.78658], [-90.31783, 30.82082], [-90.31728, 30.85464], [-90.31604, 30.88778], [-90.31385, 30.91995], [-90.31042, 30.95089], [-90.30836, 30.96601], [-90.30067, 31.00986], [-90.29505, 31.0386], [-90.28928, 31.0672], [-90.28365, 31.09594], [-90.27803, 31.12467], [-90.27213, 31.15313], [-90.26596, 31.18132], [-90.25951, 31.20923], [-90.25278, 31.23687], [-90.24934, 31.25061], [-90.2385, 31.29131], [-90.23096, 31.31812], [-90.22313, 31.34466], [-90.2149, 31.37078], [-90.20639, 31.39663], [-90.20213, 31.40955], [-90.18922, 31.44819], [-90.18017, 31.47348], [-90.17084, 31.49851], [-90.16122, 31.52326], [-90.15628, 31.53549], [-90.14558, 31.55914], [-90.1291, 31.5942], [-90.11785, 31.6173], [-90.10632, 31.64012], [-90.09493, 31.66308], [-90.08354, 31.68605], [-90.07201, 31.70887], [-90.06625, 31.72028], [-90.05499, 31.74338], [-90.04346, 31.7662], [-90.02631, 31.80057], [-90.01492, 31.82354], [-90.00916, 31.83495], [-89.99734, 31.85749], [-89.97937, 31.89104], [-89.97319, 31.90204], [-89.95369, 31.93408], [-89.94051, 31.95525], [-89.93393, 31.96584], [-89.91431, 31.99774], [-89.90154, 32.01932], [-89.88905, 32.04118], [-89.88287, 32.05218], [-89.86996, 32.07363], [-89.85652, 32.09453], [-89.83524, 32.12477], [-89.82042, 32.1443], [-89.81287, 32.15392], [-89.79077, 32.18335], [-89.77623, 32.20314], [-89.76167, 32.22295], [-89.74713, 32.24274], [-89.73985, 32.25264], [-89.71748, 32.28179], [-89.70993, 32.29141], [-89.68784, 32.32084], [-89.68056, 32.33073], [-89.65874, 32.36043], [-89.65146, 32.37033], [-89.62895, 32.39934], [-89.62126, 32.40883], [-89.60506, 32.42698], [-89.58859, 32.44485], [-89.57158, 32.46217], [-89.55456, 32.4795], [-89.53726, 32.49655], [-89.52023, 32.51387], [-89.50322, 32.5312], [-89.48675, 32.54907], [-89.47055, 32.56722], [-89.45518, 32.5862], [-89.43309, 32.61562], [-89.42581, 32.62552], [-89.40331, 32.65453], [-89.39561, 32.66402], [-89.37915, 32.68189], [-89.3613, 32.69839], [-89.34236, 32.71378], [-89.32287, 32.72863], [-89.30311, 32.74321], [-89.28362, 32.75805], [-89.26467, 32.77345], [-89.24655, 32.78968], [-89.22871, 32.80618], [-89.21142, 32.82323], [-89.19412, 32.84027], [-89.17709, 32.8576], [-89.15981, 32.87465], [-89.13359, 32.89995], [-89.12467, 32.9082], [-89.10655, 32.92442], [-89.08762, 32.93982], [-89.06812, 32.95467], [-89.04836, 32.96924], [-89.02859, 32.98381], [-89.00883, 32.99839], [-88.98933, 33.01324], [-88.97012, 33.02837], [-88.95064, 33.04321], [-88.93086, 33.05779], [-88.9111, 33.07236], [-88.89133, 33.08693], [-88.87157, 33.10151], [-88.85208, 33.11636], [-88.83287, 33.13148], [-88.81337, 33.14632], [-88.79361, 33.1609], [-88.77357, 33.1752], [-88.75327, 33.18922], [-88.73268, 33.20297], [-88.72238, 33.20985], [-88.7018, 33.22359], [-88.6812, 33.23734], [-88.65032, 33.25797], [-88.62973, 33.27172], [-88.61944, 33.27859], [-88.59885, 33.29234], [-88.56796, 33.31297], [-88.54738, 33.32671], [-88.53709, 33.33359], [-88.50594, 33.35394], [-88.48479, 33.36714], [-88.46338, 33.38006], [-88.4417, 33.39271], [-88.41974, 33.40509], [-88.40889, 33.41141], [-88.37664, 33.43066], [-88.36607, 33.43726], [-88.34492, 33.45046], [-88.31322, 33.47026], [-88.29181, 33.48318], [-88.27013, 33.49583], [-88.25916, 33.50202], [-88.22647, 33.52085], [-88.20507, 33.53378], [-88.18393, 33.54697], [-88.1628, 33.56017], [-88.15222, 33.56677], [-88.12024, 33.5863], [-88.09856, 33.59895], [-88.0766, 33.61132], [-88.0549, 33.62397], [-88.0335, 33.63689], [-88.01236, 33.65009], [-87.99123, 33.66329], [-87.98065, 33.66989], [-87.95937, 33.68295], [-87.92671, 33.70179], [-87.9042, 33.71361], [-87.88169, 33.72544], [-87.8589, 33.73698], [-87.83585, 33.74826], [-87.81306, 33.75981], [-87.8018, 33.76572], [-87.7793, 33.77755], [-87.74608, 33.79583], [-87.72467, 33.80876], [-87.70353, 33.82195], [-87.69296, 33.82855], [-87.67183, 33.84175], [-87.65054, 33.85482], [-87.61789, 33.87365], [-87.59538, 33.88548], [-87.58412, 33.89139], [-87.55008, 33.90885], [-87.53854, 33.91449], [-87.50423, 33.93167], [-87.48145, 33.94322], [-87.46992, 33.94886], [-87.447, 33.96027], [-87.42422, 33.97182], [-87.40131, 33.98323], [-87.36698, 34.00042], [-87.35559, 34.0062], [-87.33267, 34.0176], [-87.30974, 34.02901], [-87.28696, 34.04057], [-87.25252, 34.05761], [-87.22973, 34.06916], [-87.21834, 34.07494], [-87.19527, 34.08621], [-87.17194, 34.09721], [-87.13667, 34.11343], [-87.12445, 34.11839], [-87.09988, 34.12814], [-87.07531, 34.13791], [-87.05075, 34.14767], [-87.02617, 34.15743], [-86.99035, 34.1731], [-86.96701, 34.1841], [-86.95535, 34.18961], [-86.9209, 34.20665], [-86.90951, 34.21243], [-86.87506, 34.22948], [-86.86366, 34.23525], [-86.84088, 34.2468], [-86.80643, 34.26385], [-86.79503, 34.26962], [-86.76086, 34.28695], [-86.74919, 34.29245], [-86.72586, 34.30345], [-86.70239, 34.31431], [-86.66615, 34.32957], [-86.6538, 34.33438], [-86.61702, 34.34909], [-86.60467, 34.3539], [-86.58009, 34.36366], [-86.55608, 34.37398], [-86.52094, 34.39034], [-86.49733, 34.40106], [-86.474, 34.41206], [-86.46219, 34.41742], [-86.43818, 34.42773], [-86.40125, 34.44231], [-86.38903, 34.44726], [-86.36447, 34.45702], [-86.33976, 34.46664], [-86.31533, 34.47655], [-86.29117, 34.48672], [-86.25439, 34.50143], [-86.2419, 34.5061], [-86.21692, 34.51545], [-86.17891, 34.52893], [-86.166, 34.53319], [-86.14034, 34.54185], [-86.11507, 34.55093], [-86.07761, 34.56495], [-86.0529, 34.57458], [-86.04082, 34.57967], [-86.00459, 34.59492], [-85.97987, 34.60455], [-85.9549, 34.6139], [-85.92991, 34.62325], [-85.91714, 34.62764], [-85.89148, 34.63631], [-85.86568, 34.64483], [-85.84001, 34.6535], [-85.81435, 34.66216], [-85.78854, 34.67068], [-85.74984, 34.68347], [-85.73708, 34.68787], [-85.71141, 34.69653], [-85.68561, 34.70506], [-85.65981, 34.71358], [-85.63414, 34.72224], [-85.60846, 34.7309], [-85.58266, 34.73943], [-85.55685, 34.74795], [-85.53119, 34.75661], [-85.50552, 34.76527], [-85.46682, 34.77806], [-85.45392, 34.78232], [-85.42825, 34.79099], [-85.40257, 34.79964], [-85.37677, 34.80817], [-85.35097, 34.8167], [-85.3253, 34.82536], [-85.28674, 34.83828], [-85.27383, 34.84254], [-85.24803, 34.85107], [-85.22237, 34.85973], [-85.1967, 34.86839], [-85.15799, 34.88118], [-85.14509, 34.88544], [-85.11942, 34.8941], [-85.09375, 34.90276], [-85.06795, 34.91129], [-85.04215, 34.91982], [-85.01649, 34.92847], [-84.99081, 34.93713], [-84.96501, 34.94566], [-84.9263, 34.95845], [-84.91354, 34.96284], [-84.88787, 34.97151], [-84.86207, 34.98003], [-84.84917, 34.98429], [-84.79784, 35.00162], [-84.78493, 35.00588], [-84.75912, 35.0144], [-84.73332, 35.02293], [-84.70766, 35.03159], [-84.68199, 35.04025], [-84.65619, 35.04878], [-84.63038, 35.0573], [-84.60458, 35.06583], [-84.57836, 35.07394], [-84.55146, 35.08136], [-84.52401, 35.08824], [-84.49601, 35.09456], [-84.46746, 35.10034], [-84.43877, 35.10597], [-84.41035, 35.11189], [-84.38222, 35.11808], [-84.35435, 35.12454], [-84.32677, 35.13127], [-84.29932, 35.13815], [-84.27174, 35.14488], [-84.24387, 35.15135], [-84.21573, 35.15753], [-84.18732, 35.16345], [-84.15863, 35.16908], [-84.12994, 35.17472], [-84.10139, 35.1805], [-84.07285, 35.18627], [-84.0443, 35.19204], [-84.01575, 35.19781], [-83.98707, 35.20346], [-83.95837, 35.20909], [-83.92996, 35.215], [-83.90183, 35.22119], [-83.87397, 35.22765], [-83.84637, 35.23439], [-83.81893, 35.24126], [-83.79134, 35.248], [-83.76347, 35.25446], [-83.73534, 35.26065], [-83.70692, 35.26656], [-83.67824, 35.2722], [-83.64955, 35.27784], [-83.62114, 35.28375], [-83.593, 35.28993], [-83.56514, 35.2964], [-83.53755, 35.30313], [-83.5101, 35.31001], [-83.48251, 35.31675], [-83.45465, 35.32321], [-83.42651, 35.3294], [-83.3981, 35.33531], [-83.36942, 35.34094], [-83.34073, 35.34658], [-83.31232, 35.35249], [-83.28418, 35.35868], [-83.25632, 35.36514], [-83.215, 35.37532], [-83.20128, 35.37875], [-83.17369, 35.38549], [-83.14581, 35.39195], [-83.11768, 35.39814], [-83.08928, 35.40405], [-83.06059, 35.40969], [-83.0319, 35.41533], [-83.00349, 35.42124], [-82.97536, 35.42743], [-82.94749, 35.43389], [-82.9199, 35.44063], [-82.89246, 35.4475], [-82.86486, 35.45424], [-82.837, 35.4607], [-82.80886, 35.46689], [-82.78045, 35.4728], [-82.75176, 35.47844], [-82.72308, 35.48407], [-82.69466, 35.48999], [-82.66653, 35.49617], [-82.63866, 35.50264], [-82.61108, 35.50937], [-82.58363, 35.51625], [-82.55604, 35.52298], [-82.52818, 35.52945], [-82.50003, 35.53563], [-82.47163, 35.54155], [-82.44294, 35.54718], [-82.41425, 35.55282], [-82.38583, 35.55873], [-82.3577, 35.56492], [-82.32984, 35.57138], [-82.28853, 35.58155], [-82.2748, 35.58499], [-82.24722, 35.59173], [-82.21935, 35.59819], [-82.19121, 35.60438], [-82.1628, 35.61029], [-82.13411, 35.61593], [-82.10542, 35.62156], [-82.07701, 35.62747], [-82.04888, 35.63366], [-82.02102, 35.64012], [-81.99343, 35.64686], [-81.96598, 35.65373], [-81.93839, 35.66047], [-81.91052, 35.66693], [-81.88239, 35.67312], [-81.85398, 35.67903], [-81.82529, 35.68467], [-81.79661, 35.69031], [-81.7682, 35.69622], [-81.74005, 35.70241], [-81.7122, 35.70887], [-81.6846, 35.71561], [-81.65716, 35.72248], [-81.62956, 35.72922], [-81.6017, 35.73568], [-81.57356, 35.74187], [-81.54515, 35.74778], [-81.51646, 35.75342], [-81.48778, 35.75906], [-81.45937, 35.76497], [-81.43123, 35.77115], [-81.40337, 35.77762], [-81.37578, 35.78435], [-81.34833, 35.79123], [-81.32074, 35.79796], [-81.29288, 35.80443], [-81.26474, 35.81062], [-81.23633, 35.81653], [-81.20764, 35.82217], [-81.17896, 35.8278], [-81.15054, 35.83371], [-81.12241, 35.8399], [-81.09454, 35.84636], [-81.06696, 35.8531], [-81.03951, 35.85997], [-81.01205, 35.86685], [-80.9846, 35.87372], [-80.95715, 35.8806], [-80.9297, 35.88747], [-80.90225, 35.89434], [-80.87466, 35.90108], [-80.84679, 35.90754], [-80.81866, 35.91373], [-80.79025, 35.91964], [-80.76156, 35.92528], [-80.73287, 35.93092], [-80.70447, 35.93683], [-80.67633, 35.94302], [-80.6346, 35.95277], [-80.62087, 35.95621], [-80.59342, 35.96309], [-80.56583, 35.96982], [-80.53796, 35.97629], [-80.50983, 35.98247], [-80.48142, 35.98838], [-80.45274, 35.99402], [-80.42405, 35.99966], [-80.39564, 36.00557], [-80.3675, 36.01176], [-80.33964, 36.01822], [-80.31205, 36.02496], [-80.2846, 36.03183], [-80.25701, 36.03857], [-80.22915, 36.04503], [-80.201, 36.05122], [-80.17259, 36.05713], [-80.14391, 36.06277], [-80.11523, 36.06841], [-80.08681, 36.07432], [-80.05867, 36.0805], [-80.03081, 36.08696], [-80.00323, 36.0937], [-79.97578, 36.10057], [-79.94819, 36.10732], [-79.92032, 36.11378], [-79.89218, 36.11996], [-79.86377, 36.12588], [-79.83508, 36.13152], [-79.8064, 36.13715], [-79.77798, 36.14306], [-79.74985, 36.14925], [-79.72198, 36.15571], [-79.6944, 36.16245], [-79.66695, 36.16932], [-79.63936, 36.17606], [-79.6115, 36.18252], [-79.58336, 36.18871], [-79.55495, 36.19462], [-79.52626, 36.20026], [-79.49757, 36.2059], [-79.46916, 36.21181], [-79.44102, 36.21799], [-79.41316, 36.22446], [-79.38557, 36.23119], [-79.35812, 36.23807], [-79.33067, 36.24494], [-79.30322, 36.25182], [-79.27577, 36.25869], [-79.24832, 36.26556], [-79.22087, 36.27244], [-79.17941, 36.28248], [-79.16541, 36.28564], [-79.12314, 36.29485], [-79.10887, 36.29774], [-79.08018, 36.30338], [-79.05149, 36.30902], [-79.02308, 36.31493], [-78.99495, 36.32111], [-78.96708, 36.32758], [-78.93949, 36.33431], [-78.91204, 36.34119], [-78.88445, 36.34792], [-78.85659, 36.35439], [-78.82845, 36.36057], [-78.80003, 36.36649], [-78.77135, 36.37212], [-78.74267, 36.37776], [-78.71426, 36.38367], [-78.68612, 36.38986], [-78.65826, 36.39632], [-78.63067, 36.40306], [-78.60322, 36.40993], [-78.57563, 36.41667], [-78.54777, 36.42313], [-78.51962, 36.42932], [-78.49122, 36.43523], [-78.46253, 36.44087], [-78.43385, 36.4465], [-78.40543, 36.45242], [-78.3773, 36.4586], [-78.34943, 36.46507], [-78.32185, 36.4718], [-78.2944, 36.47868], [-78.26681, 36.48541], [-78.23894, 36.49187], [-78.2108, 36.49806], [-78.18239, 36.50397], [-78.1537, 36.50961], [-78.12502, 36.51525], [-78.0966, 36.52116], [-78.06847, 36.52735], [-78.04061, 36.53381], [-78.01302, 36.54055], [-77.98557, 36.54742], [-77.95812, 36.55429], [-77.93066, 36.56117], [-77.90321, 36.56805], [-77.87576, 36.57492], [-77.84845, 36.58193], [-77.82141, 36.58922], [-77.79465, 36.59678], [-77.76816, 36.60461], [-77.74208, 36.61287], [-77.71628, 36.62139], [-77.69046, 36.62991], [-77.66479, 36.63858], [-77.63954, 36.64765], [-77.61456, 36.657], [-77.58972, 36.66649], [-77.55322, 36.68147], [-77.54114, 36.68656], [-77.51671, 36.69646], [-77.47964, 36.7109], [-77.46743, 36.71585], [-77.44286, 36.72561], [-77.40608, 36.74032], [-77.38248, 36.75105], [-77.35913, 36.76205], [-77.34747, 36.76755], [-77.32442, 36.77882], [-77.30162, 36.79037], [-77.27871, 36.80178], [-77.25578, 36.81319], [-77.22161, 36.83051], [-77.21008, 36.83615], [-77.17577, 36.85334], [-77.16437, 36.85911], [-77.12993, 36.87616], [-77.10713, 36.88771], [-77.09589, 36.89362], [-77.06212, 36.91136], [-77.05114, 36.91755], [-77.02945, 36.93019], [-76.9976, 36.94986], [-76.97675, 36.96333], [-76.96645, 36.9702], [-76.93556, 36.99083], [-76.91498, 37.00457], [-76.89439, 37.01833], [-76.87379, 37.03207], [-76.86351, 37.03895], [-76.83263, 37.05957], [-76.82233, 37.06644], [-76.79145, 37.08707], [-76.77086, 37.10082], [-76.76057, 37.1077], [-76.72997, 37.12859], [-76.70992, 37.14289], [-76.69042, 37.15774], [-76.67148, 37.17314], [-76.65309, 37.18909], [-76.6255, 37.21301], [-76.61631, 37.22099], [-76.59737, 37.23638], [-76.57787, 37.25123], [-76.54823, 37.27309], [-76.53835, 37.28038], [-76.51885, 37.29523], [-76.49992, 37.31062], [-76.4818, 37.32685], [-76.45531, 37.35188], [-76.44666, 37.3604], [-76.42085, 37.38611], [-76.41235, 37.39478], [-76.38708, 37.42104], [-76.37076, 37.43904], [-76.35497, 37.45761], [-76.34728, 37.46709], [-76.32519, 37.49652], [-76.31791, 37.50642], [-76.30336, 37.52621], [-76.28854, 37.54574], [-76.27316, 37.56471], [-76.25697, 37.58286], [-76.24049, 37.60074], [-76.22375, 37.61833], [-76.20728, 37.63621], [-76.1834, 37.66384], [-76.17571, 37.67332], [-76.15376, 37.70289], [-76.14661, 37.71292], [-76.12576, 37.74359], [-76.11889, 37.7539], [-76.09886, 37.78539], [-76.08582, 37.80669], [-76.07936, 37.81742], [-76.06056, 37.85014], [-76.04807, 37.872], [-76.04176, 37.88287], [-76.02885, 37.90431], [-76.00908, 37.93607], [-76.00249, 37.94666], [-75.98286, 37.97855], [-75.97641, 37.98928], [-75.9583, 38.02269], [-75.94691, 38.04565], [-75.93593, 38.06903], [-75.92564, 38.09309], [-75.91589, 38.1177], [-75.90614, 38.14231], [-75.8964, 38.16692], [-75.8868, 38.19167], [-75.87691, 38.21614], [-75.86676, 38.24034], [-75.85687, 38.26481], [-75.8474, 38.2897], [-75.8382, 38.31486], [-75.82956, 38.34057], [-75.82159, 38.36697], [-75.81406, 38.39378], [-75.80678, 38.42086], [-75.79977, 38.44822], [-75.79305, 38.47586], [-75.78673, 38.5039], [-75.78097, 38.53251], [-75.77576, 38.56165], [-75.77109, 38.59135], [-75.76669, 38.62132], [-75.76203, 38.65102], [-75.75694, 38.68031], [-75.75174, 38.70945], [-75.74666, 38.73874], [-75.74213, 38.76857], [-75.73869, 38.79951], [-75.7365, 38.83168], [-75.73527, 38.86481], [-75.73472, 38.89864], [-75.73458, 38.93287], [-75.73458, 38.96725], [-75.73472, 39.00148], [-75.73527, 39.0353], [-75.7365, 39.06844], [-75.73869, 39.10061], [-75.74213, 39.13155], [-75.74666, 39.16138], [-75.75188, 39.19053], [-75.7575, 39.21927], [-75.76327, 39.24786], [-75.7689, 39.2766], [-75.77452, 39.30534], [-75.78043, 39.3338], [-75.78659, 39.36198], [-75.79305, 39.38989], [-75.79977, 39.41753], [-75.80678, 39.44489], [-75.81405, 39.47197], [-75.82159, 39.49879], [-75.82942, 39.52532], [-75.83765, 39.55145], [-75.8419, 39.56437], [-75.85468, 39.60314], [-75.86333, 39.62885], [-75.87239, 39.65415], [-75.88171, 39.67917], [-75.89133, 39.70392], [-75.90162, 39.72798], [-75.91246, 39.7515], [-75.92345, 39.77486], [-75.9347, 39.79797], [-75.94623, 39.82079], [-75.95762, 39.84375], [-75.96901, 39.86671], [-75.98067, 39.8894], [-75.99248, 39.91194], [-76.00456, 39.93422], [-76.01718, 39.95594], [-76.03023, 39.97725], [-76.04355, 39.99829], [-76.064, 40.02936], [-76.071, 40.03954], [-76.08513, 40.05974], [-76.10681, 40.08958], [-76.11423, 40.09934], [-76.12919, 40.11873], [-76.14415, 40.13811], [-76.15883, 40.15778], [-76.17339, 40.17757], [-76.19521, 40.20727], [-76.20262, 40.21703], [-76.21771, 40.23628], [-76.23351, 40.25484], [-76.24983, 40.27286], [-76.27509, 40.29912], [-76.2836, 40.30778], [-76.30076, 40.32497], [-76.32642, 40.35081], [-76.34372, 40.36786], [-76.35223, 40.37653], [-76.36938, 40.39371], [-76.38655, 40.4109], [-76.4037, 40.42809], [-76.42085, 40.44527], [-76.43802, 40.46246], [-76.46368, 40.4883], [-76.48097, 40.50536], [-76.48949, 40.51402], [-76.50664, 40.5312], [-76.53258, 40.55677], [-76.5415, 40.56502], [-76.55949, 40.58138], [-76.57801, 40.59719], [-76.60698, 40.61974], [-76.61686, 40.62703], [-76.63662, 40.6416], [-76.66627, 40.66347], [-76.67601, 40.67089], [-76.69537, 40.68587], [-76.71472, 40.70086], [-76.73434, 40.71557], [-76.75424, 40.73001], [-76.78458, 40.75118], [-76.80517, 40.76493], [-76.82603, 40.77841], [-76.84717, 40.79161], [-76.85788, 40.79807], [-76.87943, 40.81086], [-76.91223, 40.82956], [-76.92307, 40.83588], [-76.95533, 40.85513], [-76.98703, 40.87493], [-76.9976, 40.88153], [-77.01874, 40.89473], [-77.05113, 40.91383], [-77.06212, 40.92002], [-77.08462, 40.93185], [-77.10713, 40.94367], [-77.12991, 40.95522], [-77.15297, 40.96649], [-77.17577, 40.97804], [-77.18715, 40.98382], [-77.22188, 41.0006], [-77.23355, 41.0061], [-77.28104, 41.02726], [-77.29325, 41.03221], [-77.31796, 41.04184], [-77.35474, 41.05655], [-77.37946, 41.06617], [-77.3918, 41.07098], [-77.42804, 41.08625], [-77.44012, 41.09133], [-77.46482, 41.10096], [-77.4898, 41.11031], [-77.51479, 41.11966], [-77.55322, 41.13272], [-77.57902, 41.14124], [-77.59192, 41.1455], [-77.61745, 41.1543], [-77.65616, 41.16709], [-77.68196, 41.17561], [-77.69485, 41.17988], [-77.72066, 41.1884], [-77.76033, 41.20023], [-77.77365, 41.20407], [-77.81413, 41.21507], [-77.84145, 41.22209], [-77.85518, 41.22552], [-77.89635, 41.23584], [-77.92381, 41.24271], [-77.93753, 41.24615], [-77.96498, 41.25302], [-77.99243, 41.2599], [-78.02016, 41.26649], [-78.0623, 41.27585], [-78.07644, 41.27887], [-78.11939, 41.2874], [-78.1338, 41.29015], [-78.17663, 41.29881], [-78.20531, 41.30444], [-78.21973, 41.30719], [-78.2491, 41.31214], [-78.2944, 41.31833], [-78.32528, 41.32176], [-78.34079, 41.32342], [-78.38649, 41.32919], [-78.41615, 41.33386], [-78.43083, 41.33634], [-78.47461, 41.34404], [-78.50439, 41.34857], [-78.53528, 41.35201], [-78.55106, 41.35339], [-78.60048, 41.35545], [-78.63425, 41.356], [-78.66842, 41.35614], [-78.70274, 41.35614], [-78.73705, 41.35614], [-78.77136, 41.35614], [-78.80568, 41.35614], [-78.83999, 41.35614], [-78.87431, 41.35614], [-78.90862, 41.35614], [-78.94293, 41.35614], [-78.97725, 41.35614], [-79.01156, 41.35614], [-79.04588, 41.35614], [-79.08018, 41.35614], [-79.1145, 41.35614], [-79.14867, 41.356], [-79.16542, 41.35559], [-79.21552, 41.35422], [-79.24763, 41.35201], [-79.27853, 41.34858], [-79.3083, 41.34404], [-79.33753, 41.33895], [-79.36677, 41.33387], [-79.39642, 41.32919], [-79.42676, 41.3252], [-79.45763, 41.32177], [-79.48852, 41.31833], [-79.51884, 41.31435], [-79.5485, 41.30967], [-79.57773, 41.30458], [-79.60683, 41.29935], [-79.63606, 41.29427], [-79.66571, 41.2896], [-79.69563, 41.28519], [-79.72528, 41.28052], [-79.75438, 41.2753], [-79.78293, 41.26952], [-79.81093, 41.2632], [-79.83852, 41.25646], [-79.86597, 41.24959], [-79.89342, 41.24271], [-79.92087, 41.23584], [-79.94832, 41.22896], [-79.97577, 41.22209], [-80.00309, 41.21508], [-80.03013, 41.20779], [-80.0569, 41.20023], [-80.09656, 41.1884], [-80.10946, 41.18414], [-80.13527, 41.17561], [-80.16107, 41.16709], [-80.18674, 41.15843], [-80.21199, 41.14935], [-80.24946, 41.13533], [-80.26181, 41.13052], [-80.28624, 41.12062], [-80.32248, 41.10535], [-80.33484, 41.10054], [-80.35954, 41.09092], [-80.38411, 41.08116], [-80.40868, 41.0714], [-80.43324, 41.06163], [-80.45726, 41.05132], [-80.48073, 41.04046], [-80.50407, 41.02946], [-80.52713, 41.01819], [-80.54991, 41.00664], [-80.58437, 40.98959], [-80.59575, 40.98381], [-80.62993, 40.96649], [-80.65298, 40.95522], [-80.66438, 40.94944], [-80.68716, 40.9379], [-80.72189, 40.92112], [-80.73356, 40.91562], [-80.75703, 40.90476], [-80.79327, 40.8895], [-80.81798, 40.87988], [-80.84241, 40.86998], [-80.85475, 40.86517], [-80.87932, 40.8554], [-80.90335, 40.84509], [-80.93848, 40.82873], [-80.95015, 40.82323], [-80.9846, 40.80618], [-81.00739, 40.79463], [-81.03044, 40.78336], [-81.05323, 40.7718], [-81.07601, 40.76025], [-81.08754, 40.75462], [-81.12186, 40.73743], [-81.14464, 40.72588], [-81.16769, 40.71461], [-81.19048, 40.70306], [-81.20187, 40.69728], [-81.23633, 40.68024], [-81.24773, 40.67446], [-81.28189, 40.65714], [-81.29343, 40.6515], [-81.31635, 40.64009], [-81.33913, 40.62854], [-81.36205, 40.61713], [-81.38498, 40.60572], [-81.40776, 40.59417], [-81.43068, 40.58276], [-81.465, 40.56557], [-81.47639, 40.5598], [-81.49931, 40.54839], [-81.53362, 40.5312], [-81.5564, 40.51965], [-81.56793, 40.51401], [-81.59087, 40.5026], [-81.61365, 40.49105], [-81.64809, 40.474], [-81.67088, 40.46245], [-81.69366, 40.4509], [-81.71672, 40.43963], [-81.72812, 40.43386], [-81.7509, 40.42231], [-81.78563, 40.40553], [-81.79729, 40.40003], [-81.82076, 40.38917], [-81.84478, 40.37886], [-81.86935, 40.36909], [-81.89392, 40.35934], [-81.91849, 40.34958], [-81.95528, 40.33486], [-81.97888, 40.32414], [-82.00221, 40.31314], [-82.01388, 40.30764], [-82.03694, 40.29636], [-82.07111, 40.27904], [-82.08264, 40.2734], [-82.10556, 40.26199], [-82.13974, 40.24467], [-82.1628, 40.23339], [-82.17419, 40.22762], [-82.20837, 40.2103], [-82.21989, 40.20466], [-82.24282, 40.19324], [-82.27699, 40.17592], [-82.28851, 40.17028], [-82.32284, 40.1531], [-82.34563, 40.14155], [-82.35715, 40.13591], [-82.38008, 40.1245], [-82.40286, 40.11295], [-82.43758, 40.09618], [-82.46092, 40.08518], [-82.47272, 40.07982], [-82.49674, 40.0695], [-82.52131, 40.05975], [-82.54588, 40.04998], [-82.57045, 40.04022], [-82.59502, 40.03046], [-82.61903, 40.02015], [-82.65417, 40.00378], [-82.67751, 39.99278], [-82.70029, 39.98124], [-82.72308, 39.96969], [-82.74614, 39.95841], [-82.75753, 39.95264], [-82.78031, 39.94109], [-82.80322, 39.92968], [-82.83755, 39.91249], [-82.86034, 39.90094], [-82.87186, 39.89531], [-82.90618, 39.87812], [-82.91757, 39.87234], [-82.95201, 39.8553], [-82.9748, 39.84375], [-82.99759, 39.8322], [-83.02065, 39.82092], [-83.03204, 39.81515], [-83.06622, 39.79782], [-83.08955, 39.78683], [-83.10121, 39.78133], [-83.12469, 39.77046], [-83.16092, 39.7552], [-83.18562, 39.74558], [-83.21007, 39.73568], [-83.23477, 39.72606], [-83.24698, 39.72111], [-83.28281, 39.70543], [-83.29448, 39.69993], [-83.32947, 39.68343], [-83.34087, 39.67766], [-83.37505, 39.66034], [-83.38657, 39.6547], [-83.4095, 39.64329], [-83.43228, 39.63174], [-83.4552, 39.62033], [-83.47812, 39.60891], [-83.5123, 39.59159], [-83.53535, 39.58032], [-83.54675, 39.57454], [-83.56953, 39.56299], [-83.59245, 39.55158], [-83.61538, 39.54017], [-83.64955, 39.52284], [-83.66107, 39.51721], [-83.6954, 39.50002], [-83.70679, 39.49425], [-83.72971, 39.48283], [-83.75264, 39.47142], [-83.78681, 39.4541], [-83.79834, 39.44846], [-83.83265, 39.43127], [-83.84404, 39.4255], [-83.87877, 39.40873], [-83.89044, 39.40323], [-83.9257, 39.38701], [-83.93793, 39.38206], [-83.96249, 39.37229], [-83.98707, 39.36253], [-84.02399, 39.34796], [-84.03621, 39.34301], [-84.06023, 39.3327], [-84.09536, 39.31634], [-84.10703, 39.31084], [-84.14148, 39.29379], [-84.16426, 39.28224], [-84.17578, 39.2766], [-84.19872, 39.26519], [-84.23289, 39.24786], [-84.25594, 39.23659], [-84.26733, 39.23082], [-84.30151, 39.21349], [-84.32457, 39.20222], [-84.33597, 39.19644], [-84.37014, 39.17912], [-84.3932, 39.16785], [-84.41599, 39.1563], [-84.42738, 39.15052], [-84.46182, 39.13347], [-84.47322, 39.1277], [-84.496, 39.11615], [-84.53046, 39.0991], [-84.55324, 39.08755], [-84.57603, 39.076], [-84.58755, 39.07037], [-84.61047, 39.05895], [-84.63326, 39.04741], [-84.65617, 39.03599], [-84.67911, 39.02458], [-84.70189, 39.01303], [-84.73634, 38.99598], [-84.75912, 38.98443], [-84.78191, 38.97289], [-84.80496, 38.96161], [-84.82775, 38.95006], [-84.83914, 38.94429], [-84.8736, 38.92724], [-84.89638, 38.91569], [-84.90778, 38.90991], [-84.94221, 38.89286], [-84.96501, 38.88131], [-84.97639, 38.87554], [-85.01085, 38.85849], [-85.03364, 38.84694], [-85.04503, 38.84117], [-85.07948, 38.82412], [-85.09087, 38.81834], [-85.12505, 38.80102], [-85.13657, 38.79538], [-85.1595, 38.78397], [-85.19367, 38.76665], [-85.2052, 38.76101], [-85.22813, 38.7496], [-85.25092, 38.73805], [-85.27383, 38.72664], [-85.30815, 38.70945], [-85.33093, 38.69791], [-85.34245, 38.69227], [-85.37678, 38.67508], [-85.39956, 38.66353], [-85.42262, 38.65226], [-85.43401, 38.64648], [-85.46791, 38.62889], [-85.49043, 38.61706], [-85.51238, 38.60469], [-85.52309, 38.59822], [-85.55493, 38.57856], [-85.57607, 38.56536], [-85.58664, 38.55877], [-85.61861, 38.53924], [-85.64058, 38.52687], [-85.66309, 38.51504], [-85.67435, 38.50913], [-85.70838, 38.49167], [-85.71991, 38.48603], [-85.74284, 38.47462], [-85.77701, 38.4573], [-85.78854, 38.45166], [-85.81146, 38.44025], [-85.84564, 38.42293], [-85.8687, 38.41165], [-85.89149, 38.4001], [-85.90274, 38.39419], [-85.93651, 38.37645], [-85.94748, 38.37027], [-85.97988, 38.35115], [-86.00101, 38.33796], [-86.02215, 38.32476], [-86.0433, 38.31156], [-86.0647, 38.29863], [-86.07568, 38.29245], [-86.10917, 38.27444], [-86.13168, 38.26261], [-86.14294, 38.2567], [-86.1767, 38.23896], [-86.18768, 38.23278], [-86.22008, 38.21367], [-86.23064, 38.20707], [-86.26234, 38.18727], [-86.28349, 38.17407], [-86.30489, 38.16114], [-86.31588, 38.15496], [-86.34937, 38.13694], [-86.37188, 38.12512], [-86.39466, 38.11357], [-86.41772, 38.10229], [-86.42911, 38.09652], [-86.4519, 38.08497], [-86.48634, 38.06792], [-86.50914, 38.05637], [-86.52052, 38.0506], [-86.55498, 38.03355], [-86.56637, 38.02778], [-86.58915, 38.01623], [-86.6236, 37.99918], [-86.63499, 37.9934], [-86.66917, 37.97608], [-86.68069, 37.97044], [-86.71502, 37.95326], [-86.7378, 37.94171], [-86.74933, 37.93607], [-86.77225, 37.92466], [-86.80643, 37.90733], [-86.82948, 37.89606], [-86.84088, 37.89029], [-86.86366, 37.87874], [-86.89812, 37.86169], [-86.90951, 37.85592], [-86.94368, 37.83859], [-86.96674, 37.82732], [-86.97813, 37.82154], [-87.01231, 37.80422], [-87.02383, 37.79858], [-87.04677, 37.78717], [-87.06955, 37.77562], [-87.10399, 37.75857], [-87.12678, 37.74702], [-87.13817, 37.74125], [-87.1611, 37.72984], [-87.18402, 37.71843], [-87.2068, 37.70688], [-87.22972, 37.69547], [-87.26404, 37.67828], [-87.28682, 37.66673], [-87.29834, 37.66109], [-87.32127, 37.64968], [-87.34406, 37.63813], [-87.37851, 37.62108], [-87.4013, 37.60953], [-87.42381, 37.59771], [-87.43506, 37.5918], [-87.46828, 37.57351], [-87.48969, 37.56059], [-87.51083, 37.54739], [-87.53197, 37.53419], [-87.54253, 37.52759], [-87.57452, 37.50807], [-87.58549, 37.50188], [-87.61898, 37.48387], [-87.64149, 37.47204], [-87.66399, 37.46022], [-87.67525, 37.45431], [-87.70847, 37.43602], [-87.72988, 37.4231], [-87.75102, 37.4099], [-87.76144, 37.40316], [-87.79247, 37.38268], [-87.81306, 37.36893], [-87.83365, 37.35518], [-87.84395, 37.3483], [-87.87511, 37.32795], [-87.88567, 37.32135], [-87.90695, 37.30829], [-87.9285, 37.29551], [-87.96129, 37.27681], [-87.97214, 37.27048], [-87.99369, 37.25769], [-88.02554, 37.23803], [-88.04639, 37.22456], [-88.05669, 37.21769], [-88.07728, 37.20394], [-88.10815, 37.18332], [-88.12874, 37.16957], [-88.14934, 37.15582], [-88.16992, 37.14207], [-88.18022, 37.13519], [-88.20081, 37.12144], [-88.23169, 37.10082], [-88.25227, 37.08707], [-88.26257, 37.0802], [-88.29318, 37.0593], [-88.3231, 37.03771], [-88.33299, 37.03043], [-88.36208, 37.00801], [-88.38144, 36.99303], [-88.40107, 36.97832], [-88.41095, 36.97103], [-88.43099, 36.95673], [-88.45129, 36.9427], [-88.46159, 36.93583], [-88.49248, 36.91521], [-88.50276, 36.90833], [-88.53337, 36.88744], [-88.56316, 36.86571], [-88.57291, 36.85828], [-88.60104, 36.83492], [-88.61943, 36.81897], [-88.62863, 36.81099], [-88.64702, 36.79504], [-88.6757, 36.77222], [-88.68546, 36.76479], [-88.70522, 36.75022], [-88.73486, 36.72836], [-88.74474, 36.72107], [-88.76424, 36.70622], [-88.78345, 36.6911], [-88.80295, 36.67625], [-88.82271, 36.66167], [-88.84248, 36.6471], [-88.86224, 36.63253], [-88.882, 36.61795], [-88.9015, 36.6031], [-88.9207, 36.58798], [-88.9402, 36.57314], [-88.95008, 36.56585], [-88.97973, 36.54398], [-88.9995, 36.52941], [-89.01899, 36.51456], [-89.03793, 36.49916], [-89.05632, 36.48321], [-89.07471, 36.46726], [-89.0931, 36.45132], [-89.11205, 36.43592], [-89.13154, 36.42107], [-89.1513, 36.4065], [-89.17107, 36.39192], [-89.19083, 36.37735], [-89.21032, 36.3625], [-89.22954, 36.34737], [-89.24902, 36.33253], [-89.26879, 36.31795], [-89.28856, 36.30338], [-89.30832, 36.2888], [-89.32781, 36.27396], [-89.34676, 36.25856], [-89.36488, 36.24233], [-89.38272, 36.22583], [-89.40921, 36.20081], [-89.41812, 36.19256], [-89.43624, 36.17633], [-89.45518, 36.16093], [-89.47468, 36.14609], [-89.49444, 36.13152], [-89.51421, 36.11694], [-89.5337, 36.10209], [-89.55264, 36.08669], [-89.57076, 36.07047], [-89.58861, 36.05397], [-89.60617, 36.03719], [-89.62401, 36.02069], [-89.64213, 36.00447], [-89.66106, 35.98907], [-89.68056, 35.97422], [-89.70033, 35.95965], [-89.72009, 35.94508], [-89.73958, 35.93023], [-89.75853, 35.91483], [-89.77664, 35.89861], [-89.79449, 35.88211], [-89.81178, 35.86506], [-89.82907, 35.84801], [-89.8461, 35.83068], [-89.86339, 35.81364], [-89.88042, 35.79631], [-89.89771, 35.77926], [-89.91499, 35.76221], [-89.93283, 35.74571], [-89.95095, 35.72949], [-89.96989, 35.7141], [-89.98939, 35.69924], [-90.00915, 35.68467], [-90.02892, 35.6701], [-90.04841, 35.65525], [-90.06735, 35.63985], [-90.08546, 35.62362], [-90.10332, 35.60712], [-90.12061, 35.59008], [-90.13789, 35.57303], [-90.15491, 35.55571], [-90.18073, 35.53], [-90.18924, 35.52133], [-90.20653, 35.50429], [-90.22356, 35.48696], [-90.24084, 35.46991], [-90.25786, 35.45259], [-90.27515, 35.43554], [-90.29218, 35.41821], [-90.30946, 35.40117], [-90.32648, 35.38384], [-90.34378, 35.36679], [-90.36081, 35.34947], [-90.3781, 35.33242], [-90.40376, 35.30657], [-90.41241, 35.29805], [-90.42943, 35.28072], [-90.44672, 35.26368], [-90.46375, 35.24635], [-90.48103, 35.22931], [-90.49805, 35.21198], [-90.51535, 35.19493], [-90.53238, 35.17761], [-90.54967, 35.16056], [-90.5667, 35.14323], [-90.58398, 35.12619], [-90.601, 35.10886], [-90.61829, 35.09181], [-90.63531, 35.07449], [-90.65233, 35.05717], [-90.6688, 35.03929], [-90.685, 35.02114], [-90.70778, 34.99241], [-90.71519, 34.98265], [-90.72974, 34.96284], [-90.74429, 34.94305], [-90.7668, 34.91404], [-90.78258, 34.89548], [-90.79068, 34.8864], [-90.80716, 34.86853], [-90.82417, 34.8512], [-90.84119, 34.83388], [-90.85822, 34.81656], [-90.87468, 34.79868], [-90.89856, 34.77104], [-90.91365, 34.7518], [-90.92107, 34.74203], [-90.9429, 34.71234], [-90.95759, 34.69268], [-90.97269, 34.67343], [-90.98038, 34.66394], [-91.00426, 34.63631], [-91.02017, 34.61789], [-91.02813, 34.60867], [-91.05092, 34.57994], [-91.06561, 34.56028], [-91.08015, 34.54048], [-91.0947, 34.52068], [-91.10197, 34.51078], [-91.12435, 34.48163], [-91.1319, 34.47201], [-91.14672, 34.45248], [-91.16127, 34.43269], [-91.18254, 34.40244], [-91.18954, 34.39227], [-91.21013, 34.36133], [-91.22386, 34.34071], [-91.23772, 34.32022], [-91.24472, 34.31005], [-91.26627, 34.28007], [-91.27354, 34.27017], [-91.28838, 34.25065], [-91.30347, 34.2314], [-91.32502, 34.20143], [-91.33875, 34.1808], [-91.35193, 34.15963], [-91.35837, 34.1489], [-91.37073, 34.12691], [-91.3898, 34.09446], [-91.40285, 34.07315], [-91.40943, 34.06256], [-91.42288, 34.04166], [-91.44347, 34.01073], [-91.4572, 33.9901], [-91.47092, 33.96948], [-91.47778, 33.95917], [-91.49782, 33.92768], [-91.50441, 33.9171], [-91.5235, 33.88465], [-91.53557, 33.86238], [-91.54738, 33.83983], [-91.55904, 33.81714], [-91.57043, 33.79418], [-91.58182, 33.77122], [-91.58759, 33.75981], [-91.60474, 33.72543], [-91.61613, 33.70247], [-91.62767, 33.67965], [-91.63905, 33.65669], [-91.65045, 33.63373], [-91.66197, 33.6109], [-91.67338, 33.58794], [-91.68477, 33.56499], [-91.6963, 33.54216], [-91.70769, 33.5192], [-91.71908, 33.49624], [-91.73061, 33.47342], [-91.74187, 33.45032], [-91.75284, 33.42694], [-91.76369, 33.40343], [-91.77398, 33.37937], [-91.78372, 33.35476], [-91.79347, 33.33015], [-91.80322, 33.30554], [-91.81282, 33.28079], [-91.82271, 33.25632], [-91.83286, 33.23212], [-91.84274, 33.20765], [-91.85222, 33.18276], [-91.85689, 33.17025], [-91.86623, 33.14523], [-91.87926, 33.10673], [-91.88351, 33.09381], [-91.89641, 33.05517], [-91.90506, 33.02946], [-91.90932, 33.01654], [-91.92208, 32.97776], [-91.92633, 32.96484], [-91.93883, 32.92579], [-91.94664, 32.89926], [-91.95419, 32.87245], [-91.96147, 32.84536], [-91.96848, 32.818], [-91.97533, 32.7905], [-91.98219, 32.76301], [-91.98906, 32.73551], [-91.99592, 32.70801], [-92.00278, 32.68051], [-92.00951, 32.65288], [-92.01596, 32.62496], [-92.02214, 32.59678], [-92.02805, 32.56832], [-92.03368, 32.53959], [-92.03929, 32.51085], [-92.04218, 32.49655], [-92.05069, 32.45351], [-92.05591, 32.42437], [-92.06058, 32.39467], [-92.06456, 32.36428], [-92.06799, 32.33335], [-92.07141, 32.30241], [-92.07539, 32.27203], [-92.08006, 32.24233], [-92.08514, 32.21305], [-92.09022, 32.18376], [-92.09475, 32.15392], [-92.09818, 32.12299], [-92.10037, 32.09081], [-92.10161, 32.05768], [-92.10216, 32.02386], [-92.10229, 31.98962], [-92.10229, 31.95525], [-92.10229, 31.92088], [-92.10229, 31.88651], [-92.10229, 31.85213], [-92.10229, 31.81776], [-92.10229, 31.78339], [-92.10229, 31.74901], [-92.10229, 31.71464], [-92.10229, 31.68027], [-92.10229, 31.6459], [-92.10229, 31.61153], [-92.10229, 31.57715], [-92.10229, 31.54278], [-92.10216, 31.50854], [-92.10161, 31.47472], [-92.10037, 31.44159], [-92.09818, 31.40942], [-92.09612, 31.39429], [-92.09021, 31.34864], [-92.08514, 31.31936], [-92.07993, 31.29021], [-92.07484, 31.26093], [-92.07018, 31.23123], [-92.06578, 31.20126], [-92.06112, 31.17156], [-92.05604, 31.14227], [-92.05068, 31.11326], [-92.04506, 31.08453], [-92.03929, 31.05593], [-92.03367, 31.02719], [-92.02804, 30.99846], [-92.02214, 30.97], [-92.01596, 30.94181], [-92.01266, 30.92793], [-92.00278, 30.88626], [-91.99579, 30.8589], [-91.98851, 30.83182], [-91.98096, 30.80501], [-91.97314, 30.77847], [-91.9649, 30.75235], [-91.95639, 30.7265], [-91.94788, 30.70065], [-91.93937, 30.6748], [-91.93073, 30.64909], [-91.92208, 30.62338], [-91.91357, 30.59753], [-91.90492, 30.57183], [-91.89586, 30.54653], [-91.88652, 30.5215], [-91.87706, 30.49662], [-91.86717, 30.47214], [-91.85702, 30.44795], [-91.84714, 30.42347], [-91.84233, 30.4111], [-91.82777, 30.37411], [-91.81804, 30.3495], [-91.8131, 30.33727], [-91.79799, 30.30083], [-91.78716, 30.27732], [-91.77617, 30.25395], [-91.76492, 30.23085], [-91.7534, 30.20803], [-91.742, 30.18506], [-91.73061, 30.16211], [-91.71907, 30.13928], [-91.70769, 30.11632], [-91.69629, 30.09336], [-91.68462, 30.07067], [-91.67282, 30.04812], [-91.66074, 30.02585], [-91.64812, 30.00413], [-91.63508, 29.98281], [-91.6219, 29.96164], [-91.60213, 29.92988], [-91.58924, 29.90843], [-91.57661, 29.88671], [-91.57043, 29.87571], [-91.5578, 29.85399], [-91.5379, 29.82236], [-91.5239, 29.80202], [-91.51662, 29.79212], [-91.5018, 29.77259], [-91.48683, 29.75321], [-91.47215, 29.73355], [-91.45061, 29.70358], [-91.4366, 29.68322], [-91.42974, 29.67291], [-91.41602, 29.65229], [-91.4023, 29.63167], [-91.38843, 29.61118], [-91.37428, 29.59097], [-91.3526, 29.56113], [-91.34519, 29.55137], [-91.32268, 29.52236], [-91.30785, 29.50284], [-91.30058, 29.49294], [-91.28604, 29.47314], [-91.26421, 29.44344], [-91.25681, 29.43368], [-91.2417, 29.41443], [-91.21809, 29.38652], [-91.21013, 29.37731], [-91.19421, 29.35889], [-91.17087, 29.3307], [-91.15605, 29.31118], [-91.14149, 29.29138], [-91.12696, 29.27158], [-91.11213, 29.25206], [-91.09676, 29.23308], [-91.08057, 29.21494], [-91.07233, 29.206], [-91.04707, 29.17974], [-91.03004, 29.16241], [-91.01276, 29.14537], [-90.99574, 29.12804], [-90.98709, 29.11952], [-90.96142, 29.09367], [-90.95277, 29.08514], [-90.92711, 29.0593], [-90.90982, 29.04225], [-90.89279, 29.02492], [-90.8755, 29.00787], [-90.85847, 28.99055], [-90.84119, 28.9735], [-90.82417, 28.95618], [-90.81552, 28.94765], [-90.78986, 28.92181], [-90.78121, 28.91328], [-90.75555, 28.88744], [-90.73825, 28.87038], [-90.72974, 28.86172], [-90.70393, 28.83601], [-90.6869, 28.81869], [-90.67827, 28.81016], [-90.6526, 28.78432], [-90.63531, 28.76727], [-90.6268, 28.75861], [-90.601, 28.73289], [-90.58398, 28.71557], [-90.56668, 28.69852], [-90.55817, 28.68986], [-90.54102, 28.67267], [-90.51534, 28.64683], [-90.5067, 28.6383], [-90.4894, 28.62125], [-90.47183, 28.60448], [-90.4448, 28.58001], [-90.43533, 28.5723], [-90.40636, 28.54976], [-90.39648, 28.54247], [-90.37672, 28.5279], [-90.34707, 28.50604], [-90.32758, 28.49118], [-90.30836, 28.47606], [-90.28888, 28.46121], [-90.27899, 28.45393], [-90.24907, 28.43234], [-90.22876, 28.41832], [-90.20818, 28.40457], [-90.18758, 28.39082], [-90.16699, 28.37707], [-90.14641, 28.36332], [-90.12582, 28.34957], [-90.10523, 28.33582], [-90.08464, 28.32207], [-90.06406, 28.30832], [-90.04346, 28.29457], [-90.02288, 28.28083], [-90.00229, 28.26708], [-89.9817, 28.25333], [-89.96111, 28.23958], [-89.94052, 28.22583], [-89.91994, 28.21208], [-89.89935, 28.19833], [-89.87875, 28.18459], [-89.85817, 28.17084], [-89.83758, 28.15709], [-89.81699, 28.14334], [-89.7964, 28.12959], [-89.77582, 28.11584], [-89.75523, 28.10209], [-89.73463, 28.08834], [-89.71405, 28.07459], [-89.69347, 28.06084], [-89.67287, 28.04709], [-89.65228, 28.03334], [-89.6317, 28.0196], [-89.61111, 28.00585], [-89.59052, 27.9921], [-89.56966, 27.97862], [-89.54852, 27.96542], [-89.52711, 27.9525], [-89.50542, 27.93985], [-89.48347, 27.92747], [-89.46205, 27.91455], [-89.44119, 27.90108], [-89.42088, 27.88705], [-89.40111, 27.87248], [-89.3819, 27.85736], [-89.37201, 27.85007], [-89.34181, 27.82876], [-89.32109, 27.81528], [-89.28897, 27.79686], [-89.2784, 27.79109], [-89.25726, 27.78009], [-89.22528, 27.76606], [-89.20332, 27.75864], [-89.17999, 27.75286]]]}}]}