{"type": "FeatureCollection", "features": [{"type": "Feature", "geometry": {"type": "LineString", "coordinates": [[-87.7, 26.6], [-88.9, 27.6], [-89.7, 28.6], [-90.5, 29.3], [-90.9, 30.1], [-91.2, 30.8], [-91.3, 31.9], [-91.1, 32.7], [-90.5, 33.6], [-89.9, 34.4], [-88.9, 35.2], [-88.0, 36.1], [-86.1, 36.7], [-84.4, 37.3], [-81.7, 38.3], [-79.5, 38.6], [-77.2, 39.0], [-75.2, 39.6], [-73.2, 40.0], [-69.9, 40.9], [-66.2, 42.5], [-62.9, 44.8], [-61.7, 45.8], [-60.8, 46.8], [-60.4, 47.0], [-60.1, 47.3], [-59.3, 47.1], [-58.1, 46.8], [-55.4, 47.2], [-52.4, 49.1], [-50.8, 51.0], [-49.4, 54.0], [-48.7, 55.2], [-46.2, 56.7], [-43.1, 57.2], [-40.7, 58.7], [-36.8, 60.4]]}, "properties": {"model": "CMC", "label": "CMC", "kind": "physics", "group": "deterministic", "cycle": "2021082900"}}, {"type": "Feature", "geometry": {"type": "LineString", "coordinates": [[-88.7, 27.6], [-89.7, 28.6], [-90.5, 29.5], [-91.0, 30.6], [-91.4, 31.7], [-91.2, 32.8], [-90.7, 34.0], [-89.7, 35.0], [-88.5, 35.8], [-86.5, 36.7], [-84.3, 37.7], [-81.8, 38.8], [-79.2, 40.4], [-76.7, 41.2], [-74.6, 41.8], [-73.0, 41.8], [-70.9, 42.9], [-68.5, 44.8], [-67.1, 46.0], [-65.6, 47.2], [-64.7, 48.5], [-64.5, 49.6], [-63.6, 49.9], [-62.6, 50.5], [-62.0, 50.9], [-61.0, 51.1], [-59.8, 51.4], [-58.4, 51.5], [-57.4, 51.6], [-55.4, 51.9], [-54.0, 51.5], [-51.4, 51.1], [-48.7, 51.0]]}, "properties": {"model": "AP01", "label": "GEFS 01", "kind": "ensemble", "group": "ensemble", "cycle": "2021082906"}}, {"type": "Feature", "geometry": {"type": "LineString", "coordinates": [[-88.9, 27.6], [-90.0, 28.7], [-90.8, 29.3], [-91.2, 30.1], [-91.8, 31.1], [-91.8, 32.1], [-91.5, 33.2], [-91.0, 34.4], [-90.5, 35.5], [-89.5, 36.2], [-88.2, 36.6], [-86.3, 37.2], [-85.0, 37.8], [-83.4, 38.0], [-81.4, 38.4], [-78.7, 38.4], [-75.7, 39.9], [-72.3, 41.5], [-69.3, 43.0]]}, "properties": {"model": "AP03", "label": "GEFS 03", "kind": "ensemble", "group": "ensemble", "cycle": "2021082906"}}, {"type": "Feature", "geometry": {"type": "LineString", "coordinates": [[-88.4, 27.7], [-89.2, 28.7], [-89.7, 29.5], [-90.1, 30.3], [-90.4, 31.1], [-90.2, 31.9], [-89.9, 32.7], [-89.5, 33.5], [-89.2, 34.3], [-88.7, 34.8], [-88.2, 35.0], [-87.2, 35.5], [-86.3, 36.1], [-85.2, 36.7]]}, "properties": {"model": "AP04", "label": "GEFS 04", "kind": "ensemble", "group": "ensemble", "cycle": "2021082906"}}, {"type": "Feature", "geometry": {"type": "LineString", "coordinates": [[-88.8, 27.5], [-89.7, 28.6], [-90.5, 29.5], [-91.1, 30.3], [-91.4, 31.2], [-91.3, 32.2], [-91.1, 33.1], [-90.4, 34.0], [-89.7, 34.8], [-88.0, 35.6], [-86.2, 36.5], [-84.3, 37.1], [-82.3, 38.1], [-80.2, 38.7], [-78.2, 38.7], [-76.2, 39.6], [-74.2, 41.2], [-72.1, 42.7], [-70.5, 44.1], [-69.5, 45.3], [-69.5, 46.9], [-70.2, 48.3], [-70.7, 48.9], [-70.0, 49.5], [-69.9, 50.4], [-70.6, 52.0], [-72.2, 53.2], [-71.5, 53.9], [-70.9, 54.7], [-70.8, 55.0], [-69.9, 54.7], [-68.9, 54.4], [-68.8, 54.1]]}, "properties": {"model": "AP06", "label": "GEFS 06", "kind": "ensemble", "group": "ensemble", "cycle": "2021082906"}}, {"type": "Feature", "geometry": {"type": "LineString", "coordinates": [[-88.8, 27.4], [-89.5, 28.4], [-90.3, 29.2], [-90.7, 30.1], [-91.1, 31.0], [-91.0, 31.9], [-90.9, 32.8], [-90.1, 33.7], [-89.5, 34.6], [-88.1, 35.4], [-86.5, 36.3], [-84.4, 37.2], [-81.7, 38.4], [-78.7, 39.4], [-76.0, 40.3], [-73.7, 40.5], [-71.8, 41.3], [-69.6, 42.1], [-68.2, 42.6], [-65.8, 44.0], [-63.8, 45.7], [-62.4, 46.4], [-61.9, 46.7], [-60.4, 46.7], [-58.8, 46.9], [-56.9, 47.3], [-54.8, 47.7], [-54.1, 48.3]]}, "properties": {"model": "AP07", "label": "GEFS 07", "kind": "ensemble", "group": "ensemble", "cycle": "2021082906"}}, {"type": "Feature", "geometry": {"type": "LineString", "coordinates": [[-88.6, 27.5], [-89.5, 28.4], [-90.2, 28.9], [-90.6, 29.4], [-91.0, 29.9], [-91.1, 30.6], [-91.1, 31.4], [-90.9, 32.0], [-90.8, 32.4], [-90.0, 33.2], [-89.0, 33.6], [-87.9, 34.0], [-87.5, 34.3], [-86.9, 33.9], [-85.8, 33.4], [-84.9, 33.7], [-85.3, 33.5], [-85.3, 32.5], [-84.8, 31.8], [-85.1, 31.6], [-87.5, 31.4], [-89.0, 31.5], [-89.8, 31.9], [-90.9, 32.1]]}, "properties": {"model": "AP08", "label": "GEFS 08", "kind": "ensemble", "group": "ensemble", "cycle": "2021082906"}}, {"type": "Feature", "geometry": {"type": "LineString", "coordinates": [[-89.0, 27.4], [-89.7, 28.3], [-90.5, 29.2], [-90.9, 29.9], [-91.0, 30.8], [-90.9, 32.1], [-90.8, 33.1], [-90.2, 34.0], [-89.7, 34.6], [-88.5, 35.3], [-87.7, 35.3], [-85.0, 36.5], [-82.5, 37.8], [-79.5, 38.9], [-77.6, 39.8], [-76.0, 40.1], [-74.5, 40.3], [-72.7, 40.3], [-71.2, 39.9]]}, "properties": {"model": "AP13", "label": "GEFS 13", "kind": "ensemble", "group": "ensemble", "cycle": "2021082906"}}, {"type": "Feature", "geometry": {"type": "LineString", "coordinates": [[-88.7, 27.6], [-89.5, 28.6], [-90.4, 29.5], [-91.1, 30.3], [-91.6, 31.1], [-91.5, 32.0], [-91.2, 33.0], [-90.7, 34.2], [-90.0, 35.2], [-88.4, 36.3], [-86.7, 37.2], [-84.6, 37.8], [-82.5, 38.4], [-80.1, 39.4], [-77.2, 40.3], [-73.8, 41.1], [-71.8, 41.5], [-69.0, 42.3], [-65.4, 43.5], [-60.6, 46.3], [-57.9, 47.7], [-55.7, 48.3], [-51.6, 49.9], [-48.0, 51.3], [-44.4, 53.1], [-41.7, 55.5], [-40.6, 57.1], [-39.1, 58.0], [-37.4, 58.8], [-35.6, 60.2], [-33.9, 61.7], [-30.9, 62.9], [-28.0, 64.9]]}, "properties": {"model": "AP14", "label": "GEFS 14", "kind": "ensemble", "group": "ensemble", "cycle": "2021082906"}}, {"type": "Feature", "geometry": {"type": "LineString", "coordinates": [[-88.9, 27.6], [-89.8, 28.7], [-90.5, 29.7], [-90.7, 30.7], [-91.0, 31.7], [-90.7, 32.6], [-90.2, 33.4], [-89.5, 34.0], [-88.6, 34.5], [-87.3, 35.1], [-85.6, 35.5], [-83.5, 36.2], [-81.4, 37.3], [-79.5, 37.7], [-77.3, 39.2], [-74.6, 40.1], [-72.4, 41.2], [-70.6, 42.4], [-69.4, 43.4], [-68.1, 44.5], [-67.3, 46.3], [-67.9, 47.1], [-67.6, 47.3], [-66.3, 49.1], [-65.8, 50.0], [-65.0, 50.3], [-63.2, 50.5], [-61.3, 49.7], [-60.8, 50.5]]}, "properties": {"model": "AP15", "label": "GEFS 15", "kind": "ensemble", "group": "ensemble", "cycle": "2021082906"}}, {"type": "Feature", "geometry": {"type": "LineString", "coordinates": [[-88.5, 27.4], [-89.2, 28.6], [-90.1, 29.5], [-90.4, 30.3], [-90.7, 31.1], [-90.5, 31.9], [-90.0, 32.8], [-89.2, 33.6], [-88.4, 34.5], [-87.4, 35.1], [-85.9, 36.0], [-83.6, 37.1], [-81.5, 38.4], [-78.9, 39.1], [-76.7, 39.6], [-74.7, 40.3], [-72.8, 41.1], [-71.9, 41.5], [-71.4, 40.8]]}, "properties": {"model": "AP18", "label": "GEFS 18", "kind": "ensemble", "group": "ensemble", "cycle": "2021082906"}}, {"type": "Feature", "geometry": {"type": "LineString", "coordinates": [[-88.5, 27.6], [-89.4, 28.6], [-89.8, 29.4], [-90.0, 30.3], [-90.2, 31.1], [-89.8, 31.9], [-89.4, 32.8], [-88.8, 33.9], [-88.4, 34.7], [-87.4, 35.4], [-85.7, 36.0], [-83.3, 37.6], [-80.9, 38.7], [-78.6, 39.3], [-76.0, 40.5], [-73.2, 41.8], [-71.6, 42.1], [-68.2, 44.2], [-67.2, 45.5], [-66.7, 46.2], [-66.6, 46.7], [-66.0, 47.2], [-65.6, 46.7], [-65.4, 46.2], [-65.6, 47.5], [-66.4, 49.0], [-67.3, 49.0], [-67.1, 49.8], [-65.5, 49.1], [-66.7, 48.9], [-69.1, 50.1], [-69.3, 50.4], [-69.3, 50.8]]}, "properties": {"model": "AP21", "label": "GEFS 21", "kind": "ensemble", "group": "ensemble", "cycle": "2021082906"}}, {"type": "Feature", "geometry": {"type": "LineString", "coordinates": [[-88.7, 27.6], [-89.6, 28.7], [-90.4, 29.3], [-90.8, 30.0], [-91.1, 30.5], [-90.9, 31.3], [-90.7, 32.1], [-90.3, 32.6], [-90.2, 33.1], [-89.5, 34.1], [-89.0, 34.7], [-87.5, 35.1], [-86.8, 35.3], [-85.7, 35.5], [-83.9, 35.7]]}, "properties": {"model": "AP22", "label": "GEFS 22", "kind": "ensemble", "group": "ensemble", "cycle": "2021082906"}}, {"type": "Feature", "geometry": {"type": "LineString", "coordinates": [[-88.7, 27.5], [-89.6, 28.5], [-90.3, 29.2], [-90.7, 29.9], [-91.1, 30.8], [-91.1, 31.9], [-90.9, 33.0], [-90.6, 34.1], [-90.3, 34.8], [-89.4, 36.0], [-88.4, 36.2], [-86.9, 36.0], [-86.0, 36.3]]}, "properties": {"model": "AP23", "label": "GEFS 23", "kind": "ensemble", "group": "ensemble", "cycle": "2021082906"}}, {"type": "Feature", "geometry": {"type": "LineString", "coordinates": [[-88.5, 27.4], [-89.4, 28.6], [-90.1, 29.1], [-90.4, 29.7], [-90.5, 30.1], [-90.3, 30.9], [-90.2, 31.7], [-90.0, 32.4], [-89.9, 33.0], [-89.0, 33.4], [-88.1, 33.8], [-87.0, 34.3], [-86.3, 35.3], [-85.3, 36.4], [-84.6, 36.6], [-83.9, 36.3], [-83.5, 36.1], [-83.8, 35.5], [-83.7, 34.3], [-84.6, 33.7], [-87.3, 33.6], [-88.3, 33.5], [-89.3, 33.7], [-90.2, 33.8], [-91.4, 34.4], [-92.2, 34.8], [-92.6, 35.6], [-92.7, 36.9]]}, "properties": {"model": "AP25", "label": "GEFS 25", "kind": "ensemble", "group": "ensemble", "cycle": "2021082906"}}, {"type": "Feature", "geometry": {"type": "LineString", "coordinates": [[-88.6, 27.5], [-89.6, 28.5], [-90.4, 29.3], [-91.0, 30.0], [-91.3, 30.8], [-91.2, 31.8], [-90.9, 32.6], [-90.4, 33.4], [-89.8, 34.2], [-88.7, 35.1], [-87.2, 35.9], [-85.3, 36.7], [-82.4, 38.0], [-80.5, 39.5], [-79.1, 39.8], [-77.7, 39.7], [-76.0, 40.1], [-74.5, 40.5], [-71.9, 41.2], [-67.9, 41.8], [-63.5, 43.9], [-58.6, 46.1], [-54.9, 48.1], [-52.1, 49.4], [-49.4, 51.0], [-49.0, 51.7], [-47.8, 52.1], [-46.5, 53.2], [-45.5, 54.4], [-46.3, 55.0], [-46.6, 55.6], [-45.4, 55.3], [-43.2, 55.3]]}, "properties": {"model": "AP27", "label": "GEFS 27", "kind": "ensemble", "group": "ensemble", "cycle": "2021082906"}}, {"type": "Feature", "geometry": {"type": "LineString", "coordinates": [[-88.6, 27.6], [-89.2, 28.7], [-89.9, 29.4], [-90.3, 30.0], [-90.6, 30.6], [-90.7, 31.4], [-90.6, 32.4], [-90.3, 33.4], [-90.1, 34.4], [-89.6, 35.3], [-88.5, 36.1], [-87.5, 36.8], [-86.6, 37.1], [-85.7, 37.2], [-84.9, 36.6], [-84.8, 35.1], [-85.5, 34.1]]}, "properties": {"model": "AP28", "label": "GEFS 28", "kind": "ensemble", "group": "ensemble", "cycle": "2021082906"}}, {"type": "Feature", "geometry": {"type": "LineString", "coordinates": [[-88.8, 27.3], [-89.5, 28.4], [-90.4, 29.3], [-90.9, 30.1], [-91.2, 30.7], [-91.1, 31.6], [-90.9, 32.5], [-90.3, 33.4], [-90.0, 34.3], [-89.1, 34.9], [-88.0, 35.4], [-86.0, 36.4], [-84.9, 36.9], [-82.7, 37.2], [-80.0, 38.1], [-76.5, 39.2], [-73.3, 40.3], [-69.5, 41.8], [-65.5, 43.3], [-61.9, 44.5], [-57.9, 46.0], [-53.5, 48.0], [-50.8, 49.4], [-49.1, 49.6], [-48.2, 50.0], [-46.5, 50.8], [-44.6, 51.7], [-42.5, 53.0], [-41.3, 54.5], [-40.8, 56.2], [-41.0, 57.3], [-41.3, 57.6], [-40.3, 57.6]]}, "properties": {"model": "AP29", "label": "GEFS 29", "kind": "ensemble", "group": "ensemble", "cycle": "2021082906"}}, {"type": "Feature", "geometry": {"type": "LineString", "coordinates": [[-88.7, 27.5], [-89.4, 28.5], [-90.1, 29.3], [-90.4, 30.1], [-90.8, 30.9], [-90.6, 31.7], [-90.1, 32.7], [-89.5, 33.6], [-88.7, 34.2], [-87.4, 35.1], [-86.2, 36.0], [-84.6, 37.0], [-82.0, 38.3], [-80.1, 39.1], [-77.1, 39.8], [-74.3, 40.4], [-72.1, 41.1], [-69.9, 41.7], [-66.5, 43.1], [-62.3, 45.8], [-59.9, 47.2], [-58.6, 47.7], [-57.7, 47.5], [-56.1, 47.3], [-53.5, 47.1], [-49.5, 49.0], [-44.7, 50.7], [-38.9, 52.6], [-32.4, 55.1], [-27.8, 59.2], [-25.8, 62.2], [-24.5, 63.9], [-22.7, 65.9], [-20.6, 67.7], [-19.0, 69.1], [-18.4, 69.8], [-16.3, 70.1], [-11.9, 70.9], [-9.7, 72.4], [-11.0, 73.3], [-15.0, 73.5]]}, "properties": {"model": "AVNO", "label": "GFS", "kind": "physics", "group": "deterministic", "cycle": "2021082906"}}, {"type": "Feature", "geometry": {"type": "LineString", "coordinates": [[-88.7, 27.6], [-89.7, 28.5], [-90.3, 29.3], [-90.7, 30.1], [-90.8, 30.9], [-90.7, 32.0], [-90.4, 32.7], [-89.8, 33.6], [-89.2, 34.6], [-88.0, 35.3], [-86.3, 36.2], [-84.0, 37.1], [-81.9, 37.9], [-78.9, 38.7], [-76.6, 39.4], [-75.0, 39.6], [-73.5, 40.1], [-69.9, 41.6], [-66.6, 42.6], [-64.1, 44.1], [-61.5, 47.0], [-60.3, 47.7]]}, "properties": {"model": "CTCX", "label": "COAMPS-TC", "kind": "physics", "group": "deterministic", "cycle": "2021082906"}}, {"type": "Feature", "geometry": {"type": "LineString", "coordinates": [[-87.6, 26.5], [-89.6, 28.3], [-90.9, 29.4], [-91.5, 30.8], [-91.2, 32.2], [-89.8, 33.8], [-87.8, 35.5], [-85.5, 37.0], [-82.2, 37.5], [-79.0, 38.1]]}, "properties": {"model": "EGRR", "label": "UKMET", "kind": "physics", "group": "deterministic", "cycle": "2021082900"}}, {"type": "Feature", "geometry": {"type": "LineString", "coordinates": [[-88.7, 27.6], [-90.4, 29.1], [-91.1, 30.5], [-90.9, 32.0], [-89.7, 33.6], [-87.7, 35.4], [-84.9, 36.9], [-81.3, 38.3], [-77.4, 39.0], [-74.3, 39.7], [-71.8, 40.0], [-70.0, 40.5], [-67.9, 41.2], [-65.1, 42.4], [-61.0, 44.0]]}, "properties": {"model": "HCCA", "label": "HFIP Corrected Consensus", "kind": "consensus", "group": "consensus", "cycle": "2021082906"}}, {"type": "Feature", "geometry": {"type": "LineString", "coordinates": [[-88.7, 27.6], [-89.2, 28.1], [-89.7, 28.6], [-90.0, 28.9], [-90.3, 29.4], [-90.5, 29.7], [-90.7, 30.2], [-90.8, 30.6], [-91.0, 31.1], [-91.2, 31.5], [-91.1, 31.9], [-91.0, 32.4], [-90.9, 32.8], [-90.7, 33.2], [-90.4, 33.6], [-90.2, 33.9], [-89.9, 34.2], [-89.4, 34.8], [-88.7, 35.0], [-88.2, 35.4], [-87.5, 36.0], [-86.7, 36.2], [-85.9, 36.5], [-85.0, 36.7], [-84.2, 37.0], [-83.2, 37.8], [-82.3, 38.1], [-81.9, 38.0], [-81.1, 37.9], [-80.1, 38.0], [-79.6, 37.5], [-79.0, 37.1], [-77.6, 37.4], [-76.6, 38.1], [-76.2, 38.1], [-76.3, 37.6], [-76.6, 37.0]]}, "properties": {"model": "HMON", "label": "HMON", "kind": "physics", "group": "deterministic", "cycle": "2021082906"}}, {"type": "Feature", "geometry": {"type": "LineString", "coordinates": [[-88.7, 27.6], [-89.7, 28.5], [-90.3, 29.4], [-90.8, 30.2], [-91.2, 31.0], [-91.1, 31.8], [-91.1, 32.7], [-90.6, 33.5], [-90.1, 34.2], [-88.7, 35.0], [-87.6, 35.9], [-86.3, 36.6], [-85.3, 37.2], [-83.7, 37.7], [-82.2, 38.3], [-81.0, 38.7], [-80.1, 38.4], [-79.1, 37.6], [-79.0, 36.9], [-79.1, 36.0], [-79.8, 34.9], [-80.6, 33.7]]}, "properties": {"model": "HWRF", "label": "HWRF", "kind": "physics", "group": "deterministic", "cycle": "2021082906"}}, {"type": "Feature", "geometry": {"type": "LineString", "coordinates": [[-88.6, 27.6], [-89.7, 28.5], [-90.6, 29.1], [-91.1, 29.8], [-91.5, 30.4], [-91.6, 31.2], [-91.7, 31.9], [-91.2, 32.6], [-90.8, 33.4], [-89.7, 34.1], [-88.6, 34.8], [-87.4, 35.8], [-86.3, 36.4], [-84.6, 37.3], [-82.9, 37.9], [-81.0, 38.5], [-78.6, 38.6], [-76.9, 38.8], [-75.4, 38.1]]}, "properties": {"model": "UE00", "label": "ECMWF Ens 00", "kind": "ensemble", "group": "ensemble", "cycle": "2021082906"}}, {"type": "Feature", "geometry": {"type": "LineString", "coordinates": [[-88.6, 27.0], [-89.4, 28.1], [-90.5, 28.9], [-91.1, 29.3], [-91.3, 29.9], [-91.4, 30.7], [-91.3, 31.4], [-90.8, 32.2], [-90.5, 33.0], [-89.8, 33.3], [-88.9, 33.8], [-88.3, 34.3], [-87.5, 34.5], [-86.6, 34.6], [-85.6, 34.4], [-84.6, 33.8], [-83.5, 33.8], [-82.4, 34.1], [-81.8, 34.1], [-81.8, 33.8], [-82.4, 33.4], [-82.9, 32.8], [-83.1, 32.0], [-83.3, 31.5]]}, "properties": {"model": "UE01", "label": "ECMWF Ens 01", "kind": "ensemble", "group": "ensemble", "cycle": "2021082906"}}, {"type": "Feature", "geometry": {"type": "LineString", "coordinates": [[-88.8, 27.4], [-89.7, 28.3], [-90.7, 29.0], [-91.1, 29.5], [-91.4, 30.2], [-91.4, 31.1], [-91.7, 31.7], [-91.4, 32.1], [-90.0, 33.2], [-88.8, 34.3], [-87.7, 35.2], [-86.3, 36.3], [-84.9, 37.3], [-83.2, 38.1], [-81.2, 38.9], [-78.5, 39.8], [-76.6, 40.6], [-75.7, 40.3], [-73.7, 40.0], [-71.1, 40.7], [-68.2, 43.7], [-67.6, 46.6], [-69.4, 47.9], [-69.6, 48.4], [-68.7, 48.9], [-67.6, 49.5], [-66.1, 49.9]]}, "properties": {"model": "UE02", "label": "ECMWF Ens 02", "kind": "ensemble", "group": "ensemble", "cycle": "2021082906"}}, {"type": "Feature", "geometry": {"type": "LineString", "coordinates": [[-88.6, 27.5], [-89.4, 28.3], [-90.1, 29.1], [-90.6, 29.7], [-91.2, 30.2], [-91.1, 30.9], [-90.8, 31.8], [-90.5, 33.0], [-90.0, 33.8], [-89.1, 34.5], [-88.3, 35.8], [-86.8, 36.7], [-85.2, 37.6], [-83.8, 38.4], [-82.4, 38.8], [-79.9, 39.5], [-78.5, 38.9], [-76.3, 38.9], [-75.5, 38.8], [-74.8, 37.4], [-73.5, 37.5], [-72.9, 37.3], [-73.1, 36.6], [-72.6, 36.6], [-71.7, 37.1], [-71.2, 37.3], [-70.8, 37.5], [-69.3, 38.4], [-68.3, 38.9], [-65.8, 39.1], [-62.7, 39.8], [-59.0, 40.7]]}, "properties": {"model": "UE03", "label": "ECMWF Ens 03", "kind": "ensemble", "group": "ensemble", "cycle": "2021082906"}}, {"type": "Feature", "geometry": {"type": "LineString", "coordinates": [[-88.5, 27.2], [-89.2, 27.9], [-90.0, 28.7], [-90.5, 29.3], [-91.1, 29.6], [-91.3, 30.3], [-91.2, 31.0], [-91.2, 31.7], [-91.3, 32.3], [-90.6, 32.8], [-90.0, 33.2], [-89.2, 34.1], [-88.8, 34.5], [-88.0, 34.9], [-87.7, 34.7], [-86.8, 34.2], [-85.8, 34.5], [-85.2, 34.9], [-85.2, 35.1]]}, "properties": {"model": "UE04", "label": "ECMWF Ens 04", "kind": "ensemble", "group": "ensemble", "cycle": "2021082906"}}, {"type": "Feature", "geometry": {"type": "LineString", "coordinates": [[-88.7, 27.2], [-89.7, 28.0], [-90.4, 28.7], [-90.8, 29.2], [-91.2, 29.8], [-91.2, 30.6], [-91.1, 31.4], [-90.9, 32.2], [-90.2, 32.9], [-89.4, 33.7], [-88.3, 34.3], [-86.9, 34.9], [-85.2, 35.7], [-83.5, 36.5], [-81.8, 37.9], [-79.8, 39.0], [-77.9, 39.4]]}, "properties": {"model": "UE05", "label": "ECMWF Ens 05", "kind": "ensemble", "group": "ensemble", "cycle": "2021082906"}}, {"type": "Feature", "geometry": {"type": "LineString", "coordinates": [[-88.8, 27.5], [-89.9, 28.4], [-90.6, 29.0], [-91.1, 29.8], [-91.7, 30.7], [-91.7, 31.5], [-91.6, 32.3], [-91.0, 33.0], [-90.3, 33.9], [-88.9, 34.3], [-87.5, 35.1], [-86.3, 36.0], [-84.9, 36.4], [-83.3, 36.5], [-80.9, 36.3], [-78.8, 37.4], [-77.0, 38.8], [-75.7, 38.2], [-74.6, 37.4]]}, "properties": {"model": "UE06", "label": "ECMWF Ens 06", "kind": "ensemble", "group": "ensemble", "cycle": "2021082906"}}, {"type": "Feature", "geometry": {"type": "LineString", "coordinates": [[-88.8, 27.3], [-89.5, 28.3], [-90.5, 29.1], [-91.2, 29.8], [-91.9, 30.4], [-92.2, 31.1], [-92.0, 31.5], [-91.4, 32.4], [-90.8, 33.2], [-89.7, 34.0], [-88.6, 34.8], [-87.2, 36.0], [-86.3, 36.8], [-85.2, 37.1], [-81.3, 37.3], [-79.8, 37.6]]}, "properties": {"model": "UE07", "label": "ECMWF Ens 07", "kind": "ensemble", "group": "ensemble", "cycle": "2021082906"}}, {"type": "Feature", "geometry": {"type": "LineString", "coordinates": [[-88.6, 27.2], [-89.5, 28.2], [-90.4, 29.0], [-91.1, 29.5], [-91.6, 30.1], [-91.6, 30.8], [-91.7, 31.4], [-91.6, 32.1], [-91.1, 32.5], [-90.3, 33.0], [-89.4, 33.5], [-88.3, 33.9], [-87.0, 34.5], [-85.8, 35.0], [-84.5, 35.2], [-83.5, 34.6], [-83.2, 34.7], [-82.4, 34.1], [-82.1, 33.1], [-82.2, 32.5]]}, "properties": {"model": "UE08", "label": "ECMWF Ens 08", "kind": "ensemble", "group": "ensemble", "cycle": "2021082906"}}, {"type": "Feature", "geometry": {"type": "LineString", "coordinates": [[-88.3, 27.4], [-89.2, 28.3], [-90.3, 29.1], [-90.9, 29.5], [-91.5, 30.3], [-91.7, 31.1], [-92.0, 31.7], [-91.6, 32.3], [-91.1, 33.0], [-90.3, 33.6], [-89.2, 34.3], [-88.0, 35.4], [-87.2, 35.8], [-86.0, 36.3], [-84.6, 36.9], [-82.4, 38.2], [-80.7, 38.9], [-78.9, 39.4], [-79.3, 37.7]]}, "properties": {"model": "UE09", "label": "ECMWF Ens 09", "kind": "ensemble", "group": "ensemble", "cycle": "2021082906"}}, {"type": "Feature", "geometry": {"type": "LineString", "coordinates": [[-88.6, 27.4], [-89.7, 28.1], [-90.5, 28.7], [-91.0, 29.2], [-91.5, 29.8], [-91.7, 30.4], [-91.6, 30.7], [-91.2, 31.2], [-90.5, 31.9], [-89.9, 32.6], [-89.2, 33.0], [-88.1, 33.9], [-87.2, 34.5], [-85.9, 35.4], [-85.2, 35.2], [-82.9, 36.2]]}, "properties": {"model": "UE10", "label": "ECMWF Ens 10", "kind": "ensemble", "group": "ensemble", "cycle": "2021082906"}}, {"type": "Feature", "geometry": {"type": "LineString", "coordinates": [[-88.6, 27.4], [-89.5, 28.2], [-90.3, 28.9], [-90.9, 29.4], [-91.4, 30.0], [-91.5, 30.6], [-91.6, 31.3], [-91.2, 32.0], [-91.0, 32.8], [-90.6, 33.4], [-89.7, 33.6], [-89.1, 34.6], [-88.1, 34.5], [-87.2, 35.2], [-86.1, 35.3], [-84.9, 35.5], [-82.9, 36.4], [-81.0, 36.2], [-78.1, 36.9], [-75.9, 37.7], [-74.2, 37.8], [-73.5, 37.9], [-73.0, 38.3], [-72.5, 38.8], [-71.7, 39.6], [-71.5, 39.5], [-70.8, 40.3], [-70.2, 41.3], [-70.2, 41.7], [-69.1, 41.8], [-67.5, 42.2], [-64.7, 44.9], [-62.9, 46.9]]}, "properties": {"model": "UE11", "label": "ECMWF Ens 11", "kind": "ensemble", "group": "ensemble", "cycle": "2021082906"}}, {"type": "Feature", "geometry": {"type": "LineString", "coordinates": [[-88.6, 27.4], [-89.5, 28.3], [-90.6, 28.9], [-91.2, 29.3], [-92.0, 29.8], [-92.3, 30.4], [-92.3, 30.9], [-92.0, 31.7], [-91.7, 32.4], [-90.9, 33.2], [-89.9, 34.1], [-89.2, 35.0], [-88.0, 35.8], [-86.4, 36.5], [-85.2, 37.3], [-83.8, 37.9], [-82.5, 38.2], [-81.8, 37.6], [-79.1, 37.5]]}, "properties": {"model": "UE12", "label": "ECMWF Ens 12", "kind": "ensemble", "group": "ensemble", "cycle": "2021082906"}}, {"type": "Feature", "geometry": {"type": "LineString", "coordinates": [[-88.6, 27.5], [-89.5, 28.2], [-90.3, 28.6], [-90.8, 29.1], [-91.2, 29.7], [-91.2, 30.5], [-91.3, 31.3], [-91.1, 32.2], [-91.1, 32.8], [-90.5, 33.4], [-90.0, 34.1], [-89.2, 34.7], [-88.8, 34.9], [-87.8, 35.2], [-87.5, 35.3], [-86.7, 35.1], [-86.1, 34.9]]}, "properties": {"model": "UE13", "label": "ECMWF Ens 13", "kind": "ensemble", "group": "ensemble", "cycle": "2021082906"}}, {"type": "Feature", "geometry": {"type": "LineString", "coordinates": [[-88.6, 27.2], [-89.4, 28.1], [-90.5, 28.8], [-91.2, 29.4], [-91.7, 29.8], [-91.7, 30.4], [-91.7, 31.0], [-91.4, 31.7], [-90.8, 32.6], [-90.2, 33.5], [-89.1, 34.5], [-88.1, 35.6], [-87.1, 36.4], [-85.5, 37.3], [-84.0, 37.9], [-82.4, 38.4], [-81.1, 38.6], [-78.0, 38.6], [-74.5, 39.2], [-71.6, 40.1], [-67.5, 42.8]]}, "properties": {"model": "UE14", "label": "ECMWF Ens 14", "kind": "ensemble", "group": "ensemble", "cycle": "2021082906"}}, {"type": "Feature", "geometry": {"type": "LineString", "coordinates": [[-88.4, 27.3], [-89.5, 28.3], [-90.3, 28.7], [-90.6, 29.4], [-91.1, 30.0], [-91.2, 30.6], [-91.4, 31.4], [-91.0, 31.9], [-90.5, 32.7], [-89.4, 33.6], [-88.5, 34.0], [-87.2, 35.0], [-86.0, 35.8], [-84.7, 36.4], [-83.8, 36.7], [-83.1, 36.4], [-81.8, 37.4]]}, "properties": {"model": "UE15", "label": "ECMWF Ens 15", "kind": "ensemble", "group": "ensemble", "cycle": "2021082906"}}, {"type": "Feature", "geometry": {"type": "LineString", "coordinates": [[-88.6, 27.4], [-89.7, 28.3], [-90.5, 28.8], [-90.8, 29.1], [-91.2, 29.8], [-91.4, 30.4], [-91.2, 30.8], [-91.1, 31.3], [-90.8, 31.8], [-89.9, 32.1], [-88.9, 32.6], [-88.3, 33.2], [-87.2, 33.6], [-86.4, 34.3], [-85.8, 34.5], [-84.7, 34.6], [-83.8, 34.5], [-83.2, 34.7]]}, "properties": {"model": "UE16", "label": "ECMWF Ens 16", "kind": "ensemble", "group": "ensemble", "cycle": "2021082906"}}, {"type": "Feature", "geometry": {"type": "LineString", "coordinates": [[-88.4, 27.4], [-89.4, 28.3], [-90.0, 28.9], [-90.6, 29.6], [-91.1, 30.0], [-91.2, 30.6], [-91.2, 31.3], [-90.8, 32.3], [-90.6, 33.1], [-89.9, 33.8], [-89.1, 34.3], [-88.1, 35.1], [-87.5, 35.6], [-86.4, 36.2], [-86.3, 36.1], [-85.6, 35.7]]}, "properties": {"model": "UE17", "label": "ECMWF Ens 17", "kind": "ensemble", "group": "ensemble", "cycle": "2021082906"}}, {"type": "Feature", "geometry": {"type": "LineString", "coordinates": [[-88.6, 27.6], [-89.9, 28.5], [-90.8, 28.9], [-91.2, 29.4], [-91.4, 30.1], [-91.7, 31.1], [-91.9, 31.9], [-91.5, 32.6], [-90.8, 33.4], [-89.7, 34.7], [-88.5, 35.8], [-87.2, 36.6], [-86.0, 36.6], [-83.6, 37.5], [-81.0, 38.5], [-77.9, 39.5], [-76.2, 39.9], [-75.8, 39.0], [-75.1, 37.9]]}, "properties": {"model": "UE18", "label": "ECMWF Ens 18", "kind": "ensemble", "group": "ensemble", "cycle": "2021082906"}}, {"type": "Feature", "geometry": {"type": "LineString", "coordinates": [[-88.6, 27.4], [-89.8, 28.5], [-90.6, 29.0], [-90.9, 29.4], [-91.3, 30.2], [-91.6, 31.0], [-91.7, 31.6], [-91.4, 32.4], [-91.2, 33.1], [-90.6, 33.8], [-89.9, 34.1], [-88.1, 34.7], [-87.4, 35.6], [-86.3, 36.0], [-85.0, 36.5], [-84.0, 37.1], [-83.3, 37.3], [-82.7, 37.3]]}, "properties": {"model": "UE19", "label": "ECMWF Ens 19", "kind": "ensemble", "group": "ensemble", "cycle": "2021082906"}}, {"type": "Feature", "geometry": {"type": "LineString", "coordinates": [[-88.1, 27.5], [-89.1, 28.5], [-90.0, 29.2], [-90.4, 29.9], [-90.8, 30.6], [-90.6, 31.4], [-90.6, 32.4], [-90.3, 33.1], [-89.7, 33.8], [-88.8, 34.7], [-88.0, 35.5], [-86.8, 36.0], [-85.5, 36.0], [-83.8, 37.0], [-81.7, 38.0], [-80.4, 38.5], [-78.5, 38.2], [-77.0, 38.3], [-75.5, 38.0], [-75.5, 36.7], [-75.1, 36.5], [-74.0, 36.8]]}, "properties": {"model": "UE20", "label": "ECMWF Ens 20", "kind": "ensemble", "group": "ensemble", "cycle": "2021082906"}}, {"type": "Feature", "geometry": {"type": "LineString", "coordinates": [[-88.6, 27.5], [-89.7, 28.5], [-90.5, 29.1], [-90.9, 29.7], [-91.2, 30.3], [-91.4, 31.3], [-91.5, 32.1], [-91.3, 33.0], [-90.8, 33.8], [-90.2, 34.5], [-89.2, 35.1], [-88.3, 35.6], [-87.2, 35.9], [-86.0, 36.6], [-84.7, 37.0], [-83.0, 37.4], [-81.2, 38.2], [-79.8, 37.6]]}, "properties": {"model": "UE21", "label": "ECMWF Ens 21", "kind": "ensemble", "group": "ensemble", "cycle": "2021082906"}}, {"type": "Feature", "geometry": {"type": "LineString", "coordinates": [[-88.5, 27.8], [-89.7, 28.7], [-90.5, 29.2], [-90.9, 29.8], [-91.4, 30.7], [-91.6, 31.6], [-91.7, 32.1], [-91.2, 32.8], [-90.6, 33.5], [-89.5, 34.1], [-88.1, 34.9], [-86.9, 35.7], [-85.5, 36.4], [-84.4, 36.7], [-83.1, 36.6], [-81.0, 38.1], [-79.6, 37.6], [-78.0, 38.0]]}, "properties": {"model": "UE22", "label": "ECMWF Ens 22", "kind": "ensemble", "group": "ensemble", "cycle": "2021082906"}}, {"type": "Feature", "geometry": {"type": "LineString", "coordinates": [[-88.5, 27.4], [-89.5, 28.5], [-90.5, 29.1], [-91.1, 30.0], [-91.7, 30.9], [-91.7, 31.7], [-91.5, 32.6], [-91.2, 33.4], [-90.5, 33.9], [-89.4, 34.8], [-88.1, 35.5], [-86.3, 36.8], [-84.6, 37.5], [-82.2, 38.6], [-80.8, 39.3], [-78.0, 39.5], [-76.5, 39.4]]}, "properties": {"model": "UE23", "label": "ECMWF Ens 23", "kind": "ensemble", "group": "ensemble", "cycle": "2021082906"}}, {"type": "Feature", "geometry": {"type": "LineString", "coordinates": [[-88.8, 27.6], [-90.0, 28.7], [-90.8, 29.3], [-91.4, 29.8], [-91.7, 30.5], [-91.7, 31.2], [-91.7, 31.9], [-91.4, 32.7], [-90.6, 33.4], [-89.7, 34.3], [-88.9, 34.8], [-87.6, 35.5], [-86.7, 35.8], [-85.6, 36.0], [-84.7, 36.2], [-83.3, 37.7], [-83.6, 37.0], [-83.3, 37.1]]}, "properties": {"model": "UE24", "label": "ECMWF Ens 24", "kind": "ensemble", "group": "ensemble", "cycle": "2021082906"}}, {"type": "Feature", "geometry": {"type": "LineString", "coordinates": [[-88.5, 27.5], [-89.5, 28.5], [-90.4, 29.2], [-91.1, 30.0], [-91.5, 30.7], [-91.7, 31.5], [-91.9, 32.0], [-91.4, 32.9], [-90.9, 33.8], [-90.0, 34.5], [-88.8, 35.3], [-87.8, 36.2], [-86.9, 36.7], [-85.5, 37.2], [-84.2, 37.9], [-80.4, 38.8], [-78.8, 39.3], [-78.6, 38.8], [-77.9, 38.5]]}, "properties": {"model": "UE25", "label": "ECMWF Ens 25", "kind": "ensemble", "group": "ensemble", "cycle": "2021082906"}}, {"type": "Feature", "geometry": {"type": "LineString", "coordinates": [[-88.6, 27.5], [-89.7, 28.5], [-90.6, 29.1], [-91.1, 29.6], [-91.5, 30.2], [-91.7, 31.0], [-91.7, 31.6], [-91.4, 32.4], [-90.6, 33.4], [-89.8, 34.3], [-89.2, 34.9], [-88.0, 35.5], [-86.9, 36.1], [-85.5, 36.8], [-84.4, 37.3], [-81.4, 38.6], [-80.4, 38.8], [-79.2, 37.9]]}, "properties": {"model": "UE26", "label": "ECMWF Ens 26", "kind": "ensemble", "group": "ensemble", "cycle": "2021082906"}}, {"type": "Feature", "geometry": {"type": "LineString", "coordinates": [[-88.8, 27.7], [-90.0, 28.7], [-90.8, 29.2], [-91.2, 29.9], [-91.7, 30.6], [-91.5, 31.4], [-91.4, 32.0], [-91.1, 32.8], [-90.5, 33.4], [-89.4, 34.1], [-88.0, 34.7], [-86.6, 35.6], [-85.2, 36.3], [-83.5, 37.0], [-80.5, 38.7], [-77.6, 39.0], [-73.8, 40.6], [-71.8, 41.7], [-70.1, 42.0], [-67.8, 42.9], [-66.9, 44.1], [-65.8, 44.3], [-63.4, 46.9], [-61.3, 47.9], [-60.1, 48.4]]}, "properties": {"model": "UE27", "label": "ECMWF Ens 27", "kind": "ensemble", "group": "ensemble", "cycle": "2021082906"}}, {"type": "Feature", "geometry": {"type": "LineString", "coordinates": [[-88.6, 27.6], [-90.0, 28.6], [-90.8, 29.1], [-91.2, 29.8], [-91.5, 30.8], [-91.7, 31.7], [-91.7, 32.4], [-91.2, 33.1], [-90.6, 33.8], [-89.8, 34.7], [-88.9, 35.3], [-87.8, 35.6], [-86.3, 36.0], [-84.9, 36.9], [-83.8, 37.3], [-81.3, 38.1], [-80.6, 36.5], [-79.5, 36.8]]}, "properties": {"model": "UE28", "label": "ECMWF Ens 28", "kind": "ensemble", "group": "ensemble", "cycle": "2021082906"}}, {"type": "Feature", "geometry": {"type": "LineString", "coordinates": [[-88.5, 27.5], [-89.6, 28.6], [-90.3, 29.3], [-90.9, 30.0], [-91.4, 30.6], [-91.5, 31.5], [-91.6, 32.3], [-91.4, 32.9], [-90.8, 33.4], [-89.7, 33.9], [-88.6, 34.5], [-87.3, 35.5], [-86.3, 36.5], [-85.0, 36.9], [-83.9, 37.1], [-81.6, 37.9], [-78.6, 38.7], [-76.6, 39.2], [-70.5, 41.7], [-68.1, 42.4], [-65.6, 43.5], [-61.5, 45.6], [-59.7, 46.8], [-58.5, 47.0], [-56.6, 46.9], [-53.1, 48.9], [-48.7, 51.4], [-44.9, 50.9]]}, "properties": {"model": "UE29", "label": "ECMWF Ens 29", "kind": "ensemble", "group": "ensemble", "cycle": "2021082906"}}, {"type": "Feature", "geometry": {"type": "LineString", "coordinates": [[-89.1, 27.6], [-90.1, 28.5], [-91.0, 28.9], [-91.5, 29.5], [-91.9, 30.0], [-92.0, 30.6], [-91.9, 31.4], [-91.5, 32.5], [-91.2, 33.3], [-90.3, 34.0], [-89.4, 34.7], [-88.1, 35.3], [-87.3, 35.6], [-85.8, 36.2], [-84.3, 36.7], [-82.0, 38.4], [-81.2, 38.1], [-79.0, 37.6]]}, "properties": {"model": "UE30", "label": "ECMWF Ens 30", "kind": "ensemble", "group": "ensemble", "cycle": "2021082906"}}, {"type": "Feature", "geometry": {"type": "LineString", "coordinates": [[-88.7, 27.4], [-90.0, 28.2], [-90.8, 28.8], [-91.4, 29.4], [-92.0, 30.1], [-92.3, 30.7], [-92.3, 31.4], [-91.9, 32.3], [-91.2, 33.2], [-90.2, 34.1], [-88.9, 34.9], [-87.5, 35.8], [-86.3, 36.4], [-84.7, 37.1], [-83.3, 37.7], [-81.3, 38.1], [-79.1, 37.5]]}, "properties": {"model": "UE31", "label": "ECMWF Ens 31", "kind": "ensemble", "group": "ensemble", "cycle": "2021082906"}}, {"type": "Feature", "geometry": {"type": "LineString", "coordinates": [[-88.8, 27.4], [-89.9, 28.1], [-90.6, 28.7], [-91.1, 29.3], [-91.6, 30.0], [-91.9, 30.9], [-92.0, 31.6], [-91.7, 32.5], [-91.4, 33.4], [-90.3, 34.1], [-89.4, 35.1], [-88.6, 36.0], [-87.8, 36.2], [-86.6, 36.9], [-85.8, 36.8], [-82.0, 37.8], [-81.0, 38.4]]}, "properties": {"model": "UE32", "label": "ECMWF Ens 32", "kind": "ensemble", "group": "ensemble", "cycle": "2021082906"}}, {"type": "Feature", "geometry": {"type": "LineString", "coordinates": [[-88.6, 27.5], [-89.7, 28.5], [-90.4, 29.2], [-90.9, 29.8], [-91.4, 30.5], [-91.6, 31.4], [-91.9, 32.1], [-91.4, 32.8], [-91.0, 33.4], [-90.2, 33.8], [-89.5, 34.6], [-88.9, 34.9], [-88.3, 35.1], [-88.1, 35.0], [-87.5, 34.4], [-86.6, 34.1], [-86.0, 33.9], [-85.4, 33.8], [-85.5, 33.8], [-85.6, 33.5], [-85.8, 33.6], [-86.3, 34.1], [-87.7, 34.3]]}, "properties": {"model": "UE33", "label": "ECMWF Ens 33", "kind": "ensemble", "group": "ensemble", "cycle": "2021082906"}}, {"type": "Feature", "geometry": {"type": "LineString", "coordinates": [[-88.5, 27.3], [-89.5, 28.3], [-90.2, 29.0], [-90.8, 29.9], [-91.5, 30.8], [-91.8, 31.7], [-91.9, 32.2], [-91.4, 33.0], [-90.6, 33.8], [-89.4, 34.6], [-88.1, 35.4], [-86.6, 36.3], [-85.4, 36.9], [-82.7, 38.1], [-81.9, 38.1], [-79.7, 37.5], [-77.8, 37.9], [-76.1, 38.2]]}, "properties": {"model": "UE34", "label": "ECMWF Ens 34", "kind": "ensemble", "group": "ensemble", "cycle": "2021082906"}}, {"type": "Feature", "geometry": {"type": "LineString", "coordinates": [[-88.6, 27.5], [-89.7, 28.3], [-90.5, 28.9], [-90.9, 29.4], [-91.4, 30.0], [-91.7, 30.7], [-91.7, 31.3], [-91.4, 32.1], [-90.8, 32.8], [-89.9, 33.5], [-89.1, 34.3], [-88.3, 35.0], [-87.4, 35.6], [-86.0, 36.0], [-84.9, 36.4], [-83.6, 36.5], [-81.0, 38.2], [-78.8, 38.3]]}, "properties": {"model": "UE35", "label": "ECMWF Ens 35", "kind": "ensemble", "group": "ensemble", "cycle": "2021082906"}}, {"type": "Feature", "geometry": {"type": "LineString", "coordinates": [[-88.7, 27.4], [-89.5, 28.3], [-90.0, 29.0], [-90.3, 29.8], [-90.6, 30.6], [-90.6, 31.5], [-90.4, 32.4], [-89.9, 33.1], [-89.6, 33.7], [-88.6, 34.4], [-87.7, 34.9], [-86.3, 35.5], [-85.5, 36.6], [-83.8, 36.2], [-83.3, 35.3]]}, "properties": {"model": "AP02", "label": "GEFS 02", "kind": "ensemble", "group": "ensemble", "cycle": "2021082906"}}, {"type": "Feature", "geometry": {"type": "LineString", "coordinates": [[-88.6, 27.5], [-89.5, 28.6], [-90.3, 29.3], [-90.7, 30.2], [-91.1, 31.0], [-91.2, 32.0], [-91.2, 32.6], [-90.9, 33.3], [-90.4, 33.9], [-89.4, 34.6], [-87.9, 35.5], [-86.4, 36.3], [-84.9, 36.8], [-81.6, 38.3], [-78.8, 39.2], [-76.3, 40.1], [-73.9, 40.5], [-71.1, 41.2], [-69.2, 41.7], [-65.5, 43.7], [-62.9, 45.2], [-59.7, 46.6], [-58.0, 47.8], [-55.2, 48.8], [-53.0, 49.4], [-49.9, 49.8], [-46.8, 50.5], [-44.3, 51.3], [-42.3, 51.8], [-40.0, 52.5], [-37.8, 53.6], [-36.0, 54.8], [-34.7, 56.2]]}, "properties": {"model": "AP05", "label": "GEFS 05", "kind": "ensemble", "group": "ensemble", "cycle": "2021082906"}}, {"type": "Feature", "geometry": {"type": "LineString", "coordinates": [[-88.7, 27.5], [-89.5, 28.6], [-90.0, 29.5], [-90.6, 30.3], [-91.0, 31.1], [-91.1, 31.9], [-91.0, 32.6], [-90.3, 33.4], [-89.6, 34.7], [-88.5, 36.0], [-88.0, 36.3], [-87.3, 35.8], [-87.0, 34.9], [-85.7, 34.7], [-84.2, 35.1], [-82.3, 35.0], [-80.2, 36.2]]}, "properties": {"model": "AP09", "label": "GEFS 09", "kind": "ensemble", "group": "ensemble", "cycle": "2021082906"}}, {"type": "Feature", "geometry": {"type": "LineString", "coordinates": [[-88.8, 27.4], [-89.6, 28.4], [-90.4, 29.2], [-90.8, 30.1], [-91.2, 31.0], [-91.1, 31.9], [-90.9, 32.8], [-90.3, 33.8], [-89.7, 34.5], [-88.6, 35.1], [-86.9, 35.7], [-85.2, 36.8], [-82.7, 38.2], [-80.8, 39.1], [-78.4, 39.6], [-77.2, 39.3], [-74.9, 39.6], [-73.5, 40.1], [-74.2, 39.4], [-74.4, 39.0]]}, "properties": {"model": "AP10", "label": "GEFS 10", "kind": "ensemble", "group": "ensemble", "cycle": "2021082906"}}, {"type": "Feature", "geometry": {"type": "LineString", "coordinates": [[-88.9, 27.1], [-89.5, 28.1], [-90.4, 28.9], [-91.0, 29.6], [-91.2, 30.3], [-91.2, 31.2], [-91.0, 32.0], [-90.6, 32.8], [-90.3, 33.4], [-89.2, 34.0], [-88.0, 34.7], [-86.6, 35.6], [-85.5, 36.2], [-83.2, 37.7], [-81.8, 38.2], [-80.9, 37.6], [-79.5, 37.0], [-77.8, 37.7], [-76.4, 38.0], [-75.3, 37.8], [-75.1, 37.0], [-74.2, 36.8], [-72.8, 37.4], [-72.0, 37.1], [-71.9, 36.9], [-71.9, 36.6], [-72.4, 35.7], [-72.8, 35.2], [-72.7, 35.4], [-72.2, 35.3], [-71.2, 35.4], [-69.5, 35.4], [-68.0, 35.2]]}, "properties": {"model": "AP11", "label": "GEFS 11", "kind": "ensemble", "group": "ensemble", "cycle": "2021082906"}}, {"type": "Feature", "geometry": {"type": "LineString", "coordinates": [[-88.9, 27.5], [-89.7, 28.6], [-90.4, 29.3], [-90.7, 29.9], [-90.8, 30.4], [-90.6, 31.2], [-90.2, 32.0], [-89.6, 32.7], [-89.1, 33.5], [-88.4, 34.3], [-87.8, 34.6], [-86.9, 34.7], [-86.1, 34.8], [-85.1, 35.2], [-83.5, 34.3], [-81.4, 35.0], [-80.2, 36.7]]}, "properties": {"model": "AP12", "label": "GEFS 12", "kind": "ensemble", "group": "ensemble", "cycle": "2021082906"}}, {"type": "Feature", "geometry": {"type": "LineString", "coordinates": [[-88.8, 27.5], [-89.6, 28.6], [-90.3, 29.3], [-90.5, 30.2], [-90.8, 31.1], [-90.8, 32.1], [-90.4, 33.0], [-89.7, 34.0], [-89.0, 34.6], [-87.4, 35.2], [-85.8, 35.9], [-84.1, 36.9], [-82.3, 37.8], [-80.5, 38.7], [-78.4, 39.6], [-76.7, 40.1], [-74.8, 40.4], [-72.6, 41.8], [-70.4, 43.5], [-67.9, 45.2], [-66.6, 46.9], [-65.3, 47.7], [-63.7, 48.3], [-62.0, 49.1], [-60.7, 49.7], [-59.5, 50.0], [-57.8, 50.5], [-55.3, 50.9], [-52.9, 51.1], [-49.8, 51.5], [-46.8, 52.2], [-45.0, 54.5], [-45.1, 55.8]]}, "properties": {"model": "AP16", "label": "GEFS 16", "kind": "ensemble", "group": "ensemble", "cycle": "2021082906"}}, {"type": "Feature", "geometry": {"type": "LineString", "coordinates": [[-88.6, 27.5], [-89.3, 28.7], [-89.9, 29.5], [-90.5, 30.4], [-90.7, 31.0], [-90.4, 31.9], [-90.2, 32.7], [-89.4, 33.3], [-88.8, 33.8], [-87.6, 34.6], [-86.6, 34.9], [-84.8, 35.5], [-82.3, 37.3], [-80.5, 37.6]]}, "properties": {"model": "AP17", "label": "GEFS 17", "kind": "ensemble", "group": "ensemble", "cycle": "2021082906"}}, {"type": "Feature", "geometry": {"type": "LineString", "coordinates": [[-88.6, 27.5], [-89.5, 28.7], [-89.9, 29.3], [-89.9, 30.3], [-90.1, 31.2], [-90.0, 32.1], [-89.5, 33.1], [-88.8, 33.9], [-88.0, 34.7], [-86.5, 35.5], [-84.9, 36.4], [-82.0, 38.3], [-79.1, 40.1], [-76.5, 40.6], [-74.7, 40.7], [-72.0, 41.8], [-69.4, 43.2], [-66.2, 45.3]]}, "properties": {"model": "AP19", "label": "GEFS 19", "kind": "ensemble", "group": "ensemble", "cycle": "2021082906"}}, {"type": "Feature", "geometry": {"type": "LineString", "coordinates": [[-88.7, 27.5], [-89.3, 28.3], [-89.7, 29.1], [-90.0, 29.7], [-90.1, 30.5], [-90.1, 31.4], [-89.9, 32.3], [-89.3, 33.1], [-89.0, 33.9], [-88.4, 35.0], [-87.4, 35.6], [-86.1, 36.5], [-83.5, 38.3], [-81.4, 39.2], [-79.0, 39.5], [-76.1, 40.1], [-73.2, 41.0], [-68.9, 42.3], [-64.5, 44.6], [-62.9, 45.0], [-60.8, 45.4], [-58.1, 45.7], [-56.9, 45.7], [-55.5, 45.9], [-55.4, 45.5], [-52.9, 46.1], [-48.7, 47.9], [-44.5, 50.0], [-41.8, 51.2], [-37.7, 53.7]]}, "properties": {"model": "AP20", "label": "GEFS 20", "kind": "ensemble", "group": "ensemble", "cycle": "2021082906"}}, {"type": "Feature", "geometry": {"type": "LineString", "coordinates": [[-88.7, 27.4], [-89.5, 28.3], [-90.1, 28.9], [-90.5, 29.3], [-90.9, 29.9], [-90.9, 30.7], [-90.8, 31.6], [-90.4, 32.4], [-90.2, 33.3], [-89.4, 34.2], [-88.7, 34.9], [-87.3, 35.7], [-86.4, 36.4], [-85.2, 36.8], [-83.1, 37.5], [-81.3, 38.2], [-79.8, 38.0], [-77.6, 38.7], [-74.5, 39.0], [-71.3, 39.6], [-66.1, 41.9]]}, "properties": {"model": "AP24", "label": "GEFS 24", "kind": "ensemble", "group": "ensemble", "cycle": "2021082906"}}, {"type": "Feature", "geometry": {"type": "LineString", "coordinates": [[-88.6, 27.6], [-89.3, 28.8], [-90.1, 29.6], [-90.5, 30.5], [-91.0, 31.3], [-91.1, 32.0], [-90.6, 32.8], [-90.0, 33.7], [-89.5, 34.3], [-88.2, 35.1], [-87.0, 35.8], [-85.4, 36.3], [-83.5, 37.2], [-81.7, 38.4], [-80.7, 38.7], [-78.5, 39.1], [-77.6, 39.1], [-77.5, 38.7], [-77.9, 38.0], [-77.8, 37.6], [-78.8, 36.1]]}, "properties": {"model": "AP26", "label": "GEFS 26", "kind": "ensemble", "group": "ensemble", "cycle": "2021082906"}}, {"type": "Feature", "geometry": {"type": "LineString", "coordinates": [[-88.5, 27.3], [-89.2, 28.3], [-89.8, 29.2], [-90.3, 30.0], [-90.7, 30.8], [-90.7, 31.7], [-90.7, 32.6], [-90.6, 33.3], [-90.4, 33.8], [-89.4, 34.5], [-88.1, 35.3], [-86.6, 36.1], [-85.3, 36.9], [-83.2, 38.2], [-80.7, 39.5], [-78.2, 39.9], [-75.1, 41.1], [-72.3, 41.8], [-69.0, 43.6], [-66.4, 45.3], [-63.7, 47.3], [-61.5, 49.0], [-59.9, 50.2], [-59.1, 50.3], [-59.1, 50.0], [-58.3, 49.7], [-57.0, 49.7], [-55.5, 49.0], [-54.5, 47.9], [-54.3, 46.3], [-53.0, 45.8]]}, "properties": {"model": "AP30", "label": "GEFS 30", "kind": "ensemble", "group": "ensemble", "cycle": "2021082906"}}, {"type": "Feature", "geometry": {"type": "LineString", "coordinates": [[-88.7, 27.6], [-90.3, 29.3], [-91.0, 31.0], [-90.9, 32.7], [-89.7, 34.4], [-87.5, 36.0], [-84.0, 37.4], [-79.5, 38.6], [-75.1, 39.6], [-69.6, 41.3], [-63.9, 44.3], [-61.1, 46.5], [-59.8, 47.1], [-57.4, 47.3], [-52.9, 49.3]]}, "properties": {"model": "CMCI", "label": "CMC (interpolated)", "kind": "physics", "group": "deterministic", "cycle": "2021082906"}}, {"type": "Feature", "geometry": {"type": "LineString", "coordinates": [[-88.7, 27.6], [-89.7, 28.3], [-90.0, 29.1], [-90.5, 29.8], [-90.7, 30.5], [-90.7, 31.5], [-90.5, 32.3], [-90.4, 33.3], [-90.2, 34.2], [-89.3, 35.1], [-87.7, 36.0], [-85.9, 36.7], [-83.4, 37.7], [-81.1, 38.5], [-78.7, 38.4], [-75.7, 38.5], [-74.4, 38.4], [-72.6, 38.5], [-70.7, 38.4]]}, "properties": {"model": "COTC", "label": "COAMPS-TC (interpolated)", "kind": "physics", "group": "deterministic", "cycle": "2021082906"}}, {"type": "Feature", "geometry": {"type": "LineString", "coordinates": [[-88.6, 27.4], [-89.6, 28.2], [-90.1, 28.8], [-90.4, 29.4], [-90.8, 30.2], [-91.0, 30.9], [-91.1, 31.8], [-91.0, 32.8], [-90.9, 33.7], [-90.3, 34.5], [-89.6, 35.3], [-88.5, 36.1], [-87.7, 36.7], [-86.4, 37.2], [-84.9, 37.4], [-83.2, 37.4], [-81.8, 37.5], [-80.2, 37.6], [-79.4, 37.2], [-78.7, 36.7], [-78.9, 36.0], [-79.0, 35.3], [-79.3, 34.9], [-79.4, 34.5], [-79.7, 34.3], [-79.6, 34.4], [-79.6, 34.4], [-79.4, 34.5], [-79.3, 34.6], [-78.8, 34.7], [-77.9, 34.7]]}, "properties": {"model": "NVGM", "label": "NAVGEM", "kind": "physics", "group": "deterministic", "cycle": "2021082906"}}, {"type": "Feature", "geometry": {"type": "LineString", "coordinates": [[-88.7, 27.6], [-90.3, 29.1], [-91.1, 30.5], [-91.0, 32.0], [-89.9, 33.6], [-87.9, 35.2], [-85.0, 36.7], [-81.7, 38.0], [-78.9, 38.4], [-75.9, 39.0], [-73.4, 39.6], [-71.8, 39.7], [-66.1, 43.1], [-63.3, 44.3], [-59.6, 45.3]]}, "properties": {"model": "TVCA", "label": "Consensus", "kind": "consensus", "group": "consensus", "cycle": "2021082906"}}, {"type": "Feature", "geometry": {"type": "LineString", "coordinates": [[-88.7, 27.6], [-90.3, 29.1], [-91.1, 30.5], [-91.0, 32.0], [-89.9, 33.6], [-87.9, 35.2], [-85.0, 36.7], [-81.7, 38.0], [-78.9, 38.4], [-75.9, 39.0], [-73.4, 39.6], [-71.8, 39.7], [-66.1, 43.1], [-63.3, 44.3], [-59.6, 45.3]]}, "properties": {"model": "TVCN", "label": "TVCN Consensus", "kind": "consensus", "group": "consensus", "cycle": "2021082906"}}, {"type": "Feature", "geometry": {"type": "LineString", "coordinates": [[-88.7, 27.6], [-90.3, 29.0], [-91.0, 30.3], [-90.7, 31.8], [-89.7, 33.4], [-87.7, 35.0], [-85.0, 36.3], [-81.5, 37.5], [-77.7, 38.6], [-74.0, 39.4], [-71.1, 40.0], [-68.8, 40.6], [-66.4, 41.0], [-62.9, 42.1], [-57.7, 44.9]]}, "properties": {"model": "EMXI", "label": "ECMWF", "kind": "physics", "group": "deterministic", "cycle": "2021082906"}}, {"type": "Feature", "geometry": {"type": "LineString", "coordinates": [[-88.7, 27.6], [-90.2, 29.1], [-91.0, 30.5], [-90.8, 32.0], [-89.6, 33.6], [-87.4, 35.2], [-84.2, 36.9], [-80.2, 38.5], [-75.7, 40.1], [-71.6, 41.8], [-68.4, 43.5], [-66.0, 44.4], [-62.9, 45.5], [-59.1, 47.0], [-54.5, 48.0]]}, "properties": {"model": "GFEX", "label": "GFS Ensemble Mean", "kind": "consensus", "group": "consensus", "cycle": "2021082906"}}, {"type": "Feature", "geometry": {"type": "LineString", "coordinates": [[-88.7, 27.6], [-89.6, 28.5], [-90.4, 29.2], [-91.1, 30.6], [-91.0, 32.2], [-90.0, 33.8], [-87.9, 35.4], [-85.2, 36.7], [-78.9, 38.9]]}, "properties": {"model": "OFCL", "label": "Official", "kind": "official", "group": "official", "cycle": "2021082906"}}, {"type": "Feature", "geometry": {"type": "LineString", "coordinates": [[-88.7, 27.6], [-90.3, 29.1], [-91.3, 30.4], [-91.4, 31.7], [-90.5, 33.3], [-88.9, 34.9], [-86.7, 36.4], [-83.9, 37.4], [-80.7, 38.0], [-77.5, 38.6]]}, "properties": {"model": "EGRI", "label": "UKMET (interpolated)", "kind": "physics", "group": "deterministic", "cycle": "2021082906"}}]}