{"type": "FeatureCollection", "features": [{"type": "Feature", "properties": {"shapefile": "al092021-012_5day_lin", "STORMNAME": "Ida", "STORMTYPE": "HU", "ADVDATE": "400 AM CDT Sun Aug 29 2021", "ADVISNUM": "12", "STORMNUM": 9, "FCSTPRD": 120, "BASIN": "AL"}, "geometry": {"type": "LineString", "coordinates": [[-89.1, 28.0], [-90.3, 29.1], [-91.1, 30.6], [-91.0, 32.2], [-90.0, 33.8], [-87.9, 35.4], [-85.2, 36.7], [-78.9, 38.9]]}}, {"type": "Feature", "properties": {"shapefile": "al092021-012_5day_pts", "ADVDATE": "400 AM CDT Sun Aug 29 2021", "ADVISNUM": "12", "BASIN": "AL", "DATELBL": "4:00 AM Sun", "DVLBL": "M", "FCSTPRD": 120, "FLDATELBL": "2021-08-29 1:00 AM Sun CDT", "GUST": 145, "LAT": 28, "LON": -89, "MAXWIND": 120, "MSLP": 946, "SSNUM": 4, "STORMNAME": "Hurricane Ida", "STORMNUM": 9, "STORMSRC": "Tropical Cyclone", "STORMTYPE": "MH", "TCDVLP": "Major Hurricane", "TAU": 0, "TCDIR": 315, "TCSPD": 13, "TIMEZONE": "CDT", "VALIDTIME": "29/0600"}, "geometry": {"type": "Point", "coordinates": [-89.1, 28.0]}}, {"type": "Feature", "properties": {"shapefile": "al092021-012_5day_pts", "ADVDATE": "400 AM CDT Sun Aug 29 2021", "ADVISNUM": "12", "BASIN": "AL", "DATELBL": "1:00 PM Sun", "DVLBL": "M", "FCSTPRD": 120, "FLDATELBL": "2021-08-29 1:00 PM Sun CDT", "GUST": 150, "LAT": 29, "LON": -90, "MAXWIND": 125, "MSLP": 9999, "SSNUM": 4, "STORMNAME": "Hurricane Ida", "STORMNUM": 9, "STORMSRC": "Tropical Cyclone", "STORMTYPE": "MH", "TCDVLP": "Major Hurricane", "TAU": 12, "TCDIR": 9999, "TCSPD": 9999, "TIMEZONE": "CDT", "VALIDTIME": "29/1800"}, "geometry": {"type": "Point", "coordinates": [-90.3, 29.1]}}, {"type": "Feature", "properties": {"shapefile": "al092021-012_5day_pts", "ADVDATE": "400 AM CDT Sun Aug 29 2021", "ADVISNUM": "12", "BASIN": "AL", "DATELBL": "1:00 AM Mon", "DVLBL": "H", "FCSTPRD": 120, "FLDATELBL": "2021-08-30 1:00 AM Mon CDT", "GUST": 85, "LAT": 30, "LON": -91, "MAXWIND": 70, "MSLP": 9999, "SSNUM": 1, "STORMNAME": "Hurricane Ida", "STORMNUM": 9, "STORMSRC": "Tropical Cyclone", "STORMTYPE": "HU", "TCDVLP": "Hurricane", "TAU": 24, "TCDIR": 9999, "TCSPD": 9999, "TIMEZONE": "CDT", "VALIDTIME": "30/0600"}, "geometry": {"type": "Point", "coordinates": [-91.1, 30.6]}}, {"type": "Feature", "properties": {"shapefile": "al092021-012_5day_pts", "ADVDATE": "400 AM CDT Sun Aug 29 2021", "ADVISNUM": "12", "BASIN": "AL", "DATELBL": "1:00 PM Mon", "DVLBL": "S", "FCSTPRD": 120, "FLDATELBL": "2021-08-30 1:00 PM Mon CDT", "GUST": 55, "LAT": 32, "LON": -91, "MAXWIND": 45, "MSLP": 9999, "SSNUM": 0, "STORMNAME": "Hurricane Ida", "STORMNUM": 9, "STORMSRC": "Tropical Cyclone", "STORMTYPE": "TS", "TCDVLP": "Tropical Storm", "TAU": 36, "TCDIR": 9999, "TCSPD": 9999, "TIMEZONE": "CDT", "VALIDTIME": "30/1800"}, "geometry": {"type": "Point", "coordinates": [-91.0, 32.2]}}, {"type": "Feature", "properties": {"shapefile": "al092021-012_5day_pts", "ADVDATE": "400 AM CDT Sun Aug 29 2021", "ADVISNUM": "12", "BASIN": "AL", "DATELBL": "1:00 AM Tue", "DVLBL": "D", "FCSTPRD": 120, "FLDATELBL": "2021-08-31 1:00 AM Tue CDT", "GUST": 40, "LAT": 33, "LON": -90, "MAXWIND": 30, "MSLP": 9999, "SSNUM": 0, "STORMNAME": "Hurricane Ida", "STORMNUM": 9, "STORMSRC": "Tropical Cyclone", "STORMTYPE": "TD", "TCDVLP": "Tropical Depression", "TAU": 48, "TCDIR": 9999, "TCSPD": 9999, "TIMEZONE": "CDT", "VALIDTIME": "31/0600"}, "geometry": {"type": "Point", "coordinates": [-90.0, 33.8]}}, {"type": "Feature", "properties": {"shapefile": "al092021-012_5day_pts", "ADVDATE": "400 AM CDT Sun Aug 29 2021", "ADVISNUM": "12", "BASIN": "AL", "DATELBL": "1:00 PM Tue", "DVLBL": "D", "FCSTPRD": 120, "FLDATELBL": "2021-08-31 1:00 PM Tue CDT", "GUST": 35, "LAT": 35, "LON": -87, "MAXWIND": 25, "MSLP": 9999, "SSNUM": 0, "STORMNAME": "Hurricane Ida", "STORMNUM": 9, "STORMSRC": "Tropical Cyclone", "STORMTYPE": "TD", "TCDVLP": "Tropical Depression", "TAU": 60, "TCDIR": 9999, "TCSPD": 9999, "TIMEZONE": "CDT", "VALIDTIME": "31/1800"}, "geometry": {"type": "Point", "coordinates": [-87.9, 35.4]}}, {"type": "Feature", "properties": {"shapefile": "al092021-012_5day_pts", "ADVDATE": "400 AM CDT Sun Aug 29 2021", "ADVISNUM": "12", "BASIN": "AL", "DATELBL": "1:00 AM Wed", "DVLBL": "D", "FCSTPRD": 120, "FLDATELBL": "2021-09-01 1:00 AM Wed CDT", "GUST": 30, "LAT": 36, "LON": -85, "MAXWIND": 20, "MSLP": 9999, "SSNUM": 0, "STORMNAME": "Hurricane Ida", "STORMNUM": 9, "STORMSRC": "Tropical Cyclone", "STORMTYPE": "TD", "TCDVLP": "Tropical Depression", "TAU": 72, "TCDIR": 9999, "TCSPD": 9999, "TIMEZONE": "CDT", "VALIDTIME": "01/0600"}, "geometry": {"type": "Point", "coordinates": [-85.2, 36.7]}}, {"type": "Feature", "properties": {"shapefile": "al092021-012_5day_pts", "ADVDATE": "400 AM CDT Sun Aug 29 2021", "ADVISNUM": "12", "BASIN": "AL", "DATELBL": "1:00 AM Thu", "DVLBL": "D", "FCSTPRD": 120, "FLDATELBL": "2021-09-02 1:00 AM Thu CDT", "GUST": 30, "LAT": 38, "LON": -78, "MAXWIND": 20, "MSLP": 9999, "SSNUM": 0, "STORMNAME": "Hurricane Ida", "STORMNUM": 9, "STORMSRC": "Post-Tropical Cyclone", "STORMTYPE": "STD", "TCDVLP": "Subtropical Depression", "TAU": 96, "TCDIR": 9999, "TCSPD": 9999, "TIMEZONE": "CDT", "VALIDTIME": "02/0600"}, "geometry": {"type": "Point", "coordinates": [-78.9, 38.9]}}]}