{"type": "FeatureCollection", "features": [{"type": "Feature", "properties": {"shapefile": "al092021_2021082909_initialradii", "RADII": 34, "STORMID": "al092021", "BASIN": "al", "STORMNUM": 9, "ADVNUM": "12", "VALIDTIME": "2021082909", "SYNOPTIME": "2021082906", "TIMEZONE": "UTC", "TAU": 0, "NE": 120, "SE": 100, "SW": 80, "NW": 110}, "geometry": {"type": "Polygon", "coordinates": [[[-89.080513, 29.912117], [-89.0419617, 29.9133644], [-89.0033646, 29.9140186], [-88.9647141, 29.9140759], [-88.9260406, 29.9135342], [-88.8873291, 29.9123936], [-88.8486252, 29.9106541], [-88.8099213, 29.9083157], [-88.7712479, 29.9053726], [-88.7325974, 29.9018326], [-88.6940002, 29.8976879], [-88.6554413, 29.8929482], [-88.6169739, 29.8876076], [-88.5785675, 29.8816624], [-88.5402527, 29.8751221], [-88.5020599, 29.867981], [-88.4639816, 29.8602467], [-88.426033, 29.8519192], [-88.3882294, 29.8429909], [-88.3505859, 29.8334751], [-88.3131104, 29.8233719], [-88.2758255, 29.8126755], [-88.2387238, 29.8013954], [-88.201828, 29.7895336], [-88.1651535, 29.7770901], [-88.1287155, 29.7640724], [-88.0925217, 29.7504787], [-88.0565796, 29.7363148], [-88.0209122, 29.7215805], [-87.9855118, 29.7062893], [-87.9504089, 29.6904335], [-87.9156189, 29.6740246], [-87.881134, 29.6570606], [-87.8469849, 29.6395531], [-87.8131561, 29.6215076], [-87.779686, 29.6029186], [-87.7465744, 29.5838051], [-87.7138367, 29.5641575], [-87.6814804, 29.543993], [-87.6495132, 29.5233059], [-87.6179581, 29.5021095], [-87.5870667, 29.4802017], [-87.5571365, 29.4573765], [-87.528183, 29.4336643], [-87.5002289, 29.4090843], [-87.4732971, 29.3836594], [-87.4474258, 29.3574181], [-87.4226303, 29.3303757], [-87.3989258, 29.3025684], [-87.376358, 29.2740173], [-87.35466, 29.244957], [-87.3336182, 29.2156239], [-87.3132172, 29.1860142], [-87.2934723, 29.1561546], [-87.2743759, 29.1260452], [-87.255928, 29.0957031], [-87.2381516, 29.065134], [-87.2210388, 29.0343533], [-87.2045746, 29.0033703], [-87.1887894, 28.9721909], [-87.1736679, 28.940834], [-87.1592255, 28.9093018], [-87.1454468, 28.8776112], [-87.1323471, 28.8457718], [-87.1199265, 28.8137913], [-87.1081848, 28.7816868], [-87.0970993, 28.7494678], [-87.0867004, 28.7171402], [-87.0769882, 28.6847191], [-87.0679474, 28.6522179], [-87.0595932, 28.6196384], [-87.0519028, 28.586998], [-87.0448837, 28.5543041], [-87.0385437, 28.5215721], [-87.0328827, 28.4888096], [-87.0278854, 28.456028], [-87.0235596, 28.4232388], [-87.0199203, 28.3904495], [-87.0169296, 28.3576717], [-87.0146103, 28.324913], [-87.0129395, 28.2921925], [-87.0119476, 28.2595139], [-87.0116043, 28.2268887], [-87.0119095, 28.1943283], [-87.0128784, 28.1618423], [-87.0144882, 28.1294365], [-87.0167313, 28.0971279], [-87.0196228, 28.0649204], [-87.0231552, 28.0328293], [-87.0273132, 28.0008602], [-87.0320969, 27.9690247], [-87.0375061, 27.9373341], [-87.0435333, 27.9057922], [-87.0501556, 27.8744106], [-87.0574036, 27.8432045], [-87.0652618, 27.8121738], [-87.0737, 27.7813396], [-87.0827332, 27.7507], [-87.0923615, 27.7202682], [-87.1025696, 27.6900482], [-87.1133423, 27.6600571], [-87.1246872, 27.6302967], [-87.1365967, 27.6007786], [-87.1490555, 27.5715103], [-87.1620789, 27.5425014], [-87.1756287, 27.5137558], [-87.1897278, 27.4852886], [-87.2043381, 27.4571018], [-87.2194748, 27.4292068], [-87.2351227, 27.4016075], [-87.2512817, 27.3743134], [-87.2679291, 27.347332], [-87.2850876, 27.3206692], [-87.3027115, 27.2943344], [-87.3208084, 27.2683315], [-87.339386, 27.2426682], [-87.3584137, 27.2173519], [-87.3778992, 27.1923904], [-87.3978348, 27.1677895], [-87.41819, 27.1435509], [-87.4389877, 27.1196899], [-87.4601898, 27.0962009], [-87.4818039, 27.0730972], [-87.5038223, 27.0503845], [-87.5262146, 27.0280666], [-87.5490036, 27.0061455], [-87.5721741, 26.9846344], [-87.5957031, 26.9635353], [-87.6195908, 26.9428482], [-87.6438141, 26.9225807], [-87.6683731, 26.9027386], [-87.6932678, 26.8833237], [-87.7184753, 26.8643436], [-87.7439957, 26.8458023], [-87.7698288, 26.8276978], [-87.7959366, 26.8100414], [-87.8223267, 26.7928352], [-87.8489914, 26.7760792], [-87.8759155, 26.7597771], [-87.9030914, 26.7439346], [-87.9305115, 26.7285538], [-87.9581604, 26.7136345], [-87.9860458, 26.6991882], [-88.0141296, 26.6852093], [-88.0424271, 26.6716995], [-88.0709, 26.6586666], [-88.0995789, 26.6461086], [-88.128418, 26.6340275], [-88.1574173, 26.622427], [-88.1865768, 26.6113052], [-88.2158813, 26.600666], [-88.2453232, 26.5905094], [-88.2748795, 26.5808392], [-88.3045654, 26.5716553], [-88.3343506, 26.5629539], [-88.3642273, 26.5547447], [-88.3941879, 26.54702], [-88.4242249, 26.5397816], [-88.4543304, 26.5330296], [-88.4844971, 26.5267677], [-88.5147095, 26.5209942], [-88.5449448, 26.5157032], [-88.5752258, 26.5109024], [-88.6055069, 26.5065842], [-88.6358109, 26.5027523], [-88.6661072, 26.4994011], [-88.6963882, 26.4965363], [-88.7266693, 26.4941502], [-88.7569122, 26.4922447], [-88.7870941, 26.4908199], [-88.8172455, 26.4898682], [-88.8473434, 26.4893913], [-88.8773727, 26.4893875], [-88.9073181, 26.4898529], [-88.9371872, 26.4907875], [-88.9669495, 26.4921894], [-88.9966202, 26.494051], [-89.0261765, 26.4963741], [-89.0556183, 26.499155], [-89.0849228, 26.5023899], [-89.1140976, 26.5060768], [-89.1431198, 26.5102119], [-89.1719818, 26.5147915], [-89.2006912, 26.5198097], [-89.2292175, 26.5252628], [-89.2575836, 26.5311527], [-89.2857437, 26.5374718], [-89.3137207, 26.5442162], [-89.3414841, 26.551384], [-89.3690491, 26.5589676], [-89.3963776, 26.5669632], [-89.4234924, 26.5753651], [-89.4503632, 26.5841751], [-89.4769974, 26.59338], [-89.5033875, 26.6029758], [-89.5295105, 26.6129684], [-89.5553741, 26.6233406], [-89.5809631, 26.6340904], [-89.6062851, 26.6452141], [-89.6313171, 26.6567059], [-89.6560516, 26.66856], [-89.6804962, 26.6807728], [-89.704628, 26.6933365], [-89.7284622, 26.7062454], [-89.751976, 26.719492], [-89.7751694, 26.7330723], [-89.798027, 26.7469826], [-89.8205643, 26.7612152], [-89.8427429, 26.7757587], [-89.8645935, 26.7906151], [-89.8860779, 26.8057747], [-89.9072113, 26.821228], [-89.9279938, 26.8369694], [-89.9483948, 26.8529987], [-89.9684372, 26.8693008], [-89.9880981, 26.8858757], [-90.0073776, 26.9027157], [-90.0262756, 26.9198093], [-90.0447922, 26.9371548], [-90.062912, 26.9547405], [-90.0806351, 26.9725666], [-90.0983505, 26.9902554], [-90.1165009, 27.0074577], [-90.1351166, 27.0241947], [-90.1542053, 27.0404816], [-90.1738052, 27.0563431], [-90.1939316, 27.0717983], [-90.214592, 27.0868683], [-90.2358246, 27.101572], [-90.2576523, 27.1159363], [-90.2796707, 27.1303463], [-90.3014832, 27.1451645], [-90.3230667, 27.1603889], [-90.3444214, 27.1760216], [-90.3655472, 27.1920605], [-90.3864136, 27.2084961], [-90.4070206, 27.2253323], [-90.4273758, 27.2425613], [-90.4474411, 27.2601833], [-90.4672318, 27.2781925], [-90.4867172, 27.296587], [-90.5058975, 27.3153629], [-90.5247803, 27.3345165], [-90.5433197, 27.3540401], [-90.561554, 27.3739338], [-90.5794296, 27.3941917], [-90.5969543, 27.4148083], [-90.6141281, 27.4357834], [-90.6309357, 27.4571037], [-90.6473694, 27.4787674], [-90.6634216, 27.5007744], [-90.6790771, 27.5231171], [-90.6943359, 27.545784], [-90.7091904, 27.568779], [-90.7236099, 27.5920887], [-90.7376175, 27.6157093], [-90.7511902, 27.6396351], [-90.7643127, 27.6638584], [-90.7770004, 27.6883755], [-90.7892151, 27.7131767], [-90.8009796, 27.7382584], [-90.8122711, 27.7636127], [-90.823082, 27.7892303], [-90.8334045, 27.8151073], [-90.8432312, 27.8412342], [-90.8525467, 27.8676033], [-90.8613586, 27.8942108], [-90.8696594, 27.9210434], [-90.8774338, 27.9480991], [-90.8846893, 27.9753647], [-90.8914032, 28.0028324], [-90.897583, 28.0304985], [-90.9032135, 28.0583534], [-90.908287, 28.0863819], [-90.9128036, 28.1145859], [-90.9167557, 28.1429462], [-90.9201355, 28.1714611], [-90.9229507, 28.2001209], [-90.9251862, 28.2289143], [-90.9268341, 28.2578335], [-90.927887, 28.286869], [-90.9283447, 28.3160095], [-90.9281998, 28.345253], [-90.9274597, 28.3745785], [-90.9261093, 28.4039841], [-90.9241562, 28.4334602], [-90.9215851, 28.4629955], [-90.9183807, 28.4925766], [-90.914566, 28.5221958], [-90.9101257, 28.5518494], [-90.9050674, 28.5815163], [-90.8993683, 28.6111965], [-90.8930435, 28.6408691], [-90.8860855, 28.6705322], [-90.8784943, 28.7001724], [-90.8702621, 28.7297764], [-90.8613815, 28.7593422], [-90.8518677, 28.7888527], [-90.841713, 28.8182983], [-90.8309174, 28.8476658], [-90.8194809, 28.8769493], [-90.8073959, 28.9061356], [-90.7946548, 28.935215], [-90.7812881, 28.96418], [-90.7672729, 28.9930077], [-90.7526093, 29.0217018], [-90.7373123, 29.0502415], [-90.7213669, 29.0786209], [-90.7047882, 29.1068287], [-90.6875687, 29.1348495], [-90.6697083, 29.1626797], [-90.6510544, 29.1901627], [-90.6314316, 29.2171249], [-90.6108704, 29.2435608], [-90.5893707, 29.2694397], [-90.5669708, 29.2947464], [-90.5436783, 29.3194542], [-90.5195007, 29.3435497], [-90.4944611, 29.3670139], [-90.4685745, 29.3898277], [-90.4420395, 29.4121094], [-90.4150085, 29.4340038], [-90.3875122, 29.4554958], [-90.3595352, 29.4765835], [-90.3311005, 29.4972572], [-90.3022232, 29.5175076], [-90.2729111, 29.5373306], [-90.2431488, 29.556715], [-90.2129669, 29.5756531], [-90.1823578, 29.5941391], [-90.1513443, 29.6121693], [-90.1199341, 29.629734], [-90.0881271, 29.6468334], [-90.0559387, 29.6634483], [-90.0233841, 29.6795826], [-89.9904556, 29.6952286], [-89.9571915, 29.7103748], [-89.9235764, 29.7250233], [-89.8896255, 29.7391586], [-89.8553543, 29.7527809], [-89.8207703, 29.7658825], [-89.785881, 29.7784653], [-89.7507019, 29.7905178], [-89.7152481, 29.8020363], [-89.6795273, 29.8130112], [-89.6435394, 29.8234482], [-89.6073074, 29.833334], [-89.5708313, 29.8426685], [-89.5341415, 29.8514481], [-89.4972229, 29.8596668], [-89.4601212, 29.8673172], [-89.422821, 29.874403], [-89.3853455, 29.8809128], [-89.3476944, 29.8868542], [-89.3098984, 29.8922195], [-89.2719498, 29.8969994], [-89.2338791, 29.9011974], [-89.1956787, 29.9048119], [-89.1573792, 29.9078369], [-89.118988, 29.9102707], [-89.080513, 29.912117]]]}}, {"type": "Feature", "properties": {"shapefile": "al092021_2021082909_initialradii", "RADII": 50, "STORMID": "al092021", "BASIN": "al", "STORMNUM": 9, "ADVNUM": "12", "VALIDTIME": "2021082909", "SYNOPTIME": "2021082906", "TIMEZONE": "UTC", "TAU": 0, "NE": 70, "SE": 60, "SW": 40, "NW": 60}, "geometry": {"type": "Polygon", "coordinates": [[[-89.0889587, 29.0811729], [-89.0673218, 29.0826817], [-89.0456161, 29.0838547], [-89.0238419, 29.0846958], [-89.002037, 29.0851955], [-88.9801712, 29.0853539], [-88.9582825, 29.0851746], [-88.936348, 29.0846558], [-88.9144058, 29.0837917], [-88.8924408, 29.0825882], [-88.8704605, 29.0810337], [-88.8484955, 29.0791416], [-88.8265228, 29.0769005], [-88.8045731, 29.0743179], [-88.7826385, 29.0713844], [-88.7607346, 29.0681076], [-88.7388611, 29.0644875], [-88.717041, 29.0605164], [-88.6952591, 29.0562], [-88.6735458, 29.0515366], [-88.651886, 29.0465317], [-88.6302872, 29.0411816], [-88.6087875, 29.0354881], [-88.5873642, 29.0294495], [-88.56604, 29.0230713], [-88.5447998, 29.0163479], [-88.5236816, 29.009285], [-88.5026703, 29.0018826], [-88.481781, 28.9941406], [-88.4610214, 28.9860668], [-88.4403992, 28.9776535], [-88.4199142, 28.9689102], [-88.3995819, 28.9598312], [-88.379425, 28.9504261], [-88.3594055, 28.9406948], [-88.3395615, 28.9306374], [-88.3199005, 28.9202499], [-88.3004227, 28.9095497], [-88.2811508, 28.8985214], [-88.2620621, 28.8871841], [-88.243187, 28.8755322], [-88.224678, 28.8634262], [-88.206749, 28.8507347], [-88.1893845, 28.8374729], [-88.1726303, 28.8236523], [-88.1564713, 28.809288], [-88.1409607, 28.7943954], [-88.1261063, 28.7789879], [-88.111908, 28.7630844], [-88.0983887, 28.7466965], [-88.0853958, 28.72999], [-88.0727615, 28.7131081], [-88.0604935, 28.6960621], [-88.048584, 28.6788502], [-88.0370407, 28.6614895], [-88.0258789, 28.6439724], [-88.0150909, 28.6263199], [-88.0046692, 28.6085281], [-87.9946442, 28.5906067], [-87.9849854, 28.5725632], [-87.975708, 28.5544033], [-87.9668198, 28.5361252], [-87.9583054, 28.5177479], [-87.9501801, 28.4992714], [-87.9424438, 28.4806995], [-87.9350967, 28.4620399], [-87.9281311, 28.4432983], [-87.9215622, 28.4244843], [-87.9153824, 28.4056015], [-87.9095993, 28.3866577], [-87.9041977, 28.3676586], [-87.8991928, 28.3486099], [-87.8945694, 28.3295155], [-87.8903503, 28.3103867], [-87.8865051, 28.2912273], [-87.8830643, 28.2720413], [-87.8800049, 28.2528343], [-87.8773499, 28.2336159], [-87.8750687, 28.2143936], [-87.8731766, 28.1951694], [-87.8716812, 28.175951], [-87.870575, 28.1567459], [-87.8698502, 28.1375561], [-87.8694992, 28.1183891], [-87.8695374, 28.0992546], [-87.869957, 28.0801544], [-87.8707581, 28.0610962], [-87.871933, 28.0420837], [-87.873497, 28.0231247], [-87.8754196, 28.0042286], [-87.8777161, 27.9853935], [-87.880394, 27.966629], [-87.8834305, 27.9479427], [-87.8868332, 27.9293365], [-87.8905945, 27.9108181], [-87.8947296, 27.8923912], [-87.8992081, 27.8740635], [-87.9040527, 27.8558426], [-87.9092407, 27.8377285], [-87.9147797, 27.819725], [-87.9206696, 27.8018475], [-87.9268951, 27.7840919], [-87.9334641, 27.7664661], [-87.9403687, 27.7489758], [-87.9476013, 27.7316246], [-87.9551697, 27.7144203], [-87.9630508, 27.6973648], [-87.9712677, 27.6804638], [-87.9797897, 27.6637211], [-87.9886246, 27.6471462], [-87.9977798, 27.6307373], [-88.0072403, 27.6145039], [-88.0169983, 27.598444], [-88.0270615, 27.5825691], [-88.0374069, 27.5668812], [-88.0480499, 27.551384], [-88.0589752, 27.5360794], [-88.0701675, 27.5209751], [-88.0816498, 27.5060749], [-88.0933914, 27.4913845], [-88.1054077, 27.476902], [-88.1176758, 27.4626312], [-88.1302109, 27.4485817], [-88.1429901, 27.4347553], [-88.1560287, 27.4211502], [-88.1692886, 27.4077759], [-88.1827927, 27.3946342], [-88.1965256, 27.3817272], [-88.2104797, 27.3690605], [-88.2246704, 27.356636], [-88.2390671, 27.3444519], [-88.2537537, 27.3325939], [-88.2688141, 27.3211327], [-88.2842102, 27.3100834], [-88.2999496, 27.2994518], [-88.3160095, 27.2892456], [-88.3323822, 27.2794666], [-88.3490677, 27.2701263], [-88.3660431, 27.2612267], [-88.3832855, 27.2527771], [-88.4007263, 27.2447109], [-88.418251, 27.2369537], [-88.4358826, 27.2295036], [-88.4535904, 27.2223682], [-88.4713669, 27.2155418], [-88.4892197, 27.2090282], [-88.5071259, 27.2028275], [-88.5251083, 27.1969376], [-88.5431213, 27.1913567], [-88.5611801, 27.1860886], [-88.579277, 27.1811295], [-88.5974045, 27.1764812], [-88.6155624, 27.1721439], [-88.633728, 27.1681175], [-88.6519012, 27.1643982], [-88.6700821, 27.1609879], [-88.6882629, 27.1578808], [-88.7064285, 27.155077], [-88.7245789, 27.1525803], [-88.7427063, 27.1503887], [-88.7608109, 27.1484966], [-88.7788773, 27.146904], [-88.7969055, 27.1456089], [-88.8148727, 27.1446095], [-88.8327942, 27.1439075], [-88.8506699, 27.1434956], [-88.8684616, 27.1433754], [-88.8861923, 27.1435471], [-88.9038391, 27.1439991], [-88.9214172, 27.1447392], [-88.9388962, 27.1457596], [-88.9562912, 27.1470604], [-88.9735794, 27.1486378], [-88.9907532, 27.150486], [-89.0078354, 27.152607], [-89.0247803, 27.154995], [-89.0416183, 27.1576519], [-89.0583344, 27.1605682], [-89.074913, 27.1637478], [-89.0913544, 27.1671791], [-89.1076508, 27.1708641], [-89.1238098, 27.1748009], [-89.1398087, 27.1789837], [-89.1556702, 27.1834068], [-89.1713562, 27.1880722], [-89.1868744, 27.1929703], [-89.20224, 27.198103], [-89.2174225, 27.2034607], [-89.2324295, 27.2090416], [-89.2472458, 27.2148457], [-89.261879, 27.2208652], [-89.276329, 27.2270966], [-89.2905807, 27.2335396], [-89.3046341, 27.2401848], [-89.3184814, 27.2470322], [-89.3321381, 27.2540722], [-89.3455811, 27.2613049], [-89.3588028, 27.2687283], [-89.3718185, 27.2763329], [-89.384613, 27.2841129], [-89.3971863, 27.2920685], [-89.4095383, 27.3001957], [-89.4216614, 27.3084869], [-89.4335632, 27.3169403], [-89.4452209, 27.3255482], [-89.4566498, 27.3343086], [-89.4678345, 27.343214], [-89.4787903, 27.3522644], [-89.4894867, 27.3614502], [-89.4999542, 27.3707695], [-89.5101624, 27.3802147], [-89.5201416, 27.3897877], [-89.5298615, 27.3994751], [-89.5393372, 27.4092751], [-89.5485535, 27.4191856], [-89.5575256, 27.4291992], [-89.5662308, 27.4393139], [-89.5746765, 27.449522], [-89.5828629, 27.4598198], [-89.5907898, 27.4702015], [-89.598465, 27.4806633], [-89.6062164, 27.4909115], [-89.6143646, 27.5006638], [-89.6229553, 27.5099392], [-89.6320038, 27.5187569], [-89.6415253, 27.5271301], [-89.6515503, 27.5350761], [-89.6620865, 27.542614], [-89.6731567, 27.5497627], [-89.6847839, 27.5565395], [-89.6966553, 27.5632553], [-89.7084351, 27.5702], [-89.7201157, 27.5773773], [-89.7317047, 27.5847874], [-89.7431946, 27.5924244], [-89.7545776, 27.6002884], [-89.7658386, 27.6083813], [-89.7769928, 27.6166992], [-89.7880096, 27.6252403], [-89.798912, 27.6340084], [-89.8096619, 27.6429958], [-89.820282, 27.6522045], [-89.8307495, 27.6616306], [-89.8410645, 27.6712742], [-89.8512268, 27.6811333], [-89.8612213, 27.691206], [-89.8710403, 27.7014885], [-89.8807068, 27.7119827], [-89.8901672, 27.7226791], [-89.8994598, 27.7335835], [-89.9085693, 27.7446842], [-89.9174652, 27.7559891], [-89.926178, 27.7674885], [-89.9346771, 27.7791805], [-89.9429779, 27.7910652], [-89.9510651, 27.8031349], [-89.9589157, 27.8153915], [-89.9665604, 27.8278294], [-89.9739609, 27.8404465], [-89.9811249, 27.8532391], [-89.9880676, 27.8662033], [-89.994751, 27.8793392], [-90.0011902, 27.8926315], [-90.0073853, 27.9060917], [-90.0133209, 27.9197083], [-90.0189896, 27.9334755], [-90.0243988, 27.9473934], [-90.0295334, 27.9614563], [-90.0343933, 27.9756584], [-90.0389709, 27.9899998], [-90.0432816, 28.0044746], [-90.0472794, 28.0190773], [-90.0510101, 28.0338039], [-90.0544434, 28.0486488], [-90.057579, 28.0636082], [-90.0604095, 28.0786819], [-90.0629425, 28.0938587], [-90.065155, 28.1091347], [-90.0670547, 28.1245041], [-90.0686417, 28.1399689], [-90.0699158, 28.1555214], [-90.0708694, 28.1711502], [-90.0715027, 28.1868553], [-90.0718079, 28.2026329], [-90.0717773, 28.2184696], [-90.0714264, 28.2343712], [-90.0707169, 28.2503262], [-90.0696945, 28.2663269], [-90.0683136, 28.2823734], [-90.0666046, 28.2984562], [-90.0645447, 28.3145695], [-90.0621567, 28.3307133], [-90.0594101, 28.3468742], [-90.0563049, 28.3630505], [-90.0528564, 28.3792343], [-90.049057, 28.3954258], [-90.044899, 28.4116135], [-90.0403976, 28.4277878], [-90.0355377, 28.4439507], [-90.0303116, 28.4600925], [-90.0247498, 28.4762096], [-90.0188065, 28.4922924], [-90.0125046, 28.5083351], [-90.0058441, 28.524332], [-89.9988327, 28.5402794], [-89.9914703, 28.5561733], [-89.9837341, 28.5719986], [-89.975647, 28.5877552], [-89.9671936, 28.6034336], [-89.958374, 28.6190357], [-89.9492111, 28.6345482], [-89.9396057, 28.649889], [-89.9294815, 28.6649857], [-89.9188538, 28.6798172], [-89.9077072, 28.694376], [-89.8960724, 28.7086525], [-89.8839493, 28.7226353], [-89.8713455, 28.7363148], [-89.8582764, 28.7496815], [-89.8447418, 28.7627182], [-89.8308258, 28.7754993], [-89.8166351, 28.7880783], [-89.8021545, 28.8004589], [-89.7874069, 28.8126354], [-89.772377, 28.8245983], [-89.7570801, 28.8363514], [-89.7415314, 28.8478794], [-89.725708, 28.8591881], [-89.7096252, 28.8702698], [-89.6932983, 28.8811169], [-89.6767197, 28.8917236], [-89.6598969, 28.902092], [-89.6428375, 28.9122181], [-89.6255188, 28.9220886], [-89.6080017, 28.9317093], [-89.5902405, 28.9410706], [-89.5722656, 28.9501724], [-89.5540619, 28.9590054], [-89.535675, 28.9675732], [-89.5170593, 28.9758644], [-89.4982529, 28.9838791], [-89.4792557, 28.9916153], [-89.4600525, 28.9990673], [-89.4406891, 29.0062294], [-89.4211197, 29.0131016], [-89.4013977, 29.0196838], [-89.3815002, 29.0259628], [-89.3614578, 29.0319443], [-89.3412476, 29.0376244], [-89.3208923, 29.0429993], [-89.3003922, 29.0480614], [-89.2797623, 29.0528164], [-89.2590027, 29.0572548], [-89.2381134, 29.0613747], [-89.2171021, 29.0651779], [-89.1959839, 29.0686607], [-89.1747665, 29.0718174], [-89.1534348, 29.074646], [-89.1320419, 29.0771523], [-89.1105423, 29.0793285], [-89.0889587, 29.0811729]]]}}, {"type": "Feature", "properties": {"shapefile": "al092021_2021082909_initialradii", "RADII": 64, "STORMID": "al092021", "BASIN": "al", "STORMNUM": 9, "ADVNUM": "12", "VALIDTIME": "2021082909", "SYNOPTIME": "2021082906", "TIMEZONE": "UTC", "TAU": 0, "NE": 35, "SE": 30, "SW": 20, "NW": 30}, "geometry": {"type": "Polygon", "coordinates": [[[-89.0945129, 28.5405884], [-89.0837479, 28.5413437], [-89.0729446, 28.541935], [-89.0621185, 28.5423546], [-89.0512619, 28.5426102], [-89.04039, 28.5426903], [-89.0295029, 28.5426102], [-89.0186081, 28.5423508], [-89.0076828, 28.5419312], [-88.9967499, 28.5413342], [-88.9858246, 28.5405674], [-88.9748917, 28.5396328], [-88.9639587, 28.5385208], [-88.9530411, 28.5372391], [-88.942131, 28.5357876], [-88.9312363, 28.5341625], [-88.9203568, 28.5323658], [-88.9094925, 28.5303955], [-88.8986511, 28.5282516], [-88.8878403, 28.5259399], [-88.8770599, 28.5234547], [-88.8663025, 28.5207958], [-88.8555984, 28.5179672], [-88.8449402, 28.514967], [-88.8343124, 28.511797], [-88.8237381, 28.5084572], [-88.8132172, 28.5049515], [-88.8027573, 28.5012722], [-88.7923431, 28.4974232], [-88.7820129, 28.4934082], [-88.7717285, 28.4892273], [-88.761528, 28.4848804], [-88.7513885, 28.4803677], [-88.741333, 28.4756908], [-88.7313538, 28.4708481], [-88.7214584, 28.465847], [-88.711647, 28.4606838], [-88.7019348, 28.4553623], [-88.6923141, 28.4498768], [-88.6827927, 28.4442368], [-88.6733704, 28.4384384], [-88.6641312, 28.4324169], [-88.6551743, 28.4260998], [-88.6464996, 28.4194965], [-88.6381149, 28.4126129], [-88.630043, 28.4054604], [-88.6222839, 28.3980389], [-88.6148453, 28.3903599], [-88.6077423, 28.3824348], [-88.6009674, 28.3742657], [-88.5944519, 28.3659363], [-88.5881042, 28.3575172], [-88.5819473, 28.3490162], [-88.5759659, 28.3404331], [-88.5701752, 28.3317738], [-88.5645599, 28.32304], [-88.5591431, 28.3142319], [-88.5539017, 28.305357], [-88.5488586, 28.2964153], [-88.5439911, 28.2874107], [-88.5393219, 28.2783489], [-88.5348282, 28.2692337], [-88.5305481, 28.2600594], [-88.5264435, 28.2508354], [-88.5225296, 28.2415695], [-88.5188141, 28.2322521], [-88.5152893, 28.2228985], [-88.5119629, 28.2135067], [-88.5088196, 28.2040768], [-88.5058823, 28.1946163], [-88.5031281, 28.1851273], [-88.5005722, 28.1756115], [-88.4982071, 28.1660748], [-88.496048, 28.1565208], [-88.4940796, 28.1469498], [-88.4923019, 28.1373653], [-88.4907227, 28.1277676], [-88.4893417, 28.1181641], [-88.4881516, 28.1085587], [-88.4871521, 28.0989475], [-88.486351, 28.0893421], [-88.4857407, 28.0797405], [-88.485321, 28.0701485], [-88.4850922, 28.0605679], [-88.4850616, 28.0509987], [-88.4852219, 28.0414467], [-88.4855652, 28.0319138], [-88.4860992, 28.0224037], [-88.486824, 28.0129204], [-88.4877319, 28.0034676], [-88.4888306, 27.9940453], [-88.4901047, 27.9846573], [-88.4915695, 27.9753075], [-88.4932175, 27.9659977], [-88.4950562, 27.956728], [-88.4970703, 27.947506], [-88.4992599, 27.9383335], [-88.5016251, 27.9292107], [-88.5041809, 27.9201431], [-88.5069046, 27.9111309], [-88.5097961, 27.9021778], [-88.5128708, 27.8932877], [-88.5161057, 27.8844624], [-88.519516, 27.8757], [-88.5230942, 27.8670101], [-88.526825, 27.8583908], [-88.5307312, 27.8498459], [-88.5347977, 27.8413792], [-88.539032, 27.8329926], [-88.5434189, 27.8246841], [-88.5479507, 27.8164597], [-88.5526428, 27.8083267], [-88.5575027, 27.8002777], [-88.5625, 27.7923222], [-88.5676498, 27.7844601], [-88.5729446, 27.7766895], [-88.5783844, 27.7690182], [-88.5839539, 27.7614441], [-88.5896759, 27.7539711], [-88.5955276, 27.7466011], [-88.6015091, 27.7393379], [-88.6076355, 27.7321835], [-88.6138763, 27.7251358], [-88.6202698, 27.7182026], [-88.6267624, 27.7113781], [-88.6333923, 27.70467], [-88.6401367, 27.6980762], [-88.6469879, 27.6916008], [-88.6539688, 27.6852436], [-88.6610565, 27.6790085], [-88.6682434, 27.6728935], [-88.6755829, 27.6669407], [-88.6831207, 27.6611881], [-88.6908188, 27.6556396], [-88.6986923, 27.6503029], [-88.7067337, 27.6451759], [-88.7149277, 27.6402664], [-88.7232971, 27.6355724], [-88.731781, 27.6310997], [-88.7404251, 27.626852], [-88.7491608, 27.6227951], [-88.7579422, 27.6188927], [-88.7667694, 27.6151505], [-88.7756424, 27.6115627], [-88.7845535, 27.6081295], [-88.7935028, 27.6048508], [-88.8024902, 27.6017303], [-88.8114929, 27.5987663], [-88.8205338, 27.5959587], [-88.8295975, 27.5933056], [-88.8386612, 27.5908108], [-88.8477554, 27.5884705], [-88.8568649, 27.5862865], [-88.8659821, 27.5842552], [-88.8750992, 27.5823822], [-88.8842239, 27.5806618], [-88.8933411, 27.5790939], [-88.9024582, 27.5776825], [-88.9115601, 27.5764198], [-88.9206619, 27.5753098], [-88.9297485, 27.5743523], [-88.9388123, 27.5735455], [-88.9478607, 27.5728893], [-88.9568787, 27.5723801], [-88.9658737, 27.5720196], [-88.9748383, 27.571806], [-88.9837799, 27.5717392], [-88.9926682, 27.5718155], [-89.0015411, 27.5720387], [-89.0103607, 27.572401], [-89.0191345, 27.5729065], [-89.0278625, 27.5735512], [-89.0365448, 27.5743332], [-89.045166, 27.5752544], [-89.0537415, 27.576313], [-89.0622482, 27.577507], [-89.070694, 27.5788345], [-89.0790787, 27.5802898], [-89.08741, 27.5818787], [-89.095665, 27.5835953], [-89.1038437, 27.585434], [-89.111969, 27.5874004], [-89.1199951, 27.5894947], [-89.1279373, 27.5917072], [-89.1358185, 27.5940399], [-89.1436005, 27.5964928], [-89.1512985, 27.599062], [-89.1589279, 27.6017456], [-89.1664505, 27.6045399], [-89.1738815, 27.6074448], [-89.181221, 27.6104584], [-89.1884766, 27.6135788], [-89.1956253, 27.6168041], [-89.2026749, 27.6201344], [-89.2096252, 27.6235619], [-89.2164612, 27.6270885], [-89.2232056, 27.6307087], [-89.2298279, 27.6344242], [-89.2363586, 27.6382313], [-89.2427673, 27.642128], [-89.2490768, 27.6461124], [-89.2552795, 27.6501846], [-89.2613449, 27.6543369], [-89.2673035, 27.6585693], [-89.2731476, 27.6628838], [-89.278862, 27.6672707], [-89.2844696, 27.6717319], [-89.2899551, 27.6762619], [-89.2953186, 27.6808605], [-89.3005524, 27.6855278], [-89.3056793, 27.690258], [-89.3106613, 27.6950512], [-89.3155289, 27.6999035], [-89.3202667, 27.7048111], [-89.3248749, 27.709774], [-89.329361, 27.7147903], [-89.3337097, 27.7198544], [-89.3379288, 27.7249641], [-89.3420258, 27.7301197], [-89.3460007, 27.7353172], [-89.3498306, 27.7405567], [-89.3536911, 27.7456875], [-89.3577805, 27.7505703], [-89.3620682, 27.7552147], [-89.3665924, 27.759634], [-89.3713531, 27.7638283], [-89.3763657, 27.7678127], [-89.3816299, 27.7715912], [-89.3871765, 27.775177], [-89.3929825, 27.7785759], [-89.3989258, 27.7819481], [-89.4048157, 27.7854347], [-89.410675, 27.7890377], [-89.4164658, 27.7927551], [-89.4222107, 27.796587], [-89.427887, 27.8005333], [-89.4335251, 27.8045902], [-89.4390869, 27.8087654], [-89.4445953, 27.8130474], [-89.4500427, 27.8174419], [-89.4554138, 27.8219509], [-89.4607239, 27.8265686], [-89.46595, 27.8312969], [-89.4710922, 27.8361301], [-89.4761658, 27.8410759], [-89.4811478, 27.8461246], [-89.4860535, 27.8512802], [-89.4908676, 27.8565407], [-89.4955902, 27.8619003], [-89.5002213, 27.8673668], [-89.5047607, 27.8729305], [-89.509201, 27.8785954], [-89.5135345, 27.8843613], [-89.5177689, 27.8902206], [-89.5218964, 27.8961735], [-89.5259094, 27.9022217], [-89.5298309, 27.9083633], [-89.5336227, 27.9145908], [-89.5373077, 27.9209156], [-89.540863, 27.9273205], [-89.5443039, 27.933815], [-89.5476303, 27.9403915], [-89.5508194, 27.9470501], [-89.5538864, 27.9537888], [-89.5568314, 27.9606075], [-89.5596466, 27.9675007], [-89.5623093, 27.9744663], [-89.5648499, 27.9815083], [-89.5672455, 27.9886189], [-89.5695114, 27.9957962], [-89.5716324, 28.0030441], [-89.5736084, 28.0103531], [-89.5754395, 28.0177212], [-89.5771179, 28.0251522], [-89.5786438, 28.0326385], [-89.5800247, 28.0401783], [-89.5812531, 28.0477676], [-89.5823288, 28.0554123], [-89.5832443, 28.0631008], [-89.5840149, 28.0708351], [-89.58461, 28.0786133], [-89.5850525, 28.0864315], [-89.5853424, 28.0942822], [-89.5854492, 28.1021729], [-89.5854111, 28.1100922], [-89.5851822, 28.1180401], [-89.5848007, 28.1260166], [-89.5842514, 28.134016], [-89.5835266, 28.1420383], [-89.5826416, 28.1500759], [-89.5815735, 28.1581326], [-89.5803375, 28.1661968], [-89.5789261, 28.1742744], [-89.5773392, 28.1823559], [-89.575592, 28.190443], [-89.5736542, 28.1985302], [-89.5715485, 28.2066154], [-89.5692673, 28.2146988], [-89.566803, 28.2227707], [-89.5641708, 28.2308331], [-89.561348, 28.2388821], [-89.558342, 28.246912], [-89.5551682, 28.2549229], [-89.5518112, 28.2629128], [-89.5482864, 28.2708759], [-89.5445786, 28.2788105], [-89.5406876, 28.2867088], [-89.5366211, 28.2945747], [-89.5323792, 28.3024025], [-89.5279541, 28.3101883], [-89.5233459, 28.3179302], [-89.5185242, 28.3255882], [-89.5134583, 28.3331203], [-89.5081177, 28.3405209], [-89.5025406, 28.3477859], [-89.4967117, 28.3549061], [-89.4906464, 28.3618813], [-89.4843445, 28.3687038], [-89.4777985, 28.37537], [-89.4710312, 28.3818703], [-89.4640732, 28.3882389], [-89.4569855, 28.3945103], [-89.4497528, 28.4006824], [-89.4423828, 28.4067497], [-89.4348831, 28.412714], [-89.4272461, 28.4185715], [-89.4194794, 28.4243164], [-89.4115906, 28.4299545], [-89.4035645, 28.4354763], [-89.3954163, 28.4408798], [-89.387146, 28.4461708], [-89.3787537, 28.451334], [-89.3702545, 28.456377], [-89.3616257, 28.4612999], [-89.35289, 28.4660912], [-89.3440323, 28.4707565], [-89.3350754, 28.4752941], [-89.3260193, 28.4796963], [-89.3168411, 28.4839611], [-89.3075714, 28.4880905], [-89.2982025, 28.4920883], [-89.2887344, 28.495945], [-89.2791824, 28.4996548], [-89.2695389, 28.5032253], [-89.2597961, 28.5066452], [-89.2499771, 28.5099258], [-89.2400818, 28.5130577], [-89.2300949, 28.5160389], [-89.2200394, 28.5188694], [-89.2099075, 28.5215492], [-89.199707, 28.5240707], [-89.1894379, 28.5264378], [-89.1791077, 28.5286522], [-89.1687164, 28.5307083], [-89.1582565, 28.5326061], [-89.1477432, 28.5343399], [-89.1371918, 28.5359154], [-89.1265869, 28.5373306], [-89.1159363, 28.5385818], [-89.1052475, 28.5396652], [-89.0945129, 28.5405884]]]}}]}