{"type": "FeatureCollection", "features": [{"type": "Feature", "properties": {"shapefile": "al092021-011_5day_pgn", "STORMNAME": "Ida", "STORMTYPE": "HU", "ADVDATE": "1000 PM CDT Sat Aug 28 2021", "ADVISNUM": "11", "STORMNUM": 9, "FCSTPRD": 120, "BASIN": "AL"}, "geometry": {"type": "Polygon", "coordinates": [[[-88.04166, 26.93848], [-88.01714, 26.93614], [-87.9915, 26.93628], [-87.97903, 26.93793], [-87.93888, 26.94424], [-87.91297, 26.95152], [-87.88803, 26.96058], [-87.86418, 26.97101], [-87.83006, 26.98831], [-87.80895, 27.00149], [-87.78922, 27.01604], [-87.76318, 27.04144], [-87.75523, 27.05064], [-87.73576, 27.08262], [-87.73001, 27.09402], [-87.71767, 27.13287], [-87.71233, 27.16074], [-87.71082, 27.17447], [-87.71014, 27.21895], [-87.71371, 27.24723], [-87.72041, 27.27372], [-87.7259, 27.28512], [-87.74249, 27.31999], [-87.75688, 27.3399], [-87.78073, 27.36749], [-87.79745, 27.38507], [-87.81389, 27.40291], [-87.83006, 27.42104], [-87.83774, 27.43051], [-87.86021, 27.45947], [-87.87474, 27.47924], [-87.882, 27.48912], [-87.89667, 27.50876], [-87.91942, 27.53745], [-87.92751, 27.54651], [-87.95203, 27.57342], [-87.96903, 27.59072], [-87.98602, 27.60802], [-88.0033, 27.62504], [-88.0118, 27.63369], [-88.03756, 27.65936], [-88.04605, 27.66801], [-88.06319, 27.68517], [-88.08881, 27.71098], [-88.09744, 27.71949], [-88.11458, 27.73665], [-88.13171, 27.75381], [-88.15734, 27.77962], [-88.16598, 27.78814], [-88.1916, 27.81395], [-88.20024, 27.82246], [-88.21738, 27.83961], [-88.24314, 27.86529], [-88.26013, 27.88259], [-88.26877, 27.89109], [-88.29439, 27.9169], [-88.31166, 27.93393], [-88.32866, 27.95123], [-88.33729, 27.95974], [-88.35442, 27.9769], [-88.38019, 28.00257], [-88.38869, 28.01122], [-88.41444, 28.0369], [-88.42294, 28.04554], [-88.44871, 28.07122], [-88.4657, 28.08851], [-88.47433, 28.09703], [-88.49147, 28.11419], [-88.51724, 28.13986], [-88.53423, 28.15716], [-88.5515, 28.17418], [-88.5685, 28.19148], [-88.58575, 28.2085], [-88.60275, 28.2258], [-88.62003, 28.24282], [-88.63702, 28.26012], [-88.6543, 28.27715], [-88.66279, 28.28579], [-88.67992, 28.30296], [-88.70555, 28.32876], [-88.72253, 28.34606], [-88.73076, 28.35498], [-88.75515, 28.38203], [-88.77051, 28.40097], [-88.78531, 28.42047], [-88.79984, 28.44024], [-88.81436, 28.46001], [-88.82176, 28.46976], [-88.84451, 28.49845], [-88.8526, 28.50751], [-88.87714, 28.53442], [-88.89386, 28.55199], [-88.90208, 28.56091], [-88.92647, 28.58796], [-88.94182, 28.6069], [-88.95662, 28.6264], [-88.97115, 28.64617], [-88.98567, 28.66594], [-88.99307, 28.67568], [-89.01582, 28.70438], [-89.03172, 28.72277], [-89.04762, 28.74117], [-89.06352, 28.75957], [-89.07887, 28.77851], [-89.08627, 28.78826], [-89.10094, 28.80789], [-89.11546, 28.82766], [-89.13725, 28.85731], [-89.14465, 28.86706], [-89.15959, 28.88642], [-89.18193, 28.91552], [-89.19646, 28.93529], [-89.20372, 28.94518], [-89.22552, 28.97483], [-89.23278, 28.98471], [-89.25484, 29.01409], [-89.26238, 29.0237], [-89.27732, 29.04306], [-89.29925, 29.07257], [-89.31378, 29.09234], [-89.32831, 29.11211], [-89.33571, 29.12186], [-89.35845, 29.15055], [-89.3664, 29.15975], [-89.39026, 29.18735], [-89.3982, 29.19654], [-89.41382, 29.21521], [-89.4289, 29.23443], [-89.45056, 29.26423], [-89.45755, 29.27438], [-89.47139, 29.29484], [-89.49194, 29.32573], [-89.50565, 29.34632], [-89.51962, 29.36664], [-89.52675, 29.37666], [-89.5484, 29.40645], [-89.56321, 29.42595], [-89.57075, 29.43556], [-89.59308, 29.46466], [-89.6076, 29.48443], [-89.62186, 29.50448], [-89.63584, 29.5248], [-89.64955, 29.54539], [-89.6564, 29.55568], [-89.67696, 29.58657], [-89.69066, 29.60716], [-89.69751, 29.61746], [-89.71122, 29.63805], [-89.73151, 29.66922], [-89.73808, 29.67979], [-89.75111, 29.70107], [-89.76385, 29.72262], [-89.77632, 29.74445], [-89.7888, 29.76628], [-89.80798, 29.79854], [-89.82114, 29.81968], [-89.82771, 29.83025], [-89.84746, 29.86197], [-89.86034, 29.88338], [-89.86652, 29.89437], [-89.87857, 29.91661], [-89.89035, 29.93912], [-89.90199, 29.96177], [-89.91338, 29.9847], [-89.92475, 30.00763], [-89.93626, 30.03041], [-89.94749, 30.05348], [-89.95847, 30.07682], [-89.96929, 30.10029], [-89.97957, 30.12432], [-89.98917, 30.14903], [-89.99848, 30.17402], [-90.00752, 30.19928], [-90.01616, 30.22495], [-90.02466, 30.25076], [-90.03329, 30.27643], [-90.04193, 30.3021], [-90.05043, 30.32791], [-90.05893, 30.35372], [-90.06742, 30.37953], [-90.07565, 30.40561], [-90.08345, 30.43211], [-90.091, 30.45888], [-90.09825, 30.48593], [-90.10524, 30.51325], [-90.1121, 30.5407], [-90.11896, 30.56816], [-90.1258, 30.59562], [-90.13266, 30.62308], [-90.1395, 30.65053], [-90.14622, 30.67813], [-90.15253, 30.70613], [-90.15814, 30.73483], [-90.1628, 30.76448], [-90.16623, 30.79537], [-90.16843, 30.82749], [-90.16966, 30.86058], [-90.1702, 30.89435], [-90.17035, 30.92854], [-90.17035, 30.96286], [-90.17035, 30.99718], [-90.17021, 31.03136], [-90.16966, 31.06513], [-90.16843, 31.09822], [-90.16623, 31.13035], [-90.16281, 31.16123], [-90.15814, 31.19089], [-90.15253, 31.21958], [-90.14622, 31.24759], [-90.13951, 31.27518], [-90.13252, 31.3025], [-90.12524, 31.32955], [-90.11771, 31.35632], [-90.10977, 31.38268], [-90.10114, 31.40835], [-90.09196, 31.43347], [-90.0825, 31.45832], [-90.07263, 31.48276], [-90.0625, 31.50692], [-90.05261, 31.53135], [-90.04303, 31.55607], [-90.03329, 31.58064], [-90.02357, 31.60521], [-90.01877, 31.61757], [-90.0089, 31.64201], [-89.99259, 31.67715], [-89.98122, 31.70008], [-89.97546, 31.71148], [-89.95669, 31.74415], [-89.94366, 31.76543], [-89.9305, 31.78657], [-89.91734, 31.80771], [-89.91077, 31.81828], [-89.89789, 31.8397], [-89.8791, 31.87237], [-89.86664, 31.8942], [-89.85388, 31.91575], [-89.84744, 31.92646], [-89.82758, 31.95804], [-89.82086, 31.96847], [-89.80716, 31.98907], [-89.79346, 32.00966], [-89.7729, 32.04055], [-89.76604, 32.05084], [-89.75233, 32.07144], [-89.73863, 32.09203], [-89.72493, 32.11263], [-89.70438, 32.14351], [-89.69067, 32.1641], [-89.68382, 32.1744], [-89.6701, 32.19499], [-89.649, 32.22533], [-89.64188, 32.23535], [-89.61995, 32.26487], [-89.61255, 32.27462], [-89.59747, 32.29384], [-89.58267, 32.31333], [-89.56087, 32.34299], [-89.55361, 32.35287], [-89.53908, 32.37264], [-89.51662, 32.4016], [-89.50894, 32.41108], [-89.49277, 32.4292], [-89.47632, 32.44705], [-89.45932, 32.46435], [-89.44233, 32.48164], [-89.42506, 32.49867], [-89.40807, 32.51597], [-89.39079, 32.53299], [-89.36517, 32.5588], [-89.35653, 32.56731], [-89.34804, 32.57596], [-89.32227, 32.60163], [-89.30528, 32.61893], [-89.28801, 32.63596], [-89.27101, 32.65325], [-89.25375, 32.67027], [-89.23676, 32.68757], [-89.21948, 32.7046], [-89.20248, 32.72189], [-89.18522, 32.73892], [-89.16823, 32.75621], [-89.15096, 32.77324], [-89.13397, 32.79053], [-89.1167, 32.80756], [-89.0997, 32.82486], [-89.08243, 32.84188], [-89.06544, 32.85918], [-89.04816, 32.8762], [-89.03117, 32.8935], [-89.0139, 32.91052], [-88.9969, 32.92783], [-88.97964, 32.94485], [-88.96265, 32.96214], [-88.94537, 32.97917], [-88.92839, 32.99647], [-88.91112, 33.01349], [-88.89385, 33.03052], [-88.87604, 33.04699], [-88.85794, 33.06319], [-88.83904, 33.07856], [-88.81957, 33.09338], [-88.79984, 33.10794], [-88.78009, 33.1225], [-88.76064, 33.13732], [-88.74173, 33.15269], [-88.71472, 33.17713], [-88.70581, 33.18537], [-88.68828, 33.20212], [-88.67046, 33.2186], [-88.65237, 33.23479], [-88.63345, 33.25017], [-88.614, 33.265], [-88.59425, 33.27955], [-88.57452, 33.2941], [-88.55479, 33.30865], [-88.53532, 33.32348], [-88.51614, 33.33858], [-88.49667, 33.35341], [-88.47694, 33.36796], [-88.45721, 33.38251], [-88.43747, 33.39706], [-88.41774, 33.41162], [-88.39828, 33.42645], [-88.37909, 33.44154], [-88.35962, 33.45637], [-88.3399, 33.47092], [-88.31989, 33.4852], [-88.29961, 33.49921], [-88.27905, 33.51293], [-88.26877, 33.5198], [-88.23792, 33.54039], [-88.22765, 33.54726], [-88.20709, 33.56098], [-88.18652, 33.57471], [-88.16598, 33.58844], [-88.13513, 33.60903], [-88.11458, 33.62276], [-88.1043, 33.62962], [-88.08374, 33.64336], [-88.05263, 33.66367], [-88.03152, 33.67685], [-88.02084, 33.6833], [-87.98849, 33.70239], [-87.96655, 33.71474], [-87.95573, 33.72106], [-87.92352, 33.74028], [-87.91298, 33.74686], [-87.89201, 33.76019], [-87.86104, 33.78064], [-87.85075, 33.78751], [-87.81992, 33.8081], [-87.80963, 33.81496], [-87.77881, 33.83556], [-87.75824, 33.84928], [-87.74797, 33.85615], [-87.71713, 33.87674], [-87.69658, 33.89047], [-87.67575, 33.90392], [-87.65465, 33.9171], [-87.64395, 33.92355], [-87.62244, 33.93632], [-87.60063, 33.94881], [-87.57885, 33.9613], [-87.54664, 33.98053], [-87.52554, 33.99371], [-87.50443, 34.00688], [-87.48332, 34.02007], [-87.46194, 34.03297], [-87.45097, 34.03915], [-87.41754, 34.05713], [-87.4063, 34.06303], [-87.38368, 34.07471], [-87.36079, 34.0861], [-87.33791, 34.0975], [-87.30406, 34.11507], [-87.29282, 34.12097], [-87.27061, 34.13305], [-87.23827, 34.15213], [-87.21716, 34.16531], [-87.19606, 34.1785], [-87.18538, 34.18494], [-87.16371, 34.19758], [-87.14139, 34.20952], [-87.11808, 34.2205], [-87.09396, 34.23066], [-87.05737, 34.24548], [-87.03269, 34.2551], [-87.02049, 34.26004], [-86.98473, 34.27569], [-86.97308, 34.28118], [-86.94978, 34.29217], [-86.91539, 34.30919], [-86.90401, 34.31496], [-86.88112, 34.32635], [-86.84686, 34.34351], [-86.82411, 34.35504], [-86.81246, 34.36053], [-86.78915, 34.37151], [-86.76572, 34.38236], [-86.74173, 34.39265], [-86.70487, 34.40721], [-86.69267, 34.41216], [-86.66814, 34.4219], [-86.63141, 34.43659], [-86.60784, 34.4473], [-86.59619, 34.45279], [-86.56097, 34.46899], [-86.53767, 34.47997], [-86.5141, 34.49068], [-86.5019, 34.49562], [-86.47737, 34.50537], [-86.44064, 34.52006], [-86.4283, 34.52486], [-86.40363, 34.53447], [-86.37923, 34.54436], [-86.35512, 34.55452], [-86.31839, 34.56921], [-86.30605, 34.57401], [-86.26932, 34.5887], [-86.24466, 34.59831], [-86.21999, 34.60792], [-86.20792, 34.613], [-86.17175, 34.62824], [-86.15941, 34.63304], [-86.1346, 34.64252], [-86.10966, 34.65186], [-86.08444, 34.66091], [-86.05881, 34.66956], [-86.03305, 34.67807], [-86.00742, 34.68672], [-85.98179, 34.69537], [-85.95602, 34.70388], [-85.93026, 34.71239], [-85.9045, 34.7209], [-85.87845, 34.72914], [-85.85201, 34.73697], [-85.82528, 34.74452], [-85.79828, 34.7518], [-85.77101, 34.7588], [-85.74359, 34.76566], [-85.71619, 34.77253], [-85.68878, 34.77939], [-85.66136, 34.78625], [-85.63396, 34.79312], [-85.60655, 34.79998], [-85.57913, 34.80685], [-85.55173, 34.81371], [-85.52432, 34.82057], [-85.4969, 34.82744], [-85.4695, 34.8343], [-85.44209, 34.84117], [-85.41468, 34.84803], [-85.38727, 34.8549], [-85.35985, 34.86176], [-85.33244, 34.86863], [-85.29132, 34.87892], [-85.27762, 34.88235], [-85.25021, 34.88922], [-85.2228, 34.89608], [-85.19539, 34.90295], [-85.16798, 34.90981], [-85.12687, 34.9201], [-85.11317, 34.92354], [-85.08575, 34.9304], [-85.05835, 34.93727], [-85.01723, 34.94756], [-85.00352, 34.951], [-84.9761, 34.95786], [-84.9487, 34.96473], [-84.9213, 34.97159], [-84.89388, 34.97845], [-84.86647, 34.98532], [-84.83906, 34.99218], [-84.81165, 34.99905], [-84.78424, 35.00591], [-84.75683, 35.01277], [-84.72942, 35.01964], [-84.70201, 35.0265], [-84.67461, 35.03337], [-84.64719, 35.04023], [-84.61978, 35.0471], [-84.59237, 35.05396], [-84.56496, 35.06083], [-84.53755, 35.06769], [-84.51014, 35.07455], [-84.48273, 35.08142], [-84.45531, 35.08828], [-84.4279, 35.09515], [-84.4005, 35.10201], [-84.37308, 35.10887], [-84.34567, 35.11574], [-84.31827, 35.1226], [-84.29086, 35.12947], [-84.26344, 35.13634], [-84.23604, 35.1432], [-84.20863, 35.15006], [-84.18122, 35.15692], [-84.1538, 35.16379], [-84.1264, 35.17065], [-84.09885, 35.17738], [-84.07103, 35.18383], [-84.04293, 35.19001], [-84.01456, 35.19591], [-83.98592, 35.20154], [-83.95728, 35.20717], [-83.92891, 35.21307], [-83.90082, 35.21925], [-83.87299, 35.2257], [-83.84544, 35.23243], [-83.81804, 35.2393], [-83.80433, 35.24273], [-83.76321, 35.25303], [-83.73579, 35.25989], [-83.70839, 35.26675], [-83.68098, 35.27362], [-83.65356, 35.28048], [-83.62616, 35.28735], [-83.58504, 35.29764], [-83.57133, 35.30107], [-83.54393, 35.30794], [-83.51651, 35.3148], [-83.48911, 35.32167], [-83.4617, 35.32853], [-83.4343, 35.3354], [-83.40688, 35.34226], [-83.37947, 35.34912], [-83.35206, 35.35599], [-83.31094, 35.36629], [-83.29723, 35.36972], [-83.26983, 35.37658], [-83.24242, 35.38345], [-83.21501, 35.39031], [-83.18759, 35.39717], [-83.16019, 35.40404], [-83.11906, 35.41434], [-83.10536, 35.41777], [-83.07796, 35.42463], [-83.05054, 35.4315], [-83.00943, 35.44179], [-82.99573, 35.44522], [-82.96832, 35.45209], [-82.9409, 35.45895], [-82.9135, 35.46582], [-82.88608, 35.47268], [-82.85867, 35.47955], [-82.83113, 35.48627], [-82.80331, 35.49272], [-82.77521, 35.4989], [-82.74684, 35.50481], [-82.71819, 35.51044], [-82.68955, 35.51607], [-82.66118, 35.52197], [-82.63309, 35.52814], [-82.60527, 35.5346], [-82.57773, 35.54133], [-82.55031, 35.54819], [-82.5229, 35.55505], [-82.49549, 35.56192], [-82.46807, 35.56878], [-82.42696, 35.57908], [-82.41325, 35.58251], [-82.38585, 35.58937], [-82.35844, 35.59624], [-82.33102, 35.6031], [-82.30362, 35.60997], [-82.2762, 35.61684], [-82.24879, 35.6237], [-82.22139, 35.63056], [-82.19398, 35.63742], [-82.16656, 35.64429], [-82.13915, 35.65115], [-82.11175, 35.65802], [-82.08434, 35.66488], [-82.05693, 35.67175], [-82.02951, 35.6786], [-82.00211, 35.68547], [-81.9747, 35.69234], [-81.94728, 35.6992], [-81.91988, 35.70607], [-81.89246, 35.71293], [-81.86505, 35.7198], [-81.83765, 35.72666], [-81.79652, 35.73695], [-81.78282, 35.74039], [-81.75541, 35.74725], [-81.728, 35.75412], [-81.70045, 35.76084], [-81.67264, 35.7673], [-81.64453, 35.77347], [-81.61617, 35.77937], [-81.58752, 35.785], [-81.55888, 35.79063], [-81.53051, 35.79654], [-81.50242, 35.80272], [-81.47459, 35.80917], [-81.44705, 35.8159], [-81.41963, 35.82276], [-81.39223, 35.82962], [-81.36482, 35.83649], [-81.33741, 35.84335], [-81.31, 35.85022], [-81.28259, 35.85708], [-81.25518, 35.86395], [-81.22777, 35.8708], [-81.20036, 35.87767], [-81.17294, 35.88454], [-81.14554, 35.8914], [-81.11813, 35.89827], [-81.09071, 35.90513], [-81.06331, 35.91199], [-81.0359, 35.91886], [-81.00848, 35.92572], [-80.98108, 35.93259], [-80.95366, 35.93945], [-80.92625, 35.94632], [-80.89884, 35.95318], [-80.87143, 35.96004], [-80.84402, 35.96691], [-80.81662, 35.97377], [-80.7892, 35.98064], [-80.7618, 35.9875], [-80.73438, 35.99437], [-80.70683, 36.00109], [-80.67902, 36.00755], [-80.65092, 36.01373], [-80.62255, 36.01963], [-80.5939, 36.02526], [-80.56526, 36.03088], [-80.5369, 36.03679], [-80.5088, 36.04297], [-80.48097, 36.04942], [-80.45343, 36.05614], [-80.42602, 36.06301], [-80.39861, 36.06987], [-80.3712, 36.07674], [-80.34378, 36.0836], [-80.31638, 36.09047], [-80.27527, 36.10076], [-80.26156, 36.10419], [-80.23415, 36.11106], [-80.20674, 36.11792], [-80.17933, 36.12479], [-80.15192, 36.13165], [-80.12451, 36.13852], [-80.09709, 36.14538], [-80.06969, 36.15224], [-80.04227, 36.1591], [-80.01486, 36.16597], [-79.98746, 36.17284], [-79.96005, 36.1797], [-79.93263, 36.18657], [-79.90522, 36.19343], [-79.87782, 36.20029], [-79.8367, 36.21059], [-79.82299, 36.21402], [-79.79559, 36.22089], [-79.76817, 36.22775], [-79.74077, 36.23462], [-79.71335, 36.24148], [-79.68594, 36.24834], [-79.65853, 36.25521], [-79.63112, 36.26207], [-79.60385, 36.26907], [-79.57684, 36.27635], [-79.55013, 36.28391], [-79.52367, 36.29173], [-79.49763, 36.29996], [-79.47186, 36.30847], [-79.44611, 36.31699], [-79.42034, 36.3255], [-79.39471, 36.33414], [-79.36908, 36.3428], [-79.34331, 36.3513], [-79.31769, 36.35995], [-79.29247, 36.36902], [-79.26752, 36.37836], [-79.23038, 36.39263], [-79.20627, 36.40279], [-79.1942, 36.40787], [-79.15747, 36.42256], [-79.14514, 36.42736], [-79.12061, 36.43711], [-79.09607, 36.44686], [-79.07153, 36.4566], [-79.04756, 36.4669], [-79.01247, 36.48324], [-79.00082, 36.48873], [-78.9778, 36.49999], [-78.95505, 36.51152], [-78.92065, 36.52855], [-78.8979, 36.54008], [-78.87515, 36.55161], [-78.85212, 36.56287], [-78.82938, 36.5744], [-78.81813, 36.5803], [-78.78442, 36.59801], [-78.7625, 36.61037], [-78.7518, 36.61682], [-78.72, 36.63645], [-78.70959, 36.64318], [-78.6889, 36.65677], [-78.65807, 36.67736], [-78.64778, 36.68422], [-78.62723, 36.69795], [-78.60667, 36.71168], [-78.57584, 36.73227], [-78.55527, 36.746], [-78.53471, 36.75974], [-78.51416, 36.77346], [-78.49359, 36.78719], [-78.48332, 36.79405], [-78.45276, 36.81492], [-78.43274, 36.8292], [-78.40383, 36.85172], [-78.39438, 36.85941], [-78.36737, 36.88383], [-78.34969, 36.90045], [-78.34091, 36.90882], [-78.3231, 36.92529], [-78.30502, 36.9415], [-78.2861, 36.95688], [-78.25677, 36.97898], [-78.2469, 36.98625], [-78.22717, 37.0008], [-78.2077, 37.01563], [-78.1888, 37.03101], [-78.16179, 37.05544], [-78.15289, 37.06368], [-78.13562, 37.0807], [-78.11862, 37.098], [-78.10217, 37.11585], [-78.07834, 37.14344], [-78.06326, 37.16267], [-78.05585, 37.17241], [-78.03406, 37.20206], [-78.02679, 37.21194], [-78.00432, 37.24091], [-77.98856, 37.25945], [-77.97225, 37.27744], [-77.96403, 37.28636], [-77.93909, 37.31285], [-77.92278, 37.33084], [-77.90702, 37.34937], [-77.89194, 37.36859], [-77.88454, 37.37834], [-77.8633, 37.40854], [-77.85631, 37.4187], [-77.83575, 37.44959], [-77.8289, 37.45988], [-77.80834, 37.49078], [-77.79463, 37.51137], [-77.78093, 37.53196], [-77.76736, 37.55269], [-77.76065, 37.56313], [-77.7475, 37.58427], [-77.73462, 37.60568], [-77.71638, 37.63891], [-77.70459, 37.66142], [-77.69295, 37.68407], [-77.68719, 37.69547], [-77.67019, 37.72993], [-77.65868, 37.75272], [-77.64745, 37.77578], [-77.63648, 37.79912], [-77.62565, 37.82259], [-77.61537, 37.84662], [-77.60577, 37.87133], [-77.59647, 37.89632], [-77.58742, 37.92158], [-77.57878, 37.94725], [-77.57028, 37.97306], [-77.56165, 37.99873], [-77.55302, 38.0244], [-77.54453, 38.05021], [-77.53603, 38.07602], [-77.52753, 38.10183], [-77.51944, 38.12806], [-77.51204, 38.15496], [-77.5052, 38.18242], [-77.49889, 38.21043], [-77.49313, 38.23898], [-77.4875, 38.26768], [-77.48175, 38.29623], [-77.47614, 38.32492], [-77.47092, 38.35403], [-77.4664, 38.38382], [-77.46298, 38.41471], [-77.46078, 38.44683], [-77.45955, 38.47992], [-77.459, 38.51369], [-77.45886, 38.54787], [-77.45886, 38.58219], [-77.45886, 38.61652], [-77.45886, 38.65084], [-77.45886, 38.68516], [-77.45886, 38.71948], [-77.45886, 38.7538], [-77.459, 38.78799], [-77.45955, 38.82175], [-77.46078, 38.85484], [-77.46298, 38.88697], [-77.4664, 38.91785], [-77.47107, 38.94751], [-77.47668, 38.9762], [-77.48299, 39.00421], [-77.4897, 39.03181], [-77.49655, 39.05926], [-77.5034, 39.08672], [-77.51025, 39.11417], [-77.51711, 39.14163], [-77.52396, 39.16909], [-77.53094, 39.19641], [-77.53821, 39.22346], [-77.54575, 39.25023], [-77.5537, 39.27658], [-77.56233, 39.30225], [-77.57152, 39.32738], [-77.58112, 39.35209], [-77.59139, 39.37612], [-77.60222, 39.39959], [-77.61319, 39.42293], [-77.62442, 39.44599], [-77.63593, 39.46878], [-77.64731, 39.49171], [-77.65868, 39.51464], [-77.67019, 39.53743], [-77.67581, 39.54896], [-77.69295, 39.58328], [-77.69884, 39.59454], [-77.71638, 39.62844], [-77.72844, 39.65069], [-77.73488, 39.66139], [-77.75407, 39.69366], [-77.76736, 39.71466], [-77.78093, 39.73539], [-77.79477, 39.75585], [-77.80888, 39.77602], [-77.82327, 39.79594], [-77.83794, 39.81557], [-77.85288, 39.83492], [-77.86781, 39.85428], [-77.88248, 39.87391], [-77.89701, 39.89368], [-77.91154, 39.91345], [-77.92621, 39.93308], [-77.94128, 39.9523], [-77.95705, 39.97083], [-77.97335, 39.98882], [-77.99007, 40.00639], [-78.00707, 40.02369], [-78.0242, 40.04085], [-78.04134, 40.05801], [-78.05846, 40.07517], [-78.08409, 40.10098], [-78.09273, 40.10949], [-78.10986, 40.12665], [-78.12698, 40.14381], [-78.14412, 40.16097], [-78.16125, 40.17814], [-78.17838, 40.1953], [-78.19551, 40.21246], [-78.21278, 40.22948], [-78.23032, 40.24623], [-78.24828, 40.26257], [-78.26678, 40.27836], [-78.28596, 40.29346], [-78.30556, 40.30814], [-78.32529, 40.3227], [-78.3549, 40.34453], [-78.36463, 40.35194], [-78.38396, 40.36691], [-78.40327, 40.38187], [-78.42287, 40.39656], [-78.44275, 40.41097], [-78.47304, 40.43211], [-78.49359, 40.44584], [-78.50388, 40.45271], [-78.53471, 40.4733], [-78.55527, 40.48703], [-78.57582, 40.50076], [-78.59638, 40.51449], [-78.61722, 40.52794], [-78.63832, 40.54112], [-78.6597, 40.55402], [-78.69287, 40.57228], [-78.7041, 40.57819], [-78.72658, 40.59], [-78.74906, 40.6018], [-78.77154, 40.61361], [-78.79346, 40.62596], [-78.81512, 40.63859], [-78.82594, 40.64491], [-78.8587, 40.66357], [-78.89283, 40.68087], [-78.90448, 40.68637], [-78.92805, 40.69707], [-78.95217, 40.70723], [-78.97629, 40.7174], [-78.99986, 40.7281], [-79.01152, 40.73359], [-79.05838, 40.75529], [-79.07004, 40.76077], [-79.09361, 40.77148], [-79.1058, 40.77643], [-79.15541, 40.79537], [-79.16788, 40.80004], [-79.20626, 40.81308], [-79.21915, 40.81734], [-79.24492, 40.82585], [-79.28329, 40.83889], [-79.30905, 40.8474], [-79.32193, 40.85165], [-79.3477, 40.86017], [-79.38607, 40.87321], [-79.39896, 40.87747], [-79.42472, 40.88598], [-79.46336, 40.89875], [-79.48941, 40.90698], [-79.50256, 40.91096], [-79.54259, 40.92236], [-79.56958, 40.92964], [-79.59686, 40.93664], [-79.61057, 40.94007], [-79.65168, 40.95036], [-79.66538, 40.9538], [-79.7065, 40.9641], [-79.7339, 40.97096], [-79.74762, 40.9744], [-79.78941, 40.984], [-79.81792, 40.98977], [-79.83231, 40.99252], [-79.87659, 40.99965], [-79.89153, 41.00185], [-79.93605, 41.00871], [-79.96525, 41.01379], [-79.9943, 41.01901], [-80.0235, 41.02409], [-80.05323, 41.02862], [-80.08408, 41.03205], [-80.11614, 41.03425], [-80.14903, 41.03562], [-80.18221, 41.03672], [-80.2151, 41.03809], [-80.24717, 41.04029], [-80.26292, 41.04166], [-80.30774, 41.04825], [-80.33693, 41.05333], [-80.36613, 41.05841], [-80.38079, 41.06088], [-80.4267, 41.06638], [-80.45877, 41.06857], [-80.49179, 41.06981], [-80.52551, 41.07035], [-80.55965, 41.07049], [-80.59391, 41.07049], [-80.62817, 41.07049], [-80.66243, 41.07049], [-80.69655, 41.07035], [-80.73027, 41.06981], [-80.76329, 41.06857], [-80.79536, 41.06638], [-80.81044, 41.06432], [-80.85594, 41.05841], [-80.88514, 41.05333], [-80.91433, 41.04825], [-80.94407, 41.04372], [-80.9749, 41.04029], [-81.00684, 41.03796], [-81.03932, 41.03617], [-81.0718, 41.03439], [-81.08757, 41.03301], [-81.13457, 41.02862], [-81.16431, 41.02409], [-81.1935, 41.01901], [-81.22256, 41.01379], [-81.25175, 41.00871], [-81.28135, 41.00404], [-81.31123, 40.99965], [-81.34083, 40.99498], [-81.37003, 40.98991], [-81.39894, 40.98455], [-81.42758, 40.97892], [-81.45609, 40.97316], [-81.48473, 40.96753], [-81.51324, 40.96176], [-81.5412, 40.95544], [-81.5686, 40.94858], [-81.59547, 40.94117], [-81.62179, 40.9332], [-81.66112, 40.92112], [-81.67441, 40.91728], [-81.71457, 40.90602], [-81.72813, 40.90245], [-81.75527, 40.89531], [-81.78227, 40.88804], [-81.80899, 40.88049], [-81.83546, 40.87267], [-81.86149, 40.86443], [-81.88725, 40.85591], [-81.91302, 40.8474], [-81.93864, 40.83875], [-81.97634, 40.82502], [-81.98881, 40.82036], [-82.02594, 40.80608], [-82.03801, 40.801], [-82.06213, 40.79084], [-82.08653, 40.78096], [-82.11119, 40.77135], [-82.13573, 40.7616], [-82.16026, 40.75185], [-82.19699, 40.73716], [-82.22057, 40.72645], [-82.23221, 40.72096], [-82.26717, 40.70449], [-82.27853, 40.69872], [-82.30128, 40.68719], [-82.32417, 40.6758], [-82.34706, 40.6644], [-82.38119, 40.6471], [-82.3927, 40.64147], [-82.41559, 40.63008], [-82.4382, 40.61841], [-82.47192, 40.6007], [-82.48288, 40.59452], [-82.51523, 40.57544], [-82.53633, 40.56226], [-82.55743, 40.54908], [-82.57854, 40.5359], [-82.59991, 40.523], [-82.62185, 40.51064], [-82.64432, 40.49883], [-82.66679, 40.48703], [-82.67818, 40.48126], [-82.71258, 40.46423], [-82.72395, 40.45847], [-82.75807, 40.44118], [-82.7811, 40.42992], [-82.79248, 40.42415], [-82.8266, 40.40685], [-82.83812, 40.40123], [-82.87238, 40.38406], [-82.89513, 40.37253], [-82.90665, 40.36691], [-82.92953, 40.35551], [-82.96365, 40.33821], [-82.97517, 40.33258], [-82.99805, 40.32119], [-83.0208, 40.30965], [-83.04369, 40.29826], [-83.06657, 40.28687], [-83.10071, 40.26957], [-83.11222, 40.26394], [-83.1351, 40.25254], [-83.16924, 40.23524], [-83.18074, 40.22961], [-83.20363, 40.21822], [-83.23776, 40.20093], [-83.24927, 40.1953], [-83.28352, 40.17813], [-83.30627, 40.1666], [-83.32931, 40.15535], [-83.35205, 40.14381], [-83.36343, 40.13805], [-83.38632, 40.12666], [-83.42058, 40.1095], [-83.44333, 40.09796], [-83.46636, 40.0867], [-83.48911, 40.07517], [-83.50049, 40.0694], [-83.52337, 40.05801], [-83.54626, 40.04662], [-83.58038, 40.02932], [-83.5919, 40.02369], [-83.62616, 40.00653], [-83.63754, 40.00076], [-83.67194, 39.98373], [-83.69469, 39.97221], [-83.70605, 39.96644], [-83.72894, 39.95505], [-83.76321, 39.93789], [-83.77458, 39.93212], [-83.79747, 39.92073], [-83.83173, 39.90356], [-83.85448, 39.89203], [-83.866, 39.88641], [-83.88888, 39.87501], [-83.923, 39.85771], [-83.93452, 39.85208], [-83.95741, 39.84069], [-83.99153, 39.82339], [-84.00304, 39.81776], [-84.02594, 39.80637], [-84.04869, 39.79484], [-84.07158, 39.78344], [-84.10583, 39.76628], [-84.11707, 39.76038], [-84.13955, 39.74857], [-84.17271, 39.73032], [-84.19409, 39.71741], [-84.20465, 39.71082], [-84.23631, 39.69105], [-84.25742, 39.67787], [-84.27879, 39.66496], [-84.30072, 39.65261], [-84.32347, 39.64108], [-84.3465, 39.62982], [-84.35829, 39.62447], [-84.38213, 39.61403], [-84.41831, 39.59879], [-84.4301, 39.59344], [-84.45354, 39.58259], [-84.48766, 39.5653], [-84.50959, 39.55294], [-84.53125, 39.54031], [-84.5529, 39.52768], [-84.56386, 39.5215], [-84.58606, 39.50942], [-84.60854, 39.49761], [-84.63115, 39.48595], [-84.65404, 39.47455], [-84.68829, 39.45739], [-84.69968, 39.45162], [-84.72256, 39.44023], [-84.75682, 39.42307], [-84.77957, 39.41153], [-84.79109, 39.40591], [-84.81398, 39.39451], [-84.83673, 39.38298], [-84.87112, 39.36596], [-84.89388, 39.35442], [-84.90526, 39.34866], [-84.93965, 39.33163], [-84.95103, 39.32587], [-84.97379, 39.31434], [-84.99667, 39.30294], [-85.03093, 39.28578], [-85.0423, 39.28001], [-85.06519, 39.26862], [-85.09945, 39.25146], [-85.12221, 39.23993], [-85.14523, 39.22867], [-85.15661, 39.2229], [-85.19073, 39.20561], [-85.20225, 39.19998], [-85.22513, 39.18858], [-85.24788, 39.17705], [-85.28229, 39.16003], [-85.29366, 39.15426], [-85.31641, 39.14273], [-85.33929, 39.13133], [-85.37355, 39.11417], [-85.38493, 39.10841], [-85.41933, 39.09138], [-85.44208, 39.07985], [-85.46483, 39.06832], [-85.47635, 39.06269], [-85.5106, 39.04553], [-85.52199, 39.03976], [-85.54488, 39.02837], [-85.57913, 39.01121], [-85.59052, 39.00545], [-85.6134, 38.99405], [-85.64766, 38.97689], [-85.65903, 38.97112], [-85.68193, 38.95973], [-85.71619, 38.94257], [-85.73894, 38.93103], [-85.76196, 38.91978], [-85.78471, 38.90825], [-85.80746, 38.89671], [-85.83049, 38.88546], [-85.85323, 38.87392], [-85.87598, 38.86239], [-85.8875, 38.85677], [-85.92176, 38.8396], [-85.93314, 38.83384], [-85.95602, 38.82244], [-85.9903, 38.80528], [-86.00166, 38.79951], [-86.02455, 38.78812], [-86.04744, 38.77673], [-86.07005, 38.76506], [-86.09253, 38.75325], [-86.11473, 38.74117], [-86.14708, 38.72209], [-86.15762, 38.7155], [-86.18929, 38.69573], [-86.21039, 38.68255], [-86.23177, 38.66965], [-86.25369, 38.65729], [-86.26494, 38.65138], [-86.29865, 38.63367], [-86.31003, 38.62791], [-86.34442, 38.61089], [-86.36719, 38.59935], [-86.37856, 38.59359], [-86.40144, 38.58219], [-86.4357, 38.56503], [-86.45846, 38.5535], [-86.46996, 38.54787], [-86.49286, 38.53648], [-86.5267, 38.51891], [-86.53795, 38.513], [-86.57111, 38.49474], [-86.5818, 38.48829], [-86.60304, 38.47525], [-86.6347, 38.45547], [-86.65581, 38.4423], [-86.67719, 38.4294], [-86.69911, 38.41704], [-86.72159, 38.40523], [-86.73283, 38.39933], [-86.75545, 38.38766], [-86.78985, 38.37064], [-86.80122, 38.36487], [-86.83535, 38.34757], [-86.84686, 38.34194], [-86.86975, 38.33055], [-86.89235, 38.31888], [-86.92607, 38.30117], [-86.93703, 38.29499], [-86.96938, 38.27591], [-86.99049, 38.26273], [-87.0116, 38.24955], [-87.02214, 38.24296], [-87.04339, 38.22992], [-87.076, 38.21111], [-87.09848, 38.1993], [-87.10972, 38.19341], [-87.13219, 38.18159], [-87.16591, 38.16389], [-87.18784, 38.15153], [-87.20922, 38.13863], [-87.21977, 38.13203], [-87.25143, 38.11227], [-87.26198, 38.10568], [-87.29391, 38.08618], [-87.31557, 38.07355], [-87.32654, 38.06738], [-87.35915, 38.04857], [-87.36984, 38.04211], [-87.40164, 38.02248], [-87.4122, 38.01589], [-87.44385, 37.99612], [-87.45454, 37.98967], [-87.48688, 37.97058], [-87.5088, 37.95823], [-87.53046, 37.9456], [-87.55185, 37.9327], [-87.57295, 37.91952], [-87.59378, 37.90607], [-87.61434, 37.89233], [-87.6349, 37.8786], [-87.65546, 37.86488], [-87.67601, 37.85115], [-87.69684, 37.8377], [-87.71796, 37.82452], [-87.72864, 37.81806], [-87.75016, 37.8053], [-87.77195, 37.7928], [-87.79374, 37.78031], [-87.82595, 37.76109], [-87.84706, 37.74791], [-87.86789, 37.73446], [-87.88844, 37.72073], [-87.909, 37.707], [-87.91928, 37.70013], [-87.95012, 37.67954], [-87.97095, 37.66609], [-87.99206, 37.65291], [-88.01344, 37.64001], [-88.0244, 37.63383], [-88.05785, 37.61584], [-88.06908, 37.60994], [-88.10307, 37.5925], [-88.11458, 37.58688], [-88.14883, 37.56971], [-88.16008, 37.56381], [-88.18256, 37.552], [-88.20476, 37.53992], [-88.23711, 37.52084], [-88.25822, 37.50766], [-88.26877, 37.50107], [-88.28987, 37.48789], [-88.3111, 37.47485], [-88.33263, 37.46208], [-88.36538, 37.44341], [-88.37621, 37.4371], [-88.40842, 37.41788], [-88.41898, 37.41129], [-88.44008, 37.39811], [-88.47173, 37.37834], [-88.48242, 37.37189], [-88.51477, 37.3528], [-88.5367, 37.34045], [-88.54752, 37.33413], [-88.56905, 37.32137], [-88.60084, 37.30173], [-88.62195, 37.28856], [-88.63249, 37.28197], [-88.66443, 37.26247], [-88.67525, 37.25616], [-88.69704, 37.24366], [-88.72966, 37.22485], [-88.75105, 37.21194], [-88.7616, 37.20536], [-88.79298, 37.18532], [-88.81354, 37.17159], [-88.83411, 37.15786], [-88.84438, 37.15099], [-88.87521, 37.1304], [-88.8855, 37.12354], [-88.91632, 37.10294], [-88.92661, 37.09608], [-88.95744, 37.07549], [-88.96772, 37.06863], [-88.98828, 37.05489], [-89.01912, 37.0343], [-89.0394, 37.02029], [-89.06928, 36.99874], [-89.07915, 36.99147], [-89.1082, 36.96909], [-89.12753, 36.95412], [-89.14713, 36.93944], [-89.15699, 36.93216], [-89.17673, 36.91761], [-89.19646, 36.90306], [-89.22593, 36.88109], [-89.23566, 36.87368], [-89.25484, 36.85857], [-89.28418, 36.83647], [-89.29404, 36.82919], [-89.31378, 36.81464], [-89.33351, 36.80009], [-89.35298, 36.78527], [-89.37189, 36.76989], [-89.39026, 36.75397], [-89.41779, 36.73008], [-89.42698, 36.72211], [-89.44589, 36.70674], [-89.45563, 36.69933], [-89.48509, 36.67736], [-89.50482, 36.66281], [-89.52429, 36.64798], [-89.54321, 36.63261], [-89.56129, 36.61641], [-89.5791, 36.59993], [-89.59637, 36.58291], [-89.61365, 36.56589], [-89.63064, 36.54858], [-89.6479, 36.53156], [-89.66518, 36.51454], [-89.68298, 36.49807], [-89.70108, 36.48186], [-89.71999, 36.46649], [-89.73945, 36.45166], [-89.75919, 36.43711], [-89.77893, 36.42256], [-89.79839, 36.40773], [-89.81729, 36.39236], [-89.83539, 36.37616], [-89.85321, 36.35968], [-89.87048, 36.34266], [-89.88776, 36.32564], [-89.90474, 36.30834], [-89.92201, 36.29131], [-89.93901, 36.27402], [-89.95628, 36.25699], [-89.97327, 36.2397], [-89.99026, 36.2224], [-90.01479, 36.19549], [-90.02288, 36.18643], [-90.03822, 36.16748], [-90.05303, 36.14799], [-90.07482, 36.11834], [-90.08949, 36.0987], [-90.09688, 36.08896], [-90.11224, 36.07001], [-90.1284, 36.05189], [-90.14486, 36.03404], [-90.16184, 36.01674], [-90.17883, 35.99944], [-90.19611, 35.98242], [-90.2131, 35.96512], [-90.23038, 35.9481], [-90.24737, 35.9308], [-90.26464, 35.91378], [-90.28163, 35.89648], [-90.2989, 35.87946], [-90.3159, 35.86216], [-90.33317, 35.84514], [-90.35016, 35.82784], [-90.36743, 35.81081], [-90.38441, 35.79352], [-90.40141, 35.77621], [-90.41785, 35.75837], [-90.43403, 35.74025], [-90.44938, 35.72131], [-90.46418, 35.70181], [-90.48598, 35.67216], [-90.49324, 35.66227], [-90.51571, 35.63331], [-90.52338, 35.62383], [-90.53955, 35.60571], [-90.55601, 35.58786], [-90.5815, 35.56192], [-90.59, 35.55327], [-90.60727, 35.53624], [-90.62426, 35.51894], [-90.64153, 35.50192], [-90.65852, 35.48462], [-90.67552, 35.46733], [-90.69196, 35.44948], [-90.70813, 35.43136], [-90.73089, 35.40266], [-90.73828, 35.39292], [-90.75281, 35.37315], [-90.77474, 35.34364], [-90.78214, 35.33389], [-90.79749, 35.31494], [-90.82133, 35.28735], [-90.83723, 35.26895], [-90.84518, 35.25975], [-90.86794, 35.23106], [-90.8826, 35.21143], [-90.88986, 35.20154], [-90.90439, 35.18177], [-90.91919, 35.16228], [-90.94249, 35.13413], [-90.95839, 35.11574], [-90.97429, 35.09734], [-90.98991, 35.07867], [-90.99759, 35.0692], [-91.01952, 35.03968], [-91.03363, 35.0195], [-91.04747, 34.99905], [-91.06117, 34.97845], [-91.07488, 34.95786], [-91.08872, 34.93741], [-91.09571, 34.92725], [-91.11723, 34.89732], [-91.1319, 34.87769], [-91.1393, 34.86794], [-91.16177, 34.83897], [-91.17644, 34.81934], [-91.19083, 34.79943], [-91.19795, 34.78941], [-91.21878, 34.7588], [-91.23249, 34.7382], [-91.23934, 34.72791], [-91.2599, 34.69702], [-91.26675, 34.68672], [-91.28046, 34.66613], [-91.30088, 34.6351], [-91.31417, 34.6141], [-91.32719, 34.59282], [-91.33363, 34.58211], [-91.35241, 34.54944], [-91.36488, 34.52761], [-91.37762, 34.50606], [-91.38406, 34.49535], [-91.40381, 34.46364], [-91.41696, 34.4425], [-91.42354, 34.43192], [-91.44273, 34.39966], [-91.4552, 34.37783], [-91.46136, 34.36685], [-91.48042, 34.33445], [-91.49343, 34.31317], [-91.50002, 34.3026], [-91.51317, 34.28146], [-91.53278, 34.24961], [-91.53922, 34.2389], [-91.55743, 34.20568], [-91.56923, 34.18316], [-91.58087, 34.16051], [-91.59225, 34.13758], [-91.59787, 34.12605], [-91.61514, 34.09187], [-91.62651, 34.06894], [-91.63789, 34.04601], [-91.6494, 34.02322], [-91.66078, 34.0003], [-91.67215, 33.97737], [-91.68367, 33.95458], [-91.69504, 33.93166], [-91.70642, 33.90873], [-91.71792, 33.88594], [-91.72931, 33.86301], [-91.74068, 33.84008], [-91.75219, 33.8173], [-91.75794, 33.8059], [-91.77439, 33.77089], [-91.78522, 33.74742], [-91.79549, 33.72339], [-91.80523, 33.69882], [-91.81496, 33.67424], [-91.81989, 33.66203], [-91.83443, 33.6251], [-91.8447, 33.60107], [-91.85004, 33.58926], [-91.86636, 33.55412], [-91.87718, 33.53064], [-91.88802, 33.50717], [-91.89829, 33.48314], [-91.90323, 33.47092], [-91.91774, 33.43399], [-91.92748, 33.40942], [-91.93707, 33.38471], [-91.94695, 33.36027], [-91.95708, 33.33611], [-91.96695, 33.31167], [-91.9764, 33.28682], [-91.98572, 33.26184], [-91.99477, 33.23658], [-91.99915, 33.22381], [-92.0119, 33.18509], [-92.02054, 33.15942], [-92.02917, 33.13375], [-92.03766, 33.10794], [-92.04192, 33.09504], [-92.0548, 33.05646], [-92.05919, 33.04369], [-92.07193, 33.00497], [-92.08043, 32.97916], [-92.08468, 32.96626], [-92.09344, 32.94073], [-92.10619, 32.90202], [-92.11044, 32.88911], [-92.11894, 32.8633], [-92.13141, 32.82431], [-92.13921, 32.79781], [-92.14676, 32.77104], [-92.15402, 32.744], [-92.16101, 32.71668], [-92.16772, 32.68908], [-92.17417, 32.66122], [-92.18034, 32.63307], [-92.18623, 32.60465], [-92.19185, 32.57596], [-92.19746, 32.54726], [-92.20322, 32.51871], [-92.20898, 32.49015], [-92.21474, 32.4616], [-92.22049, 32.43304], [-92.2261, 32.40435], [-92.23172, 32.37566], [-92.23749, 32.3471], [-92.2431, 32.31841], [-92.24831, 32.28931], [-92.25296, 32.25965], [-92.25694, 32.22932], [-92.26037, 32.19843], [-92.26379, 32.16753], [-92.26778, 32.1372], [-92.27243, 32.10754], [-92.2775, 32.0783], [-92.28256, 32.04906], [-92.28709, 32.01927], [-92.29053, 31.98838], [-92.29271, 31.95626], [-92.29395, 31.92317], [-92.29449, 31.8894], [-92.29463, 31.85522], [-92.29463, 31.82089], [-92.29463, 31.78657], [-92.29463, 31.75225], [-92.29463, 31.71793], [-92.29463, 31.68361], [-92.29463, 31.64928], [-92.29463, 31.61496], [-92.2945, 31.58078], [-92.29395, 31.54701], [-92.29272, 31.51392], [-92.29052, 31.4818], [-92.28709, 31.45091], [-92.28258, 31.42112], [-92.2775, 31.39187], [-92.27229, 31.36277], [-92.26722, 31.33353], [-92.26256, 31.30387], [-92.25818, 31.27395], [-92.25352, 31.24429], [-92.24831, 31.21519], [-92.24255, 31.18663], [-92.23625, 31.15863], [-92.22954, 31.13103], [-92.22269, 31.10357], [-92.21583, 31.07612], [-92.2124, 31.06239], [-92.20212, 31.02121], [-92.19527, 30.99375], [-92.18828, 30.96643], [-92.18102, 30.93938], [-92.17348, 30.91261], [-92.16937, 30.89957], [-92.15691, 30.86058], [-92.14772, 30.83546], [-92.13826, 30.81061], [-92.12839, 30.78617], [-92.11826, 30.76201], [-92.10358, 30.72522], [-92.09879, 30.71286], [-92.08907, 30.68829], [-92.07933, 30.66371], [-92.0696, 30.63914], [-92.05931, 30.61511], [-92.04849, 30.59164], [-92.03753, 30.5683], [-92.02629, 30.54523], [-92.01477, 30.52245], [-92.0034, 30.49952], [-91.99202, 30.47659], [-91.98051, 30.4538], [-91.96913, 30.43088], [-91.95776, 30.40795], [-91.94611, 30.3853], [-91.93433, 30.36278], [-91.92227, 30.34054], [-91.90966, 30.31885], [-91.89664, 30.29757], [-91.88348, 30.27643], [-91.87033, 30.25529], [-91.8573, 30.23401], [-91.84456, 30.21246], [-91.83209, 30.19063], [-91.81962, 30.1688], [-91.80687, 30.14725], [-91.79385, 30.12597], [-91.78056, 30.10496], [-91.76699, 30.08423], [-91.75314, 30.06377], [-91.7319, 30.03357], [-91.72464, 30.02369], [-91.70998, 30.00406], [-91.69504, 29.9847], [-91.6727, 29.95559], [-91.65817, 29.93583], [-91.6509, 29.92594], [-91.6291, 29.89629], [-91.61458, 29.87652], [-91.59979, 29.85703], [-91.58472, 29.8378], [-91.56992, 29.81831], [-91.55539, 29.79854], [-91.54086, 29.77877], [-91.52632, 29.759], [-91.51152, 29.73951], [-91.49617, 29.72056], [-91.48823, 29.71136], [-91.46438, 29.68377], [-91.45644, 29.67457], [-91.43313, 29.64643], [-91.42573, 29.63668], [-91.41107, 29.61705], [-91.38928, 29.58739], [-91.38187, 29.57765], [-91.35913, 29.54895], [-91.34296, 29.53083], [-91.32651, 29.51299], [-91.31801, 29.50434], [-91.29252, 29.47839], [-91.27553, 29.46109], [-91.2673, 29.45217], [-91.25099, 29.43419], [-91.22755, 29.40618], [-91.22015, 29.39643], [-91.19823, 29.36692], [-91.19096, 29.35703], [-91.1689, 29.32765], [-91.16122, 29.31818], [-91.14547, 29.29964], [-91.12093, 29.27274], [-91.11243, 29.26409], [-91.08694, 29.23814], [-91.07831, 29.22963], [-91.05267, 29.20382], [-91.0354, 29.18679], [-91.01842, 29.1695], [-91.00114, 29.15248], [-90.99265, 29.14383], [-90.96688, 29.11815], [-90.94989, 29.10086], [-90.94125, 29.09234], [-90.91563, 29.06653], [-90.89836, 29.04951], [-90.88136, 29.03221], [-90.87273, 29.0237], [-90.84711, 28.99789], [-90.83847, 28.98938], [-90.81284, 28.96357], [-90.79557, 28.94655], [-90.77831, 28.92952], [-90.76939, 28.92129], [-90.75143, 28.90495], [-90.73294, 28.88916], [-90.70403, 28.86665], [-90.68429, 28.8521], [-90.66455, 28.83754], [-90.64509, 28.82272], [-90.63563, 28.81503], [-90.60809, 28.79114], [-90.59027, 28.77467], [-90.58163, 28.76616], [-90.55573, 28.74062], [-90.54723, 28.73197], [-90.52147, 28.7063], [-90.5042, 28.68927], [-90.4953, 28.68104], [-90.47734, 28.6647], [-90.44939, 28.64122], [-90.42992, 28.6264], [-90.42005, 28.61912], [-90.39044, 28.59729], [-90.37099, 28.58247], [-90.35208, 28.56709], [-90.33398, 28.55089], [-90.31616, 28.53442], [-90.30739, 28.52604], [-90.28081, 28.50119], [-90.27176, 28.4931], [-90.2438, 28.46962], [-90.22434, 28.45479], [-90.20461, 28.44024], [-90.18488, 28.42569], [-90.16541, 28.41086], [-90.14649, 28.39548], [-90.1284, 28.37928], [-90.1106, 28.36281], [-90.09305, 28.34606], [-90.07523, 28.32959], [-90.06619, 28.32149], [-90.03823, 28.29801], [-90.01877, 28.28318], [-89.99902, 28.26863], [-89.98916, 28.26136], [-89.95984, 28.23925], [-89.95038, 28.23157], [-89.92255, 28.20795], [-89.90419, 28.19203], [-89.89501, 28.18406], [-89.86691, 28.16072], [-89.84746, 28.1459], [-89.82771, 28.13135], [-89.80798, 28.11679], [-89.78825, 28.10224], [-89.76878, 28.08742], [-89.7496, 28.07231], [-89.73013, 28.05749], [-89.7104, 28.04293], [-89.69067, 28.02838], [-89.67093, 28.01383], [-89.65147, 27.999], [-89.63255, 27.98363], [-89.6142, 27.9677], [-89.60501, 27.95974], [-89.57745, 27.93585], [-89.55855, 27.92048], [-89.53909, 27.90565], [-89.52922, 27.89837], [-89.50948, 27.88382], [-89.47988, 27.86199], [-89.47015, 27.85458], [-89.44124, 27.83206], [-89.42177, 27.81724], [-89.4119, 27.80996], [-89.38202, 27.78841], [-89.36174, 27.7744], [-89.34119, 27.76068], [-89.32062, 27.74695], [-89.30007, 27.73322], [-89.27951, 27.71949], [-89.25896, 27.70576], [-89.2384, 27.69203], [-89.21783, 27.6783], [-89.19728, 27.66458], [-89.17673, 27.65085], [-89.15617, 27.63712], [-89.13561, 27.62339], [-89.11505, 27.60966], [-89.0945, 27.59594], [-89.07394, 27.58221], [-89.05338, 27.56848], [-89.03282, 27.55475], [-89.01227, 27.54102], [-88.9917, 27.52729], [-88.97115, 27.51356], [-88.95059, 27.49983], [-88.93004, 27.4861], [-88.90948, 27.47238], [-88.88892, 27.45865], [-88.86836, 27.44492], [-88.84781, 27.43119], [-88.82724, 27.41746], [-88.80669, 27.40373], [-88.78613, 27.39], [-88.76556, 27.37628], [-88.74502, 27.36255], [-88.72446, 27.34882], [-88.7039, 27.33509], [-88.68335, 27.32137], [-88.66278, 27.30764], [-88.64223, 27.29391], [-88.62167, 27.28018], [-88.6011, 27.26645], [-88.58055, 27.25272], [-88.56, 27.23899], [-88.53943, 27.22527], [-88.51888, 27.21154], [-88.49832, 27.19781], [-88.47777, 27.18408], [-88.45721, 27.17035], [-88.43665, 27.15662], [-88.41609, 27.14289], [-88.39554, 27.12917], [-88.37498, 27.11544], [-88.35442, 27.10171], [-88.33386, 27.08798], [-88.31331, 27.07425], [-88.29276, 27.06052], [-88.27219, 27.04679], [-88.25163, 27.03307], [-88.2308, 27.01961], [-88.2097, 27.00643], [-88.17707, 26.9879], [-88.16624, 26.98199], [-88.14391, 26.97129], [-88.1217, 26.9614], [-88.09937, 26.95289], [-88.06511, 26.943], [-88.04166, 26.93848]]]}}]}