{"type": "FeatureCollection", "features": [{"type": "Feature", "geometry": {"type": "LineString", "coordinates": [[-87.7, 26.6], [-88.9, 27.6], [-89.7, 28.6], [-90.5, 29.3], [-90.9, 30.1], [-91.2, 30.8], [-91.3, 31.9], [-91.1, 32.7], [-90.5, 33.6], [-89.9, 34.4], [-88.9, 35.2], [-88.0, 36.1], [-86.1, 36.7], [-84.4, 37.3], [-81.7, 38.3], [-79.5, 38.6], [-77.2, 39.0], [-75.2, 39.6], [-73.2, 40.0], [-69.9, 40.9], [-66.2, 42.5], [-62.9, 44.8], [-61.7, 45.8], [-60.8, 46.8], [-60.4, 47.0], [-60.1, 47.3], [-59.3, 47.1], [-58.1, 46.8], [-55.4, 47.2], [-52.4, 49.1], [-50.8, 51.0], [-49.4, 54.0], [-48.7, 55.2], [-46.2, 56.7], [-43.1, 57.2], [-40.7, 58.7], [-36.8, 60.4]]}, "properties": {"model": "CMC", "label": "CMC", "kind": "physics", "group": "deterministic", "cycle": "2021082900"}}, {"type": "Feature", "geometry": {"type": "LineString", "coordinates": [[-87.7, 26.3], [-88.8, 27.2], [-89.5, 28.2], [-90.2, 29.1], [-90.8, 29.7], [-91.0, 30.3], [-90.9, 31.3], [-90.9, 32.3], [-90.6, 33.1], [-90.4, 33.8], [-89.7, 34.6], [-88.5, 35.4], [-87.4, 36.4], [-86.7, 36.8], [-85.8, 36.9], [-84.6, 36.9], [-83.1, 37.0], [-82.6, 37.1], [-82.2, 36.2], [-81.2, 35.2], [-80.7, 35.1], [-81.0, 34.7], [-82.5, 33.1], [-82.9, 32.6], [-83.5, 32.2], [-84.3, 31.6], [-85.3, 31.5], [-86.2, 31.4], [-86.5, 31.1], [-87.3, 31.1], [-88.0, 31.2]]}, "properties": {"model": "AP01", "label": "GEFS 01", "kind": "ensemble", "group": "ensemble", "cycle": "2021082900"}}, {"type": "Feature", "geometry": {"type": "LineString", "coordinates": [[-87.6, 26.9], [-88.5, 27.5], [-89.2, 28.4], [-89.9, 29.1], [-90.4, 29.8], [-90.9, 30.5], [-91.0, 31.3], [-90.7, 31.9], [-89.9, 32.8], [-89.5, 33.9], [-88.4, 35.1], [-87.6, 35.7], [-86.0, 36.4], [-85.1, 36.3], [-83.5, 35.6], [-82.1, 34.5], [-79.2, 35.8], [-76.2, 37.4]]}, "properties": {"model": "AP03", "label": "GEFS 03", "kind": "ensemble", "group": "ensemble", "cycle": "2021082900"}}, {"type": "Feature", "geometry": {"type": "LineString", "coordinates": [[-87.6, 26.8], [-88.7, 27.6], [-89.4, 28.6], [-90.1, 29.4], [-90.5, 30.1], [-91.1, 30.9], [-91.3, 31.6], [-91.1, 32.4], [-90.4, 33.2], [-89.9, 34.0], [-89.1, 34.5], [-87.6, 36.0], [-86.2, 36.4], [-85.7, 35.5], [-84.2, 34.8], [-82.5, 34.7], [-81.1, 34.6], [-79.9, 34.8], [-79.7, 34.0], [-78.2, 34.0], [-75.1, 34.3], [-74.1, 34.3], [-72.9, 34.5], [-71.2, 35.1], [-69.0, 35.8]]}, "properties": {"model": "AP04", "label": "GEFS 04", "kind": "ensemble", "group": "ensemble", "cycle": "2021082900"}}, {"type": "Feature", "geometry": {"type": "LineString", "coordinates": [[-87.6, 26.5], [-88.7, 27.3], [-89.5, 28.5], [-90.2, 29.3], [-90.7, 30.3], [-91.1, 31.1], [-91.1, 32.0], [-90.8, 32.8], [-90.1, 33.6], [-89.4, 34.2], [-88.1, 35.1], [-86.7, 36.1], [-85.5, 36.3], [-83.0, 37.8], [-81.5, 38.8], [-80.9, 38.7], [-80.3, 37.2], [-79.3, 35.8], [-77.4, 35.9], [-75.2, 36.7], [-71.1, 38.4], [-68.5, 40.0], [-66.8, 40.7], [-64.6, 41.2], [-61.4, 41.8], [-58.3, 43.9], [-54.6, 46.7], [-52.2, 47.5], [-49.9, 48.6], [-47.8, 50.3], [-45.4, 51.9], [-43.2, 52.9], [-41.1, 54.0]]}, "properties": {"model": "AP06", "label": "GEFS 06", "kind": "ensemble", "group": "ensemble", "cycle": "2021082900"}}, {"type": "Feature", "geometry": {"type": "LineString", "coordinates": [[-87.7, 26.7], [-88.9, 27.3], [-89.8, 28.2], [-90.7, 28.9], [-91.3, 29.4], [-92.0, 29.9], [-92.1, 30.4], [-92.1, 30.9], [-91.5, 31.5], [-91.1, 32.1], [-90.5, 33.1], [-89.6, 33.8], [-88.6, 34.5], [-87.9, 35.2], [-87.5, 35.2], [-86.8, 34.8], [-86.5, 34.0], [-86.1, 33.9], [-86.3, 33.8], [-86.6, 33.4], [-87.6, 33.0], [-88.7, 32.8], [-89.6, 32.7]]}, "properties": {"model": "AP07", "label": "GEFS 07", "kind": "ensemble", "group": "ensemble", "cycle": "2021082900"}}, {"type": "Feature", "geometry": {"type": "LineString", "coordinates": [[-87.6, 26.4], [-88.7, 27.2], [-89.4, 28.1], [-90.0, 28.9], [-90.3, 29.7], [-90.6, 30.5], [-90.6, 31.3], [-90.3, 32.0], [-90.0, 32.9], [-89.9, 33.5], [-89.2, 34.2], [-88.6, 34.6], [-87.3, 35.8], [-86.4, 36.5], [-85.3, 37.2], [-83.8, 37.8], [-82.3, 38.3], [-82.1, 37.9], [-82.0, 37.7], [-82.5, 36.5], [-83.3, 35.6], [-84.2, 35.1], [-84.6, 34.9], [-85.3, 35.0], [-85.9, 34.6], [-86.7, 34.4], [-86.8, 34.9], [-86.3, 35.3]]}, "properties": {"model": "AP08", "label": "GEFS 08", "kind": "ensemble", "group": "ensemble", "cycle": "2021082900"}}, {"type": "Feature", "geometry": {"type": "LineString", "coordinates": [[-87.5, 26.5], [-88.6, 27.4], [-89.3, 28.3], [-89.9, 29.1], [-90.4, 29.8], [-90.9, 30.4], [-91.0, 31.0], [-90.7, 31.6], [-90.2, 32.2], [-89.7, 33.1], [-89.2, 33.9], [-88.1, 34.6], [-87.0, 35.2], [-86.1, 35.8], [-84.4, 36.6], [-81.7, 37.9], [-80.5, 38.3], [-79.7, 38.1], [-77.6, 38.2], [-76.7, 38.3]]}, "properties": {"model": "AP13", "label": "GEFS 13", "kind": "ensemble", "group": "ensemble", "cycle": "2021082900"}}, {"type": "Feature", "geometry": {"type": "LineString", "coordinates": [[-87.5, 26.7], [-88.7, 27.6], [-89.2, 28.3], [-89.8, 29.0], [-90.2, 29.6], [-90.8, 30.2], [-91.0, 30.8], [-90.8, 31.2], [-90.3, 32.0], [-90.2, 32.7], [-89.4, 33.5], [-88.6, 34.2], [-87.6, 34.9], [-86.9, 35.8], [-85.5, 37.1], [-84.0, 37.9], [-83.0, 37.9]]}, "properties": {"model": "AP14", "label": "GEFS 14", "kind": "ensemble", "group": "ensemble", "cycle": "2021082900"}}, {"type": "Feature", "geometry": {"type": "LineString", "coordinates": [[-87.7, 26.6], [-88.9, 27.4], [-89.8, 28.3], [-90.7, 28.9], [-91.2, 29.5], [-91.7, 30.1], [-91.8, 31.0], [-91.6, 31.9], [-91.3, 33.0], [-91.0, 33.9], [-90.3, 34.6], [-89.1, 35.3], [-87.3, 36.2], [-86.0, 36.9], [-84.6, 37.2], [-82.5, 37.7], [-80.4, 38.3], [-79.4, 37.6], [-78.7, 36.9], [-78.2, 35.9], [-78.3, 34.8], [-78.5, 33.7], [-78.5, 33.1], [-79.2, 31.8], [-79.2, 31.2], [-79.8, 30.9], [-80.5, 30.5], [-81.2, 30.3], [-82.0, 29.9], [-82.7, 29.7], [-83.6, 29.5], [-84.3, 29.3], [-84.8, 29.1]]}, "properties": {"model": "AP15", "label": "GEFS 15", "kind": "ensemble", "group": "ensemble", "cycle": "2021082900"}}, {"type": "Feature", "geometry": {"type": "LineString", "coordinates": [[-87.9, 26.5], [-89.0, 27.2], [-89.6, 28.2], [-90.1, 28.9], [-90.4, 29.6], [-90.8, 30.1], [-90.7, 30.7], [-90.4, 31.3], [-90.0, 32.0], [-89.9, 32.7], [-88.8, 33.9], [-88.4, 34.9], [-87.4, 35.4], [-85.8, 37.0], [-83.6, 38.3], [-81.3, 39.4], [-79.4, 39.8], [-76.7, 40.5], [-73.0, 41.3], [-68.1, 42.5], [-63.9, 44.1], [-59.8, 45.5], [-56.7, 46.6], [-52.3, 47.7], [-48.3, 48.7], [-45.6, 49.2], [-42.2, 50.0], [-39.3, 50.7], [-34.6, 51.6], [-30.1, 52.5]]}, "properties": {"model": "AP18", "label": "GEFS 18", "kind": "ensemble", "group": "ensemble", "cycle": "2021082900"}}, {"type": "Feature", "geometry": {"type": "LineString", "coordinates": [[-87.7, 26.6], [-88.8, 27.3], [-89.7, 28.2], [-90.5, 29.0], [-91.1, 30.0], [-91.7, 30.9], [-91.6, 31.9], [-91.2, 33.0], [-90.6, 34.2], [-89.8, 35.2], [-88.6, 36.2], [-86.9, 37.2], [-84.5, 38.2], [-82.1, 39.4], [-79.7, 40.5], [-76.8, 41.2], [-73.6, 42.0], [-70.8, 43.1], [-67.8, 44.3], [-65.5, 45.6], [-62.6, 46.9], [-60.8, 48.0], [-59.2, 48.8], [-55.8, 50.8], [-54.4, 51.3], [-53.3, 51.5], [-51.4, 51.7], [-49.3, 52.3], [-46.8, 53.2], [-44.2, 53.4], [-40.6, 53.7]]}, "properties": {"model": "AP21", "label": "GEFS 21", "kind": "ensemble", "group": "ensemble", "cycle": "2021082900"}}, {"type": "Feature", "geometry": {"type": "LineString", "coordinates": [[-87.6, 26.6], [-88.5, 27.3], [-89.2, 28.3], [-89.9, 29.1], [-90.3, 29.9], [-90.6, 30.6], [-90.6, 31.5], [-90.4, 32.5], [-90.1, 33.6], [-89.9, 34.4], [-89.1, 35.0], [-87.7, 36.1], [-86.4, 37.1], [-85.3, 37.7], [-83.4, 38.0], [-81.4, 39.7], [-80.3, 39.9], [-79.1, 39.6], [-77.9, 39.7], [-77.1, 39.7], [-76.6, 39.7], [-77.4, 38.8], [-77.0, 38.4], [-77.3, 38.3], [-78.7, 37.3], [-80.1, 35.9]]}, "properties": {"model": "AP22", "label": "GEFS 22", "kind": "ensemble", "group": "ensemble", "cycle": "2021082900"}}, {"type": "Feature", "geometry": {"type": "LineString", "coordinates": [[-87.8, 26.6], [-89.0, 27.4], [-89.8, 28.4], [-90.4, 29.3], [-90.8, 30.2], [-91.2, 31.1], [-91.3, 32.0], [-90.7, 32.8], [-89.9, 33.6], [-89.1, 34.5], [-87.8, 35.3], [-86.5, 36.1], [-84.7, 36.8], [-82.6, 38.1], [-81.1, 38.8], [-79.3, 39.1], [-77.3, 39.5], [-77.9, 38.3], [-75.6, 37.3], [-75.2, 37.7], [-74.4, 37.7], [-74.7, 37.4], [-74.7, 37.6], [-74.7, 37.6], [-74.4, 37.6], [-74.2, 37.7], [-73.8, 37.6], [-72.4, 37.2], [-71.4, 36.9], [-69.9, 36.8], [-67.8, 36.9], [-66.1, 36.3], [-63.8, 35.8]]}, "properties": {"model": "AP23", "label": "GEFS 23", "kind": "ensemble", "group": "ensemble", "cycle": "2021082900"}}, {"type": "Feature", "geometry": {"type": "LineString", "coordinates": [[-87.5, 26.4], [-88.8, 27.4], [-89.6, 28.4], [-90.4, 29.2], [-90.9, 30.0], [-91.3, 30.8], [-91.4, 31.6], [-91.5, 32.3], [-91.3, 33.0], [-91.1, 33.8], [-90.5, 34.4], [-89.3, 35.4], [-87.9, 36.5], [-86.3, 38.1], [-83.9, 38.9], [-81.1, 39.8], [-79.4, 40.2], [-77.1, 40.4], [-74.9, 41.2], [-72.9, 41.9], [-70.0, 43.4], [-68.3, 44.9], [-66.9, 46.5], [-66.1, 47.8], [-65.7, 48.9], [-66.1, 49.6], [-67.3, 49.7], [-67.4, 49.7], [-66.6, 49.9], [-66.5, 50.0], [-66.2, 50.3], [-65.9, 50.3], [-65.1, 50.2]]}, "properties": {"model": "AP25", "label": "GEFS 25", "kind": "ensemble", "group": "ensemble", "cycle": "2021082900"}}, {"type": "Feature", "geometry": {"type": "LineString", "coordinates": [[-87.6, 26.6], [-88.8, 27.3], [-89.7, 28.3], [-90.6, 29.1], [-91.3, 29.9], [-91.6, 30.7], [-91.6, 31.5], [-91.4, 32.3], [-91.2, 33.1], [-90.9, 33.7], [-90.2, 34.5], [-89.2, 35.1], [-87.5, 36.0], [-86.7, 36.7], [-84.1, 37.5], [-81.7, 38.3], [-79.8, 38.5]]}, "properties": {"model": "AP27", "label": "GEFS 27", "kind": "ensemble", "group": "ensemble", "cycle": "2021082900"}}, {"type": "Feature", "geometry": {"type": "LineString", "coordinates": [[-87.8, 26.8], [-89.0, 27.5], [-89.8, 28.7], [-90.5, 29.4], [-91.1, 30.2], [-91.7, 30.9], [-91.8, 31.7], [-91.5, 32.4], [-90.9, 33.3], [-90.3, 34.0], [-89.0, 35.0], [-87.4, 35.8], [-85.1, 37.3], [-82.0, 38.6], [-79.9, 39.6], [-77.6, 40.0], [-75.5, 40.4], [-72.7, 40.7], [-71.2, 40.8], [-69.8, 41.0], [-66.5, 42.2], [-61.3, 43.5], [-54.6, 44.7]]}, "properties": {"model": "AP28", "label": "GEFS 28", "kind": "ensemble", "group": "ensemble", "cycle": "2021082900"}}, {"type": "Feature", "geometry": {"type": "LineString", "coordinates": [[-87.7, 26.6], [-88.8, 27.3], [-89.7, 28.3], [-90.4, 29.1], [-90.9, 29.9], [-91.3, 30.7], [-91.3, 31.6], [-91.0, 32.5], [-90.3, 33.6], [-89.5, 34.7], [-88.1, 35.9], [-86.5, 36.6], [-84.2, 37.3], [-81.8, 38.5], [-79.5, 39.4], [-76.8, 40.2], [-73.3, 41.3], [-70.3, 42.7], [-67.5, 44.1], [-65.3, 46.0], [-63.0, 47.6], [-61.7, 48.7], [-61.6, 49.0], [-61.2, 49.9], [-59.9, 50.4], [-58.0, 50.9], [-55.2, 52.0], [-51.7, 53.3], [-49.9, 55.8], [-45.0, 57.2]]}, "properties": {"model": "AP29", "label": "GEFS 29", "kind": "ensemble", "group": "ensemble", "cycle": "2021082900"}}, {"type": "Feature", "geometry": {"type": "LineString", "coordinates": [[-87.7, 26.6], [-88.7, 27.4], [-89.5, 28.3], [-90.2, 29.1], [-90.8, 29.9], [-91.3, 30.6], [-91.1, 31.3], [-90.8, 32.2], [-90.3, 33.0], [-89.7, 33.6], [-88.5, 34.3], [-87.2, 35.1], [-85.5, 36.1], [-83.5, 37.2], [-81.1, 38.6], [-78.7, 39.3], [-76.4, 40.1], [-73.4, 41.4], [-70.8, 42.6], [-69.2, 43.6], [-67.1, 45.6], [-64.9, 47.4], [-64.6, 47.8], [-63.6, 48.0], [-61.8, 48.3], [-59.4, 49.2], [-56.1, 51.7], [-55.4, 52.5], [-54.2, 52.0], [-51.5, 51.1], [-48.6, 50.1], [-43.9, 50.6], [-38.7, 51.6], [-33.4, 53.7], [-27.5, 56.6], [-21.7, 60.7], [-17.0, 64.1], [-13.7, 67.3], [-13.5, 68.7], [-15.7, 70.4], [-17.0, 72.4]]}, "properties": {"model": "AVNO", "label": "GFS", "kind": "physics", "group": "deterministic", "cycle": "2021082900"}}, {"type": "Feature", "geometry": {"type": "LineString", "coordinates": [[-87.5, 26.7], [-89.1, 27.5], [-90.0, 28.4], [-90.5, 29.2], [-91.1, 29.8], [-91.3, 30.6], [-91.1, 31.4], [-90.8, 32.2], [-90.6, 33.1], [-89.9, 33.9], [-88.7, 34.9], [-87.1, 35.8], [-85.4, 36.6], [-83.5, 37.3], [-80.7, 38.8]]}, "properties": {"model": "CTCX", "label": "COAMPS-TC", "kind": "physics", "group": "deterministic", "cycle": "2021082900"}}, {"type": "Feature", "geometry": {"type": "LineString", "coordinates": [[-87.6, 26.5], [-89.6, 28.3], [-90.9, 29.4], [-91.5, 30.8], [-91.2, 32.2], [-89.8, 33.8], [-87.8, 35.5], [-85.5, 37.0], [-82.2, 37.5], [-79.0, 38.1]]}, "properties": {"model": "EGRR", "label": "UKMET", "kind": "physics", "group": "deterministic", "cycle": "2021082900"}}, {"type": "Feature", "geometry": {"type": "LineString", "coordinates": [[-87.5, 26.7], [-89.5, 28.4], [-90.8, 29.8], [-91.1, 31.3], [-90.6, 33.0], [-89.2, 34.8], [-86.9, 36.3], [-83.6, 37.7], [-79.9, 39.0], [-77.4, 39.3], [-75.3, 39.8], [-74.0, 40.0], [-72.9, 40.2], [-71.4, 40.2], [-69.6, 40.0]]}, "properties": {"model": "HCCA", "label": "HFIP Corrected Consensus", "kind": "consensus", "group": "consensus", "cycle": "2021082900"}}, {"type": "Feature", "geometry": {"type": "LineString", "coordinates": [[-87.5, 26.7], [-88.2, 27.2], [-88.9, 27.5], [-89.4, 27.9], [-89.8, 28.4], [-90.1, 28.8], [-90.4, 29.2], [-90.6, 29.5], [-90.7, 29.9], [-90.8, 30.4], [-91.1, 30.8], [-91.3, 31.2], [-91.3, 31.5], [-91.2, 31.9], [-91.2, 32.3], [-91.0, 32.7], [-90.7, 33.0], [-90.4, 33.3], [-90.1, 33.7], [-89.5, 34.4], [-89.1, 34.7], [-88.7, 34.7], [-88.0, 35.4], [-87.2, 35.8], [-86.0, 36.2], [-85.3, 36.5], [-84.4, 37.0], [-83.1, 37.7], [-82.1, 38.2], [-81.2, 38.5], [-80.4, 38.6], [-79.8, 38.4], [-79.4, 37.8], [-78.9, 37.5], [-78.3, 37.4], [-77.3, 37.7], [-77.3, 37.5], [-76.7, 37.4], [-77.0, 36.7], [-77.2, 36.2], [-77.4, 35.4]]}, "properties": {"model": "HMON", "label": "HMON", "kind": "physics", "group": "deterministic", "cycle": "2021082900"}}, {"type": "Feature", "geometry": {"type": "LineString", "coordinates": [[-87.5, 26.6], [-88.8, 27.6], [-89.7, 28.5], [-90.4, 29.4], [-91.1, 30.1], [-91.6, 30.7], [-91.6, 31.5], [-91.6, 32.3], [-91.2, 32.7], [-90.5, 33.6], [-89.4, 34.4], [-88.5, 35.3], [-87.5, 36.0], [-86.6, 36.3], [-85.3, 36.8], [-84.2, 37.2], [-83.4, 37.3], [-83.1, 36.6], [-82.4, 35.5], [-82.0, 34.8], [-81.5, 34.4], [-81.9, 33.5]]}, "properties": {"model": "HWRF", "label": "HWRF", "kind": "physics", "group": "deterministic", "cycle": "2021082900"}}, {"type": "Feature", "geometry": {"type": "LineString", "coordinates": [[-87.5, 26.5], [-88.6, 27.5], [-89.7, 28.3], [-90.5, 28.9], [-90.9, 29.4], [-91.4, 30.0], [-91.7, 30.7], [-91.7, 31.3], [-91.4, 32.1], [-90.8, 32.8], [-89.9, 33.5], [-89.1, 34.3], [-88.3, 35.0], [-87.4, 35.6], [-86.0, 36.0], [-84.9, 36.4], [-83.6, 36.5], [-81.0, 38.2], [-78.8, 38.3]]}, "properties": {"model": "UE00", "label": "ECMWF Ens 00", "kind": "ensemble", "group": "ensemble", "cycle": "2021082900"}}, {"type": "Feature", "geometry": {"type": "LineString", "coordinates": [[-87.6, 26.2], [-88.6, 27.0], [-89.4, 28.1], [-90.5, 28.9], [-91.1, 29.3], [-91.3, 29.9], [-91.4, 30.7], [-91.3, 31.4], [-90.8, 32.2], [-90.5, 33.0], [-89.8, 33.3], [-88.9, 33.8], [-88.3, 34.3], [-87.5, 34.5], [-86.6, 34.6], [-85.6, 34.4], [-84.6, 33.8], [-83.5, 33.8], [-82.4, 34.1], [-81.8, 34.1], [-81.8, 33.8], [-82.4, 33.4], [-82.9, 32.8], [-83.1, 32.0], [-83.3, 31.5]]}, "properties": {"model": "UE01", "label": "ECMWF Ens 01", "kind": "ensemble", "group": "ensemble", "cycle": "2021082900"}}, {"type": "Feature", "geometry": {"type": "LineString", "coordinates": [[-87.8, 26.6], [-88.8, 27.4], [-89.7, 28.3], [-90.7, 29.0], [-91.1, 29.5], [-91.4, 30.2], [-91.4, 31.1], [-91.7, 31.7], [-91.4, 32.1], [-90.0, 33.2], [-88.8, 34.3], [-87.7, 35.2], [-86.3, 36.3], [-84.9, 37.3], [-83.2, 38.1], [-81.2, 38.9], [-78.5, 39.8], [-76.6, 40.6], [-75.7, 40.3], [-73.7, 40.0], [-71.1, 40.7], [-68.2, 43.7], [-67.6, 46.6], [-69.4, 47.9], [-69.6, 48.4], [-68.7, 48.9], [-67.6, 49.5], [-66.1, 49.9]]}, "properties": {"model": "UE02", "label": "ECMWF Ens 02", "kind": "ensemble", "group": "ensemble", "cycle": "2021082900"}}, {"type": "Feature", "geometry": {"type": "LineString", "coordinates": [[-87.5, 26.6], [-88.6, 27.5], [-89.4, 28.3], [-90.1, 29.1], [-90.6, 29.7], [-91.2, 30.2], [-91.1, 30.9], [-90.8, 31.8], [-90.5, 33.0], [-90.0, 33.8], [-89.1, 34.5], [-88.3, 35.8], [-86.8, 36.7], [-85.2, 37.6], [-83.8, 38.4], [-82.4, 38.8], [-79.9, 39.5], [-78.5, 38.9], [-76.3, 38.9], [-75.5, 38.8], [-74.8, 37.4], [-73.5, 37.5], [-72.9, 37.3], [-73.1, 36.6], [-72.6, 36.6], [-71.7, 37.1], [-71.2, 37.3], [-70.8, 37.5], [-69.3, 38.4], [-68.3, 38.9], [-65.8, 39.1], [-62.7, 39.8], [-59.0, 40.7]]}, "properties": {"model": "UE03", "label": "ECMWF Ens 03", "kind": "ensemble", "group": "ensemble", "cycle": "2021082900"}}, {"type": "Feature", "geometry": {"type": "LineString", "coordinates": [[-87.4, 26.4], [-88.5, 27.2], [-89.2, 27.9], [-90.0, 28.7], [-90.5, 29.3], [-91.1, 29.6], [-91.3, 30.3], [-91.2, 31.0], [-91.2, 31.7], [-91.3, 32.3], [-90.6, 32.8], [-90.0, 33.2], [-89.2, 34.1], [-88.8, 34.5], [-88.0, 34.9], [-87.7, 34.7], [-86.8, 34.2], [-85.8, 34.5], [-85.2, 34.9], [-85.2, 35.1]]}, "properties": {"model": "UE04", "label": "ECMWF Ens 04", "kind": "ensemble", "group": "ensemble", "cycle": "2021082900"}}, {"type": "Feature", "geometry": {"type": "LineString", "coordinates": [[-87.5, 26.4], [-88.7, 27.2], [-89.7, 28.0], [-90.4, 28.7], [-90.8, 29.2], [-91.2, 29.8], [-91.2, 30.6], [-91.1, 31.4], [-90.9, 32.2], [-90.2, 32.9], [-89.4, 33.7], [-88.3, 34.3], [-86.9, 34.9], [-85.2, 35.7], [-83.5, 36.5], [-81.8, 37.9], [-79.8, 39.0], [-77.9, 39.4]]}, "properties": {"model": "UE05", "label": "ECMWF Ens 05", "kind": "ensemble", "group": "ensemble", "cycle": "2021082900"}}, {"type": "Feature", "geometry": {"type": "LineString", "coordinates": [[-87.7, 26.5], [-88.8, 27.5], [-89.9, 28.4], [-90.6, 29.0], [-91.1, 29.8], [-91.7, 30.7], [-91.7, 31.5], [-91.6, 32.3], [-91.0, 33.0], [-90.3, 33.9], [-88.9, 34.3], [-87.5, 35.1], [-86.3, 36.0], [-84.9, 36.4], [-83.3, 36.5], [-80.9, 36.3], [-78.8, 37.4], [-77.0, 38.8], [-75.7, 38.2], [-74.6, 37.4]]}, "properties": {"model": "UE06", "label": "ECMWF Ens 06", "kind": "ensemble", "group": "ensemble", "cycle": "2021082900"}}, {"type": "Feature", "geometry": {"type": "LineString", "coordinates": [[-87.8, 26.5], [-88.8, 27.3], [-89.5, 28.3], [-90.5, 29.1], [-91.2, 29.8], [-91.9, 30.4], [-92.2, 31.1], [-92.0, 31.5], [-91.4, 32.4], [-90.8, 33.2], [-89.7, 34.0], [-88.6, 34.8], [-87.2, 36.0], [-86.3, 36.8], [-85.2, 37.1], [-81.3, 37.3], [-79.8, 37.6]]}, "properties": {"model": "UE07", "label": "ECMWF Ens 07", "kind": "ensemble", "group": "ensemble", "cycle": "2021082900"}}, {"type": "Feature", "geometry": {"type": "LineString", "coordinates": [[-87.8, 26.4], [-88.6, 27.2], [-89.5, 28.2], [-90.4, 29.0], [-91.1, 29.5], [-91.6, 30.1], [-91.6, 30.8], [-91.7, 31.4], [-91.6, 32.1], [-91.1, 32.5], [-90.3, 33.0], [-89.4, 33.5], [-88.3, 33.9], [-87.0, 34.5], [-85.8, 35.0], [-84.5, 35.2], [-83.5, 34.6], [-83.2, 34.7], [-82.4, 34.1], [-82.1, 33.1], [-82.2, 32.5]]}, "properties": {"model": "UE08", "label": "ECMWF Ens 08", "kind": "ensemble", "group": "ensemble", "cycle": "2021082900"}}, {"type": "Feature", "geometry": {"type": "LineString", "coordinates": [[-87.5, 26.6], [-88.3, 27.4], [-89.2, 28.3], [-90.3, 29.1], [-90.9, 29.5], [-91.5, 30.3], [-91.7, 31.1], [-92.0, 31.7], [-91.6, 32.3], [-91.1, 33.0], [-90.3, 33.6], [-89.2, 34.3], [-88.0, 35.4], [-87.2, 35.8], [-86.0, 36.3], [-84.6, 36.9], [-82.4, 38.2], [-80.7, 38.9], [-78.9, 39.4], [-79.3, 37.7]]}, "properties": {"model": "UE09", "label": "ECMWF Ens 09", "kind": "ensemble", "group": "ensemble", "cycle": "2021082900"}}, {"type": "Feature", "geometry": {"type": "LineString", "coordinates": [[-87.7, 26.6], [-88.6, 27.4], [-89.7, 28.1], [-90.5, 28.7], [-91.0, 29.2], [-91.5, 29.8], [-91.7, 30.4], [-91.6, 30.7], [-91.2, 31.2], [-90.5, 31.9], [-89.9, 32.6], [-89.2, 33.0], [-88.1, 33.9], [-87.2, 34.5], [-85.9, 35.4], [-85.2, 35.2], [-82.9, 36.2]]}, "properties": {"model": "UE10", "label": "ECMWF Ens 10", "kind": "ensemble", "group": "ensemble", "cycle": "2021082900"}}, {"type": "Feature", "geometry": {"type": "LineString", "coordinates": [[-87.4, 26.5], [-88.6, 27.4], [-89.5, 28.2], [-90.3, 28.9], [-90.9, 29.4], [-91.4, 30.0], [-91.5, 30.6], [-91.6, 31.3], [-91.2, 32.0], [-91.0, 32.8], [-90.6, 33.4], [-89.7, 33.6], [-89.1, 34.6], [-88.1, 34.5], [-87.2, 35.2], [-86.1, 35.3], [-84.9, 35.5], [-82.9, 36.4], [-81.0, 36.2], [-78.1, 36.9], [-75.9, 37.7], [-74.2, 37.8], [-73.5, 37.9], [-73.0, 38.3], [-72.5, 38.8], [-71.7, 39.6], [-71.5, 39.5], [-70.8, 40.3], [-70.2, 41.3], [-70.2, 41.7], [-69.1, 41.8], [-67.5, 42.2], [-64.7, 44.9]]}, "properties": {"model": "UE11", "label": "ECMWF Ens 11", "kind": "ensemble", "group": "ensemble", "cycle": "2021082900"}}, {"type": "Feature", "geometry": {"type": "LineString", "coordinates": [[-87.6, 26.5], [-88.6, 27.4], [-89.5, 28.3], [-90.6, 28.9], [-91.2, 29.3], [-92.0, 29.8], [-92.3, 30.4], [-92.3, 30.9], [-92.0, 31.7], [-91.7, 32.4], [-90.9, 33.2], [-89.9, 34.1], [-89.2, 35.0], [-88.0, 35.8], [-86.4, 36.5], [-85.2, 37.3], [-83.8, 37.9], [-82.5, 38.2], [-81.8, 37.6], [-79.1, 37.5]]}, "properties": {"model": "UE12", "label": "ECMWF Ens 12", "kind": "ensemble", "group": "ensemble", "cycle": "2021082900"}}, {"type": "Feature", "geometry": {"type": "LineString", "coordinates": [[-87.5, 26.6], [-88.6, 27.5], [-89.5, 28.2], [-90.3, 28.6], [-90.8, 29.1], [-91.2, 29.7], [-91.2, 30.5], [-91.3, 31.3], [-91.1, 32.2], [-91.1, 32.8], [-90.5, 33.4], [-90.0, 34.1], [-89.2, 34.7], [-88.8, 34.9], [-87.8, 35.2], [-87.5, 35.3], [-86.7, 35.1], [-86.1, 34.9]]}, "properties": {"model": "UE13", "label": "ECMWF Ens 13", "kind": "ensemble", "group": "ensemble", "cycle": "2021082900"}}, {"type": "Feature", "geometry": {"type": "LineString", "coordinates": [[-87.7, 26.4], [-88.6, 27.2], [-89.4, 28.1], [-90.5, 28.8], [-91.2, 29.4], [-91.7, 29.8], [-91.7, 30.4], [-91.7, 31.0], [-91.4, 31.7], [-90.8, 32.6], [-90.2, 33.5], [-89.1, 34.5], [-88.1, 35.6], [-87.1, 36.4], [-85.5, 37.3], [-84.0, 37.9], [-82.4, 38.4], [-81.1, 38.6], [-78.0, 38.6], [-74.5, 39.2], [-71.6, 40.1], [-67.5, 42.8]]}, "properties": {"model": "UE14", "label": "ECMWF Ens 14", "kind": "ensemble", "group": "ensemble", "cycle": "2021082900"}}, {"type": "Feature", "geometry": {"type": "LineString", "coordinates": [[-87.5, 26.4], [-88.4, 27.3], [-89.5, 28.3], [-90.3, 28.7], [-90.6, 29.4], [-91.1, 30.0], [-91.2, 30.6], [-91.4, 31.4], [-91.0, 31.9], [-90.5, 32.7], [-89.4, 33.6], [-88.5, 34.0], [-87.2, 35.0], [-86.0, 35.8], [-84.7, 36.4], [-83.8, 36.7], [-83.1, 36.4], [-81.8, 37.4]]}, "properties": {"model": "UE15", "label": "ECMWF Ens 15", "kind": "ensemble", "group": "ensemble", "cycle": "2021082900"}}, {"type": "Feature", "geometry": {"type": "LineString", "coordinates": [[-87.7, 26.6], [-88.6, 27.4], [-89.7, 28.3], [-90.5, 28.8], [-90.8, 29.1], [-91.2, 29.8], [-91.4, 30.4], [-91.2, 30.8], [-91.1, 31.3], [-90.8, 31.8], [-89.9, 32.1], [-88.9, 32.6], [-88.3, 33.2], [-87.2, 33.6], [-86.4, 34.3], [-85.8, 34.5], [-84.7, 34.6], [-83.8, 34.5], [-83.2, 34.7]]}, "properties": {"model": "UE16", "label": "ECMWF Ens 16", "kind": "ensemble", "group": "ensemble", "cycle": "2021082900"}}, {"type": "Feature", "geometry": {"type": "LineString", "coordinates": [[-87.5, 26.6], [-88.4, 27.4], [-89.4, 28.3], [-90.0, 28.9], [-90.6, 29.6], [-91.1, 30.0], [-91.2, 30.6], [-91.2, 31.3], [-90.8, 32.3], [-90.6, 33.1], [-89.9, 33.8], [-89.1, 34.3], [-88.1, 35.1], [-87.5, 35.6], [-86.4, 36.2], [-86.3, 36.1], [-85.6, 35.7]]}, "properties": {"model": "UE17", "label": "ECMWF Ens 17", "kind": "ensemble", "group": "ensemble", "cycle": "2021082900"}}, {"type": "Feature", "geometry": {"type": "LineString", "coordinates": [[-87.6, 26.6], [-89.1, 27.6], [-90.0, 28.5], [-91.0, 29.1], [-91.6, 29.6], [-92.0, 30.1], [-92.0, 30.9], [-92.0, 31.6], [-91.6, 32.2], [-91.1, 32.9], [-90.3, 33.8], [-89.5, 34.5], [-88.8, 35.3], [-87.8, 35.7], [-86.6, 36.5], [-85.5, 36.9], [-84.5, 37.3], [-84.1, 37.3], [-84.0, 37.1]]}, "properties": {"model": "UE18", "label": "ECMWF Ens 18", "kind": "ensemble", "group": "ensemble", "cycle": "2021082900"}}, {"type": "Feature", "geometry": {"type": "LineString", "coordinates": [[-87.7, 26.3], [-88.8, 27.5], [-89.9, 28.7], [-90.9, 29.3], [-91.6, 29.7], [-92.3, 30.5], [-92.8, 31.1], [-92.8, 31.3], [-92.2, 31.7], [-91.6, 32.6], [-90.8, 33.6], [-89.6, 34.4], [-88.3, 35.2], [-87.1, 36.0], [-85.8, 36.7], [-84.3, 37.5], [-82.5, 38.2], [-82.6, 38.3]]}, "properties": {"model": "UE19", "label": "ECMWF Ens 19", "kind": "ensemble", "group": "ensemble", "cycle": "2021082900"}}, {"type": "Feature", "geometry": {"type": "LineString", "coordinates": [[-87.4, 26.8], [-88.3, 27.6], [-89.4, 28.5], [-90.0, 28.9], [-90.6, 29.4], [-91.0, 29.9], [-91.0, 30.4], [-90.6, 31.1], [-90.3, 32.0], [-89.9, 32.7], [-88.9, 33.6], [-88.0, 34.5], [-87.1, 35.2], [-86.3, 35.8], [-85.0, 36.3], [-84.1, 36.4], [-82.8, 36.3], [-81.8, 35.6]]}, "properties": {"model": "UE20", "label": "ECMWF Ens 20", "kind": "ensemble", "group": "ensemble", "cycle": "2021082900"}}, {"type": "Feature", "geometry": {"type": "LineString", "coordinates": [[-87.8, 26.6], [-88.8, 27.6], [-89.9, 28.3], [-90.6, 28.8], [-90.9, 29.4], [-91.5, 30.3], [-91.9, 31.1], [-92.0, 31.6], [-91.7, 32.5], [-91.4, 33.2], [-90.8, 33.9], [-89.9, 34.5], [-88.5, 35.2], [-87.2, 36.0], [-86.1, 36.9], [-85.2, 37.3], [-84.1, 37.3], [-83.2, 37.4], [-82.7, 37.4]]}, "properties": {"model": "UE21", "label": "ECMWF Ens 21", "kind": "ensemble", "group": "ensemble", "cycle": "2021082900"}}, {"type": "Feature", "geometry": {"type": "LineString", "coordinates": [[-87.5, 26.9], [-88.6, 27.9], [-89.8, 28.7], [-90.6, 29.1], [-91.0, 29.6], [-91.5, 30.4], [-91.7, 31.1], [-91.9, 31.7], [-91.4, 32.0], [-90.9, 32.4], [-89.9, 33.0], [-88.9, 33.7], [-88.0, 34.7], [-87.4, 35.2], [-86.3, 36.0], [-85.4, 36.3], [-84.1, 36.4], [-83.2, 37.1], [-82.5, 37.4]]}, "properties": {"model": "UE22", "label": "ECMWF Ens 22", "kind": "ensemble", "group": "ensemble", "cycle": "2021082900"}}, {"type": "Feature", "geometry": {"type": "LineString", "coordinates": [[-87.5, 26.6], [-88.6, 27.5], [-89.7, 28.5], [-90.6, 29.4], [-91.4, 30.1], [-91.9, 30.6], [-92.0, 31.6], [-92.0, 32.3], [-91.7, 33.0], [-91.1, 33.7], [-89.9, 34.7], [-88.9, 35.6], [-86.9, 36.8], [-85.8, 37.5], [-83.9, 38.1], [-82.7, 38.6], [-81.3, 38.6], [-78.6, 39.8], [-77.7, 39.4], [-75.3, 40.1], [-73.4, 40.4]]}, "properties": {"model": "UE23", "label": "ECMWF Ens 23", "kind": "ensemble", "group": "ensemble", "cycle": "2021082900"}}, {"type": "Feature", "geometry": {"type": "LineString", "coordinates": [[-87.8, 26.7], [-89.1, 27.7], [-90.2, 28.5], [-91.3, 29.1], [-92.0, 29.5], [-92.6, 29.8], [-92.4, 30.3], [-92.3, 30.8], [-91.8, 31.5], [-91.1, 32.4], [-90.0, 33.3], [-88.9, 34.0], [-87.2, 35.0], [-86.3, 35.8], [-85.5, 36.5], [-85.1, 36.5], [-84.7, 36.0]]}, "properties": {"model": "UE24", "label": "ECMWF Ens 24", "kind": "ensemble", "group": "ensemble", "cycle": "2021082900"}}, {"type": "Feature", "geometry": {"type": "LineString", "coordinates": [[-87.5, 26.6], [-88.6, 27.7], [-89.7, 28.6], [-90.8, 29.2], [-91.6, 29.8], [-92.3, 30.3], [-92.7, 30.9], [-92.8, 31.3], [-92.2, 31.9], [-91.7, 32.6], [-91.1, 33.3], [-90.3, 33.7], [-89.4, 34.3], [-88.6, 34.8], [-87.2, 35.4], [-86.2, 35.1], [-84.7, 35.8], [-82.7, 36.4], [-83.2, 34.7]]}, "properties": {"model": "UE25", "label": "ECMWF Ens 25", "kind": "ensemble", "group": "ensemble", "cycle": "2021082900"}}, {"type": "Feature", "geometry": {"type": "LineString", "coordinates": [[-87.8, 26.6], [-88.9, 27.6], [-90.0, 28.7], [-90.9, 29.5], [-91.4, 30.0], [-91.7, 30.6], [-91.9, 31.5], [-92.3, 32.0], [-91.9, 32.3], [-91.4, 32.8], [-90.6, 33.4], [-89.6, 33.7], [-88.5, 34.4], [-87.1, 35.1], [-86.0, 36.0], [-84.9, 36.4], [-82.4, 36.5], [-81.1, 38.2], [-79.7, 37.6]]}, "properties": {"model": "UE26", "label": "ECMWF Ens 26", "kind": "ensemble", "group": "ensemble", "cycle": "2021082900"}}, {"type": "Feature", "geometry": {"type": "LineString", "coordinates": [[-87.8, 26.9], [-89.2, 27.9], [-90.3, 28.7], [-91.4, 29.3], [-91.7, 29.8], [-92.0, 30.5], [-92.2, 31.4], [-92.3, 32.2], [-92.2, 32.8], [-91.4, 33.2], [-90.5, 34.1], [-89.7, 34.7], [-88.5, 35.5], [-87.7, 36.0], [-86.9, 36.0]]}, "properties": {"model": "UE27", "label": "ECMWF Ens 27", "kind": "ensemble", "group": "ensemble", "cycle": "2021082900"}}, {"type": "Feature", "geometry": {"type": "LineString", "coordinates": [[-87.7, 26.6], [-88.8, 27.7], [-90.0, 28.6], [-90.9, 29.2], [-91.5, 29.8], [-92.0, 30.5], [-92.2, 31.3], [-92.3, 32.1], [-92.0, 32.5], [-91.4, 33.1], [-90.6, 33.9], [-89.5, 34.6], [-88.6, 35.4], [-87.5, 36.0], [-86.6, 36.6], [-85.3, 37.0], [-84.3, 37.5], [-83.3, 37.7], [-82.8, 37.5]]}, "properties": {"model": "UE28", "label": "ECMWF Ens 28", "kind": "ensemble", "group": "ensemble", "cycle": "2021082900"}}, {"type": "Feature", "geometry": {"type": "LineString", "coordinates": [[-87.5, 26.6], [-88.8, 27.6], [-89.8, 28.5], [-90.8, 29.2], [-91.5, 29.8], [-92.1, 30.4], [-92.2, 31.3], [-92.3, 31.9], [-91.9, 32.5], [-91.5, 33.3], [-90.6, 34.1], [-89.9, 34.5], [-88.6, 35.3], [-87.8, 36.0], [-87.0, 36.4], [-86.1, 36.4], [-85.0, 36.7], [-84.7, 36.4], [-84.1, 36.6], [-84.6, 36.5], [-85.1, 36.6], [-86.3, 36.6]]}, "properties": {"model": "UE29", "label": "ECMWF Ens 29", "kind": "ensemble", "group": "ensemble", "cycle": "2021082900"}}, {"type": "Feature", "geometry": {"type": "LineString", "coordinates": [[-88.0, 26.8], [-89.4, 27.6], [-90.5, 28.3], [-91.4, 28.9], [-92.0, 29.4], [-92.5, 30.0], [-92.8, 30.8], [-92.8, 31.5], [-92.8, 32.2], [-92.3, 32.8], [-91.6, 33.4], [-90.6, 34.1], [-89.4, 34.7], [-88.6, 35.3], [-87.2, 35.8], [-86.4, 36.0], [-85.4, 36.4], [-84.7, 36.2], [-83.3, 35.9]]}, "properties": {"model": "UE30", "label": "ECMWF Ens 30", "kind": "ensemble", "group": "ensemble", "cycle": "2021082900"}}, {"type": "Feature", "geometry": {"type": "LineString", "coordinates": [[-87.7, 26.4], [-88.9, 27.2], [-90.2, 27.9], [-91.2, 28.5], [-91.9, 28.9], [-92.3, 29.5], [-92.6, 30.2], [-92.8, 30.8], [-92.3, 31.6], [-91.9, 32.4], [-91.2, 33.2], [-90.3, 33.9], [-89.2, 34.7], [-88.1, 35.2], [-86.9, 36.0], [-86.2, 36.0], [-84.9, 36.4], [-84.1, 36.8], [-83.6, 37.0]]}, "properties": {"model": "UE31", "label": "ECMWF Ens 31", "kind": "ensemble", "group": "ensemble", "cycle": "2021082900"}}, {"type": "Feature", "geometry": {"type": "LineString", "coordinates": [[-87.7, 26.6], [-88.9, 27.4], [-90.1, 28.1], [-91.1, 28.6], [-91.9, 29.1], [-92.5, 29.5], [-92.6, 30.2], [-92.8, 30.8], [-92.7, 31.3], [-92.6, 31.5], [-91.9, 31.9], [-91.1, 32.5], [-90.3, 33.2], [-89.7, 33.8], [-89.0, 33.9], [-88.2, 34.1], [-87.7, 34.4], [-86.9, 34.9], [-86.3, 35.5], [-86.6, 35.4], [-86.1, 35.0], [-85.8, 35.0], [-86.1, 35.2], [-86.9, 34.5], [-87.2, 34.3], [-88.0, 34.2], [-87.8, 33.9]]}, "properties": {"model": "UE32", "label": "ECMWF Ens 32", "kind": "ensemble", "group": "ensemble", "cycle": "2021082900"}}, {"type": "Feature", "geometry": {"type": "LineString", "coordinates": [[-87.7, 26.6], [-88.9, 27.7], [-90.0, 28.5], [-90.8, 29.0], [-91.4, 29.7], [-92.1, 30.4], [-92.5, 31.1], [-92.9, 31.6], [-92.8, 32.0], [-92.2, 32.4], [-91.7, 33.0], [-91.1, 32.9], [-90.0, 33.2], [-89.4, 33.5], [-88.8, 33.6], [-88.7, 33.2], [-88.5, 32.8], [-88.3, 32.6], [-87.8, 32.6], [-87.7, 32.9], [-87.5, 32.6], [-88.4, 33.0], [-88.8, 33.0]]}, "properties": {"model": "UE33", "label": "ECMWF Ens 33", "kind": "ensemble", "group": "ensemble", "cycle": "2021082900"}}, {"type": "Feature", "geometry": {"type": "LineString", "coordinates": [[-87.5, 26.3], [-88.6, 27.2], [-89.5, 28.1], [-90.3, 28.5], [-90.8, 29.4], [-91.4, 30.1], [-91.6, 30.9], [-91.7, 31.7], [-91.4, 32.5], [-90.8, 33.2], [-89.8, 33.9], [-88.9, 34.8], [-88.0, 35.6], [-86.9, 36.3], [-85.5, 37.1], [-84.0, 37.7], [-83.4, 37.9], [-82.5, 38.1], [-82.1, 38.3]]}, "properties": {"model": "UE34", "label": "ECMWF Ens 34", "kind": "ensemble", "group": "ensemble", "cycle": "2021082900"}}, {"type": "Feature", "geometry": {"type": "LineString", "coordinates": [[-87.7, 26.5], [-88.8, 27.5], [-89.9, 28.5], [-90.8, 29.0], [-91.3, 29.6], [-91.9, 30.2], [-92.2, 30.8], [-92.3, 31.4], [-91.9, 32.0], [-91.4, 32.6], [-90.4, 33.4], [-89.7, 34.1], [-88.9, 34.9], [-88.0, 35.3], [-86.9, 35.8], [-86.2, 36.0], [-85.3, 36.0], [-84.3, 36.1], [-83.3, 36.4]]}, "properties": {"model": "UE35", "label": "ECMWF Ens 35", "kind": "ensemble", "group": "ensemble", "cycle": "2021082900"}}, {"type": "Feature", "geometry": {"type": "LineString", "coordinates": [[-87.5, 26.5], [-88.5, 27.3], [-89.1, 28.5], [-90.0, 29.3], [-90.7, 29.9], [-91.5, 30.6], [-91.6, 31.4], [-91.4, 32.0], [-90.9, 32.7], [-90.6, 33.4], [-89.7, 34.2], [-88.9, 34.6], [-87.9, 35.0], [-86.7, 36.0], [-85.0, 37.0], [-83.8, 37.2], [-82.0, 38.4], [-81.1, 38.5], [-82.2, 38.0]]}, "properties": {"model": "AP02", "label": "GEFS 02", "kind": "ensemble", "group": "ensemble", "cycle": "2021082900"}}, {"type": "Feature", "geometry": {"type": "LineString", "coordinates": [[-87.7, 26.6], [-88.6, 27.4], [-89.4, 28.6], [-90.1, 29.3], [-90.5, 30.0], [-91.0, 30.6], [-91.0, 31.3], [-90.7, 31.6], [-90.0, 31.9], [-89.3, 32.4], [-88.0, 33.3], [-86.7, 34.5], [-84.9, 35.4], [-82.5, 36.4], [-81.1, 37.6], [-79.4, 37.0], [-76.0, 38.2], [-73.2, 40.0], [-71.3, 40.4], [-68.6, 41.3], [-64.8, 42.7], [-60.8, 44.7], [-58.6, 45.2], [-56.5, 45.8], [-54.7, 45.9], [-52.2, 45.7], [-49.3, 46.1], [-45.3, 48.4]]}, "properties": {"model": "AP05", "label": "GEFS 05", "kind": "ensemble", "group": "ensemble", "cycle": "2021082900"}}, {"type": "Feature", "geometry": {"type": "LineString", "coordinates": [[-87.6, 26.4], [-88.9, 27.3], [-89.9, 28.5], [-90.7, 29.4], [-91.1, 30.3], [-91.5, 31.2], [-91.4, 32.3], [-91.2, 33.4], [-90.7, 34.5], [-90.0, 35.2], [-88.4, 36.3], [-86.5, 37.5], [-84.3, 38.6], [-82.3, 39.0], [-80.0, 39.6], [-77.6, 40.4], [-75.3, 40.9], [-74.0, 40.9], [-72.1, 41.1], [-70.6, 41.6]]}, "properties": {"model": "AP09", "label": "GEFS 09", "kind": "ensemble", "group": "ensemble", "cycle": "2021082900"}}, {"type": "Feature", "geometry": {"type": "LineString", "coordinates": [[-88.0, 26.3], [-89.2, 27.0], [-90.1, 27.9], [-90.9, 28.6], [-91.4, 29.2], [-91.6, 29.9], [-91.6, 30.9], [-91.4, 31.8], [-90.9, 32.7], [-90.6, 33.7], [-89.7, 34.5], [-88.5, 35.4], [-87.0, 36.6], [-86.0, 37.2], [-84.2, 38.1], [-82.4, 39.3], [-81.7, 39.6], [-81.9, 38.5], [-81.8, 37.4], [-80.4, 36.0], [-79.1, 35.6]]}, "properties": {"model": "AP10", "label": "GEFS 10", "kind": "ensemble", "group": "ensemble", "cycle": "2021082900"}}, {"type": "Feature", "geometry": {"type": "LineString", "coordinates": [[-87.4, 26.6], [-88.3, 27.4], [-89.1, 28.2], [-89.7, 28.8], [-90.1, 29.4], [-90.4, 29.8], [-90.3, 30.4], [-90.1, 31.1], [-90.0, 32.1], [-90.0, 32.8], [-89.7, 33.8], [-89.2, 34.4], [-88.5, 34.8], [-88.2, 35.0], [-87.8, 35.2], [-86.9, 35.2], [-86.1, 35.1], [-86.1, 34.4], [-85.5, 34.3], [-85.5, 33.9], [-85.3, 33.6], [-85.6, 33.3], [-85.9, 33.4], [-86.6, 33.6], [-87.2, 33.6], [-88.1, 33.6], [-88.7, 33.2], [-88.6, 33.5], [-87.7, 33.3], [-87.1, 33.6], [-86.3, 33.4]]}, "properties": {"model": "AP11", "label": "GEFS 11", "kind": "ensemble", "group": "ensemble", "cycle": "2021082900"}}, {"type": "Feature", "geometry": {"type": "LineString", "coordinates": [[-87.8, 26.8], [-89.1, 27.6], [-90.0, 28.4], [-90.7, 29.1], [-91.1, 29.9], [-91.6, 30.6], [-91.6, 31.4], [-91.5, 32.0], [-91.0, 32.5], [-90.4, 33.0], [-89.2, 33.9], [-87.6, 34.8], [-86.1, 35.7], [-85.0, 35.7], [-83.1, 35.7], [-82.3, 34.7], [-80.4, 34.3], [-77.9, 34.7], [-74.4, 36.1], [-72.1, 37.4], [-69.9, 38.7], [-66.6, 40.7], [-62.3, 43.3], [-56.5, 46.2], [-52.9, 48.3], [-49.8, 49.6], [-46.2, 51.1], [-42.5, 52.7], [-38.6, 54.0], [-34.8, 55.2], [-30.9, 56.8], [-27.2, 57.8], [-23.4, 59.0]]}, "properties": {"model": "AP12", "label": "GEFS 12", "kind": "ensemble", "group": "ensemble", "cycle": "2021082900"}}, {"type": "Feature", "geometry": {"type": "LineString", "coordinates": [[-87.6, 26.6], [-88.8, 27.2], [-89.9, 28.1], [-90.7, 28.7], [-91.3, 29.4], [-91.8, 29.9], [-91.9, 30.6], [-91.9, 31.3], [-91.6, 32.1], [-91.7, 32.8], [-91.3, 33.3], [-90.6, 33.8], [-89.8, 34.1], [-89.3, 34.3], [-88.6, 34.5], [-87.6, 34.3], [-86.4, 34.9], [-85.7, 35.0], [-85.7, 35.2], [-86.1, 34.9], [-86.9, 34.5], [-88.6, 34.3], [-89.7, 34.4], [-90.7, 34.9], [-92.1, 35.0], [-93.1, 35.1], [-93.1, 36.1], [-93.5, 37.4]]}, "properties": {"model": "AP16", "label": "GEFS 16", "kind": "ensemble", "group": "ensemble", "cycle": "2021082900"}}, {"type": "Feature", "geometry": {"type": "LineString", "coordinates": [[-87.6, 26.7], [-88.7, 27.5], [-89.4, 28.5], [-90.0, 29.4], [-90.3, 30.1], [-90.5, 30.7], [-90.4, 31.5], [-90.2, 32.3], [-89.6, 33.2], [-89.4, 34.0], [-88.5, 35.4], [-87.2, 36.7], [-86.0, 37.3], [-83.2, 38.7], [-80.3, 39.8], [-77.9, 40.5], [-75.3, 41.1], [-72.5, 42.0], [-69.4, 43.0], [-66.4, 44.3], [-63.6, 45.3], [-60.3, 46.6], [-58.5, 47.6], [-57.7, 47.4], [-56.6, 47.5], [-55.1, 47.4], [-51.5, 48.7]]}, "properties": {"model": "AP17", "label": "GEFS 17", "kind": "ensemble", "group": "ensemble", "cycle": "2021082900"}}, {"type": "Feature", "geometry": {"type": "LineString", "coordinates": [[-87.3, 26.5], [-88.4, 27.3], [-89.0, 28.3], [-89.7, 29.0], [-90.2, 29.8], [-90.9, 30.5], [-91.1, 31.2], [-90.8, 31.7], [-90.1, 32.6], [-89.7, 33.2], [-88.5, 33.9], [-87.3, 34.8], [-85.7, 35.8], [-84.6, 37.0], [-82.1, 39.1], [-80.3, 40.1], [-77.7, 40.2], [-74.0, 41.2], [-70.1, 42.7], [-66.2, 44.7], [-63.6, 45.8], [-61.5, 46.4], [-59.0, 48.4], [-56.9, 49.4], [-54.7, 50.5], [-51.6, 51.4], [-49.3, 52.7], [-47.7, 54.1], [-46.0, 55.2], [-44.6, 56.1], [-42.8, 56.6], [-40.7, 57.2], [-38.1, 57.7]]}, "properties": {"model": "AP19", "label": "GEFS 19", "kind": "ensemble", "group": "ensemble", "cycle": "2021082900"}}, {"type": "Feature", "geometry": {"type": "LineString", "coordinates": [[-87.7, 26.7], [-88.6, 27.4], [-89.3, 28.5], [-90.0, 29.3], [-90.5, 30.2], [-91.1, 30.9], [-91.1, 31.9], [-90.8, 32.8], [-90.1, 33.8], [-89.3, 34.7], [-88.0, 35.4], [-86.3, 36.1], [-84.5, 36.8], [-82.8, 37.6], [-80.8, 39.1], [-78.7, 39.7], [-76.3, 40.2], [-74.9, 40.6], [-74.1, 40.7], [-73.2, 40.8], [-72.5, 40.7], [-72.1, 40.5], [-72.1, 40.3], [-72.8, 40.0], [-73.4, 39.6], [-74.2, 39.7], [-74.5, 39.6], [-74.0, 39.1], [-72.7, 39.1], [-71.6, 39.7], [-70.4, 40.9]]}, "properties": {"model": "AP20", "label": "GEFS 20", "kind": "ensemble", "group": "ensemble", "cycle": "2021082900"}}, {"type": "Feature", "geometry": {"type": "LineString", "coordinates": [[-87.5, 26.7], [-88.6, 27.6], [-89.4, 28.6], [-90.1, 29.4], [-90.7, 30.1], [-91.2, 30.9], [-91.4, 31.7], [-91.1, 32.4], [-90.6, 33.4], [-90.1, 34.4], [-89.0, 35.2], [-87.5, 36.1], [-85.5, 37.1], [-83.9, 37.9], [-81.9, 38.7], [-80.3, 39.1], [-77.9, 38.8], [-76.4, 38.8], [-74.4, 39.0], [-72.5, 38.6]]}, "properties": {"model": "AP24", "label": "GEFS 24", "kind": "ensemble", "group": "ensemble", "cycle": "2021082900"}}, {"type": "Feature", "geometry": {"type": "LineString", "coordinates": [[-87.7, 26.6], [-89.0, 27.3], [-89.7, 28.3], [-90.5, 29.1], [-91.0, 29.9], [-91.6, 30.7], [-91.6, 31.5], [-91.4, 32.3], [-90.8, 33.1], [-90.0, 34.1], [-88.9, 35.1], [-87.9, 35.6], [-86.2, 36.6], [-84.5, 37.6], [-81.4, 39.1], [-80.0, 40.0], [-78.2, 40.2], [-76.2, 40.5], [-74.2, 41.3], [-72.3, 42.2], [-69.7, 43.7], [-67.4, 45.8], [-64.1, 47.3], [-60.7, 49.6], [-58.4, 50.4], [-54.8, 51.1], [-48.4, 52.1], [-43.0, 52.4], [-35.7, 52.9], [-30.5, 52.8], [-26.2, 52.8], [-22.2, 53.2], [-21.7, 54.1]]}, "properties": {"model": "AP26", "label": "GEFS 26", "kind": "ensemble", "group": "ensemble", "cycle": "2021082900"}}, {"type": "Feature", "geometry": {"type": "LineString", "coordinates": [[-87.8, 26.5], [-89.0, 27.2], [-89.9, 28.0], [-90.6, 28.6], [-91.0, 29.2], [-91.3, 29.8], [-91.1, 30.5], [-90.8, 31.2], [-90.1, 32.0], [-89.6, 32.8], [-88.8, 33.6], [-87.7, 34.5], [-86.7, 35.6], [-85.8, 36.4], [-84.6, 37.3], [-83.3, 38.2], [-82.4, 38.8], [-82.0, 38.7], [-81.8, 38.3], [-81.8, 37.6], [-82.5, 36.4], [-83.6, 35.4], [-84.1, 34.2], [-84.5, 33.6], [-85.9, 33.2], [-87.0, 32.7], [-88.2, 32.8], [-90.0, 32.0]]}, "properties": {"model": "AP30", "label": "GEFS 30", "kind": "ensemble", "group": "ensemble", "cycle": "2021082900"}}, {"type": "Feature", "geometry": {"type": "LineString", "coordinates": [[-86.6, 25.6], [-88.7, 27.6], [-90.3, 29.4], [-91.1, 31.2], [-90.8, 33.0], [-89.4, 34.7], [-87.0, 36.3], [-83.1, 37.4], [-78.4, 38.3], [-73.7, 38.8], [-67.7, 40.8], [-62.2, 43.9], [-58.3, 46.0], [-54.4, 48.1], [-50.5, 50.7]]}, "properties": {"model": "CMCI", "label": "CMC (interpolated)", "kind": "physics", "group": "deterministic", "cycle": "2021082818"}}, {"type": "Feature", "geometry": {"type": "LineString", "coordinates": [[-87.5, 26.7], [-88.6, 27.5], [-89.1, 28.6], [-89.8, 29.5], [-90.4, 30.1], [-90.7, 31.0], [-90.7, 32.0], [-90.4, 32.7], [-89.9, 33.7], [-89.0, 34.6], [-87.6, 35.5], [-85.4, 36.2], [-83.6, 36.6], [-81.4, 37.1]]}, "properties": {"model": "COTC", "label": "COAMPS-TC (interpolated)", "kind": "physics", "group": "deterministic", "cycle": "2021082900"}}, {"type": "Feature", "geometry": {"type": "LineString", "coordinates": [[-87.6, 26.6], [-88.5, 27.5], [-89.1, 28.5], [-90.0, 29.1], [-90.5, 29.8], [-91.0, 30.4], [-91.1, 31.1], [-91.0, 31.9], [-90.7, 32.7], [-90.3, 33.5], [-89.4, 34.3], [-88.4, 34.8], [-87.3, 35.4], [-86.4, 35.7], [-85.1, 35.9], [-83.4, 36.0], [-82.0, 36.6], [-81.1, 36.7], [-80.7, 36.3], [-80.7, 35.8], [-80.9, 35.3], [-81.6, 34.6], [-83.1, 34.1], [-83.6, 33.9], [-84.2, 33.7], [-84.5, 33.9], [-85.4, 34.6], [-87.2, 35.2], [-87.0, 34.2], [-86.3, 33.6]]}, "properties": {"model": "NVGM", "label": "NAVGEM", "kind": "physics", "group": "deterministic", "cycle": "2021082900"}}, {"type": "Feature", "geometry": {"type": "LineString", "coordinates": [[-87.5, 26.7], [-89.4, 28.4], [-90.7, 29.9], [-91.2, 31.4], [-90.7, 33.0], [-89.3, 34.6], [-87.1, 36.1], [-84.1, 37.4], [-80.6, 38.5], [-77.4, 39.2], [-76.8, 38.6], [-74.2, 38.7], [-69.8, 40.9], [-68.2, 41.0], [-65.9, 40.5]]}, "properties": {"model": "TVCA", "label": "Consensus", "kind": "consensus", "group": "consensus", "cycle": "2021082900"}}, {"type": "Feature", "geometry": {"type": "LineString", "coordinates": [[-87.5, 26.7], [-89.4, 28.4], [-90.7, 29.9], [-91.2, 31.4], [-90.7, 33.0], [-89.3, 34.6], [-87.1, 36.1], [-84.1, 37.4], [-80.6, 38.5], [-77.4, 39.2], [-76.8, 38.6], [-74.2, 38.7], [-69.8, 40.9], [-68.2, 41.0], [-65.9, 40.5]]}, "properties": {"model": "TVCN", "label": "TVCN Consensus", "kind": "consensus", "group": "consensus", "cycle": "2021082900"}}, {"type": "Feature", "geometry": {"type": "LineString", "coordinates": [[-84.7, 23.5], [-86.9, 25.4], [-88.9, 27.0], [-90.6, 28.4], [-91.4, 29.7], [-91.4, 31.4], [-90.7, 33.3], [-89.2, 34.9], [-86.9, 36.2], [-83.6, 37.2], [-80.3, 37.6], [-78.1, 36.6], [-76.6, 35.5], [-75.6, 34.9], [-75.8, 33.5]]}, "properties": {"model": "EMXI", "label": "ECMWF", "kind": "physics", "group": "deterministic", "cycle": "2021082806"}}, {"type": "Feature", "geometry": {"type": "LineString", "coordinates": [[-87.5, 26.7], [-89.4, 28.4], [-90.7, 29.9], [-91.0, 31.5], [-90.3, 33.2], [-88.7, 34.8], [-86.1, 36.4], [-82.3, 38.1], [-77.8, 39.6], [-73.3, 40.9], [-70.0, 41.8], [-67.9, 42.2], [-66.2, 42.4], [-64.4, 42.1], [-61.9, 41.0]]}, "properties": {"model": "GFEX", "label": "GFS Ensemble Mean", "kind": "consensus", "group": "consensus", "cycle": "2021082900"}}, {"type": "Feature", "geometry": {"type": "LineString", "coordinates": [[-87.5, 26.7], [-88.0, 27.2], [-89.4, 28.4], [-90.7, 29.9], [-91.2, 31.4], [-90.6, 33.1], [-89.1, 34.8], [-86.7, 36.3], [-80.6, 38.6]]}, "properties": {"model": "OFCL", "label": "Official", "kind": "official", "group": "official", "cycle": "2021082900"}}, {"type": "Feature", "geometry": {"type": "LineString", "coordinates": [[-86.6, 25.6], [-88.6, 27.5], [-90.4, 29.0], [-91.4, 30.4], [-91.6, 31.8], [-90.8, 33.3], [-89.2, 35.0], [-87.6, 36.3], [-85.9, 36.9], [-84.3, 37.0], [-82.7, 37.2]]}, "properties": {"model": "EGRI", "label": "UKMET (interpolated)", "kind": "physics", "group": "deterministic", "cycle": "2021082818"}}]}