{"type": "FeatureCollection", "features": [{"type": "Feature", "properties": {"shapefile": "al092021-011_5day_lin", "STORMNAME": "Ida", "STORMTYPE": "HU", "ADVDATE": "1000 PM CDT Sat Aug 28 2021", "ADVISNUM": "11", "STORMNUM": 9, "FCSTPRD": 120, "BASIN": "AL"}, "geometry": {"type": "LineString", "coordinates": [[-88.0, 27.2], [-89.4, 28.4], [-90.7, 29.9], [-91.2, 31.4], [-90.6, 33.1], [-89.1, 34.8], [-86.7, 36.3], [-80.6, 38.6]]}}, {"type": "Feature", "properties": {"shapefile": "al092021-011_5day_pts", "ADVDATE": "1000 PM CDT Sat Aug 28 2021", "ADVISNUM": "11", "BASIN": "AL", "DATELBL": "10:00 PM Sat", "DVLBL": "H", "FCSTPRD": 120, "FLDATELBL": "2021-08-28 7:00 PM Sat CDT", "GUST": 110, "LAT": 27, "LON": -88, "MAXWIND": 90, "MSLP": 964, "SSNUM": 2, "STORMNAME": "Hurricane Ida", "STORMNUM": 9, "STORMSRC": "Tropical Cyclone", "STORMTYPE": "HU", "TCDVLP": "Hurricane", "TAU": 0, "TCDIR": 325, "TCSPD": 14, "TIMEZONE": "CDT", "VALIDTIME": "29/0000"}, "geometry": {"type": "Point", "coordinates": [-88.0, 27.2]}}, {"type": "Feature", "properties": {"shapefile": "al092021-011_5day_pts", "ADVDATE": "1000 PM CDT Sat Aug 28 2021", "ADVISNUM": "11", "BASIN": "AL", "DATELBL": "7:00 AM Sun", "DVLBL": "M", "FCSTPRD": 120, "FLDATELBL": "2021-08-29 7:00 AM Sun CDT", "GUST": 140, "LAT": 28, "LON": -89, "MAXWIND": 115, "MSLP": 9999, "SSNUM": 4, "STORMNAME": "Hurricane Ida", "STORMNUM": 9, "STORMSRC": "Tropical Cyclone", "STORMTYPE": "MH", "TCDVLP": "Major Hurricane", "TAU": 12, "TCDIR": 9999, "TCSPD": 9999, "TIMEZONE": "CDT", "VALIDTIME": "29/1200"}, "geometry": {"type": "Point", "coordinates": [-89.4, 28.4]}}, {"type": "Feature", "properties": {"shapefile": "al092021-011_5day_pts", "ADVDATE": "1000 PM CDT Sat Aug 28 2021", "ADVISNUM": "11", "BASIN": "AL", "DATELBL": "7:00 PM Sun", "DVLBL": "H", "FCSTPRD": 120, "FLDATELBL": "2021-08-29 7:00 PM Sun CDT", "GUST": 105, "LAT": 29, "LON": -90, "MAXWIND": 85, "MSLP": 9999, "SSNUM": 2, "STORMNAME": "Hurricane Ida", "STORMNUM": 9, "STORMSRC": "Tropical Cyclone", "STORMTYPE": "HU", "TCDVLP": "Hurricane", "TAU": 24, "TCDIR": 9999, "TCSPD": 9999, "TIMEZONE": "CDT", "VALIDTIME": "30/0000"}, "geometry": {"type": "Point", "coordinates": [-90.7, 29.9]}}, {"type": "Feature", "properties": {"shapefile": "al092021-011_5day_pts", "ADVDATE": "1000 PM CDT Sat Aug 28 2021", "ADVISNUM": "11", "BASIN": "AL", "DATELBL": "7:00 AM Mon", "DVLBL": "S", "FCSTPRD": 120, "FLDATELBL": "2021-08-30 7:00 AM Mon CDT", "GUST": 55, "LAT": 31, "LON": -91, "MAXWIND": 45, "MSLP": 9999, "SSNUM": 0, "STORMNAME": "Hurricane Ida", "STORMNUM": 9, "STORMSRC": "Tropical Cyclone", "STORMTYPE": "TS", "TCDVLP": "Tropical Storm", "TAU": 36, "TCDIR": 9999, "TCSPD": 9999, "TIMEZONE": "CDT", "VALIDTIME": "30/1200"}, "geometry": {"type": "Point", "coordinates": [-91.2, 31.4]}}, {"type": "Feature", "properties": {"shapefile": "al092021-011_5day_pts", "ADVDATE": "1000 PM CDT Sat Aug 28 2021", "ADVISNUM": "11", "BASIN": "AL", "DATELBL": "7:00 PM Mon", "DVLBL": "D", "FCSTPRD": 120, "FLDATELBL": "2021-08-30 7:00 PM Mon CDT", "GUST": 40, "LAT": 33, "LON": -90, "MAXWIND": 30, "MSLP": 9999, "SSNUM": 0, "STORMNAME": "Hurricane Ida", "STORMNUM": 9, "STORMSRC": "Tropical Cyclone", "STORMTYPE": "TD", "TCDVLP": "Tropical Depression", "TAU": 48, "TCDIR": 9999, "TCSPD": 9999, "TIMEZONE": "CDT", "VALIDTIME": "31/0000"}, "geometry": {"type": "Point", "coordinates": [-90.6, 33.1]}}, {"type": "Feature", "properties": {"shapefile": "al092021-011_5day_pts", "ADVDATE": "1000 PM CDT Sat Aug 28 2021", "ADVISNUM": "11", "BASIN": "AL", "DATELBL": "7:00 AM Tue", "DVLBL": "D", "FCSTPRD": 120, "FLDATELBL": "2021-08-31 7:00 AM Tue CDT", "GUST": 35, "LAT": 34, "LON": -89, "MAXWIND": 25, "MSLP": 9999, "SSNUM": 0, "STORMNAME": "Hurricane Ida", "STORMNUM": 9, "STORMSRC": "Tropical Cyclone", "STORMTYPE": "TD", "TCDVLP": "Tropical Depression", "TAU": 60, "TCDIR": 9999, "TCSPD": 9999, "TIMEZONE": "CDT", "VALIDTIME": "31/1200"}, "geometry": {"type": "Point", "coordinates": [-89.1, 34.8]}}, {"type": "Feature", "properties": {"shapefile": "al092021-011_5day_pts", "ADVDATE": "1000 PM CDT Sat Aug 28 2021", "ADVISNUM": "11", "BASIN": "AL", "DATELBL": "7:00 PM Tue", "DVLBL": "D", "FCSTPRD": 120, "FLDATELBL": "2021-08-31 7:00 PM Tue CDT", "GUST": 30, "LAT": 36, "LON": -86, "MAXWIND": 20, "MSLP": 9999, "SSNUM": 0, "STORMNAME": "Hurricane Ida", "STORMNUM": 9, "STORMSRC": "Tropical Cyclone", "STORMTYPE": "TD", "TCDVLP": "Tropical Depression", "TAU": 72, "TCDIR": 9999, "TCSPD": 9999, "TIMEZONE": "CDT", "VALIDTIME": "01/0000"}, "geometry": {"type": "Point", "coordinates": [-86.7, 36.3]}}, {"type": "Feature", "properties": {"shapefile": "al092021-011_5day_pts", "ADVDATE": "1000 PM CDT Sat Aug 28 2021", "ADVISNUM": "11", "BASIN": "AL", "DATELBL": "7:00 PM Wed", "DVLBL": "D", "FCSTPRD": 120, "FLDATELBL": "2021-09-01 7:00 PM Wed CDT", "GUST": 30, "LAT": 38, "LON": -80, "MAXWIND": 20, "MSLP": 9999, "SSNUM": 0, "STORMNAME": "Hurricane Ida", "STORMNUM": 9, "STORMSRC": "Post-Tropical Cyclone", "STORMTYPE": "STD", "TCDVLP": "Subtropical Depression", "TAU": 96, "TCDIR": 9999, "TCSPD": 9999, "TIMEZONE": "CDT", "VALIDTIME": "02/0000"}, "geometry": {"type": "Point", "coordinates": [-80.6, 38.6]}}]}