{"type": "FeatureCollection", "features": [{"type": "Feature", "properties": {"shapefile": "al092021_2021082903_initialradii", "RADII": 34, "STORMID": "al092021", "BASIN": "al", "STORMNUM": 9, "ADVNUM": "11", "VALIDTIME": "2021082903", "SYNOPTIME": "2021082900", "TIMEZONE": "UTC", "TAU": 0, "NE": 120, "SE": 100, "SW": 80, "NW": 110}, "geometry": {"type": "Polygon", "coordinates": [[[-87.9806595, 29.1121178], [-87.942421, 29.1133652], [-87.904129, 29.1140213], [-87.8657837, 29.1140785], [-87.8274078, 29.1135387], [-87.7890091, 29.1124001], [-87.7506027, 29.1106644], [-87.712204, 29.1083279], [-87.6738358, 29.1053905], [-87.6354904, 29.1018505], [-87.5971985, 29.0977097], [-87.5589447, 29.0929737], [-87.5207672, 29.0876369], [-87.4826584, 29.0816994], [-87.4446564, 29.0751648], [-87.4067612, 29.0680313], [-87.3689804, 29.0602989], [-87.3313293, 29.0519753], [-87.2938156, 29.0430527], [-87.2564697, 29.0335464], [-87.2192841, 29.023447], [-87.1822815, 29.0127602], [-87.1454773, 29.0014877], [-87.1088715, 28.9896336], [-87.0724792, 28.9771996], [-87.0363235, 28.9641857], [-87.0003967, 28.9506016], [-86.9647369, 28.9364491], [-86.9293365, 28.9217262], [-86.8942108, 28.9064407], [-86.859375, 28.8905983], [-86.8248444, 28.874197], [-86.7906189, 28.8572483], [-86.7567139, 28.8397484], [-86.7231598, 28.8217087], [-86.6899414, 28.8031349], [-86.6570892, 28.7840271], [-86.624588, 28.7643909], [-86.5924911, 28.744236], [-86.5607605, 28.7235622], [-86.5294418, 28.7023792], [-86.4987869, 28.680481], [-86.4690704, 28.6576672], [-86.4403152, 28.6339645], [-86.4125671, 28.6093979], [-86.3858337, 28.5839844], [-86.3601379, 28.5577488], [-86.3355255, 28.5307217], [-86.3119888, 28.5029221], [-86.289566, 28.4743786], [-86.2680283, 28.4453297], [-86.2471237, 28.4160023], [-86.22686, 28.386404], [-86.2072449, 28.3565521], [-86.1882782, 28.3264542], [-86.16996, 28.2961197], [-86.152298, 28.2655563], [-86.1352844, 28.2347832], [-86.1189423, 28.203804], [-86.1032562, 28.1726303], [-86.0882416, 28.1412811], [-86.0738831, 28.1097546], [-86.0601883, 28.0780716], [-86.0471725, 28.0462418], [-86.0348206, 28.014267], [-86.02314, 27.9821701], [-86.0121307, 27.949955], [-86.0017929, 27.917635], [-85.9921265, 27.8852158], [-85.9831314, 27.8527164], [-85.9748154, 27.8201408], [-85.9671631, 27.7875061], [-85.9601746, 27.754818], [-85.9538727, 27.7220879], [-85.9482193, 27.6893311], [-85.9432526, 27.6565475], [-85.9389343, 27.6237583], [-85.9352875, 27.5909729], [-85.9322968, 27.5581951], [-85.9299698, 27.5254421], [-85.9283066, 27.4927216], [-85.9272919, 27.460043], [-85.9269333, 27.4274178], [-85.9272156, 27.3948574], [-85.9281464, 27.3623695], [-85.9297256, 27.3299637], [-85.9319382, 27.2976532], [-85.9347839, 27.2654476], [-85.9382629, 27.2333546], [-85.9423676, 27.2013836], [-85.9470978, 27.1695461], [-85.9524536, 27.1378498], [-85.9584122, 27.1063061], [-85.9649887, 27.0749226], [-85.9721603, 27.0437107], [-85.9799347, 27.0126801], [-85.9883041, 26.9818363], [-85.9972534, 26.9511948], [-86.0067825, 26.9207554], [-86.0168991, 26.8905334], [-86.0275726, 26.8605366], [-86.0388184, 26.8307705], [-86.0506287, 26.8012466], [-86.0629883, 26.7719727], [-86.0758896, 26.7429581], [-86.089325, 26.7142105], [-86.103302, 26.6857338], [-86.1178055, 26.6575394], [-86.1328125, 26.6296349], [-86.1483383, 26.6020298], [-86.16436, 26.5747299], [-86.1808853, 26.5477409], [-86.1978989, 26.5210705], [-86.2153778, 26.4947281], [-86.2333527, 26.4687195], [-86.2517776, 26.4430466], [-86.2706604, 26.4177227], [-86.2900009, 26.3927517], [-86.3097763, 26.3681412], [-86.3299866, 26.3438969], [-86.3506165, 26.3200245], [-86.3716583, 26.2965279], [-86.3931046, 26.2734165], [-86.4149551, 26.2506962], [-86.4371872, 26.2283707], [-86.459816, 26.2064438], [-86.4828186, 26.1849213], [-86.5061646, 26.1638107], [-86.5298691, 26.1431179], [-86.5539246, 26.1228409], [-86.5783005, 26.1029892], [-86.6030197, 26.0835667], [-86.6280441, 26.0645809], [-86.653389, 26.0460281], [-86.6790237, 26.027916], [-86.7049484, 26.0102501], [-86.7311478, 25.9930344], [-86.7576218, 25.9762688], [-86.7843552, 25.9599609], [-86.8113403, 25.9441109], [-86.838562, 25.9287205], [-86.8660202, 25.9137974], [-86.8936996, 25.8993397], [-86.9215927, 25.8853531], [-86.9496765, 25.8718357], [-86.9779663, 25.8587933], [-87.0064316, 25.8462296], [-87.0350647, 25.8341427], [-87.0638733, 25.8225365], [-87.0928268, 25.811409], [-87.1219254, 25.8007622], [-87.1511688, 25.7906017], [-87.1805267, 25.7809238], [-87.2099991, 25.7717361], [-87.2395706, 25.7630291], [-87.269249, 25.7548141], [-87.2990036, 25.7470798], [-87.3288269, 25.7398396], [-87.3587341, 25.7330856], [-87.3886948, 25.7268181], [-87.4187012, 25.7210388], [-87.4487305, 25.7157459], [-87.4787979, 25.7109375], [-87.5088882, 25.7066174], [-87.5389786, 25.7027817], [-87.5690689, 25.6994286], [-87.5991516, 25.6965561], [-87.6292038, 25.6941719], [-87.6592255, 25.6922626], [-87.6892242, 25.6908321], [-87.7191696, 25.6898785], [-87.7490692, 25.6893997], [-87.7788925, 25.689394], [-87.8086319, 25.6898613], [-87.838295, 25.6907959], [-87.8678589, 25.6921959], [-87.8973236, 25.6940575], [-87.9266815, 25.6963787], [-87.9559174, 25.6991596], [-87.9850235, 25.7023945], [-88.0139999, 25.7060795], [-88.0428162, 25.7102127], [-88.0714874, 25.7147923], [-88.1000061, 25.7198105], [-88.1283417, 25.7252712], [-88.1565094, 25.7311611], [-88.1844788, 25.7374802], [-88.2122498, 25.7442245], [-88.2398376, 25.7513943], [-88.2671967, 25.7589798], [-88.2943497, 25.7669754], [-88.3212662, 25.775383], [-88.3479614, 25.7841892], [-88.3744049, 25.793396], [-88.4006119, 25.8029995], [-88.4265518, 25.8129921], [-88.4522476, 25.8233681], [-88.4776611, 25.8341217], [-88.5028, 25.8452473], [-88.5276642, 25.8567429], [-88.5522308, 25.8686008], [-88.5764999, 25.8808155], [-88.6004791, 25.8933792], [-88.6241379, 25.906292], [-88.6474915, 25.9195442], [-88.670517, 25.9331284], [-88.693222, 25.9470425], [-88.7155914, 25.9612751], [-88.7376175, 25.9758263], [-88.7593079, 25.9906864], [-88.7806473, 26.0058498], [-88.8016281, 26.0213089], [-88.8222504, 26.037056], [-88.842514, 26.0530872], [-88.8624115, 26.069397], [-88.8819427, 26.0859756], [-88.9010849, 26.1028194], [-88.919838, 26.1199169], [-88.9382172, 26.1372643], [-88.9562073, 26.1548576], [-88.973793, 26.1726837], [-88.991394, 26.1903763], [-89.0094223, 26.2075863], [-89.0279007, 26.2243271], [-89.0468445, 26.2406216], [-89.0663071, 26.2564869], [-89.0862808, 26.2719479], [-89.1067963, 26.2870235], [-89.1278839, 26.3017349], [-89.1495438, 26.316103], [-89.1713943, 26.3305149], [-89.1930389, 26.3453407], [-89.2144699, 26.3605728], [-89.2356796, 26.3762131], [-89.2566452, 26.3922539], [-89.2773666, 26.408699], [-89.2978287, 26.4255409], [-89.3180237, 26.4427757], [-89.3379517, 26.4604073], [-89.3575821, 26.4784222], [-89.3769302, 26.4968243], [-89.3959732, 26.5156059], [-89.4147034, 26.5347652], [-89.4331131, 26.5542965], [-89.4512024, 26.5741959], [-89.4689407, 26.5944595], [-89.4863434, 26.6150818], [-89.5033875, 26.6360607], [-89.5200577, 26.6573887], [-89.5363541, 26.6790638], [-89.5522842, 26.7010746], [-89.5678177, 26.7234192], [-89.5829544, 26.7460957], [-89.5976868, 26.7690945], [-89.6120071, 26.7924099], [-89.6259003, 26.8160362], [-89.6393585, 26.8399677], [-89.6523895, 26.8641968], [-89.6649628, 26.8887196], [-89.6770935, 26.9135246], [-89.6887512, 26.9386082], [-89.6999435, 26.9639683], [-89.7106628, 26.9895916], [-89.7208862, 27.0154724], [-89.730629, 27.0416031], [-89.7398682, 27.0679741], [-89.7486038, 27.0945854], [-89.7568283, 27.1214218], [-89.7645416, 27.1484814], [-89.7717209, 27.1757507], [-89.778389, 27.2032223], [-89.7845001, 27.2308884], [-89.7900696, 27.2587433], [-89.7950897, 27.2867756], [-89.7995605, 27.3149815], [-89.8034744, 27.3433456], [-89.8068161, 27.3718624], [-89.8095856, 27.400526], [-89.8117828, 27.4293194], [-89.8133926, 27.4582405], [-89.8144226, 27.4872761], [-89.8148651, 27.5164165], [-89.8147125, 27.5456581], [-89.8139572, 27.5749855], [-89.8126068, 27.6043911], [-89.8106384, 27.6338654], [-89.8080673, 27.6633987], [-89.8048782, 27.6929798], [-89.8010712, 27.722599], [-89.7966614, 27.7522488], [-89.7916107, 27.7819138], [-89.7859421, 27.8115883], [-89.7796478, 27.8412571], [-89.7727356, 27.8709183], [-89.7651672, 27.9005566], [-89.7569885, 27.9301605], [-89.7481537, 27.9597225], [-89.7387009, 27.9892273], [-89.7286072, 28.0186672], [-89.717865, 28.0480309], [-89.7064896, 28.0773087], [-89.6944962, 28.1064892], [-89.6818542, 28.1355667], [-89.6685562, 28.1645222], [-89.6546326, 28.1933479], [-89.6400604, 28.2220364], [-89.6248627, 28.2505684], [-89.6090317, 28.2789402], [-89.5925598, 28.3071423], [-89.5754547, 28.3351593], [-89.5577087, 28.3629837], [-89.5391846, 28.3904572], [-89.5197144, 28.4174156], [-89.4992981, 28.44384], [-89.4779663, 28.4697094], [-89.4557266, 28.4950047], [-89.4325867, 28.5197067], [-89.4085846, 28.5437965], [-89.3837204, 28.5672512], [-89.3580322, 28.5900536], [-89.3316879, 28.6123276], [-89.304863, 28.6342163], [-89.2775574, 28.6557007], [-89.2497864, 28.6767788], [-89.2215805, 28.6974411], [-89.1929092, 28.7176857], [-89.1638184, 28.7374954], [-89.1342773, 28.7568703], [-89.1043243, 28.7758045], [-89.0739441, 28.7942848], [-89.0431747, 28.8123074], [-89.0119934, 28.8298645], [-88.9804306, 28.8469505], [-88.9484863, 28.8635635], [-88.9161835, 28.8796902], [-88.8835144, 28.8953247], [-88.8504944, 28.9104691], [-88.8171387, 28.925106], [-88.7834473, 28.9392319], [-88.7494431, 28.9528503], [-88.715126, 28.96595], [-88.6805191, 28.9785252], [-88.6456146, 28.9905701], [-88.6104355, 29.0020828], [-88.5749817, 29.0130577], [-88.5392761, 29.023489], [-88.5033264, 29.0333691], [-88.4671402, 29.0427017], [-88.4307327, 29.0514736], [-88.3941116, 29.0596848], [-88.3572845, 29.0673389], [-88.320282, 29.074419], [-88.2830963, 29.0809288], [-88.2457504, 29.0868664], [-88.2082443, 29.0922279], [-88.1705933, 29.0970058], [-88.1328201, 29.1012039], [-88.0949326, 29.1048145], [-88.0569229, 29.1078396], [-88.0188293, 29.1102734], [-87.9806595, 29.1121178]]]}}, {"type": "Feature", "properties": {"shapefile": "al092021_2021082903_initialradii", "RADII": 50, "STORMID": "al092021", "BASIN": "al", "STORMNUM": 9, "ADVNUM": "11", "VALIDTIME": "2021082903", "SYNOPTIME": "2021082900", "TIMEZONE": "UTC", "TAU": 0, "NE": 70, "SE": 60, "SW": 40, "NW": 60}, "geometry": {"type": "Polygon", "coordinates": [[[-87.9890442, 28.2811737], [-87.9675598, 28.2826843], [-87.9460144, 28.2838573], [-87.924408, 28.2846966], [-87.9027634, 28.2851963], [-87.881073, 28.2853584], [-87.8593445, 28.2851791], [-87.8376007, 28.2846603], [-87.8158112, 28.2837982], [-87.794014, 28.2825928], [-87.7722015, 28.281044], [-87.7504044, 28.2791519], [-87.7286072, 28.2769108], [-87.7068253, 28.2743282], [-87.6850586, 28.2713985], [-87.6633148, 28.2681217], [-87.6416168, 28.2645016], [-87.619957, 28.2605362], [-87.5983353, 28.2562218], [-87.5767822, 28.251564], [-87.5552826, 28.2465591], [-87.5338593, 28.2412128], [-87.5125198, 28.2355213], [-87.4912567, 28.2294846], [-87.4700851, 28.2231064], [-87.4490128, 28.2163868], [-87.4280472, 28.2093258], [-87.407196, 28.2019272], [-87.386467, 28.194191], [-87.3658676, 28.1861172], [-87.3453903, 28.1777096], [-87.3250656, 28.1689663], [-87.3048935, 28.1598949], [-87.284874, 28.1504917], [-87.2649994, 28.1407585], [-87.2453079, 28.1307049], [-87.2257996, 28.1203251], [-87.2064667, 28.1096268], [-87.1873322, 28.0986042], [-87.1683807, 28.0872707], [-87.1496353, 28.0756226], [-87.131279, 28.0635204], [-87.1134644, 28.0508347], [-87.0962372, 28.0375748], [-87.0796127, 28.0237598], [-87.0635757, 28.0093994], [-87.0481873, 27.9945107], [-87.0334244, 27.979105], [-87.0193253, 27.9632053], [-87.0058975, 27.9468231], [-86.9929962, 27.9301167], [-86.9804535, 27.9132366], [-86.9682693, 27.8961906], [-86.9564514, 27.8789864], [-86.9449844, 27.8616257], [-86.9338989, 27.8441162], [-86.9231873, 27.8264618], [-86.9128494, 27.8086739], [-86.9028778, 27.7907581], [-86.89328, 27.7727146], [-86.8840714, 27.7545567], [-86.8752365, 27.7362843], [-86.8667908, 27.717905], [-86.8587189, 27.6994324], [-86.8510361, 27.6808605], [-86.8437271, 27.6622066], [-86.8368225, 27.6434708], [-86.8302917, 27.6246567], [-86.8241501, 27.6057758], [-86.8183899, 27.586832], [-86.8130188, 27.5678329], [-86.8080444, 27.5487843], [-86.8034515, 27.5296936], [-86.7992477, 27.5105667], [-86.7954407, 27.4914055], [-86.7920074, 27.4722214], [-86.7889709, 27.4530182], [-86.7863235, 27.4338017], [-86.7840576, 27.4145775], [-86.7821884, 27.3953552], [-86.7806854, 27.3761368], [-86.7795715, 27.3569279], [-86.7788391, 27.337738], [-86.7784958, 27.3185749], [-86.7785339, 27.2994385], [-86.7789383, 27.2803383], [-86.7797241, 27.261282], [-86.7808838, 27.2422695], [-86.7824173, 27.2233105], [-86.7843323, 27.2044125], [-86.7865982, 27.1855755], [-86.7892456, 27.1668129], [-86.7922516, 27.1481247], [-86.7956238, 27.1295147], [-86.7993546, 27.1109962], [-86.8034592, 27.0925694], [-86.8078995, 27.0742416], [-86.812706, 27.0560169], [-86.8178406, 27.0379009], [-86.8233337, 27.0198994], [-86.8291702, 27.002018], [-86.8353424, 26.9842606], [-86.8418503, 26.9666309], [-86.8487015, 26.9491386], [-86.8558807, 26.9317856], [-86.8633804, 26.9145794], [-86.8712158, 26.897522], [-86.879364, 26.880621], [-86.887825, 26.8638783], [-86.8965912, 26.8472977], [-86.9056702, 26.8308868], [-86.915062, 26.8146496], [-86.9247437, 26.7985897], [-86.9347229, 26.782711], [-86.9449768, 26.7670193], [-86.9555359, 26.7515182], [-86.9663925, 26.7362137], [-86.9775085, 26.7211075], [-86.9888916, 26.7062016], [-87.0005493, 26.6915054], [-87.0124817, 26.6770229], [-87.0246582, 26.6627483], [-87.0370789, 26.648695], [-87.0497742, 26.6348648], [-87.0627136, 26.6212597], [-87.075882, 26.6078835], [-87.0892868, 26.594738], [-87.1029282, 26.5818291], [-87.1167908, 26.5691586], [-87.130867, 26.5567284], [-87.1451569, 26.5445461], [-87.1597366, 26.5326824], [-87.174675, 26.5212231], [-87.1899643, 26.51017], [-87.2055893, 26.4995346], [-87.2215271, 26.4893227], [-87.237793, 26.4795418], [-87.2543564, 26.4701958], [-87.2712097, 26.4612961], [-87.2883301, 26.4528427], [-87.3056412, 26.4447727], [-87.3230591, 26.4370117], [-87.3405533, 26.4295597], [-87.3581238, 26.4224186], [-87.3757858, 26.4155922], [-87.3935089, 26.4090748], [-87.411293, 26.4028702], [-87.4291382, 26.3969784], [-87.4470367, 26.3913956], [-87.4649734, 26.3861256], [-87.4829407, 26.3811646], [-87.500946, 26.3765163], [-87.518959, 26.3721771], [-87.5370026, 26.3681469], [-87.5550385, 26.3644257], [-87.5730896, 26.3610096], [-87.5911407, 26.3579025], [-87.6091766, 26.3550987], [-87.6272049, 26.3526001], [-87.6452026, 26.3504086], [-87.6631775, 26.3485126], [-87.6811218, 26.3469162], [-87.6990128, 26.345623], [-87.7168732, 26.3446255], [-87.7346649, 26.3439217], [-87.7524109, 26.3435078], [-87.7700806, 26.3433876], [-87.7876892, 26.3435555], [-87.8052139, 26.3440094], [-87.8226624, 26.3447475], [-87.8400269, 26.345768], [-87.8572922, 26.347065], [-87.8744583, 26.3486404], [-87.89151, 26.3504887], [-87.9084702, 26.3526115], [-87.9253082, 26.3550014], [-87.9420242, 26.3576584], [-87.9586182, 26.3605728], [-87.9750824, 26.3637486], [-87.9914017, 26.3671818], [-88.0075989, 26.3708687], [-88.0236511, 26.3748035], [-88.0395355, 26.3789864], [-88.055275, 26.3834095], [-88.0708542, 26.388073], [-88.0862732, 26.3929749], [-88.1015167, 26.3981056], [-88.1165924, 26.4034653], [-88.1314926, 26.40905], [-88.1462021, 26.4148521], [-88.1607437, 26.4208717], [-88.175087, 26.4271049], [-88.1892395, 26.4335461], [-88.2031937, 26.4401932], [-88.2169495, 26.4470387], [-88.2304993, 26.4540844], [-88.2438431, 26.4613171], [-88.2569809, 26.4687405], [-88.2698975, 26.4763412], [-88.282608, 26.4841251], [-88.2950897, 26.4920807], [-88.3073502, 26.5002098], [-88.3193893, 26.5085011], [-88.3311996, 26.5169544], [-88.3427734, 26.5255642], [-88.354126, 26.5343246], [-88.3652344, 26.543232], [-88.3760986, 26.5522823], [-88.386734, 26.56147], [-88.3971252, 26.5707912], [-88.4072723, 26.5802383], [-88.4171677, 26.5898094], [-88.4268112, 26.5994968], [-88.4362259, 26.6093044], [-88.4453659, 26.619215], [-88.4542618, 26.6292305], [-88.4629135, 26.6393452], [-88.471283, 26.6495533], [-88.4794235, 26.6598511], [-88.4873047, 26.6702347], [-88.4949265, 26.6806946], [-88.5026016, 26.6909447], [-88.510704, 26.7006989], [-88.5192184, 26.7099762], [-88.5281982, 26.7187939], [-88.5376587, 26.7271671], [-88.5476074, 26.7351151], [-88.5580673, 26.7426529], [-88.5690613, 26.7498016], [-88.5806046, 26.7565823], [-88.5923843, 26.763298], [-88.6040955, 26.7702465], [-88.6156921, 26.7774277], [-88.6271973, 26.7848377], [-88.6385956, 26.7924728], [-88.6498947, 26.8003426], [-88.6610794, 26.8084373], [-88.672142, 26.8167553], [-88.6830826, 26.8253021], [-88.6938934, 26.8340664], [-88.7045746, 26.8430576], [-88.7151108, 26.8522701], [-88.725502, 26.8616982], [-88.7357407, 26.8713455], [-88.7458191, 26.8812027], [-88.7557449, 26.8912773], [-88.7655029, 26.9015636], [-88.7750854, 26.912056], [-88.7844925, 26.9227562], [-88.7937088, 26.9336624], [-88.802742, 26.9447651], [-88.8115768, 26.956068], [-88.8202209, 26.9675713], [-88.8286667, 26.9792652], [-88.8368835, 26.9911537], [-88.8449249, 27.0032272], [-88.8527145, 27.0154839], [-88.8602905, 27.0279255], [-88.8676453, 27.0405426], [-88.8747559, 27.0533371], [-88.8816299, 27.0663013], [-88.8882751, 27.0794353], [-88.8946686, 27.0927353], [-88.9008102, 27.1061935], [-88.9067001, 27.1198082], [-88.9123306, 27.1335793], [-88.9176941, 27.1474991], [-88.9227829, 27.1615639], [-88.9276047, 27.1757698], [-88.9321518, 27.1901131], [-88.9364166, 27.204586], [-88.9403915, 27.2191887], [-88.9440842, 27.2339172], [-88.9474792, 27.2487621], [-88.950592, 27.2637253], [-88.9533997, 27.2787952], [-88.9559021, 27.293972], [-88.9580994, 27.3092499], [-88.9599915, 27.3246231], [-88.9615631, 27.340086], [-88.962822, 27.3556347], [-88.963768, 27.3712654], [-88.964386, 27.3869705], [-88.9646835, 27.4027462], [-88.9646454, 27.4185848], [-88.9642868, 27.4344845], [-88.9635925, 27.4504395], [-88.9625626, 27.4664421], [-88.9611969, 27.4824886], [-88.9594955, 27.4985695], [-88.9574356, 27.5146866], [-88.9550552, 27.5308304], [-88.9523163, 27.5469894], [-88.9492493, 27.5631657], [-88.9458313, 27.5793514], [-88.9420319, 27.5955391], [-88.9379044, 27.6117229], [-88.9334259, 27.6278973], [-88.9286041, 27.6440601], [-88.9234161, 27.6602001], [-88.9178772, 27.6763134], [-88.911972, 27.6923962], [-88.9057312, 27.7084389], [-88.8991165, 27.7244339], [-88.8921585, 27.7403793], [-88.884819, 27.7562695], [-88.8771515, 27.7720947], [-88.8691101, 27.7878494], [-88.8607254, 27.8035297], [-88.8519669, 27.819128], [-88.842865, 27.8346348], [-88.8333359, 27.8499794], [-88.8232727, 27.8650703], [-88.8127136, 27.8799], [-88.801651, 27.8944569], [-88.7901001, 27.9087334], [-88.7780609, 27.9227161], [-88.7655563, 27.9363937], [-88.7525787, 27.9497528], [-88.7391357, 27.9627914], [-88.7253265, 27.975565], [-88.711235, 27.9881439], [-88.6968689, 28.0005226], [-88.6822281, 28.0126934], [-88.6673203, 28.0246544], [-88.6521301, 28.0364037], [-88.6366882, 28.0479317], [-88.6209946, 28.0592384], [-88.6050262, 28.0703144], [-88.5888214, 28.0811596], [-88.5723572, 28.0917664], [-88.5556564, 28.1021347], [-88.5387268, 28.1122532], [-88.521553, 28.1221256], [-88.5041504, 28.1317444], [-88.4865341, 28.1411057], [-88.4686813, 28.1501999], [-88.4506302, 28.1590347], [-88.4323654, 28.1675987], [-88.4139023, 28.1758881], [-88.3952332, 28.1839008], [-88.3763733, 28.1916332], [-88.3573303, 28.1990833], [-88.3380966, 28.2062454], [-88.3186951, 28.2131157], [-88.2991104, 28.2196941], [-88.2793808, 28.225975], [-88.2594757, 28.2319565], [-88.239418, 28.2376328], [-88.2192154, 28.2430077], [-88.1988754, 28.2480698], [-88.1783905, 28.2528191], [-88.1577911, 28.2572594], [-88.1370544, 28.2613773], [-88.1162109, 28.2651825], [-88.095253, 28.2686634], [-88.0741882, 28.271822], [-88.0530319, 28.2746525], [-88.0317841, 28.2771568], [-88.0104599, 28.2793293], [-87.9890442, 28.2811737]]]}}, {"type": "Feature", "properties": {"shapefile": "al092021_2021082903_initialradii", "RADII": 64, "STORMID": "al092021", "BASIN": "al", "STORMNUM": 9, "ADVNUM": "11", "VALIDTIME": "2021082903", "SYNOPTIME": "2021082900", "TIMEZONE": "UTC", "TAU": 0, "NE": 35, "SE": 30, "SW": 20, "NW": 30}, "geometry": {"type": "Polygon", "coordinates": [[[-87.9945526, 27.740591], [-87.9838562, 27.7413445], [-87.9731445, 27.7419338], [-87.9623947, 27.7423553], [-87.9516296, 27.742609], [-87.940834, 27.7426968], [-87.9300232, 27.7426109], [-87.9191971, 27.7423573], [-87.9083633, 27.7419338], [-87.8975143, 27.7413406], [-87.8866653, 27.7405739], [-87.875824, 27.7396374], [-87.8649673, 27.7385254], [-87.8541412, 27.7372456], [-87.8432999, 27.7357922], [-87.8324814, 27.734169], [-87.8216858, 27.7323704], [-87.8108978, 27.7304001], [-87.8001404, 27.72826], [-87.7894058, 27.7259464], [-87.778717, 27.7234612], [-87.7680511, 27.7208042], [-87.7574158, 27.7179756], [-87.7468262, 27.7149773], [-87.7362823, 27.7118073], [-87.7257919, 27.7084713], [-87.7153473, 27.7049618], [-87.7049561, 27.7012844], [-87.6946335, 27.6974354], [-87.6843567, 27.6934223], [-87.6741638, 27.6892395], [-87.6640244, 27.6848965], [-87.6539688, 27.6803837], [-87.6439819, 27.6757088], [-87.6340866, 27.6708698], [-87.6242676, 27.6658669], [-87.6145325, 27.6607018], [-87.6048889, 27.6553802], [-87.5953217, 27.6498966], [-87.5858688, 27.6442566], [-87.5765152, 27.6384621], [-87.5673523, 27.6324387], [-87.5584564, 27.6261253], [-87.5498428, 27.619524], [-87.5415344, 27.6126404], [-87.5335159, 27.6054878], [-87.5258102, 27.5980682], [-87.518425, 27.5903912], [-87.5113678, 27.5824661], [-87.5046463, 27.5742989], [-87.4981766, 27.5659676], [-87.4918823, 27.5575485], [-87.4857712, 27.5490494], [-87.4798279, 27.5404682], [-87.4740829, 27.5318069], [-87.4685135, 27.5230751], [-87.4631195, 27.5142689], [-87.4579239, 27.505394], [-87.4529114, 27.4964542], [-87.4480743, 27.4874516], [-87.4434357, 27.4783897], [-87.4389877, 27.4692726], [-87.4347229, 27.4601021], [-87.4306488, 27.4508781], [-87.4267731, 27.4416103], [-87.4230804, 27.4322968], [-87.4195862, 27.4229412], [-87.4162674, 27.4135494], [-87.4131546, 27.4041214], [-87.4102249, 27.3946609], [-87.4075012, 27.3851757], [-87.4049683, 27.3756638], [-87.4026184, 27.366127], [-87.4004745, 27.3565693], [-87.3985062, 27.3469944], [-87.3967438, 27.33741], [-87.3951721, 27.3278141], [-87.3938065, 27.3182106], [-87.3926163, 27.3086052], [-87.3916245, 27.2989979], [-87.3908234, 27.2893906], [-87.390213, 27.2797909], [-87.389801, 27.270195], [-87.3895721, 27.2606144], [-87.3895416, 27.2510452], [-87.3896942, 27.2414932], [-87.3900299, 27.2319622], [-87.3905563, 27.222456], [-87.3912735, 27.2129726], [-87.3921814, 27.2035179], [-87.3932724, 27.1940956], [-87.3945312, 27.1847057], [-87.3959885, 27.1753578], [-87.3976288, 27.1660442], [-87.3994446, 27.1567764], [-87.4014435, 27.1475544], [-87.4036179, 27.1383801], [-87.4059753, 27.1292572], [-87.4085007, 27.1201878], [-87.4111938, 27.1111774], [-87.4140625, 27.1022243], [-87.4171143, 27.0933304], [-87.4203339, 27.084507], [-87.4237137, 27.0757446], [-87.4272614, 27.0670547], [-87.4309692, 27.0584335], [-87.434845, 27.0498886], [-87.4388809, 27.0414219], [-87.4430847, 27.0330334], [-87.4474335, 27.0247269], [-87.4519424, 27.0165024], [-87.456604, 27.0083656], [-87.4614182, 27.0003147], [-87.4663696, 26.9923592], [-87.471489, 26.9844933], [-87.4767303, 26.9767227], [-87.482132, 26.9690495], [-87.4876633, 26.9614792], [-87.4933395, 26.9540062], [-87.4991608, 26.9466381], [-87.5050964, 26.939373], [-87.5111694, 26.9322166], [-87.5173721, 26.925169], [-87.5237045, 26.9182301], [-87.5301514, 26.9114037], [-87.5367432, 26.9046955], [-87.5434341, 26.8981018], [-87.5502472, 26.8916245], [-87.5571671, 26.8852692], [-87.5642014, 26.8790321], [-87.5713501, 26.8729191], [-87.5786362, 26.8669662], [-87.5861053, 26.8612137], [-87.59375, 26.8556652], [-87.6015701, 26.8503265], [-87.6095505, 26.8451958], [-87.617691, 26.8402843], [-87.6259766, 26.8355904], [-87.6344147, 26.8311157], [-87.6429977, 26.8268681], [-87.6516724, 26.8228092], [-87.6603928, 26.8189087], [-87.6691589, 26.8151627], [-87.6779709, 26.8115749], [-87.686821, 26.8081436], [-87.6957016, 26.8048649], [-87.7046204, 26.8017445], [-87.7135544, 26.7987804], [-87.7225342, 26.7959709], [-87.7315216, 26.7933178], [-87.7405319, 26.790823], [-87.7495651, 26.7884808], [-87.7585983, 26.7862949], [-87.7676544, 26.7842636], [-87.7767029, 26.7823887], [-87.7857666, 26.7806664], [-87.7948074, 26.7791023], [-87.8038635, 26.7776871], [-87.8129044, 26.7764263], [-87.8219376, 26.7753181], [-87.8309631, 26.7743587], [-87.8399582, 26.7735519], [-87.8489456, 26.772892], [-87.8579025, 26.7723827], [-87.8668365, 26.7720222], [-87.8757401, 26.7718067], [-87.8846054, 26.77174], [-87.8934402, 26.7718182], [-87.9022369, 26.7720413], [-87.9109879, 26.7724037], [-87.9197083, 26.7729073], [-87.9283752, 26.7735538], [-87.9369965, 26.7743397], [-87.9455566, 26.7752609], [-87.954071, 26.7763176], [-87.9625092, 26.7775078], [-87.9709091, 26.7788334], [-87.9792404, 26.7802906], [-87.9874954, 26.7818775], [-87.995697, 26.7835922], [-88.0038147, 26.7854385], [-88.0118713, 26.787405], [-88.0198364, 26.7894974], [-88.0277405, 26.7917118], [-88.035553, 26.7940445], [-88.0432892, 26.7964954], [-88.0509415, 26.7990646], [-88.0585022, 26.8017464], [-88.065979, 26.8045406], [-88.0733566, 26.8074474], [-88.0806503, 26.810463], [-88.0878448, 26.8135834], [-88.0949402, 26.8168068], [-88.1019363, 26.8201351], [-88.1088333, 26.8235626], [-88.1156311, 26.8270893], [-88.1223221, 26.8307114], [-88.1289139, 26.8344288], [-88.1353912, 26.8382378], [-88.1417542, 26.8421345], [-88.1480103, 26.8461208], [-88.1541519, 26.8501892], [-88.1601868, 26.8543415], [-88.1660995, 26.8585758], [-88.1719055, 26.8628883], [-88.1775818, 26.8672733], [-88.1831512, 26.8717346], [-88.1885834, 26.8762665], [-88.1939087, 26.880867], [-88.1991196, 26.8855343], [-88.2041931, 26.8902664], [-88.2091446, 26.8950577], [-88.213974, 26.89991], [-88.2186737, 26.9048176], [-88.223259, 26.9097824], [-88.2277069, 26.9147968], [-88.2320251, 26.9198627], [-88.2362213, 26.9249744], [-88.2402802, 26.9301319], [-88.2442245, 26.9353294], [-88.248024, 26.940567], [-88.2518692, 26.9456978], [-88.2559204, 26.9505806], [-88.26017, 26.9552269], [-88.2646637, 26.9596424], [-88.2693939, 26.9638405], [-88.2743683, 26.9678211], [-88.2796097, 26.9716034], [-88.2851028, 26.9751892], [-88.2908707, 26.9785881], [-88.2967682, 26.9819603], [-88.3026123, 26.9854488], [-88.3084183, 26.9890499], [-88.3141785, 26.9927673], [-88.3198776, 26.9966011], [-88.325531, 27.0005455], [-88.3311157, 27.0046062], [-88.3366394, 27.0087814], [-88.3421097, 27.0130653], [-88.3475037, 27.0174637], [-88.3528442, 27.0219727], [-88.3581085, 27.0265884], [-88.3632965, 27.0313148], [-88.3684158, 27.0361519], [-88.3734436, 27.0410957], [-88.3783951, 27.0461445], [-88.3832703, 27.0512981], [-88.3880386, 27.0565586], [-88.3927307, 27.0619221], [-88.3973236, 27.0673866], [-88.4018326, 27.0729542], [-88.4062347, 27.0786209], [-88.4105377, 27.0843811], [-88.4147415, 27.0902443], [-88.4188385, 27.0961971], [-88.422821, 27.1022472], [-88.4267044, 27.108387], [-88.4304733, 27.1146202], [-88.4341202, 27.1209393], [-88.4376602, 27.127346], [-88.4410858, 27.1338387], [-88.4443741, 27.140419], [-88.4475403, 27.1470776], [-88.450592, 27.1538162], [-88.4535141, 27.160635], [-88.4562912, 27.1675262], [-88.4589539, 27.1744957], [-88.4614639, 27.1815376], [-88.4638519, 27.1886501], [-88.466095, 27.1958256], [-88.4681931, 27.2030716], [-88.4701614, 27.2103806], [-88.4719696, 27.2177505], [-88.4736404, 27.2251797], [-88.4751511, 27.232666], [-88.476532, 27.2402058], [-88.4777527, 27.2477989], [-88.4788208, 27.2554398], [-88.4797287, 27.2631302], [-88.4804764, 27.2708645], [-88.4810638, 27.2786427], [-88.4815063, 27.2864609], [-88.481781, 27.2943153], [-88.4819031, 27.3022022], [-88.481842, 27.3101234], [-88.4816284, 27.3180733], [-88.4812546, 27.3260479], [-88.4807053, 27.3340492], [-88.4799957, 27.3420677], [-88.4791031, 27.3501053], [-88.4780426, 27.3581619], [-88.4768143, 27.3662243], [-88.4754105, 27.3743038], [-88.4738464, 27.3823853], [-88.4720993, 27.3904705], [-88.4701767, 27.3985577], [-88.4680939, 27.4066467], [-88.4658127, 27.4147263], [-88.4633713, 27.4228001], [-88.4607468, 27.4308624], [-88.4579468, 27.4389114], [-88.4549713, 27.4469395], [-88.4518204, 27.4549503], [-88.4484863, 27.4629402], [-88.4449768, 27.4709015], [-88.4412994, 27.4788342], [-88.437439, 27.4867344], [-88.433403, 27.4946022], [-88.429184, 27.5024281], [-88.4247971, 27.5102139], [-88.4202194, 27.5179539], [-88.4154358, 27.5256119], [-88.4103928, 27.5331459], [-88.4051056, 27.5405445], [-88.3995667, 27.5478077], [-88.3937836, 27.5549278], [-88.387764, 27.5619011], [-88.3815002, 27.5687218], [-88.3750076, 27.575386], [-88.3682861, 27.5818863], [-88.3613815, 27.5882549], [-88.3543396, 27.5945282], [-88.347168, 27.6007004], [-88.339859, 27.6067677], [-88.3324127, 27.61273], [-88.3248215, 27.6185875], [-88.3171158, 27.6243324], [-88.3092804, 27.6299667], [-88.3013077, 27.6354866], [-88.2932281, 27.640892], [-88.2850189, 27.6461792], [-88.2766953, 27.6513443], [-88.2682495, 27.6563892], [-88.2596817, 27.6613083], [-88.2510071, 27.6660995], [-88.2422256, 27.6707649], [-88.2333298, 27.6753006], [-88.2243271, 27.6797009], [-88.2152252, 27.6839676], [-88.2060242, 27.6881008], [-88.1967316, 27.6920929], [-88.1873398, 27.6959457], [-88.1778412, 27.6996593], [-88.1682739, 27.7032299], [-88.1585999, 27.7066536], [-88.1488647, 27.7099304], [-88.1390305, 27.7130623], [-88.1291199, 27.7160416], [-88.1191406, 27.7188721], [-88.1090927, 27.72155], [-88.0989609, 27.7240753], [-88.088768, 27.7264442], [-88.0785065, 27.7286568], [-88.0681915, 27.7307091], [-88.0578232, 27.7326069], [-88.0473938, 27.7343426], [-88.0369186, 27.735918], [-88.0263901, 27.7373314], [-88.0158157, 27.7385826], [-88.0052109, 27.7396679], [-87.9945526, 27.740591]]]}}]}